{
  "type": "FeatureCollection",
  "features": [
    {
      "type": "Feature",
      "properties": {
        "name": "Bounding Box com margem (UTM)"
      },
      "geometry": {
        "type": "Polygon",
        "coordinates": [
          [
            [
              205279.1607418707,
              7600105.968880564
            ],
            [
              204946.4951820959,
              7618274.052194336
            ],
            [
              222568.27937367425,
              7618585.937835816
            ],
            [
              222881.02461474604,
              7600419.762783619
            ],
            [
              205279.1607418707,
              7600105.968880564
            ]
          ]
        ]
      }
    }
  ]
}