{
  "type": "FeatureCollection",
  "name": "jatai_square_buffered",
  "crs": {
    "type": "name",
    "properties": {
      "name": "urn:ogc:def:crs:OGC:1.3:CRS84"
    }
  },
  "features": [
    {
      "type": "Feature",
      "properties": {
        "id": null
      },
      "geometry": {
        "type": "Polygon",
        "coordinates": [
          [
            [
              -47.84686773777752,
              -21.67684644878108
            ],
            [
              -47.84686773777752,
              -21.514925689543425
            ],
            [
              -47.67878142618841,
              -21.514925689543425
            ],
            [
              -47.67878142618841,
              -21.67684644878108
            ],
            [
              -47.84686773777752,
              -21.67684644878108
            ]
          ]
        ]
      }
    }
  ]
}