{
"type": "FeatureCollection",
"name": "jatai6",
"crs": { "type": "name", "properties": { "name": "urn:ogc:def:crs:OGC:1.3:CRS84" } },
"features": [
{ "type": "Feature", "properties": { "id": null }, "geometry": { "type": "MultiLineString", "coordinates": [ [ [ -47.824546582061956, -21.515846869017388 ], [ -47.811210884485504, -21.519175802873882 ], [ -47.80411880888888, -21.552287190547617 ], [ -47.796016297934038, -21.558816960021534 ], [ -47.790987181046695, -21.566474309894289 ], [ -47.788794828453526, -21.57327708790579 ], [ -47.783835889660644, -21.577705270502207 ], [ -47.7815564847958, -21.576501900783878 ], [ -47.767315822177437, -21.581456949069729 ], [ -47.759689278411756, -21.592260467157537 ], [ -47.757160846333122, -21.591929945719436 ], [ -47.755868036447126, -21.600766005351812 ], [ -47.730475500313922, -21.598125483039777 ], [ -47.725408895994093, -21.594892400295144 ], [ -47.725338274297748, -21.591122204739154 ], [ -47.722708257553407, -21.58804414508521 ], [ -47.717708933994992, -21.588385978171022 ], [ -47.712543468263888, -21.59100620617032 ], [ -47.710362441767295, -21.597088978113966 ], [ -47.712632740054325, -21.599522869786757 ], [ -47.713566297216516, -21.604839585773838 ], [ -47.720530559426614, -21.609147375888845 ], [ -47.726415911474291, -21.615228160745399 ], [ -47.68017792220833, -21.630545788119328 ], [ -47.679724834658373, -21.632373794414722 ], [ -47.728460960062321, -21.675925972741592 ], [ -47.730478681698585, -21.672251495704444 ], [ -47.730110417855457, -21.674858463867647 ], [ -47.73199880408918, -21.671706282408582 ], [ -47.733759621963593, -21.661793842664945 ], [ -47.737160386399033, -21.657706383563728 ], [ -47.740462724758416, -21.648418705447483 ], [ -47.735585797837651, -21.647978964823306 ], [ -47.726407373581068, -21.618479457603751 ], [ -47.72886114255077, -21.61583826220269 ], [ -47.73545184102894, -21.618720967280133 ], [ -47.74018874115211, -21.619163109322297 ], [ -47.744572410213891, -21.622992111756027 ], [ -47.758197799541072, -21.622766489837645 ], [ -47.760581133064392, -21.623767257343651 ], [ -47.768980426958159, -21.619336078568743 ], [ -47.772858349833896, -21.618491161019641 ], [ -47.776093243321156, -21.620387787239103 ], [ -47.781071250440505, -21.626156430416643 ], [ -47.785222326209535, -21.625046558258745 ], [ -47.793318690030915, -21.626601161944524 ], [ -47.801936203986237, -21.626326003265397 ], [ -47.810775687097156, -21.630337942240722 ], [ -47.813341792627057, -21.626393325617574 ], [ -47.817598776573021, -21.623590365247313 ], [ -47.815518870148026, -21.61673355436038 ], [ -47.818549594669278, -21.61525175370749 ], [ -47.822154085803568, -21.611094370196994 ], [ -47.82772731219999, -21.611649844636947 ], [ -47.83120027466169, -21.615036729175305 ], [ -47.834329225274082, -21.611472382592019 ], [ -47.830742493395803, -21.605811834360509 ], [ -47.832228421535518, -21.599999841403051 ], [ -47.835285414247437, -21.603458763739877 ], [ -47.838403892876229, -21.599374397515881 ], [ -47.844333060263807, -21.600378402948671 ], [ -47.845922231768817, -21.596320071404211 ], [ -47.841423148150824, -21.582206679356002 ], [ -47.839032293889552, -21.577241040595769 ], [ -47.835895828198538, -21.558959156536069 ], [ -47.797523708553015, -21.558697845997656 ], [ -47.803542012966922, -21.553590077216523 ], [ -47.826310527959102, -21.544947850203279 ], [ -47.837662820798357, -21.546185331571706 ], [ -47.839549703055567, -21.536010221384227 ], [ -47.838078121375212, -21.531809041693688 ], [ -47.829446236071526, -21.520284763797019 ], [ -47.826516802900983, -21.519716748158782 ], [ -47.824544124809215, -21.515847626619568 ] ] ] } }
]
}
