{
"type": "FeatureCollection",
"name": "jatai-utm32723",
"crs": { "type": "name", "properties": { "name": "urn:ogc:def:crs:EPSG::32723" } },
"features": [
{ "type": "Feature", "properties": { "id": null }, "geometry": { "type": "MultiLineString", "coordinates": [ [ [ 207381.432314245845191, 7618113.631814945489168 ], [ 208770.449593200115487, 7617769.815656788647175 ], [ 209571.541241705650464, 7614115.049895580857992 ], [ 210424.205313935060985, 7613406.788609777577221 ], [ 210960.558520659338683, 7612567.877183873206377 ], [ 211201.229831369651947, 7611818.357959092594683 ], [ 211723.830391768249683, 7611337.015337669290602 ], [ 211957.62537931452971, 7611474.541800932958722 ], [ 213442.911182552401442, 7610951.941240534186363 ], [ 214254.317315802676603, 7609769.213656475767493 ], [ 214515.617596001829952, 7609810.471595454961061 ], [ 214666.896705591119826, 7608834.033706288784742 ], [ 217292.28537911787862, 7609172.932170387357473 ], [ 217810.886675715097226, 7609540.274755476973951 ], [ 217810.886675714107696, 7609958.036911068484187 ], [ 218077.390119798772503, 7610303.77110879868269 ], [ 218595.991416395117994, 7610274.959925655275583 ], [ 219136.201100349542685, 7609994.050889998674393 ], [ 219373.893361289752647, 7609324.190881894901395 ], [ 219143.403896135860123, 7609050.484642025083303 ], [ 219056.970346702786628, 7608459.855387568473816 ], [ 218343.89356388268061, 7607970.065274115651846 ], [ 217746.061513640685007, 7607285.79967443831265 ], [ 222564.731894515047316, 7605672.373418362811208 ], [ 222615.151465017348528, 7605470.695136351510882 ], [ 217652.425168421294075, 7600558.388410257175565 ], [ 217436.341294839512557, 7600961.74497427791357 ], [ 217479.558069555496331, 7600673.633142834529281 ], [ 217277.879787546000443, 7601019.367340565659106 ], [ 217076.201505535864271, 7602114.192300047725439 ], [ 216716.061716233030893, 7602560.765638783574104 ], [ 216355.921926929673646, 7603583.562640403397381 ], [ 216860.117631954140961, 7603641.185006693005562 ], [ 217753.26430942612933, 7606925.659885135479271 ], [ 217493.963661127781961, 7607213.771716578863561 ], [ 216816.900857237691525, 7606882.443110419437289 ], [ 216327.110743785859086, 7606824.820744130760431 ], [ 215880.537405049544759, 7606392.652996967546642 ], [ 214468.789430981851183, 7606392.652996966615319 ], [ 214223.894374255964067, 7606277.408264391124249 ], [ 213345.153288356435951, 7606752.79278627038002 ], [ 212941.796724335814361, 7606839.226335703395307 ], [ 212610.468118177901488, 7606623.142462121322751 ], [ 212106.272413153375965, 7605974.890841376036406 ], [ 211674.104665989871137, 7606090.135573952458799 ], [ 210838.580354806617834, 7605902.862883514724672 ], [ 209945.433677335036919, 7605917.268475087359548 ], [ 209037.881408291112166, 7605456.289544779807329 ], [ 208764.175168421119452, 7605888.457291943021119 ], [ 208317.601829685328994, 7606190.974714957177639 ], [ 208519.280111694650259, 7606954.4710682798177 ], [ 208202.357097108382732, 7607112.932575574144721 ], [ 207820.608920447062701, 7607566.708710095845163 ], [ 207244.385257561865728, 7607494.680752234533429 ], [ 206891.448264044884127, 7607112.932575574144721 ], [ 206560.119657885865308, 7607501.883548021316528 ], [ 206920.259447189047933, 7608135.729577194899321 ], [ 206754.595144108927343, 7608776.778402154333889 ], [ 206444.874925309093669, 7608387.82742970623076 ], [ 206113.546319150424097, 7608834.400768442079425 ], [ 205501.308677335327957, 7608711.953240079805255 ], [ 205328.441578469530214, 7609158.52657881565392 ], [ 205766.01142247277312, 7610730.536759123206139 ], [ 206003.703683412924875, 7611285.152034649625421 ], [ 206291.815514855436049, 7613316.340446319431067 ], [ 210267.758788761217147, 7613417.179587324149907 ], [ 209633.912759587343317, 7613971.794862850569189 ], [ 207256.990150187921245, 7614886.549927681684494 ], [ 206082.934437059622724, 7614728.088420387357473 ], [ 205866.850563477666583, 7615851.724563012830913 ], [ 206010.906479198834859, 7616319.906289107166231 ], [ 206882.444769312394783, 7617612.808132704347372 ], [ 207184.962192327016965, 7617681.234692672267556 ], [ 207381.688552233739756, 7618113.552498079836369 ] ] ] } }
]
}
