{"type": "FeatureCollection", "features": [{"type": "Feature", "properties": {"name": "Estação Ecológica Itaberá"}, "geometry": {"type": "MultiPolygon", "coordinates": [[[[-49.13583694, -23.85325111], [-49.14069056, -23.85301556], [-49.14315528, -23.85215778], [-49.14423417, -23.85185028], [-49.14465, -23.85147417], [-49.14483917, -23.85103667], [-49.14495556, -23.85017222], [-49.14519639, -23.84929278], [-49.14522083, -23.84900389], [-49.14522139, -23.84870139], [-49.14519917, -23.84817028], [-49.1452275, -23.84781194], [-49.14529917, -23.84740889], [-49.14547694, -23.84679639], [-49.14568639, -23.84598833], [-49.14589417, -23.84524889], [-49.146015, -23.84498944], [-49.1463575, -23.84443083], [-49.14738, -23.84290444], [-49.14828917, -23.84088083], [-49.14838417, -23.83976417], [-49.14917694, -23.83821333], [-49.14924639, -23.83741639], [-49.14912889, -23.83723333], [-49.14887861, -23.83698083], [-49.14870722, -23.83684611], [-49.1484575, -23.8366875], [-49.14821694, -23.83664], [-49.1477775, -23.83658611], [-49.14788556, -23.83828], [-49.14149806, -23.83757056], [-49.14168083, -23.83568167], [-49.13965556, -23.83563917], [-49.139485, -23.83735222], [-49.13641806, -23.8394375], [-49.13554583, -23.8506475], [-49.135695, -23.85102028], [-49.13604611, -23.85175083], [-49.13613778, -23.85218472], [-49.13585278, -23.85304889], [-49.13583694, -23.85325111]]]]}}]}