{"type": "FeatureCollection", "features": [{"type": "Feature", "properties": {"name": "Estação Ecológica Ibicatu"}, "geometry": {"type": "MultiPolygon", "coordinates": [[[[-47.82459583, -22.78723222], [-47.8257325, -22.78636222], [-47.82270833, -22.78274833], [-47.82300472, -22.77989917], [-47.82508722, -22.78007806], [-47.82608833, -22.77696861], [-47.823675, -22.77648528], [-47.82319472, -22.77645083], [-47.82215667, -22.77837778], [-47.81688111, -22.77541972], [-47.81650056, -22.77748056], [-47.81586861, -22.78288167], [-47.81567056, -22.784475], [-47.82044611, -22.78423278], [-47.82202028, -22.7855325], [-47.82459583, -22.78723222]]]]}}]}