{"type": "FeatureCollection", "features": [{"type": "Feature", "properties": {"name": "Estação Ecológica Caetetus"}, "geometry": {"type": "MultiPolygon", "coordinates": [[[[-49.71397611, -22.42162472], [-49.72810556, -22.3970575], [-49.72407509, -22.38946146], [-49.72272903, -22.3908345], [-49.7225298, -22.39173602], [-49.72195076, -22.3925296], [-49.72114366, -22.39406262], [-49.72081776, -22.39426786], [-49.7190811, -22.39512257], [-49.71811856, -22.395251], [-49.71731332, -22.39541383], [-49.71655611, -22.39569966], [-49.71572406, -22.3961], [-49.71567129, -22.39693], [-49.71490487, -22.39781605], [-49.7141502, -22.39836054], [-49.71370664, -22.39984164], [-49.71400866, -22.40033102], [-49.71322438, -22.40073832], [-49.71251659, -22.40119225], [-49.71153526, -22.40195315], [-49.71164918, -22.40305898], [-49.71087677, -22.40383102], [-49.71021222, -22.40493607], [-49.71005651, -22.40582148], [-49.71036089, -22.40690572], [-49.70948812, -22.4076547], [-49.70911741, -22.40873181], [-49.70933438, -22.40957249], [-49.70855278, -22.41097525], [-49.7078702, -22.41221002], [-49.70809195, -22.41327187], [-49.70741464, -22.4141543], [-49.70709568, -22.41488891], [-49.70720778, -22.4159526], [-49.70665377, -22.41680963], [-49.70606868, -22.41674256], [-49.70511084, -22.42053731], [-49.70434337, -22.42114118], [-49.70320457, -22.42192695], [-49.7025964, -22.42287925], [-49.70273843, -22.42488309], [-49.70250906, -22.42534267], [-49.70244352, -22.42559487], [-49.71397611, -22.42162472]]], [[[-49.6948482, -22.42811284], [-49.69500715, -22.42815432], [-49.70244132, -22.42559563], [-49.70250722, -22.42534207], [-49.70273649, -22.42488299], [-49.70259442, -22.42287881], [-49.70320309, -22.42192572], [-49.70434221, -22.42113973], [-49.70510918, -22.42053637], [-49.70606719, -22.41674057], [-49.70665256, -22.41680821], [-49.70720597, -22.41595194], [-49.7070937, -22.41488864], [-49.70741293, -22.41415342], [-49.70809004, -22.41327158], [-49.70786816, -22.41220975], [-49.70855105, -22.41097442], [-49.70933252, -22.40957196], [-49.70911539, -22.40873174], [-49.70948643, -22.4076537], [-49.71035907, -22.4069051], [-49.71005453, -22.40582157], [-49.71021036, -22.40493546], [-49.71087519, -22.40382995], [-49.71164737, -22.40305832], [-49.71153323, -22.40195237], [-49.71251541, -22.40119081], [-49.71322336, -22.40073678], [-49.71400702, -22.40033005], [-49.71370455, -22.39984188], [-49.71414851, -22.39835948], [-49.7149035, -22.39781477], [-49.71566968, -22.39692899], [-49.71572218, -22.39609886], [-49.71655529, -22.39569802], [-49.71731275, -22.3954121], [-49.71811822, -22.39524922], [-49.71908034, -22.39512091], [-49.72081684, -22.39426627], [-49.72114237, -22.39406127], [-49.72194908, -22.39252869], [-49.72252804, -22.39173524], [-49.72272724, -22.39083365], [-49.72407417, -22.38945972], [-49.72296302, -22.38736052], [-49.72014166, -22.38870583], [-49.71813662, -22.38406385], [-49.71553415, -22.38250615], [-49.71454558, -22.38994081], [-49.71297442, -22.3900228], [-49.71096473, -22.38890275], [-49.71087197, -22.38905141], [-49.70005498, -22.38816364], [-49.69998125, -22.38816477], [-49.6933034, -22.38770549], [-49.69115523, -22.38732095], [-49.69109709, -22.38310214], [-49.69140227, -22.3758108], [-49.6913685, -22.37508017], [-49.69071284, -22.37469758], [-49.69000368, -22.37418828], [-49.68948683, -22.37393886], [-49.68945994, -22.37387496], [-49.6894754, -22.37370745], [-49.68944655, -22.37341754], [-49.68924858, -22.37320458], [-49.68903526, -22.37314685], [-49.68811085, -22.37303819], [-49.68757847, -22.37308762], [-49.68706042, -22.37326669], [-49.68615702, -22.37352581], [-49.68550722, -22.37366894], [-49.68507215, -22.37372953], [-49.68262371, -22.37372958], [-49.67789661, -22.37451009], [-49.67614504, -22.37422705], [-49.67482234, -22.37464174], [-49.67435459, -22.37459365], [-49.67385807, -22.3751122], [-49.67206757, -22.37607609], [-49.67057608, -22.37623256], [-49.67057376, -22.37624203], [-49.67058057, -22.37635372], [-49.67064081, -22.37648365], [-49.6711077, -22.37738992], [-49.67184148, -22.37882821], [-49.67284539, -22.38070562], [-49.67306951, -22.38118076], [-49.67343283, -22.38218642], [-49.67421622, -22.38442132], [-49.67485849, -22.38618664], [-49.67598054, -22.38943495], [-49.67642445, -22.3906734], [-49.67657567, -22.39110548], [-49.67662718, -22.39127716], [-49.67672618, -22.39149953], [-49.67737994, -22.39340196], [-49.67865324, -22.3946761], [-49.67945695, -22.39519706], [-49.68000999, -22.39563206], [-49.68070889, -22.39576376], [-49.68154237, -22.39671328], [-49.68258829, -22.39750844], [-49.68244574, -22.39840013], [-49.6828074, -22.3987688], [-49.68319856, -22.39920292], [-49.6831845, -22.39933387], [-49.68290491, -22.39959507], [-49.68283491, -22.39978698], [-49.68324477, -22.40062807], [-49.68371658, -22.4007291], [-49.6838248, -22.40083151], [-49.68399688, -22.40131172], [-49.68189829, -22.4041168], [-49.68312779, -22.4059716], [-49.68337408, -22.40910099], [-49.68395885, -22.40952784], [-49.68416841, -22.41033957], [-49.68117144, -22.41420874], [-49.67781568, -22.41642116], [-49.67666696, -22.41638511], [-49.67650202, -22.41581879], [-49.67565184, -22.41541467], [-49.67530682, -22.41608538], [-49.67456523, -22.41609258], [-49.67418027, -22.41645713], [-49.67348613, -22.41824933], [-49.67319648, -22.41821461], [-49.67288997, -22.41892059], [-49.67201012, -22.41928514], [-49.6707495, -22.41961285], [-49.66923058, -22.42074384], [-49.66873618, -22.42229288], [-49.66891618, -22.42280461], [-49.66921421, -22.4229607], [-49.66912703, -22.42333121], [-49.66930103, -22.42450315], [-49.66959694, -22.42445419], [-49.67006093, -22.42456704], [-49.67035284, -22.42500949], [-49.67050031, -22.4253478], [-49.67069424, -22.42555045], [-49.67202655, -22.42523932], [-49.6720471, -22.42559103], [-49.67194036, -22.42609921], [-49.67164456, -22.42643188], [-49.67150692, -22.42765382], [-49.67289571, -22.42752533], [-49.67320497, -22.42765676], [-49.67387947, -22.42811184], [-49.67470572, -22.42881448], [-49.67567986, -22.42916633], [-49.67579413, -22.42917549], [-49.67586811, -22.4291602], [-49.67592997, -22.42911256], [-49.67611287, -22.42868656], [-49.67622898, -22.42859339], [-49.6767599, -22.4285263], [-49.67713974, -22.42860212], [-49.67723625, -22.42869043], [-49.67741473, -22.42909031], [-49.67758028, -22.42918308], [-49.67846856, -22.4284664], [-49.68506182, -22.42756242], [-49.69057676, -22.42569678], [-49.69192481, -22.42926982], [-49.6948482, -22.42811284]]]]}}]}