{"type": "FeatureCollection", "features": [{"type": "Feature", "properties": {"name": "Estação Ecológica Paranapanema"}, "geometry": {"type": "MultiPolygon", "coordinates": [[[[-48.74435533, -23.51951072], [-48.74482787, -23.51954935], [-48.74537959, -23.5194973], [-48.74572231, -23.51949523], [-48.74591385, -23.51950504], [-48.74614918, -23.51958257], [-48.74624488, -23.5196086], [-48.7468735, -23.51958945], [-48.74785414, -23.51942371], [-48.74824635, -23.51939056], [-48.74977581, -23.51941269], [-48.75039628, -23.51938888], [-48.75215989, -23.51963377], [-48.75283662, -23.51986535], [-48.75325528, -23.51998064], [-48.75376617, -23.52013093], [-48.75400361, -23.5202287], [-48.75437929, -23.5204713], [-48.75468888, -23.52067348], [-48.75496457, -23.520796], [-48.75543837, -23.52096914], [-48.75579772, -23.52113547], [-48.75636433, -23.52132006], [-48.75687436, -23.52151601], [-48.75726607, -23.52172624], [-48.7576671, -23.52192359], [-48.758273, -23.52215929], [-48.75887582, -23.52249038], [-48.75949056, -23.5227364], [-48.7603615, -23.52313472], [-48.76092992, -23.52341655], [-48.76138393, -23.52360256], [-48.76214069, -23.52389847], [-48.76256033, -23.5240383], [-48.7633617, -23.52406508], [-48.76401038, -23.52411693], [-48.76435367, -23.52419788], [-48.76491252, -23.52421809], [-48.76531251, -23.52426943], [-48.7655922, -23.52437077], [-48.76583972, -23.52449901], [-48.76595803, -23.52452635], [-48.76614789, -23.52452609], [-48.76635925, -23.52450475], [-48.76648706, -23.52443364], [-48.76653753, -23.52436132], [-48.76670988, -23.524151], [-48.76688406, -23.52394278], [-48.76717442, -23.52361543], [-48.76743877, -23.52337284], [-48.76786361, -23.52298972], [-48.76832988, -23.52265884], [-48.76879997, -23.52230977], [-48.76922404, -23.52197828], [-48.76957058, -23.52173831], [-48.76995123, -23.52147924], [-48.77027057, -23.5213074], [-48.77063542, -23.52115454], [-48.77094078, -23.52097636], [-48.77114274, -23.52089114], [-48.77144467, -23.52070686], [-48.77170042, -23.52055542], [-48.7721591, -23.52039457], [-48.77255758, -23.52029115], [-48.77270761, -23.52028125], [-48.77280016, -23.5194502], [-48.77338871, -23.51374657], [-48.77364906, -23.51121964], [-48.77393573, -23.50838929], [-48.77425041, -23.50514421], [-48.77431277, -23.50456317], [-48.77421096, -23.5044918], [-48.77394186, -23.50439667], [-48.77356996, -23.50434883], [-48.77335914, -23.50433968], [-48.77315838, -23.50436118], [-48.77276538, -23.50446797], [-48.77225001, -23.50459141], [-48.77174952, -23.50466325], [-48.77132129, -23.50461758], [-48.77099694, -23.5044609], [-48.77065977, -23.50423406], [-48.77019866, -23.50405412], [-48.76977137, -23.50387167], [-48.76941388, -23.5038057], [-48.76910418, -23.50382564], [-48.76853351, -23.50388436], [-48.76803317, -23.50395321], [-48.76754324, -23.50402527], [-48.76700372, -23.50411784], [-48.76611318, -23.50417323], [-48.76573902, -23.50425914], [-48.76505752, -23.50437693], [-48.76402127, -23.50453233], [-48.76332312, -23.50465005], [-48.76284314, -23.50475872], [-48.76260959, -23.50484348], [-48.76240398, -23.50499563], [-48.76221296, -23.50506583], [-48.761562, -23.50514288], [-48.76075844, -23.50526991], [-48.75978747, -23.50524691], [-48.75958738, -23.50522877], [-48.75905227, -23.50506597], [-48.75890784, -23.50507915], [-48.75876862, -23.50511856], [-48.75858874, -23.50497777], [-48.75837324, -23.50478249], [-48.75809353, -23.50468717], [-48.7578257, -23.50481304], [-48.75755128, -23.504713], [-48.75731983, -23.5045367], [-48.75701205, -23.50456109], [-48.75674943, -23.50468703], [-48.7564641, -23.50461566], [-48.75617316, -23.50456822], [-48.75587555, -23.50460717], [-48.75559576, -23.50451666], [-48.75543163, -23.50448446], [-48.75532125, -23.50439163], [-48.75502428, -23.50439215], [-48.75475532, -23.50427777], [-48.75455553, -23.5040779], [-48.75425857, -23.50407842], [-48.75401655, -23.50391158], [-48.75381155, -23.50371164], [-48.75358531, -23.50353541], [-48.75330032, -23.50344482], [-48.7530093, -23.50340218], [-48.75281489, -23.50319278], [-48.75253502, -23.50310707], [-48.75228835, -23.50301713], [-48.75219865, -23.50294366], [-48.75190202, -23.50292497], [-48.75161662, -23.50285839], [-48.75152379, -23.50280767], [-48.75123697, -23.50274749], [-48.75094032, -23.502741], [-48.7507911, -23.50269272], [-48.75062329, -23.50259259], [-48.75061819, -23.50258954], [-48.75037355, -23.50243205], [-48.75013167, -23.50233959], [-48.75002169, -23.50237034], [-48.74977152, -23.50251731], [-48.7495887, -23.50273201], [-48.7494165, -23.50295632], [-48.7491871, -23.50313204], [-48.74898296, -23.50332961], [-48.74872833, -23.50347002], [-48.74853501, -23.50367451], [-48.74829553, -23.50383152], [-48.74809309, -23.5040365], [-48.74807681, -23.5040597], [-48.74784822, -23.50419243], [-48.74764174, -23.50438642], [-48.74744543, -23.50459498], [-48.74736163, -23.50470475], [-48.74712298, -23.50486898], [-48.74687044, -23.50501426], [-48.74671027, -23.50524256], [-48.74649354, -23.5054268], [-48.74629731, -23.50563055], [-48.74609595, -23.50582943], [-48.7458435, -23.50596991], [-48.74559608, -23.50612007], [-48.74536818, -23.50629595], [-48.74511831, -23.50644473], [-48.74494695, -23.50657163], [-48.74459535, -23.5068559], [-48.74451433, -23.50707176], [-48.74453327, -23.5073966], [-48.74467684, -23.50758918], [-48.74481505, -23.5078267], [-48.74475779, -23.50786562], [-48.74462566, -23.50795543], [-48.74442907, -23.50800197], [-48.744007, -23.50811232], [-48.74371556, -23.50822095], [-48.74346477, -23.50833378], [-48.74313457, -23.50856183], [-48.74276369, -23.50878225], [-48.74238953, -23.50895323], [-48.74212478, -23.50909206], [-48.74204686, -23.50906879], [-48.74184796, -23.50900939], [-48.7415528, -23.50885343], [-48.74131505, -23.50868413], [-48.74110311, -23.50843062], [-48.74095599, -23.50816599], [-48.74102679, -23.5081239], [-48.74121223, -23.50801365], [-48.74131699, -23.50785284], [-48.74139616, -23.5077517], [-48.74145614, -23.50758672], [-48.74147331, -23.50745434], [-48.7416375, -23.5073677], [-48.74183422, -23.50716001], [-48.74179502, -23.50688412], [-48.74150623, -23.5068273], [-48.74121563, -23.50687572], [-48.74092224, -23.50683097], [-48.74071041, -23.5066376], [-48.74055187, -23.50640856], [-48.74034975, -23.50620524], [-48.74026073, -23.50604234], [-48.74008501, -23.50594985], [-48.73992407, -23.50593458], [-48.73979822, -23.50595289], [-48.73951523, -23.50587887], [-48.73956401, -23.50561162], [-48.73952438, -23.50534307], [-48.7392936, -23.50517079], [-48.73900803, -23.5052482], [-48.73876527, -23.50540778], [-48.73862226, -23.50564454], [-48.73845419, -23.50586929], [-48.73820521, -23.50602296], [-48.73805131, -23.50578771], [-48.73798001, -23.50552453], [-48.73769041, -23.5054679], [-48.73755993, -23.50571066], [-48.73744368, -23.50582427], [-48.73735436, -23.50591156], [-48.73706496, -23.50584328], [-48.73682998, -23.50588632], [-48.7367715, -23.50589703], [-48.73652968, -23.5059322], [-48.73623317, -23.50591041], [-48.73594759, -23.50598781], [-48.7356564, -23.50602436], [-48.73550075, -23.50626093], [-48.73537648, -23.50650962], [-48.73519715, -23.5066515], [-48.73523737, -23.50680865], [-48.73530968, -23.50709118], [-48.73530799, -23.50719019], [-48.73548011, -23.50726887], [-48.73557123, -23.50731052], [-48.7355947, -23.50746956], [-48.73568604, -23.50761511], [-48.73564979, -23.50788837], [-48.7355193, -23.50813114], [-48.73538881, -23.50837391], [-48.73524486, -23.50861165], [-48.73526826, -23.5087741], [-48.73541574, -23.50901509], [-48.73564642, -23.5091932], [-48.73591609, -23.50930781], [-48.73618575, -23.50942241], [-48.73645552, -23.50953119], [-48.73671847, -23.509669], [-48.73693642, -23.50985275], [-48.73715679, -23.51003959], [-48.73728627, -23.51028811], [-48.73736535, -23.51055131], [-48.73752851, -23.5107849], [-48.73779326, -23.5109429], [-48.73785537, -23.51122127], [-48.73798484, -23.51146978], [-48.73823262, -23.51164295], [-48.73842974, -23.5118462], [-48.73850882, -23.5121094], [-48.7385375, -23.51238729], [-48.73859961, -23.51266566], [-48.73867869, -23.51292886], [-48.73881779, -23.51317697], [-48.73923404, -23.51340882], [-48.73941431, -23.51360193], [-48.73965891, -23.51385249], [-48.73977752, -23.51407297], [-48.73988409, -23.5143836], [-48.74006397, -23.51516936], [-48.74013036, -23.51582288], [-48.74034349, -23.51624227], [-48.74052042, -23.51655658], [-48.74079194, -23.51689926], [-48.74112498, -23.51722866], [-48.74136961, -23.51747218], [-48.74177003, -23.5179155], [-48.7422163, -23.51829944], [-48.74261227, -23.51852746], [-48.74285857, -23.51867928], [-48.7433732, -23.51897077], [-48.74353441, -23.51908253], [-48.74396649, -23.51934628], [-48.74435533, -23.51951072]]]]}}]}