{"type": "FeatureCollection", "features": [{"type": "Feature", "properties": {"name": "Estação Ecológica Xituê"}, "geometry": {"type": "MultiPolygon", "coordinates": [[[[-48.31703753, -24.31250294], [-48.31736825, -24.31260535], [-48.31786016, -24.31258336], [-48.31825471, -24.31260117], [-48.3186346, -24.31270716], [-48.31912213, -24.31284664], [-48.31954828, -24.31295435], [-48.32008528, -24.31308297], [-48.32036956, -24.31319268], [-48.32111658, -24.31340353], [-48.32149981, -24.31344459], [-48.32197684, -24.3135216], [-48.32292438, -24.31361053], [-48.32372732, -24.31359761], [-48.32405139, -24.31354827], [-48.32456801, -24.31342832], [-48.32509317, -24.31318306], [-48.32548038, -24.31289386], [-48.32568008, -24.31271687], [-48.32615179, -24.31224954], [-48.32651582, -24.31193826], [-48.32685965, -24.3115102], [-48.32712963, -24.31075231], [-48.32732247, -24.31038566], [-48.32763207, -24.30994616], [-48.32804569, -24.3094769], [-48.32822361, -24.30925801], [-48.32861746, -24.30865122], [-48.32898546, -24.30814956], [-48.32934464, -24.30755208], [-48.32953813, -24.30715386], [-48.32987944, -24.30628079], [-48.33001839, -24.30571192], [-48.33006797, -24.30508463], [-48.32964857, -24.30432633], [-48.32959027, -24.30400671], [-48.32958258, -24.30390369], [-48.32965136, -24.30348792], [-48.32978917, -24.30316182], [-48.32988803, -24.30286121], [-48.32980641, -24.3026206], [-48.32859535, -24.30110558], [-48.32841271, -24.30051662], [-48.32840787, -24.30023043], [-48.32840327, -24.29965092], [-48.32829274, -24.29923922], [-48.32808979, -24.29882048], [-48.32776372, -24.29826238], [-48.32744906, -24.29762958], [-48.32714775, -24.29701777], [-48.32704416, -24.29683904], [-48.32681644, -24.29675651], [-48.32639626, -24.29669496], [-48.32592588, -24.29663253], [-48.32531663, -24.29643046], [-48.32473837, -24.29620637], [-48.32435553, -24.29591442], [-48.32405569, -24.29537393], [-48.32403189, -24.29477151], [-48.32408039, -24.29433734], [-48.32414256, -24.29381497], [-48.32404545, -24.29318689], [-48.32391008, -24.29278649], [-48.32381742, -24.29241571], [-48.32386003, -24.29212133], [-48.32393751, -24.29194851], [-48.32416621, -24.2917955], [-48.3251167, -24.29145484], [-48.32542002, -24.2913591], [-48.32592957, -24.29100796], [-48.32639703, -24.29078604], [-48.32704292, -24.29064849], [-48.32740666, -24.29058269], [-48.32783103, -24.29044305], [-48.32810135, -24.29032038], [-48.32839968, -24.290185], [-48.32910384, -24.28994467], [-48.32967789, -24.28985188], [-48.33042425, -24.28985327], [-48.33071762, -24.28990355], [-48.33103503, -24.2900752], [-48.33182728, -24.29066043], [-48.33256732, -24.29110575], [-48.33307154, -24.29124457], [-48.33347837, -24.29147284], [-48.33396283, -24.29180356], [-48.33450789, -24.29210826], [-48.33489204, -24.2921502], [-48.33533191, -24.29216424], [-48.3357915, -24.29212988], [-48.33644577, -24.29210977], [-48.33711466, -24.29209623], [-48.33784167, -24.29203497], [-48.33844189, -24.29186769], [-48.33865495, -24.29170897], [-48.33893693, -24.29131408], [-48.33926038, -24.29053634], [-48.33948053, -24.29003748], [-48.33973555, -24.28937677], [-48.33987221, -24.28900912], [-48.34004258, -24.28858339], [-48.34026518, -24.28796634], [-48.3406211, -24.28723609], [-48.34096261, -24.28677184], [-48.34157826, -24.28619325], [-48.34210532, -24.28594435], [-48.34257063, -24.28582343], [-48.34318773, -24.28569523], [-48.34430521, -24.28555864], [-48.34569533, -24.28537986], [-48.34633731, -24.28542809], [-48.34694785, -24.28556782], [-48.34788601, -24.28606675], [-48.34793051, -24.28609041], [-48.34842781, -24.28646733], [-48.34891572, -24.28672766], [-48.34935997, -24.28686178], [-48.35017269, -24.28693914], [-48.35061892, -24.28697851], [-48.3511802, -24.28697747], [-48.35154047, -24.28703069], [-48.35195366, -24.28719133], [-48.35228708, -24.28730454], [-48.35277835, -24.2874512], [-48.35289663, -24.2873982], [-48.35291567, -24.28733446], [-48.3528741, -24.28715502], [-48.35276726, -24.28689413], [-48.35266508, -24.28674072], [-48.35247483, -24.2864188], [-48.35232209, -24.28609212], [-48.35224703, -24.28572347], [-48.35229003, -24.28545436], [-48.35239175, -24.28529728], [-48.35270658, -24.28497785], [-48.35305964, -24.28471414], [-48.35353213, -24.28453103], [-48.35397737, -24.28452254], [-48.35427704, -24.28455394], [-48.35461744, -24.28456799], [-48.35526526, -24.28447728], [-48.35580755, -24.28434683], [-48.35624903, -24.28413971], [-48.35669855, -24.283782], [-48.35694778, -24.28339643], [-48.35717379, -24.2829906], [-48.35736293, -24.28251102], [-48.3575356, -24.28211329], [-48.35767355, -24.28172759], [-48.35790856, -24.28126777], [-48.35823191, -24.28101075], [-48.358742, -24.28077051], [-48.35887488, -24.28069638], [-48.35931165, -24.28048282], [-48.35931224, -24.28048257], [-48.3594423, -24.28047401], [-48.35954927, -24.28049121], [-48.35985514, -24.28060303], [-48.36009301, -24.28076602], [-48.36024789, -24.280942], [-48.36041776, -24.28115525], [-48.360754, -24.28156092], [-48.3612936, -24.28222646], [-48.36180342, -24.28276151], [-48.36194988, -24.28296442], [-48.36217061, -24.2833374], [-48.36238562, -24.28360558], [-48.36267737, -24.28406825], [-48.36292885, -24.28433526], [-48.36318919, -24.28455459], [-48.36392556, -24.28508634], [-48.36438312, -24.28557805], [-48.36449734, -24.28591218], [-48.36463964, -24.28631629], [-48.3648867, -24.28675019], [-48.36513904, -24.2869757], [-48.36575096, -24.28738434], [-48.3658625, -24.28746661], [-48.36636131, -24.28786877], [-48.36664022, -24.28809564], [-48.36675763, -24.28817981], [-48.36682894, -24.28835073], [-48.36701611, -24.28849026], [-48.36730695, -24.28880668], [-48.36768149, -24.28912366], [-48.36801227, -24.28955721], [-48.36823834, -24.28991132], [-48.36837877, -24.29026395], [-48.36847987, -24.29051841], [-48.36859885, -24.29090858], [-48.36878587, -24.29119883], [-48.36892889, -24.29147388], [-48.36912276, -24.2918139], [-48.36960947, -24.29275648], [-48.36990626, -24.29302427], [-48.37020462, -24.29316843], [-48.37058999, -24.29324731], [-48.3708538, -24.29325188], [-48.37120917, -24.29325803], [-48.37220778, -24.29339716], [-48.37253765, -24.29354096], [-48.37277103, -24.2936849], [-48.3729172, -24.29385531], [-48.37304959, -24.29412114], [-48.37329748, -24.2943249], [-48.37358959, -24.2944861], [-48.37373619, -24.29468359], [-48.37409218, -24.29561577], [-48.37420366, -24.29579731], [-48.37440595, -24.29596869], [-48.37461095, -24.29605617], [-48.37484919, -24.29615506], [-48.37506188, -24.29644304], [-48.3752982, -24.29663577], [-48.3758889, -24.29693028], [-48.37614948, -24.29709274], [-48.37631709, -24.29727434], [-48.37656489, -24.29753134], [-48.37669935, -24.29764919], [-48.37715269, -24.29791967], [-48.37747873, -24.29825113], [-48.37771416, -24.29848716], [-48.37825867, -24.2989695], [-48.37857546, -24.29917625], [-48.37890849, -24.2993598], [-48.3795032, -24.299556], [-48.3797194, -24.29972219], [-48.37987054, -24.29993871], [-48.38001141, -24.30032022], [-48.38014124, -24.30071146], [-48.3803079, -24.30098782], [-48.38049721, -24.30126456], [-48.38082055, -24.30167991], [-48.38100724, -24.30194036], [-48.38129368, -24.30223502], [-48.38149011, -24.30240449], [-48.38220158, -24.30310271], [-48.38241825, -24.30334201], [-48.38265362, -24.30363038], [-48.38314583, -24.30387985], [-48.38341915, -24.30404612], [-48.3839354, -24.30427615], [-48.38432472, -24.30450128], [-48.38454832, -24.30469106], [-48.38481075, -24.30495643], [-48.38510105, -24.3053035], [-48.38544861, -24.3055956], [-48.38573825, -24.30568724], [-48.38644341, -24.30578242], [-48.38723977, -24.30584848], [-48.38747605, -24.30585255], [-48.38817852, -24.30569495], [-48.38865421, -24.30545403], [-48.38947411, -24.30504392], [-48.39001155, -24.30472102], [-48.39041398, -24.30444995], [-48.39083376, -24.30410155], [-48.39121026, -24.30370186], [-48.39150884, -24.30330806], [-48.39190106, -24.30276603], [-48.39205565, -24.30228581], [-48.39208347, -24.30188826], [-48.3920377, -24.30167085], [-48.3919159, -24.30141424], [-48.39173624, -24.30105012], [-48.39165577, -24.30074728], [-48.39163101, -24.30060966], [-48.39165234, -24.30038529], [-48.39182364, -24.30009941], [-48.39215491, -24.2996475], [-48.39247328, -24.29929645], [-48.39276967, -24.29886469], [-48.3929429, -24.29853191], [-48.3931296, -24.29811813], [-48.39317826, -24.29790596], [-48.39324899, -24.29767341], [-48.39345466, -24.29739172], [-48.39404369, -24.29709586], [-48.39429163, -24.29691419], [-48.39448242, -24.2966855], [-48.3945639, -24.29640891], [-48.39450252, -24.29608744], [-48.39442597, -24.29592998], [-48.39432717, -24.29580102], [-48.39391856, -24.29541222], [-48.39370033, -24.29524872], [-48.3936015, -24.2951694], [-48.39352782, -24.29506434], [-48.39350344, -24.29495652], [-48.39353265, -24.29482795], [-48.39360195, -24.29471361], [-48.39379728, -24.29435954], [-48.39382193, -24.29426159], [-48.39383591, -24.29410749], [-48.39382178, -24.29388341], [-48.39380479, -24.29379917], [-48.39377186, -24.2937237], [-48.39368332, -24.29357506], [-48.39357782, -24.29343696], [-48.39340246, -24.29315144], [-48.39337657, -24.29306886], [-48.39337567, -24.2930165], [-48.39345032, -24.29254393], [-48.39358634, -24.29220058], [-48.39401779, -24.29156716], [-48.39309343, -24.29067883], [-48.39300343, -24.291225], [-48.39293432, -24.2914281], [-48.39283845, -24.29160409], [-48.39269552, -24.29173491], [-48.3925713, -24.29180175], [-48.3925363, -24.29182058], [-48.39203478, -24.29187026], [-48.39172142, -24.2919013], [-48.39152406, -24.29196437], [-48.3909977, -24.29231614], [-48.39083316, -24.29251465], [-48.39064108, -24.29290275], [-48.3905326, -24.2934444], [-48.39041043, -24.29378289], [-48.38991733, -24.2944913], [-48.38945918, -24.29498304], [-48.38912898, -24.29524465], [-48.38882685, -24.2954205], [-48.38851002, -24.29550154], [-48.38818033, -24.2954968], [-48.38767814, -24.29564092], [-48.38689226, -24.29598346], [-48.38642795, -24.29610051], [-48.38611673, -24.29609578], [-48.38558518, -24.29599158], [-48.38525438, -24.29584689], [-48.38487317, -24.29560285], [-48.38466114, -24.29552596], [-48.38425569, -24.29556179], [-48.38397582, -24.29562027], [-48.3836523, -24.29560199], [-48.383444, -24.29548447], [-48.38310127, -24.29524045], [-48.38280109, -24.29493778], [-48.38265969, -24.29469391], [-48.38242273, -24.29389471], [-48.38216571, -24.29351081], [-48.38179493, -24.29296883], [-48.38138034, -24.29219207], [-48.38129486, -24.29208818], [-48.38112973, -24.29188491], [-48.38086825, -24.29168158], [-48.3804101, -24.2914465], [-48.38005221, -24.29132436], [-48.37982086, -24.29117521], [-48.37955022, -24.2908861], [-48.37923697, -24.29041187], [-48.37889123, -24.2901227], [-48.37860197, -24.29000963], [-48.37859613, -24.29000962], [-48.37825075, -24.29000485], [-48.3779811, -24.29000013], [-48.37758102, -24.28990504], [-48.37684839, -24.28957946], [-48.37612272, -24.28904622], [-48.37598587, -24.28890166], [-48.37574485, -24.28855839], [-48.3752897, -24.28774547], [-48.37515952, -24.28738422], [-48.37505991, -24.28690563], [-48.37496748, -24.2866663], [-48.37487989, -24.28650823], [-48.37471856, -24.2862192], [-48.37399553, -24.28551441], [-48.37369031, -24.28504017], [-48.37335946, -24.28398356], [-48.37239312, -24.28214097], [-48.37225292, -24.28163526], [-48.37222508, -24.28112512], [-48.37225119, -24.28084976], [-48.3723101, -24.28071438], [-48.3725378, -24.28047078], [-48.37273986, -24.28031294], [-48.37320579, -24.28006501], [-48.37341687, -24.27981238], [-48.37349645, -24.27962284], [-48.37352964, -24.279352], [-48.37348959, -24.27904951], [-48.37345536, -24.27879217], [-48.37337011, -24.27844901], [-48.37337794, -24.2779705], [-48.37345761, -24.27768164], [-48.37358496, -24.27743345], [-48.37381975, -24.27716277], [-48.37406603, -24.27677925], [-48.37413286, -24.27640009], [-48.37404039, -24.27587636], [-48.373716, -24.2751809], [-48.37344332, -24.27482405], [-48.37323758, -24.27463429], [-48.37229393, -24.27394738], [-48.37189085, -24.2734866], [-48.37184761, -24.27331051], [-48.37167132, -24.27257904], [-48.37155614, -24.27232615], [-48.37136035, -24.27204159], [-48.3709791, -24.27161694], [-48.37067907, -24.27122396], [-48.37061984, -24.27104785], [-48.37059844, -24.27088983], [-48.37056481, -24.27064603], [-48.37043245, -24.27033895], [-48.3700384, -24.26978337], [-48.3698788, -24.2696433], [-48.36953871, -24.26931348], [-48.36916845, -24.26900169], [-48.36854615, -24.26833306], [-48.36770871, -24.26768232], [-48.36735393, -24.26728025], [-48.36724827, -24.26705445], [-48.3672097, -24.26652624], [-48.3671196, -24.2661289], [-48.36685563, -24.26570433], [-48.36666782, -24.26546041], [-48.36657192, -24.26533844], [-48.36640148, -24.26495458], [-48.3661941, -24.26427274], [-48.36621093, -24.26374006], [-48.36616198, -24.26343755], [-48.3658884, -24.26310326], [-48.36583737, -24.26304002], [-48.36577842, -24.262891], [-48.36584049, -24.26236738], [-48.36600867, -24.26190705], [-48.36638899, -24.26103157], [-48.36643053, -24.26072011], [-48.36638194, -24.26036795], [-48.36609208, -24.26000205], [-48.36576291, -24.25987538], [-48.36564228, -24.25986173], [-48.36534988, -24.25989309], [-48.36502267, -24.25996505], [-48.36441749, -24.26009547], [-48.36428486, -24.26008182], [-48.36427605, -24.26008969], [-48.36427598, -24.26008964], [-48.3560384, -24.26734128], [-48.34835682, -24.27276222], [-48.34806824, -24.27237823], [-48.34758579, -24.27196246], [-48.34725732, -24.27146558], [-48.34707535, -24.27097786], [-48.34684212, -24.27064357], [-48.3467189, -24.27046288], [-48.34638903, -24.27012851], [-48.3461046, -24.2698935], [-48.34538362, -24.26948653], [-48.3450964, -24.26927408], [-48.34432275, -24.26837047], [-48.34398254, -24.26820312], [-48.34377426, -24.2681352], [-48.34315436, -24.26817072], [-48.342774, -24.26812973], [-48.34245591, -24.26800302], [-48.34218286, -24.26777704], [-48.34180182, -24.26726203], [-48.34173732, -24.26714911], [-48.34114393, -24.26609217], [-48.34094482, -24.26581209], [-48.34051664, -24.26534217], [-48.34010243, -24.26503931], [-48.3397993, -24.2647546], [-48.33949876, -24.26410875], [-48.33933563, -24.26385127], [-48.33922682, -24.26373379], [-48.33876499, -24.26337219], [-48.33794473, -24.26290639], [-48.33785005, -24.26281601], [-48.3377157, -24.26269399], [-48.33755506, -24.26242297], [-48.3375168, -24.26198955], [-48.33751644, -24.26124919], [-48.33742655, -24.26075252], [-48.33721134, -24.26030538], [-48.33687146, -24.25988972], [-48.33657197, -24.2596637], [-48.33579304, -24.25915731], [-48.33556341, -24.25893136], [-48.33500199, -24.25823557], [-48.33446587, -24.25773845], [-48.33407431, -24.25730918], [-48.333941, -24.25709687], [-48.33335159, -24.25614373], [-48.33317693, -24.25577337], [-48.33309507, -24.25527219], [-48.33285419, -24.25468959], [-48.33283393, -24.25414332], [-48.33273667, -24.25390396], [-48.33247969, -24.25366443], [-48.33241449, -24.25363277], [-48.33186305, -24.25335231], [-48.33162082, -24.25313085], [-48.3315308, -24.25301338], [-48.33134768, -24.25277393], [-48.3309963, -24.25248013], [-48.33097022, -24.2524169], [-48.33062619, -24.25215019], [-48.33011276, -24.25175239], [-48.32981998, -24.25135482], [-48.32953844, -24.25107012], [-48.32920263, -24.25088016], [-48.3290792, -24.25078271], [-48.32850569, -24.25032995], [-48.32838592, -24.25028636], [-48.3279623, -24.25020465], [-48.32742001, -24.25001448], [-48.32715128, -24.24983362], [-48.32682985, -24.24947213], [-48.32655129, -24.24975172], [-48.32630675, -24.24991398], [-48.32603244, -24.24999495], [-48.32564813, -24.24996745], [-48.32494713, -24.24973195], [-48.32477049, -24.24971371], [-48.32463021, -24.24992122], [-48.32457148, -24.25019358], [-48.32451137, -24.25050804], [-48.32450333, -24.25055014], [-48.32455579, -24.25091135], [-48.32473076, -24.25125915], [-48.32479571, -24.25148494], [-48.32480596, -24.2516565], [-48.3247485, -24.25182347], [-48.32459687, -24.25200389], [-48.32441179, -24.252103], [-48.32416732, -24.25219754], [-48.32380032, -24.25234161], [-48.32349463, -24.25265729], [-48.32302748, -24.25337909], [-48.32283187, -24.25353237], [-48.32235352, -24.2538614], [-48.32204269, -24.25410935], [-48.32170588, -24.25444757], [-48.32155819, -24.2546641], [-48.32143601, -24.25491226], [-48.32138557, -24.25511986], [-48.32140686, -24.25531852], [-48.32161063, -24.25551738], [-48.32213779, -24.25576624], [-48.32288539, -24.25593409], [-48.32313114, -24.25604721], [-48.32340721, -24.25626872], [-48.32345199, -24.25638614], [-48.3234663, -24.25650353], [-48.32344518, -24.256657], [-48.32336344, -24.25680137], [-48.32320449, -24.25691857], [-48.32292611, -24.2570537], [-48.32256476, -24.25757247], [-48.32212743, -24.2578248], [-48.32174224, -24.25797335], [-48.32083325, -24.25883461], [-48.32041062, -24.25913209], [-48.31994841, -24.25934376], [-48.31897736, -24.25964064], [-48.31865518, -24.25984343], [-48.31849157, -24.25998771], [-48.31841844, -24.2601366], [-48.31831154, -24.26068272], [-48.31819729, -24.26097152], [-48.31789107, -24.26120592], [-48.31762751, -24.2612914], [-48.31678219, -24.26145749], [-48.31636651, -24.261606], [-48.31621988, -24.26170966], [-48.31603256, -24.26209318], [-48.31585903, -24.26228258], [-48.31560321, -24.26233647], [-48.31508131, -24.26229073], [-48.31483122, -24.26243491], [-48.31470101, -24.26268306], [-48.3146713, -24.26280491], [-48.31464158, -24.26293128], [-48.31466432, -24.26410053], [-48.31470784, -24.2642315], [-48.31486167, -24.26449802], [-48.31510139, -24.26475109], [-48.31543723, -24.26493205], [-48.31584357, -24.26509051], [-48.31611048, -24.26526236], [-48.31625209, -24.26546566], [-48.31626148, -24.26557853], [-48.3162727, -24.26570495], [-48.31622334, -24.26579518], [-48.31605878, -24.26594848], [-48.31585924, -24.26602952], [-48.31541392, -24.26613116], [-48.31530817, -24.2661553], [-48.31487572, -24.26640761], [-48.31475307, -24.26652485], [-48.31463947, -24.26677301], [-48.31457204, -24.26702574], [-48.31454674, -24.26729657], [-48.31435295, -24.26767556], [-48.31428053, -24.26774319], [-48.31404632, -24.26796864], [-48.31399057, -24.26800018], [-48.31386553, -24.26851468], [-48.31388982, -24.26875848], [-48.31401115, -24.26916491], [-48.3141148, -24.26967515], [-48.31408056, -24.27018523], [-48.31400538, -24.27047407], [-48.31380844, -24.27089819], [-48.31361235, -24.27115077], [-48.31327538, -24.27133999], [-48.31284996, -24.27138916], [-48.31255683, -24.27147911], [-48.31251001, -24.27150615], [-48.31244717, -24.27154219], [-48.31238058, -24.27162337], [-48.31229011, -24.27183544], [-48.31226126, -24.27199792], [-48.31235414, -24.27272936], [-48.31232485, -24.27299116], [-48.31207334, -24.2732527], [-48.31193472, -24.27333831], [-48.31171237, -24.27342834], [-48.31135524, -24.27350467], [-48.31100833, -24.27352685], [-48.31079815, -24.27350403], [-48.31040498, -24.27337266], [-48.31024127, -24.27334538], [-48.31003411, -24.2733632], [-48.30976298, -24.27356603], [-48.30934146, -24.27412532], [-48.30914852, -24.27431469], [-48.30875144, -24.27455801], [-48.30836558, -24.27470653], [-48.30798822, -24.2747106], [-48.3076433, -24.27462893], [-48.30700382, -24.27433926], [-48.30687708, -24.27429397], [-48.30663928, -24.27420791], [-48.30633638, -24.27423464], [-48.30612973, -24.27432017], [-48.305906, -24.27451854], [-48.30476851, -24.27509953], [-48.30429756, -24.27533823], [-48.30403166, -24.27553203], [-48.30334618, -24.27619932], [-48.30288258, -24.27671205], [-48.30287728, -24.27671791], [-48.30239947, -24.27743963], [-48.30217901, -24.27771022], [-48.30186562, -24.27795813], [-48.30167543, -24.27815653], [-48.30162631, -24.27828287], [-48.30162325, -24.27847698], [-48.30172467, -24.27879762], [-48.30180394, -24.27910921], [-48.30180867, -24.27924464], [-48.30170971, -24.27956504], [-48.30136569, -24.28013343], [-48.30120293, -24.28051244], [-48.30113327, -24.28079224], [-48.3011158, -24.28095473], [-48.30092478, -24.28129308], [-48.30075981, -24.28150053], [-48.3001478, -24.28198733], [-48.29988803, -24.28239782], [-48.29961645, -24.28309269], [-48.29940699, -24.28340844], [-48.29906364, -24.28371499], [-48.29830642, -24.28414292], [-48.29825376, -24.28416091], [-48.29780535, -24.28432287], [-48.29762174, -24.28443099], [-48.29749061, -24.28463848], [-48.29742387, -24.28480994], [-48.29741626, -24.28517108], [-48.29746755, -24.28566772], [-48.29742125, -24.28637641], [-48.29731677, -24.28688188], [-48.29717023, -24.28710741], [-48.29703642, -24.2872517], [-48.29631359, -24.28771578], [-48.29570678, -24.28819805], [-48.29562917, -24.28822504], [-48.2951789, -24.28838699], [-48.29482979, -24.28841364], [-48.29451224, -24.2883365], [-48.29378133, -24.28802409], [-48.29341968, -24.28800106], [-48.29300432, -24.28807276], [-48.29275574, -24.28818531], [-48.29199608, -24.2887712], [-48.29164148, -24.28897389], [-48.29143823, -24.28902781], [-48.2912104, -24.2890546], [-48.2907472, -24.28901338], [-48.29041496, -24.28908067], [-48.29012586, -24.2891119], [-48.28983376, -24.28910249], [-48.28936082, -24.28898], [-48.28859115, -24.28886163], [-48.28805614, -24.28887448], [-48.28735991, -24.28903158], [-48.28703762, -24.28903567], [-48.28673239, -24.2889495], [-48.28645373, -24.28880468], [-48.28598364, -24.28863704], [-48.28561465, -24.28858238], [-48.28531789, -24.28860005], [-48.28509184, -24.28867198], [-48.28346657, -24.28943727], [-48.28315812, -24.28964], [-48.28296289, -24.289879], [-48.28277743, -24.2903663], [-48.28272682, -24.2908312], [-48.28264328, -24.29110195], [-48.28254761, -24.29125531], [-48.28237926, -24.29143114], [-48.28213428, -24.29159784], [-48.28191252, -24.29167429], [-48.28145188, -24.29175493], [-48.28078202, -24.29177209], [-48.28050522, -24.29181235], [-48.28022406, -24.29188872], [-48.2798676, -24.29207332], [-48.27931557, -24.29251498], [-48.27902747, -24.29269065], [-48.27839612, -24.29287939], [-48.27791462, -24.29291485], [-48.27720301, -24.2930448], [-48.27687369, -24.29320235], [-48.27644469, -24.29350422], [-48.2756946, -24.29382822], [-48.27473359, -24.29426016], [-48.27477726, -24.29465895], [-48.27490076, -24.29486965], [-48.27516301, -24.2951776], [-48.2753234, -24.29541333], [-48.27533655, -24.29567349], [-48.27516301, -24.29651423], [-48.27519735, -24.29665834], [-48.27544299, -24.29668351], [-48.27590676, -24.29659256], [-48.27714694, -24.29615723], [-48.27755864, -24.29615288], [-48.27830567, -24.29626194], [-48.27869296, -24.29634018], [-48.27904439, -24.29643763], [-48.27950318, -24.29662636], [-48.27991548, -24.29691714], [-48.28012983, -24.29716285], [-48.28021327, -24.29740622], [-48.28032424, -24.29760496], [-48.28047173, -24.29775381], [-48.28071248, -24.29787003], [-48.28094756, -24.29788237], [-48.28125774, -24.29783648], [-48.28174847, -24.29763588], [-48.2828939, -24.29725657], [-48.28379354, -24.29685932], [-48.28450543, -24.2963531], [-48.28544117, -24.2954619], [-48.28563723, -24.29522533], [-48.28592333, -24.29492269], [-48.28665069, -24.2944754], [-48.28733928, -24.29418446], [-48.28807127, -24.29393581], [-48.28893562, -24.29366785], [-48.28975222, -24.29356149], [-48.29124595, -24.29351775], [-48.29157856, -24.29357422], [-48.29223292, -24.29382777], [-48.29334391, -24.29437285], [-48.29460289, -24.29527615], [-48.29522024, -24.29597578], [-48.2954494, -24.29649972], [-48.29561335, -24.29717321], [-48.29559677, -24.29767653], [-48.29544651, -24.29830742], [-48.29534459, -24.29870182], [-48.29515346, -24.2991244], [-48.29487515, -24.29957071], [-48.29480602, -24.29990521], [-48.2947289, -24.30029102], [-48.2947808, -24.3004905], [-48.29501125, -24.30067512], [-48.29571436, -24.30072194], [-48.29656735, -24.30080572], [-48.29707003, -24.30096991], [-48.29757043, -24.30128839], [-48.29782719, -24.30162599], [-48.29803333, -24.30202857], [-48.29832721, -24.30233435], [-48.29880407, -24.30283471], [-48.2989057, -24.30305764], [-48.29897636, -24.30325474], [-48.29909707, -24.30359985], [-48.29909488, -24.30365426], [-48.29909054, -24.30376193], [-48.2990753, -24.30414033], [-48.29904067, -24.30495703], [-48.29909817, -24.30615131], [-48.29934012, -24.30635147], [-48.29953256, -24.30634134], [-48.29964772, -24.30633528], [-48.29994992, -24.30569084], [-48.300578, -24.30532926], [-48.30117611, -24.3051269], [-48.30137176, -24.30504916], [-48.30152461, -24.30503924], [-48.30173712, -24.3050024], [-48.30226733, -24.30507681], [-48.30242797, -24.30502461], [-48.3027511, -24.3048327], [-48.30346161, -24.30448431], [-48.30460542, -24.30366979], [-48.30499306, -24.30354761], [-48.30541411, -24.30361465], [-48.30557953, -24.30375568], [-48.30581316, -24.30407029], [-48.306057, -24.30441487], [-48.30625569, -24.30465938], [-48.30681974, -24.30504303], [-48.30734594, -24.30544768], [-48.30785259, -24.30593862], [-48.30813899, -24.30613323], [-48.30865656, -24.30643392], [-48.30909533, -24.30659513], [-48.30974014, -24.30674646], [-48.31024384, -24.30686459], [-48.3105986, -24.30699362], [-48.31094166, -24.30716396], [-48.31138911, -24.30752117], [-48.31166789, -24.30789073], [-48.31188645, -24.30822132], [-48.31211099, -24.30845454], [-48.31245267, -24.30869074], [-48.31273475, -24.30890422], [-48.31328269, -24.30935345], [-48.313506, -24.30950542], [-48.3137765, -24.30970786], [-48.31412698, -24.31004078], [-48.3142267, -24.3101689], [-48.31448731, -24.31046684], [-48.31466433, -24.31066582], [-48.31505287, -24.31096873], [-48.3155698, -24.31139484], [-48.31660761, -24.31224714], [-48.31703753, -24.31250294]]]]}}]}