{"type": "FeatureCollection", "features": [{"type": "Feature", "properties": {"name": "Estação Ecológica Valinhos"}, "geometry": {"type": "MultiPolygon", "coordinates": [[[[-47.01394139, -22.96515167], [-47.01444778, -22.96514472], [-47.01458417, -22.96512167], [-47.01488472, -22.96501639], [-47.01527167, -22.96485694], [-47.01573722, -22.96457556], [-47.01607722, -22.96436167], [-47.01626056, -22.96428278], [-47.01641083, -22.96426472], [-47.01701944, -22.96426861], [-47.01734083, -22.96417139], [-47.017525, -22.96416667], [-47.01807361, -22.96424], [-47.01849472, -22.96432333], [-47.01816278, -22.96345556], [-47.01811611, -22.96334833], [-47.01806889, -22.96326528], [-47.01800111, -22.96316667], [-47.01784306, -22.9629875], [-47.0173075, -22.96253444], [-47.01720861, -22.96242972], [-47.01716472, -22.96237194], [-47.017105, -22.96227028], [-47.01705778, -22.9621625], [-47.01702722, -22.96207444], [-47.01688167, -22.96150806], [-47.01685861, -22.96144194], [-47.01682139, -22.96135694], [-47.01676028, -22.96125278], [-47.01670361, -22.96117528], [-47.01610583, -22.96051611], [-47.01601722, -22.96043694], [-47.01560056, -22.96011556], [-47.01536, -22.95990972], [-47.01290556, -22.96146444], [-47.01342, -22.96185556], [-47.01355194, -22.96204528], [-47.0135625, -22.96280361], [-47.01425528, -22.96417833], [-47.01412583, -22.96478028], [-47.01394139, -22.96515167]]]]}}]}