{"type": "FeatureCollection", "features": [{"type": "Feature", "properties": {"name": "Estação Ecológica Sebastião Aleixo da Silva  Bauru"}, "geometry": {"type": "MultiPolygon", "coordinates": [[[[-49.07470599, -22.24244574], [-49.07495143, -22.24251555], [-49.07521792, -22.24254738], [-49.07540308, -22.2425209], [-49.07552626, -22.24252236], [-49.075648, -22.24262893], [-49.0759041, -22.2426702], [-49.07622905, -22.24268321], [-49.07624271, -22.24268376], [-49.07638395, -22.24261668], [-49.07643905, -22.24259051], [-49.0767804, -22.2424034], [-49.07690527, -22.24228063], [-49.07693698, -22.2422141], [-49.07697039, -22.24202335], [-49.07691101, -22.24186017], [-49.07676992, -22.24166735], [-49.07667949, -22.24152292], [-49.07663038, -22.24135986], [-49.07666366, -22.24117867], [-49.07666535, -22.24105444], [-49.07670785, -22.24094981], [-49.07683181, -22.24089393], [-49.07701618, -22.24092479], [-49.07706023, -22.24091849], [-49.07720134, -22.2408983], [-49.07731503, -22.2408423], [-49.07743925, -22.24076731], [-49.07763637, -22.24061673], [-49.0779143, -22.24056267], [-49.07822101, -22.24059489], [-49.07822185, -22.24059498], [-49.07825256, -22.24060131], [-49.07843684, -22.24063933], [-49.07872061, -22.24072154], [-49.07879691, -22.24077261], [-49.07895645, -22.24064456], [-49.07899932, -22.24061014], [-49.07906549, -22.240496], [-49.07910138, -22.24045162], [-49.07922515, -22.24031569], [-49.07928711, -22.24024176], [-49.07936889, -22.24012624], [-49.07937539, -22.24012035], [-49.0794378, -22.24001356], [-49.07954829, -22.23991033], [-49.07964638, -22.23983646], [-49.07973981, -22.23976111], [-49.0800089, -22.23960181], [-49.08023616, -22.23949936], [-49.08039052, -22.23947251], [-49.08085139, -22.23955441], [-49.08102784, -22.23941313], [-49.08127745, -22.23917714], [-49.0815381, -22.23888394], [-49.0817356, -22.23870468], [-49.08185903, -22.23868702], [-49.0821582, -22.2387694], [-49.082456, -22.23895211], [-49.08277027, -22.23905617], [-49.08310881, -22.2390745], [-49.08361759, -22.23903033], [-49.08417471, -22.23882902], [-49.08459988, -22.238705], [-49.0849239, -22.23865864], [-49.0853403, -22.23861337], [-49.08547929, -22.23864746], [-49.08555517, -22.23866608], [-49.08562577, -22.2386402], [-49.08575723, -22.238592], [-49.08599533, -22.23854104], [-49.08625542, -22.2385441], [-49.08633534, -22.23854504], [-49.0865395, -22.23863108], [-49.08671288, -22.23862117], [-49.08677075, -22.23858462], [-49.08692645, -22.23848629], [-49.08731291, -22.23837735], [-49.08749279, -22.23836154], [-49.08767827, -22.23840554], [-49.08797208, -22.23850457], [-49.08820799, -22.23861487], [-49.0883661, -22.23878398], [-49.08858301, -22.23887613], [-49.08885254, -22.23887333], [-49.08897302, -22.23890476], [-49.08923617, -22.23897341], [-49.08962662, -22.23904371], [-49.0897867, -22.23904101], [-49.09004379, -22.23903667], [-49.09053818, -22.23901261], [-49.09089579, -22.23901681], [-49.09095738, -22.23901753], [-49.0911238, -22.2389529], [-49.09123635, -22.23888613], [-49.09134924, -22.23879427], [-49.09147368, -22.23870254], [-49.09155909, -22.23864978], [-49.09171071, -22.23854046], [-49.09178477, -22.23847323], [-49.09191686, -22.23838518], [-49.09199467, -22.23832516], [-49.09210688, -22.23828347], [-49.0921882, -22.23824859], [-49.09295505, -22.23790993], [-49.09299769, -22.23788892], [-49.09310581, -22.2378651], [-49.09319078, -22.2378446], [-49.09341452, -22.23781138], [-49.09351484, -22.23779464], [-49.09367675, -22.23777861], [-49.09377717, -22.2377547], [-49.09386599, -22.23773424], [-49.09401592, -22.23775034], [-49.09407385, -22.23773668], [-49.09430684, -22.23758888], [-49.09450923, -22.23742638], [-49.0945906, -22.23738791], [-49.09474607, -22.23727863], [-49.09481608, -22.23722569], [-49.09496356, -22.23713781], [-49.09504493, -22.23709934], [-49.09520791, -22.23700448], [-49.09526238, -22.23696211], [-49.09545273, -22.23683532], [-49.095511, -22.23679657], [-49.09569862, -22.23658731], [-49.09588547, -22.23643538], [-49.09596289, -22.23640403], [-49.09617955, -22.23632414], [-49.09623768, -22.23629615], [-49.09642774, -22.23619085], [-49.09648592, -22.23615927], [-49.09666078, -22.23603946], [-49.09672689, -22.23599006], [-49.09690199, -22.23585233], [-49.0971114, -22.23574009], [-49.09746842, -22.23552923], [-49.097745, -22.23528874], [-49.09813442, -22.23495998], [-49.09842727, -22.23465518], [-49.09864182, -22.23444622], [-49.09878637, -22.23429022], [-49.09882718, -22.23411866], [-49.09890314, -22.23362494], [-49.09897086, -22.23317056], [-49.09914082, -22.23284281], [-49.09941785, -22.23228334], [-49.0996353, -22.23185938], [-49.0997184, -22.2316919], [-49.09978071, -22.23163887], [-49.10023954, -22.23130016], [-49.10047897, -22.23095888], [-49.09881361, -22.22898908], [-49.09234901, -22.23014378], [-49.08881366, -22.2279184], [-49.08681106, -22.22814523], [-49.08176601, -22.22871655], [-49.07989618, -22.22919717], [-49.07902698, -22.22900935], [-49.07610505, -22.23278109], [-49.07224363, -22.23683456], [-49.07025609, -22.23892101], [-49.07026285, -22.23892647], [-49.07028595, -22.23894514], [-49.07037938, -22.23902066], [-49.07051138, -22.23912736], [-49.0706035, -22.23914757], [-49.07067145, -22.23916106], [-49.07070588, -22.2391679], [-49.07077695, -22.23922609], [-49.07082683, -22.23933181], [-49.07083101, -22.23933821], [-49.07087711, -22.23940887], [-49.0709791, -22.23945787], [-49.07119439, -22.23947954], [-49.07131769, -22.239481], [-49.07144075, -22.23948246], [-49.07162525, -22.23950376], [-49.07181936, -22.23957297], [-49.07199229, -22.23968971], [-49.0721443, -22.23983487], [-49.07225381, -22.24008466], [-49.07234305, -22.2403151], [-49.07257705, -22.24047079], [-49.07282407, -22.24065715], [-49.07296318, -22.2407621], [-49.07309545, -22.24084968], [-49.07328721, -22.24109089], [-49.07343752, -22.24136028], [-49.07359875, -22.24158201], [-49.07392243, -22.2418568], [-49.0739641, -22.24189218], [-49.07431143, -22.24218898], [-49.07434972, -22.2422217], [-49.07447875, -22.2423088], [-49.07452266, -22.24233844], [-49.07470599, -22.24244574]]]]}}]}