{"type": "FeatureCollection", "features": [{"type": "Feature", "properties": {"name": "Estação Ecológica Mogi-Guaçu"}, "geometry": {"type": "MultiPolygon", "coordinates": [[[[-47.15417374, -22.29741982], [-47.15425769, -22.29740548], [-47.15435935, -22.29736487], [-47.15443384, -22.29731237], [-47.15448146, -22.29721956], [-47.15450191, -22.29709287], [-47.15451657, -22.29667281], [-47.1545474, -22.29643316], [-47.15460449, -22.29625763], [-47.15473637, -22.29600364], [-47.15495434, -22.29561105], [-47.15504104, -22.2955213], [-47.15521779, -22.2953714], [-47.15534503, -22.29528467], [-47.15546202, -22.29519862], [-47.15582469, -22.29497454], [-47.15599564, -22.29486403], [-47.15617911, -22.2947349], [-47.15632687, -22.2946018], [-47.15640014, -22.2945212], [-47.15645264, -22.29443206], [-47.15653751, -22.29427332], [-47.15658208, -22.29410358], [-47.15658575, -22.29399002], [-47.15656499, -22.2937287], [-47.15653934, -22.29358949], [-47.15645753, -22.29329398], [-47.15635007, -22.29303022], [-47.15627436, -22.29281409], [-47.15621941, -22.29258085], [-47.15622918, -22.29243798], [-47.15628535, -22.29232198], [-47.15637205, -22.2921901], [-47.15641235, -22.29215713], [-47.15647462, -22.29209973], [-47.15651736, -22.29203379], [-47.15660528, -22.2919532], [-47.15669809, -22.29189703], [-47.15687515, -22.29185551], [-47.15696551, -22.29182376], [-47.15706809, -22.29180789], [-47.15726591, -22.29180667], [-47.15845894, -22.29187871], [-47.15889365, -22.29194954], [-47.15914276, -22.29202036], [-47.15926731, -22.29206921], [-47.15938698, -22.29213515], [-47.15972645, -22.29223894], [-47.15995358, -22.2922829], [-47.16019536, -22.29230854], [-47.16037975, -22.29231953], [-47.16054338, -22.29230488], [-47.16067037, -22.29226947], [-47.16078821, -22.29221574], [-47.1608798, -22.29214247], [-47.16095673, -22.29205455], [-47.16101045, -22.2919703], [-47.16105197, -22.29184696], [-47.16110692, -22.29166013], [-47.16114966, -22.29146475], [-47.16115943, -22.29132188], [-47.16115577, -22.29123518], [-47.16114722, -22.29114849], [-47.16110204, -22.2909067], [-47.16099336, -22.29050007], [-47.16089567, -22.29025707], [-47.16088102, -22.2902009], [-47.16086026, -22.29013984], [-47.16074181, -22.28990905], [-47.1605733, -22.28972955], [-47.16011416, -22.28938764], [-47.15979854, -22.28920068], [-47.15960129, -22.2890616], [-47.15941202, -22.28891018], [-47.15925083, -22.28872579], [-47.15913726, -22.28852675], [-47.15908842, -22.28841807], [-47.15902492, -22.28825322], [-47.15897364, -22.28808471], [-47.15894677, -22.28797114], [-47.15891685, -22.28773852], [-47.15892174, -22.28758039], [-47.15893395, -22.28748453], [-47.15897303, -22.28736975], [-47.15903897, -22.28724519], [-47.15921481, -22.28701806], [-47.15941018, -22.28686176], [-47.15965441, -22.28672011], [-47.15978873, -22.28666638], [-47.15993282, -22.28662487], [-47.16022589, -22.28658091], [-47.160348, -22.28658335], [-47.16047255, -22.28663647], [-47.16062947, -22.28671828], [-47.16070029, -22.28676102], [-47.16091032, -22.28691549], [-47.16119362, -22.28703516], [-47.16139388, -22.28708889], [-47.16159659, -22.28712308], [-47.16174557, -22.2871182], [-47.16187012, -22.28709377], [-47.16217784, -22.28701318], [-47.16247335, -22.28690328], [-47.16275909, -22.28670057], [-47.16286899, -22.28660289], [-47.1629215, -22.28650459], [-47.16299477, -22.28625304], [-47.16305094, -22.28596485], [-47.16305582, -22.28582076], [-47.16307048, -22.28562294], [-47.16305582, -22.28544954], [-47.16307048, -22.2852737], [-47.16312909, -22.28518456], [-47.16322434, -22.28508565], [-47.163344, -22.28500262], [-47.16360532, -22.28479136], [-47.16372255, -22.284701], [-47.16388374, -22.28462651], [-47.1640608, -22.28461674], [-47.16424397, -22.28462895], [-47.16431113, -22.28464117], [-47.16439294, -22.28464117], [-47.16451017, -22.28465826], [-47.16461641, -22.28470222], [-47.16472264, -22.28475473], [-47.16491069, -22.28487318], [-47.16514515, -22.28505879], [-47.16542234, -22.28538666], [-47.16581432, -22.28588121], [-47.16591079, -22.28599599], [-47.16597551, -22.28604239], [-47.16601214, -22.28607903], [-47.16607564, -22.28612543], [-47.16613914, -22.28614863], [-47.16620874, -22.28615229], [-47.16627956, -22.28613398], [-47.16633574, -22.28609368], [-47.16640656, -22.28598989], [-47.16648471, -22.28584824], [-47.16660194, -22.28561378], [-47.16666544, -22.28544771], [-47.16669474, -22.28529629], [-47.16672527, -22.2848689], [-47.16671184, -22.28432184], [-47.16669474, -22.2839494], [-47.1666746, -22.28373449], [-47.16664834, -22.28354705], [-47.1666288, -22.28347927], [-47.16659828, -22.28330954], [-47.16659705, -22.28317522], [-47.16660988, -22.28312271], [-47.16663369, -22.28308058], [-47.16667948, -22.28303845], [-47.16672832, -22.28300548], [-47.1668193, -22.28296641], [-47.16690661, -22.28296641], [-47.16707512, -22.28297862], [-47.16724119, -22.2829835], [-47.16737551, -22.28296641], [-47.16754403, -22.2829542], [-47.16771987, -22.28297129], [-47.16799096, -22.28299327], [-47.16809109, -22.28299571], [-47.16818389, -22.28302258], [-47.16832066, -22.28310317], [-47.16841102, -22.28318376], [-47.16848429, -22.28327901], [-47.16872607, -22.28365267], [-47.16880178, -22.28377967], [-47.16889702, -22.2838969], [-47.16914857, -22.28431452], [-47.16939768, -22.28470527], [-47.16951002, -22.28495438], [-47.16963702, -22.28522058], [-47.16975913, -22.28544771], [-47.16989345, -22.28565286], [-47.17004243, -22.28589464], [-47.17009616, -22.28601919], [-47.17013523, -22.28617305], [-47.17021827, -22.28652473], [-47.17033305, -22.28690816], [-47.17052843, -22.28746499], [-47.17068962, -22.28779958], [-47.17085325, -22.28805845], [-47.17103886, -22.28829535], [-47.17122447, -22.28848829], [-47.17137589, -22.28868855], [-47.17152975, -22.28895719], [-47.17160179, -22.28912571], [-47.1716543, -22.28932597], [-47.17167262, -22.28952746], [-47.17167323, -22.28967643], [-47.1716659, -22.28980099], [-47.1716311, -22.29001163], [-47.17160301, -22.29009649], [-47.17154867, -22.2902296], [-47.17147297, -22.29037064], [-47.17143084, -22.29043169], [-47.17138627, -22.29048542], [-47.1712843, -22.29057578], [-47.17119394, -22.29064355], [-47.17106817, -22.2907156], [-47.1709546, -22.29075345], [-47.17086058, -22.29077605], [-47.17075495, -22.29079009], [-47.17053881, -22.29081207], [-47.17033611, -22.29081085], [-47.17021522, -22.29080352], [-47.17009188, -22.29078642], [-47.16992948, -22.29073636], [-47.16981958, -22.29069606], [-47.16955643, -22.29057151], [-47.16947431, -22.2905419], [-47.16924962, -22.29046558], [-47.16912507, -22.29043505], [-47.16888695, -22.290363], [-47.16883322, -22.2903398], [-47.16870256, -22.29024211], [-47.16858594, -22.2901661], [-47.16852733, -22.29013984], [-47.16846139, -22.2901258], [-47.16840766, -22.29013618], [-47.1683576, -22.29016488], [-47.16832768, -22.29021006], [-47.16831364, -22.29025463], [-47.16830936, -22.29029004], [-47.16832341, -22.29033278], [-47.16835638, -22.29037857], [-47.16841255, -22.29042253], [-47.16856641, -22.29050801], [-47.16892541, -22.29067164], [-47.17010745, -22.29108316], [-47.1703126, -22.29115032], [-47.1711918, -22.29136645], [-47.17206368, -22.29155573], [-47.17232866, -22.29165097], [-47.17248863, -22.29171814], [-47.17260952, -22.29178774], [-47.17273529, -22.29189398], [-47.17279635, -22.29195137], [-47.17282077, -22.29199655], [-47.17287084, -22.29204051], [-47.17290381, -22.29212477], [-47.17293311, -22.29222978], [-47.17299539, -22.29233846], [-47.17307354, -22.29243981], [-47.1733312, -22.29274021], [-47.17342766, -22.2929014], [-47.17344964, -22.29295757], [-47.17348872, -22.29307724], [-47.17349483, -22.29328605], [-47.17351925, -22.2935376], [-47.17359984, -22.29390759], [-47.17366578, -22.29409442], [-47.1737708, -22.29429102], [-47.17395335, -22.29449495], [-47.17406997, -22.29459813], [-47.17452931, -22.29494269], [-47.17481261, -22.29516738], [-47.17493676, -22.29527239], [-47.17503689, -22.29537415], [-47.17517284, -22.2955215], [-47.17527379, -22.29565867], [-47.17536618, -22.29574049], [-47.17556482, -22.29581538], [-47.17577159, -22.29582271], [-47.1759336, -22.29579829], [-47.1760956, -22.29576328], [-47.17644646, -22.29566071], [-47.17659463, -22.29560616], [-47.17680059, -22.29553697], [-47.17693817, -22.29550033], [-47.17702283, -22.29548161], [-47.17713273, -22.29542544], [-47.17723286, -22.29536764], [-47.17732241, -22.29530577], [-47.17743719, -22.29524064], [-47.17779457, -22.29506073], [-47.17796553, -22.29498747], [-47.17813974, -22.29489792], [-47.17839455, -22.29473266], [-47.17861761, -22.29459264], [-47.17880484, -22.29450553], [-47.17888137, -22.29446646], [-47.17895138, -22.2944225], [-47.17935027, -22.29413594], [-47.17946099, -22.29405209], [-47.17973533, -22.29386811], [-47.180017, -22.29370204], [-47.18016354, -22.29364261], [-47.18034752, -22.29352538], [-47.1805372, -22.2934163], [-47.18066257, -22.29335361], [-47.18131545, -22.29311183], [-47.18140012, -22.29307276], [-47.18155154, -22.29302066], [-47.18178273, -22.29296856], [-47.18224513, -22.2928725], [-47.18245191, -22.29283993], [-47.18265868, -22.29279109], [-47.18317318, -22.29261199], [-47.18341252, -22.29253384], [-47.18361766, -22.29243615], [-47.18371047, -22.29237917], [-47.18379025, -22.2923173], [-47.1838049, -22.2922538], [-47.18380816, -22.29220495], [-47.18379676, -22.29216588], [-47.18378373, -22.29206005], [-47.18380938, -22.29187973], [-47.18387817, -22.29170307], [-47.1839494, -22.29147595], [-47.18420665, -22.29076607], [-47.18425142, -22.29061547], [-47.18442808, -22.29007818], [-47.18458316, -22.28944768], [-47.18462468, -22.28926044], [-47.18466294, -22.28913181], [-47.18473783, -22.28879641], [-47.18482901, -22.28831937], [-47.18486483, -22.28808003], [-47.18495763, -22.28765996], [-47.18499915, -22.28740516], [-47.18498124, -22.28695538], [-47.18496822, -22.286887], [-47.18494705, -22.28681577], [-47.18487215, -22.28650642], [-47.1847647, -22.28624266], [-47.18466375, -22.28592028], [-47.18451559, -22.28561582], [-47.1842502, -22.28514203], [-47.18412646, -22.28490269], [-47.18402389, -22.28464381], [-47.18390992, -22.28437679], [-47.18380246, -22.28398441], [-47.18376338, -22.28364575], [-47.18374873, -22.28325988], [-47.18374384, -22.28304985], [-47.18376175, -22.28286587], [-47.18380734, -22.28266072], [-47.1838627, -22.28248976], [-47.18403203, -22.28213971], [-47.18428439, -22.28167569], [-47.18449931, -22.28130366], [-47.18458234, -22.28118968], [-47.18467026, -22.28108223], [-47.18476877, -22.28096988], [-47.18505207, -22.2807395], [-47.18514813, -22.28066705], [-47.18525233, -22.28060192], [-47.18535653, -22.28055063], [-47.18565285, -22.28045295], [-47.18598907, -22.28036095], [-47.18605989, -22.28034386], [-47.18641646, -22.28027955], [-47.18725658, -22.28018756], [-47.18738439, -22.28014441], [-47.18743568, -22.28010615], [-47.18746743, -22.28006626], [-47.18748453, -22.27995554], [-47.18747883, -22.27983669], [-47.18746336, -22.27966736], [-47.18742591, -22.27955583], [-47.18735753, -22.27943535], [-47.18725984, -22.27932626], [-47.18711738, -22.27920822], [-47.18702864, -22.27915531], [-47.18690979, -22.27909995], [-47.18669406, -22.27902913], [-47.18658863, -22.27900369], [-47.18645881, -22.27899254], [-47.18604503, -22.27894487], [-47.18596363, -22.27893937], [-47.18586757, -22.27894975], [-47.18571615, -22.2789986], [-47.18563637, -22.27903605], [-47.18555822, -22.27909466], [-47.18541494, -22.27924445], [-47.18528632, -22.27942029], [-47.18516909, -22.27961078], [-47.18504372, -22.27979151], [-47.18490533, -22.27996572], [-47.18468471, -22.28018471], [-47.18456586, -22.28031007], [-47.1844584, -22.2804501], [-47.18436071, -22.28056244], [-47.18427605, -22.28067152], [-47.18409915, -22.28085899], [-47.1839667, -22.28094505], [-47.18380714, -22.28098739], [-47.18364432, -22.2809418], [-47.18348151, -22.28083108], [-47.18327636, -22.2805543], [-47.18319821, -22.28040776], [-47.18313308, -22.28023518], [-47.18303539, -22.27992257], [-47.18300934, -22.27969138], [-47.18303214, -22.27943087], [-47.18307121, -22.27918991], [-47.18318844, -22.27891638], [-47.183348, -22.27857121], [-47.18351082, -22.27817719], [-47.18362153, -22.27790041], [-47.1837355, -22.27760408], [-47.18390808, -22.27738917], [-47.18411649, -22.27718077], [-47.18428256, -22.27706354], [-47.1844584, -22.27697562], [-47.1848459, -22.27689421], [-47.18509989, -22.27687467], [-47.18544913, -22.2768763], [-47.18578046, -22.27688444], [-47.18611584, -22.27692281], [-47.18632101, -22.27697236], [-47.18649685, -22.27705051], [-47.18674433, -22.27714169], [-47.18685178, -22.27716448], [-47.18695599, -22.27716123], [-47.1871416, -22.27712866], [-47.18731418, -22.27706028], [-47.18744769, -22.27694305], [-47.18753887, -22.27682908], [-47.18761702, -22.27667278], [-47.18766523, -22.27651526], [-47.18766098, -22.27629017], [-47.18762841, -22.27616073], [-47.18753398, -22.2759507], [-47.18738256, -22.27576509], [-47.18721486, -22.27560064], [-47.18689737, -22.27546388], [-47.1864073, -22.27531083], [-47.18615819, -22.27526036], [-47.18590827, -22.27523512], [-47.18563718, -22.27523512], [-47.18549472, -22.27526036], [-47.18536854, -22.27529374], [-47.1849615, -22.27538817], [-47.18476286, -22.27542724], [-47.18455772, -22.27544678], [-47.18416533, -22.2754191], [-47.18401229, -22.2753784], [-47.18384784, -22.27531002], [-47.18374527, -22.27523187], [-47.18366549, -22.27514232], [-47.18361827, -22.27501207], [-47.18359222, -22.27486716], [-47.18356292, -22.2746555], [-47.18357106, -22.27440151], [-47.18360525, -22.27418171], [-47.18368666, -22.27403843], [-47.18379086, -22.27388376], [-47.18388041, -22.27378118], [-47.18397891, -22.27368594], [-47.18449707, -22.27331227], [-47.18481293, -22.27307782], [-47.18505105, -22.27282668], [-47.18526392, -22.2726482], [-47.18543163, -22.27253727], [-47.18559607, -22.27244447], [-47.18597055, -22.27224909], [-47.18626036, -22.27204394], [-47.18654854, -22.27182414], [-47.18676997, -22.2716483], [-47.1869914, -22.2714513], [-47.18706629, -22.27136826], [-47.18712328, -22.27127383], [-47.18719492, -22.27113381], [-47.18723399, -22.27099867], [-47.18733168, -22.27083097], [-47.187431, -22.270717], [-47.18755637, -22.27058186], [-47.18775663, -22.27044998], [-47.18786572, -22.27039788], [-47.18805295, -22.2703816], [-47.18816367, -22.27039951], [-47.18834765, -22.27045324], [-47.18880679, -22.27049069], [-47.1890038, -22.27053627], [-47.18919266, -22.2706421], [-47.18944177, -22.27086842], [-47.18950364, -22.2709368], [-47.18954923, -22.27104914], [-47.18958179, -22.27116311], [-47.18963063, -22.27167272], [-47.18965343, -22.27186485], [-47.1897153, -22.27214163], [-47.18976089, -22.27239074], [-47.18983578, -22.27260077], [-47.18988463, -22.2727066], [-47.18994812, -22.27279941], [-47.19001813, -22.27286616], [-47.19010972, -22.27291867], [-47.19020456, -22.2729492], [-47.19031324, -22.27295612], [-47.19041581, -22.27294797], [-47.1905249, -22.27292355], [-47.19062584, -22.27287145], [-47.19071376, -22.27280795], [-47.19083262, -22.27268421], [-47.19092542, -22.27253768], [-47.19104916, -22.27238138], [-47.19116476, -22.27227392], [-47.19138619, -22.27199876], [-47.19150098, -22.27182374], [-47.19159866, -22.27166418], [-47.19172729, -22.27154369], [-47.19182823, -22.27146066], [-47.19192267, -22.27137274], [-47.19211805, -22.27127016], [-47.19221736, -22.27125714], [-47.19232156, -22.27126854], [-47.19240134, -22.27131412], [-47.19246647, -22.27137437], [-47.19251694, -22.27145414], [-47.19257718, -22.27157544], [-47.19275791, -22.27184979], [-47.19282304, -22.27193852], [-47.19290119, -22.27205982], [-47.19294922, -22.27214937], [-47.19300295, -22.27227066], [-47.19304039, -22.27239277], [-47.19305668, -22.27253361], [-47.19304935, -22.27261339], [-47.19302411, -22.27269154], [-47.19299725, -22.27274446], [-47.19296306, -22.27279249], [-47.19275282, -22.27300333], [-47.19256253, -22.27314905], [-47.19230365, -22.27339327], [-47.19205699, -22.27361145], [-47.19195604, -22.27372216], [-47.19184533, -22.27385486], [-47.19172322, -22.27403232], [-47.19160436, -22.2742277], [-47.19153354, -22.27435633], [-47.19146007, -22.27447518], [-47.19143402, -22.2745338], [-47.19139983, -22.27462904], [-47.19138354, -22.27471941], [-47.19138924, -22.27480773], [-47.19143849, -22.27494694], [-47.19147798, -22.27500637], [-47.19151502, -22.27504911], [-47.19169493, -22.27528112], [-47.19184553, -22.27548057], [-47.19194566, -22.27559535], [-47.19203928, -22.27567676], [-47.19224443, -22.27581597], [-47.19232665, -22.2758933], [-47.1924048, -22.27593889], [-47.19246993, -22.27598367], [-47.19277195, -22.27611636], [-47.19286313, -22.27614241], [-47.19294209, -22.27617253], [-47.19304792, -22.27624254], [-47.19316189, -22.27635163], [-47.19327424, -22.27642978], [-47.19338658, -22.27649002], [-47.19361289, -22.27656329], [-47.19392061, -22.27662027], [-47.19410622, -22.27666912], [-47.19442371, -22.27674239], [-47.19471027, -22.27680303], [-47.19478069, -22.27682379], [-47.19494024, -22.27688729], [-47.19499072, -22.27691008], [-47.19500374, -22.27693776], [-47.1952789, -22.27701266], [-47.195458, -22.27704848], [-47.19558174, -22.27708918], [-47.19570222, -22.27713803], [-47.19593912, -22.27728049], [-47.19603233, -22.2773562], [-47.19612147, -22.27744738], [-47.19618822, -22.27753367], [-47.19624032, -22.27762566], [-47.1962737, -22.27771276], [-47.19629568, -22.27780231], [-47.19631685, -22.27799647], [-47.19632255, -22.2781141], [-47.19631359, -22.27824883], [-47.196268, -22.27846049], [-47.19621753, -22.27863959], [-47.19611984, -22.27886997], [-47.1960653, -22.27897092], [-47.1960075, -22.27903849], [-47.19594074, -22.27910117], [-47.19587399, -22.27915653], [-47.19571443, -22.27927701], [-47.19566721, -22.27930713], [-47.19551498, -22.2794789], [-47.19543357, -22.27954729], [-47.19536682, -22.2795888], [-47.19527402, -22.27962625], [-47.19517877, -22.27965556], [-47.19504852, -22.27968242], [-47.19494187, -22.27969789], [-47.19477987, -22.27970359], [-47.1946659, -22.27970033], [-47.19461299, -22.27968649], [-47.19453158, -22.27967998], [-47.19441109, -22.27967998], [-47.1943305, -22.27968568], [-47.19426538, -22.27969952], [-47.19420432, -22.27970359], [-47.1939544, -22.27973615], [-47.19385101, -22.27974592], [-47.19351398, -22.27974511], [-47.19339757, -22.27975162], [-47.19328116, -22.27976383], [-47.19316637, -22.27978622], [-47.19305077, -22.27981959], [-47.19285458, -22.27989042], [-47.19273735, -22.27997101], [-47.19265106, -22.28006952], [-47.19259489, -22.28015337], [-47.19255989, -22.28019407], [-47.19252244, -22.2802535], [-47.19251348, -22.28028687], [-47.19251572, -22.28033409], [-47.19252936, -22.28042771], [-47.19255358, -22.28047086], [-47.192601, -22.28050525], [-47.19265737, -22.28053435], [-47.19289956, -22.28057099], [-47.19315762, -22.28057587], [-47.19326996, -22.28058401], [-47.19339289, -22.28060111], [-47.1936827, -22.28061902], [-47.19387889, -22.28062146], [-47.19438932, -22.28057424], [-47.19461645, -22.2805604], [-47.19482973, -22.28054005], [-47.19506256, -22.28052947], [-47.19531492, -22.28053191], [-47.19558194, -22.28055308], [-47.19586035, -22.28062146], [-47.19606713, -22.28064263], [-47.19635694, -22.28071589], [-47.19675584, -22.28086731], [-47.19691377, -22.28094709], [-47.1972105, -22.28115183], [-47.19726871, -22.28118602], [-47.19733098, -22.28123324], [-47.19750682, -22.28138303], [-47.19784385, -22.28168749], [-47.19808645, -22.28198707], [-47.1982688, -22.28217065], [-47.19830788, -22.28220158], [-47.19841086, -22.28236643], [-47.19845644, -22.28246534], [-47.19848657, -22.28250686], [-47.19852279, -22.28254838], [-47.19861234, -22.28260536], [-47.19874096, -22.28265421], [-47.19887447, -22.28266235], [-47.19905683, -22.28262327], [-47.19922778, -22.2825321], [-47.19932059, -22.28241813], [-47.19941502, -22.28223089], [-47.19949643, -22.28198829], [-47.19956155, -22.28177338], [-47.19959086, -22.28165452], [-47.19959737, -22.28155846], [-47.19967064, -22.28122469], [-47.19970157, -22.28111886], [-47.19976507, -22.28091046], [-47.19986439, -22.28062879], [-47.19996696, -22.28035363], [-47.20009233, -22.28009312], [-47.2003105, -22.27973819], [-47.20042936, -22.27957049], [-47.20057101, -22.27941581], [-47.20066218, -22.27924648], [-47.20079762, -22.27891237], [-47.20097703, -22.27831253], [-47.20118095, -22.27790835], [-47.20128251, -22.27780048], [-47.20136107, -22.27775591], [-47.20140991, -22.27773881], [-47.20146222, -22.2777264], [-47.20161852, -22.27772966], [-47.201739, -22.27778176], [-47.20179131, -22.27782673], [-47.2018369, -22.27790489], [-47.20186539, -22.27799036], [-47.20189877, -22.27821749], [-47.20196471, -22.27851382], [-47.20199971, -22.27859848], [-47.20199808, -22.27863186], [-47.20200134, -22.27874664], [-47.20199239, -22.27887934], [-47.20198424, -22.27892167], [-47.20198099, -22.2789811], [-47.20198424, -22.27904704], [-47.20199239, -22.27908611], [-47.20217311, -22.27922695], [-47.20234895, -22.27922695], [-47.2025834, -22.27918787], [-47.20269208, -22.27903105], [-47.20271854, -22.27903645], [-47.20274296, -22.27901854], [-47.20373012, -22.2777985], [-47.20523047, -22.27637518], [-47.20496514, -22.27564034], [-47.20458113, -22.27542406], [-47.2039874, -22.27532133], [-47.2031011, -22.27544416], [-47.20183484, -22.27560897], [-47.20077417, -22.27540186], [-47.20029923, -22.27478064], [-47.19973509, -22.27386528], [-47.19915596, -22.27199017], [-47.19836538, -22.27011782], [-47.19754378, -22.2686488], [-47.19708815, -22.26849072], [-47.19644484, -22.26756931], [-47.19634303, -22.26744094], [-47.19621245, -22.26729486], [-47.19600662, -22.26700382], [-47.19592584, -22.2668489], [-47.19583399, -22.26663532], [-47.19571336, -22.26621701], [-47.19561709, -22.26538594], [-47.19556397, -22.26519781], [-47.19554184, -22.26495435], [-47.19559053, -22.26446301], [-47.19560491, -22.26423615], [-47.19560381, -22.26396282], [-47.19563922, -22.26376805], [-47.1955684, -22.26309854], [-47.19549315, -22.26278869], [-47.19537363, -22.26246113], [-47.1952187, -22.26209373], [-47.19513903, -22.26181929], [-47.19498852, -22.26137221], [-47.19482032, -22.26097382], [-47.19470965, -22.26077906], [-47.1946324, -22.26078319], [-47.19417383, -22.26073061], [-47.19221654, -22.2597139], [-47.19142185, -22.25954741], [-47.18932019, -22.25919471], [-47.18865198, -22.2591745], [-47.18836064, -22.2594215], [-47.18796647, -22.25985001], [-47.18729158, -22.26057611], [-47.18310846, -22.26570191], [-47.18200114, -22.2670491], [-47.18087061, -22.26789768], [-47.18055609, -22.26810811], [-47.17741591, -22.27016892], [-47.17639429, -22.27087639], [-47.17536485, -22.27155932], [-47.17481526, -22.27142819], [-47.17400091, -22.27159337], [-47.17335969, -22.27146972], [-47.17212033, -22.27094637], [-47.17131237, -22.27075883], [-47.17028428, -22.27088277], [-47.16970956, -22.27123204], [-47.16837665, -22.27231871], [-47.16645123, -22.27414055], [-47.16525472, -22.27486174], [-47.16217054, -22.27678714], [-47.1612481, -22.27762587], [-47.16069145, -22.27836738], [-47.15959088, -22.27841927], [-47.1589684, -22.27797576], [-47.15722391, -22.27694111], [-47.15520195, -22.27633987], [-47.15404424, -22.276122], [-47.14411107, -22.28665272], [-47.14414534, -22.28691274], [-47.14418563, -22.28713254], [-47.14423814, -22.28737066], [-47.14431629, -22.2875465], [-47.14439078, -22.2876564], [-47.14448114, -22.28774921], [-47.14463744, -22.28788597], [-47.14493051, -22.28810577], [-47.14515153, -22.28826452], [-47.14549345, -22.28846722], [-47.14563876, -22.28855759], [-47.14595503, -22.28878105], [-47.14631526, -22.28911319], [-47.14652895, -22.28937329], [-47.14674509, -22.28966147], [-47.14687086, -22.2898483], [-47.14689529, -22.2899057], [-47.1469942, -22.290062], [-47.14722254, -22.29044421], [-47.14741426, -22.29074582], [-47.14749241, -22.29088991], [-47.14752782, -22.29097661], [-47.14755102, -22.29108041], [-47.1475901, -22.29139423], [-47.14762551, -22.29164701], [-47.14765116, -22.29179964], [-47.14771099, -22.29201578], [-47.14771099, -22.29206829], [-47.14773053, -22.29212446], [-47.14783799, -22.29231129], [-47.1478734, -22.29243585], [-47.14789416, -22.29248957], [-47.14790703, -22.29254102], [-47.14792591, -22.29268495], [-47.14796437, -22.29280951], [-47.14805046, -22.2929072], [-47.14810846, -22.29295299], [-47.14818906, -22.293], [-47.1483942, -22.29309525], [-47.14858958, -22.29322469], [-47.14871658, -22.29332482], [-47.14876542, -22.29342617], [-47.14894004, -22.29336267], [-47.14911466, -22.29333581], [-47.14924166, -22.29334802], [-47.1493772, -22.29338831], [-47.1497472, -22.29350554], [-47.14999142, -22.29354706], [-47.15009033, -22.29357453], [-47.15017825, -22.29362582], [-47.15021672, -22.29365757], [-47.15024663, -22.29370397], [-47.15034432, -22.29392744], [-47.15042736, -22.29400925], [-47.15059709, -22.29411305], [-47.15067402, -22.29414235], [-47.15084254, -22.29419242], [-47.15092435, -22.29422661], [-47.15099151, -22.29428034], [-47.15113438, -22.29441344], [-47.15131267, -22.29454044], [-47.15146653, -22.29461615], [-47.15166923, -22.29466987], [-47.1519159, -22.2946772], [-47.15217477, -22.29466499], [-47.15237504, -22.29463324], [-47.15254355, -22.2945844], [-47.15287081, -22.2944574], [-47.15309549, -22.29438658], [-47.15332995, -22.29434994], [-47.15357906, -22.29434262], [-47.15381595, -22.29438902], [-47.15398935, -22.29447205], [-47.15412612, -22.29459783], [-47.15427631, -22.29479199], [-47.15430196, -22.29487991], [-47.15431996, -22.29500051], [-47.15427387, -22.29525845], [-47.15422136, -22.29539766], [-47.1540211, -22.29586657], [-47.15394905, -22.29599356], [-47.15386602, -22.29611201], [-47.15380374, -22.29622802], [-47.15375368, -22.29635501], [-47.15369262, -22.29663098], [-47.15367552, -22.2967763], [-47.15368285, -22.29687399], [-47.15371216, -22.29698877], [-47.15377077, -22.2971121], [-47.15385747, -22.29724643], [-47.15391731, -22.2973087], [-47.15397592, -22.29735633], [-47.15404308, -22.29739296], [-47.15410536, -22.29741494], [-47.15417374, -22.29741982]]]]}}]}