{"type": "FeatureCollection", "features": [{"type": "Feature", "properties": {"name": "Estação Ecológica Barreiro Rico"}, "geometry": {"type": "MultiPolygon", "coordinates": [[[[-48.13850499, -22.68356399], [-48.14208719, -22.68227694], [-48.14803037, -22.68343735], [-48.14916599, -22.68351734], [-48.15531699, -22.68263777], [-48.15793932, -22.68366756], [-48.1612082, -22.68352556], [-48.15610807, -22.66835856], [-48.15430267, -22.66884454], [-48.15291752, -22.66921313], [-48.1508856, -22.66985076], [-48.14942225, -22.67035222], [-48.1467964, -22.67113852], [-48.14431324, -22.67185704], [-48.14085196, -22.67290186], [-48.13593844, -22.6743868], [-48.13499191, -22.67457688], [-48.13778654, -22.67951455], [-48.1380164, -22.67976167], [-48.13918724, -22.68046695], [-48.13963104, -22.68104674], [-48.13908914, -22.6814849], [-48.13868564, -22.68165802], [-48.1388772, -22.68227651], [-48.13867146, -22.68264509], [-48.13801311, -22.68340108], [-48.13850499, -22.68356399]]]]}}]}