{"type": "FeatureCollection", "features": [{"type": "Feature", "properties": {"name": "Estação Ecológica Bananal"}, "geometry": {"type": "MultiPolygon", "coordinates": [[[[-44.37113042, -22.80691268], [-44.37123084, -22.80679285], [-44.37114217, -22.80681399], [-44.3707381, -22.80677338], [-44.37013646, -22.80659747], [-44.36985474, -22.80658209], [-44.36955552, -22.80668795], [-44.36934933, -22.80683844], [-44.36919871, -22.80702537], [-44.36893674, -22.80699724], [-44.36848395, -22.80684883], [-44.36807174, -22.80677602], [-44.36757346, -22.80683881], [-44.36739517, -22.80702311], [-44.36722446, -22.80717139], [-44.3671178, -22.80741739], [-44.36728721, -22.80771996], [-44.36766034, -22.80883009], [-44.36766847, -22.80915893], [-44.3675886, -22.80946945], [-44.36949421, -22.80982541], [-44.37113042, -22.80691268]]], [[[-44.37512194, -22.80414748], [-44.37642778, -22.80364971], [-44.37684736, -22.80312868], [-44.37736956, -22.80294689], [-44.37771249, -22.80261084], [-44.37707611, -22.80257827], [-44.37604717, -22.80258735], [-44.37547207, -22.80272593], [-44.37461052, -22.8025866], [-44.37407522, -22.80260862], [-44.37367754, -22.80249062], [-44.37219508, -22.80117505], [-44.37207201, -22.80136887], [-44.37189427, -22.8016931], [-44.37192851, -22.8018543], [-44.37212741, -22.80195318], [-44.37225537, -22.8020946], [-44.37217779, -22.80222772], [-44.37210464, -22.80250006], [-44.37208199, -22.80278669], [-44.37161264, -22.80291672], [-44.3711016, -22.80312916], [-44.37070302, -22.80337916], [-44.37037908, -22.80373407], [-44.36999494, -22.80404076], [-44.36967671, -22.80410825], [-44.36960511, -22.80418872], [-44.36973942, -22.80441211], [-44.37006964, -22.80500211], [-44.37034648, -22.80533707], [-44.37050419, -22.80542884], [-44.37095803, -22.80536785], [-44.37144306, -22.80530635], [-44.37205808, -22.8053469], [-44.3723004, -22.80545209], [-44.37310556, -22.80478011], [-44.37512194, -22.80414748]]], [[[-44.36750634, -22.80945296], [-44.36759051, -22.80916061], [-44.36758272, -22.80884189], [-44.36721479, -22.80774749], [-44.36703204, -22.80742121], [-44.36715859, -22.80712957], [-44.36733948, -22.80697248], [-44.3675346, -22.80677073], [-44.36807383, -22.80670286], [-44.36850435, -22.80677882], [-44.36895441, -22.80692631], [-44.36916321, -22.80694881], [-44.36929305, -22.80678763], [-44.36951664, -22.80662438], [-44.36984261, -22.80650905], [-44.37015062, -22.8065258], [-44.37075421, -22.80670226], [-44.37113647, -22.8067408], [-44.37137096, -22.80668482], [-44.3718254, -22.80638887], [-44.37218232, -22.80619426], [-44.37254225, -22.8059805], [-44.37250405, -22.80583311], [-44.37236108, -22.80571267], [-44.37219194, -22.80556115], [-44.37202463, -22.80541722], [-44.37144565, -22.80537899], [-44.37096881, -22.80543944], [-44.37048709, -22.80550411], [-44.37029322, -22.80539142], [-44.3700036, -22.80504105], [-44.36967086, -22.80444634], [-44.36951122, -22.80418076], [-44.36963335, -22.80404322], [-44.36995881, -22.80397432], [-44.37032358, -22.80368308], [-44.37065046, -22.80332494], [-44.3710635, -22.80306577], [-44.37158547, -22.80284887], [-44.37200819, -22.80273165], [-44.37202733, -22.80248855], [-44.37210445, -22.80220142], [-44.3721616, -22.80210345], [-44.37207726, -22.80201026], [-44.37185912, -22.80190172], [-44.37181267, -22.80168266], [-44.3720026, -22.80133608], [-44.37211183, -22.80107825], [-44.37172745, -22.80063464], [-44.37116402, -22.80039683], [-44.37059481, -22.79923155], [-44.36941428, -22.79863141], [-44.36835507, -22.79851394], [-44.36700769, -22.7981582], [-44.36567702, -22.79819311], [-44.36432719, -22.79742316], [-44.36447135, -22.79534978], [-44.36424957, -22.79420086], [-44.36426264, -22.79363136], [-44.36433425, -22.79260113], [-44.36332242, -22.78927808], [-44.36392291, -22.78814933], [-44.36380135, -22.78604327], [-44.36410987, -22.78350316], [-44.36372988, -22.78210871], [-44.36343948, -22.78212788], [-44.36286462, -22.7820002], [-44.36247132, -22.78183811], [-44.36213171, -22.78171318], [-44.36188205, -22.78149963], [-44.36160492, -22.78132562], [-44.36133624, -22.78107631], [-44.36129318, -22.78067759], [-44.36122778, -22.78047625], [-44.36112574, -22.78042272], [-44.3605725, -22.78009861], [-44.35884917, -22.77829028], [-44.35777083, -22.77834278], [-44.35646173, -22.77802542], [-44.35550139, -22.77736417], [-44.35359833, -22.77572917], [-44.35118765, -22.77487259], [-44.34969623, -22.77333402], [-44.34847196, -22.77253256], [-44.34801077, -22.77221451], [-44.34603037, -22.77125782], [-44.3445975, -22.77039369], [-44.34329861, -22.76954148], [-44.34231611, -22.76873564], [-44.34173367, -22.76831536], [-44.34110177, -22.76801339], [-44.34089542, -22.76806195], [-44.34070073, -22.76833856], [-44.34033143, -22.76871011], [-44.33998796, -22.76893281], [-44.339154, -22.76926558], [-44.33867587, -22.76943749], [-44.33783872, -22.76958072], [-44.33758235, -22.77048678], [-44.33716233, -22.77088828], [-44.33661249, -22.77112113], [-44.33623083, -22.77126507], [-44.33523307, -22.77156317], [-44.33375172, -22.77213034], [-44.33077982, -22.77306495], [-44.32970755, -22.7742748], [-44.32775359, -22.77492303], [-44.32739074, -22.77613177], [-44.32746269, -22.77663577], [-44.32777541, -22.77758648], [-44.32778654, -22.77901478], [-44.32717992, -22.78048708], [-44.32839585, -22.78170591], [-44.32891042, -22.78202379], [-44.33098191, -22.78298423], [-44.33368784, -22.78460267], [-44.33546808, -22.78532941], [-44.33686202, -22.78622724], [-44.33720561, -22.78741962], [-44.33736229, -22.78902882], [-44.33663481, -22.78965659], [-44.33604065, -22.78983189], [-44.33494835, -22.79065307], [-44.35326006, -22.79102484], [-44.35395588, -22.79151844], [-44.35460082, -22.79261823], [-44.35470596, -22.79319353], [-44.35455723, -22.79426157], [-44.35439353, -22.7953636], [-44.35445065, -22.79599959], [-44.35417793, -22.79654048], [-44.35387958, -22.79693918], [-44.35364415, -22.79767091], [-44.35324863, -22.79861066], [-44.35605152, -22.8021757], [-44.35637353, -22.80478987], [-44.36002299, -22.80667969], [-44.3618297, -22.80760995], [-44.3628509, -22.80853877], [-44.36326143, -22.80870183], [-44.36597527, -22.80975238], [-44.36699172, -22.80942156], [-44.36750634, -22.80945296]]]]}}]}