{"type": "FeatureCollection", "features": [{"type": "Feature", "properties": {"name": "Estação Ecológica Jataí"}, "geometry": {"type": "MultiPolygon", "coordinates": [[[[-47.73071998, -21.67389805], [-47.73114079, -21.67341231], [-47.73145366, -21.67283563], [-47.73185169, -21.67202798], [-47.73209604, -21.67133643], [-47.73224232, -21.67038722], [-47.73226158, -21.66976447], [-47.73214109, -21.66904922], [-47.73199786, -21.66845957], [-47.73215205, -21.66775036], [-47.73227676, -21.66693241], [-47.7322999, -21.66596185], [-47.7324375, -21.66544313], [-47.73262096, -21.66458602], [-47.73295528, -21.66384611], [-47.73335278, -21.66249694], [-47.73339167, -21.66211611], [-47.73341722, -21.66181056], [-47.73346278, -21.6616475], [-47.73351861, -21.66149278], [-47.73362806, -21.66129389], [-47.73372778, -21.66108972], [-47.73384444, -21.66088694], [-47.73433, -21.66012333], [-47.73444167, -21.65986361], [-47.73451111, -21.65968667], [-47.73458194, -21.65954639], [-47.73478389, -21.65934889], [-47.73505444, -21.65918028], [-47.73540111, -21.65899], [-47.73576111, -21.65875917], [-47.73608444, -21.65850167], [-47.73639944, -21.65823361], [-47.73665028, -21.65799722], [-47.73680972, -21.6577525], [-47.73686361, -21.65763639], [-47.73694806, -21.65749583], [-47.73725833, -21.65713167], [-47.73775, -21.65611583], [-47.73824611, -21.65510083], [-47.73890139, -21.65349667], [-47.73956083, -21.65189472], [-47.74020028, -21.65028417], [-47.74083222, -21.64867139], [-47.73591235, -21.64832236], [-47.73426767, -21.64269423], [-47.73239387, -21.64192073], [-47.72963463, -21.64078713], [-47.72572838, -21.63919801], [-47.7186085, -21.63626243], [-47.71377331, -21.63430056], [-47.71120139, -21.63326143], [-47.71057482, -21.63293402], [-47.71023195, -21.63258718], [-47.71034979, -21.6328996], [-47.71034658, -21.63315703], [-47.71018766, -21.63376781], [-47.71005897, -21.63454447], [-47.71011385, -21.63474344], [-47.71023078, -21.6349814], [-47.71227426, -21.63873808], [-47.71375558, -21.64139424], [-47.71477005, -21.64332083], [-47.71606411, -21.6456712], [-47.71741798, -21.64811879], [-47.71861186, -21.6502867], [-47.71983506, -21.65242992], [-47.72127801, -21.65501205], [-47.72521554, -21.66194281], [-47.72684218, -21.66467831], [-47.72831407, -21.66725952], [-47.72913369, -21.66872599], [-47.73020971, -21.67048723], [-47.73060211, -21.67122083], [-47.73072137, -21.67163007], [-47.73069262, -21.67183158], [-47.73061031, -21.67246585], [-47.7304641, -21.67342986], [-47.73024363, -21.67454323], [-47.73025603, -21.67466796], [-47.73029056, -21.67473745], [-47.73042949, -21.67482697], [-47.73044652, -21.67439816], [-47.73071998, -21.67389805]]], [[[-47.73002114, -21.67510867], [-47.7301881, -21.67507143], [-47.73034504, -21.6749431], [-47.73019782, -21.67480794], [-47.73014241, -21.67469656], [-47.73012677, -21.67453829], [-47.73034971, -21.67341242], [-47.7304955, -21.67245167], [-47.73057763, -21.67181795], [-47.73060349, -21.67163743], [-47.73049332, -21.67125964], [-47.73010752, -21.67053838], [-47.72903192, -21.66877795], [-47.72821159, -21.66731013], [-47.7267404, -21.66473017], [-47.72511376, -21.6619945], [-47.72117544, -21.65506248], [-47.71973268, -21.65248052], [-47.71850928, -21.65033694], [-47.71731501, -21.6481685], [-47.71596114, -21.64572091], [-47.71466648, -21.64336947], [-47.71365221, -21.64144323], [-47.71217129, -21.6387876], [-47.71012642, -21.6350286], [-47.71000427, -21.6347799], [-47.70994088, -21.63454992], [-47.71007391, -21.63374673], [-47.71023085, -21.63314339], [-47.71023368, -21.63291756], [-47.70995474, -21.63217806], [-47.70989689, -21.63208936], [-47.70955918, -21.63130992], [-47.70885893, -21.62960936], [-47.70786793, -21.62705157], [-47.70632152, -21.62324934], [-47.7059058, -21.62226019], [-47.68069746, -21.63103541], [-47.68010406, -21.63239138], [-47.67969805, -21.63374197], [-47.68100896, -21.63337406], [-47.68172035, -21.63314248], [-47.68994273, -21.64211682], [-47.69066821, -21.64177908], [-47.7142705, -21.66276381], [-47.72658665, -21.6737652], [-47.72671309, -21.67388896], [-47.72892237, -21.67581807], [-47.7292345, -21.67573449], [-47.72965364, -21.67544638], [-47.73002114, -21.67510867]]], [[[-47.68054438, -21.63109619], [-47.67843042, -21.63184466], [-47.67722898, -21.63227362], [-47.67713364, -21.63243873], [-47.67719028, -21.63255717], [-47.67733326, -21.63272404], [-47.67748549, -21.6329573], [-47.67733893, -21.63321985], [-47.6774768, -21.63362775], [-47.67767832, -21.63430872], [-47.67956665, -21.63377885], [-47.6799943, -21.63235613], [-47.68054438, -21.63109619]]], [[[-47.73022528, -21.62921833], [-47.72713361, -21.62134111], [-47.726325, -21.61832111], [-47.72662028, -21.61761528], [-47.72735306, -21.61707611], [-47.72763222, -21.61723806], [-47.7288125, -21.61585167], [-47.72901, -21.61591556], [-47.72904222, -21.61603528], [-47.72914194, -21.61602861], [-47.72922278, -21.61610222], [-47.72931083, -21.6160975], [-47.72936111, -21.6161325], [-47.7293225, -21.61627389], [-47.72935944, -21.61634917], [-47.7293225, -21.61645639], [-47.72944111, -21.61657694], [-47.72954528, -21.61665083], [-47.72960056, -21.61674639], [-47.72972611, -21.61674556], [-47.72975056, -21.616815], [-47.73010833, -21.61659167], [-47.73023778, -21.61655444], [-47.73041083, -21.61651611], [-47.73049889, -21.61655194], [-47.73060833, -21.61657722], [-47.73067278, -21.61662917], [-47.73071861, -21.61673139], [-47.73080417, -21.61672306], [-47.73088861, -21.61664722], [-47.73098806, -21.61672139], [-47.73116583, -21.6166975], [-47.73116389, -21.61660889], [-47.73121528, -21.6166425], [-47.7312575, -21.61661972], [-47.73133556, -21.61666444], [-47.73168639, -21.61664472], [-47.73183583, -21.61677528], [-47.73195722, -21.61660861], [-47.73202528, -21.61658861], [-47.73215972, -21.61666444], [-47.73228611, -21.61668139], [-47.73245972, -21.61677333], [-47.73259806, -21.61686778], [-47.73278139, -21.61691639], [-47.73289889, -21.61697833], [-47.73303889, -21.6168975], [-47.7332725, -21.61683306], [-47.73336528, -21.61683417], [-47.73345722, -21.61690639], [-47.73346944, -21.61704944], [-47.73354306, -21.61715306], [-47.7336225, -21.61718278], [-47.73364778, -21.61729], [-47.73363278, -21.61734778], [-47.73392361, -21.6173875], [-47.73405194, -21.61757389], [-47.73427139, -21.6175925], [-47.73451861, -21.61770528], [-47.73475139, -21.61789528], [-47.73473806, -21.61812278], [-47.73488056, -21.61826694], [-47.73501278, -21.61831278], [-47.73504917, -21.61839444], [-47.73511083, -21.61838111], [-47.73507083, -21.61844806], [-47.73509444, -21.61849889], [-47.73548139, -21.61843361], [-47.73567333, -21.61848639], [-47.7357975, -21.61847667], [-47.73587556, -21.618535], [-47.73592833, -21.61856139], [-47.73595222, -21.61855806], [-47.73598722, -21.61865861], [-47.73616861, -21.6185375], [-47.73632944, -21.61851028], [-47.73667333, -21.61853611], [-47.73674194, -21.61845917], [-47.73691306, -21.61840917], [-47.73712861, -21.61833667], [-47.73762833, -21.618295], [-47.73780944, -21.61829972], [-47.73789083, -21.61826472], [-47.73820306, -21.61824417], [-47.73851611, -21.61820833], [-47.73857028, -21.61818194], [-47.73867139, -21.61823028], [-47.73879639, -21.61825639], [-47.73903778, -21.61836944], [-47.73911028, -21.61821722], [-47.73953889, -21.6179975], [-47.73972306, -21.61803972], [-47.73974806, -21.61797889], [-47.73983028, -21.61794861], [-47.73993611, -21.61783417], [-47.74002694, -21.61775472], [-47.74014167, -21.617695], [-47.74016222, -21.61774306], [-47.74015778, -21.61782806], [-47.74019639, -21.617955], [-47.74032944, -21.617975], [-47.74033917, -21.61809889], [-47.74028694, -21.61810917], [-47.74029583, -21.61825972], [-47.740386, -21.61843695], [-47.74070621, -21.61898884], [-47.7414528, -21.61947123], [-47.74179147, -21.62011056], [-47.74233102, -21.62066108], [-47.74279567, -21.62117195], [-47.74351508, -21.62179379], [-47.7443359, -21.62234553], [-47.74502492, -21.62294783], [-47.74567461, -21.62309282], [-47.74667969, -21.62344768], [-47.7477228, -21.62355655], [-47.74827601, -21.62303104], [-47.75037115, -21.62247116], [-47.75136778, -21.62289447], [-47.75206256, -21.62281029], [-47.75286879, -21.62288631], [-47.75416708, -21.62302638], [-47.75523918, -21.62309157], [-47.75572854, -21.62295779], [-47.75641478, -21.62286616], [-47.75714885, -21.6226654], [-47.75780045, -21.6225496], [-47.75820528, -21.6226625], [-47.75821972, -21.6227125], [-47.75830833, -21.62274306], [-47.75835194, -21.62285222], [-47.75874722, -21.62286389], [-47.75882472, -21.62308194], [-47.75915222, -21.62317167], [-47.75967139, -21.62330667], [-47.75992528, -21.62350972], [-47.76011194, -21.62353361], [-47.76013472, -21.62363889], [-47.76046056, -21.62364444], [-47.76065167, -21.62371306], [-47.76093194, -21.62369806], [-47.76106917, -21.62355889], [-47.7612375, -21.6234425], [-47.76129028, -21.62349778], [-47.76138306, -21.62349722], [-47.76153694, -21.62341528], [-47.76178361, -21.62327694], [-47.76188806, -21.62330806], [-47.76202583, -21.62320056], [-47.76216361, -21.62316528], [-47.76236111, -21.62310222], [-47.76258556, -21.62292667], [-47.76284306, -21.6227325], [-47.76304083, -21.62284333], [-47.76322222, -21.62278722], [-47.76340361, -21.62259083], [-47.76335306, -21.6223575], [-47.76352417, -21.62237944], [-47.76353889, -21.62245667], [-47.76361111, -21.62250694], [-47.76384472, -21.62230639], [-47.76398444, -21.62227528], [-47.76400889, -21.62220056], [-47.76417111, -21.62223], [-47.76434417, -21.62228222], [-47.76439484, -21.62209102], [-47.76476124, -21.62195006], [-47.76497151, -21.62191433], [-47.7653599, -21.62182789], [-47.76582851, -21.62189366], [-47.76593766, -21.621521], [-47.76617496, -21.62135357], [-47.76620172, -21.62119244], [-47.76643384, -21.62116898], [-47.76647823, -21.62091927], [-47.76670882, -21.62034374], [-47.76688168, -21.62018415], [-47.76721635, -21.62020241], [-47.76753508, -21.62014916], [-47.76774962, -21.62003871], [-47.76784411, -21.61977886], [-47.76819973, -21.61969567], [-47.76828026, -21.61950385], [-47.76842952, -21.6192412], [-47.7686112, -21.61916965], [-47.76910781, -21.61936729], [-47.76927856, -21.61955321], [-47.76967209, -21.6195647], [-47.76982874, -21.6193096], [-47.77019052, -21.61935232], [-47.77066395, -21.61924521], [-47.77095391, -21.61918685], [-47.77112633, -21.61926269], [-47.77137783, -21.61912191], [-47.77170716, -21.61896142], [-47.77192712, -21.61893302], [-47.77193543, -21.61877156], [-47.77249781, -21.61859085], [-47.77278226, -21.61853762], [-47.77318923, -21.61858075], [-47.77339806, -21.61866306], [-47.77348028, -21.61865972], [-47.77356278, -21.61870444], [-47.77363389, -21.61868083], [-47.7736575, -21.61870333], [-47.77367444, -21.61877583], [-47.77384278, -21.61887222], [-47.77392444, -21.61901583], [-47.77405917, -21.61905528], [-47.77415972, -21.61901306], [-47.77433889, -21.61899056], [-47.77438028, -21.61902083], [-47.77455667, -21.61898194], [-47.77465667, -21.61901361], [-47.77474472, -21.61898778], [-47.7749175, -21.61902917], [-47.77490694, -21.61907389], [-47.7748875, -21.61910389], [-47.77488917, -21.619175], [-47.77498306, -21.61934694], [-47.77495806, -21.61941778], [-47.77496139, -21.61950667], [-47.77505361, -21.61957], [-47.77515917, -21.61960722], [-47.77526278, -21.61959194], [-47.77528556, -21.61969944], [-47.77533694, -21.61974222], [-47.77549056, -21.61970833], [-47.77557444, -21.61981722], [-47.7756025, -21.61997417], [-47.77566917, -21.61999667], [-47.77573417, -21.61993389], [-47.77574194, -21.61995], [-47.77576083, -21.62006528], [-47.77587861, -21.62013944], [-47.77588361, -21.62022361], [-47.77596722, -21.62029222], [-47.77612278, -21.62042972], [-47.77613361, -21.62045472], [-47.77617417, -21.62058333], [-47.77615167, -21.62072944], [-47.77622361, -21.62079167], [-47.776255, -21.62091583], [-47.77639806, -21.62095194], [-47.77649556, -21.62090583], [-47.77652167, -21.62090639], [-47.77652472, -21.62091694], [-47.77647611, -21.62101111], [-47.77652222, -21.6210975], [-47.77661417, -21.62116333], [-47.77662417, -21.6212525], [-47.77659667, -21.62134556], [-47.77656333, -21.62143639], [-47.7766925, -21.62145417], [-47.77673111, -21.62152861], [-47.77679306, -21.62168694], [-47.77685972, -21.62171583], [-47.77694389, -21.62174222], [-47.77697583, -21.62179778], [-47.77695861, -21.62188], [-47.77704639, -21.62192028], [-47.77710194, -21.62197472], [-47.77712917, -21.62204389], [-47.77720556, -21.62204667], [-47.77730833, -21.62212917], [-47.77756111, -21.62220306], [-47.77765583, -21.62230778], [-47.77766861, -21.62241472], [-47.77773139, -21.62258111], [-47.7777125, -21.62274278], [-47.77775444, -21.62276333], [-47.7778575, -21.62276639], [-47.77791583, -21.62280056], [-47.77819778, -21.62298528], [-47.77829556, -21.62308194], [-47.77834722, -21.62307389], [-47.77837667, -21.62308889], [-47.77839333, -21.6232075], [-47.77843556, -21.62321722], [-47.77866389, -21.62328167], [-47.77871, -21.62323528], [-47.77869694, -21.62317472], [-47.77873667, -21.623155], [-47.77875583, -21.62316389], [-47.77875, -21.62320889], [-47.77883556, -21.62327639], [-47.77899806, -21.62328611], [-47.77901833, -21.62329778], [-47.77912194, -21.62344222], [-47.7793175, -21.62354444], [-47.77937472, -21.62355611], [-47.77952667, -21.62343694], [-47.77954833, -21.62345917], [-47.77979278, -21.6236725], [-47.78007111, -21.62391194], [-47.78029, -21.62411972], [-47.78032222, -21.62417944], [-47.78039389, -21.62433083], [-47.78052806, -21.624535], [-47.78067861, -21.62479889], [-47.78084222, -21.62498444], [-47.78111028, -21.62521472], [-47.78133361, -21.62541139], [-47.78154694, -21.62570889], [-47.78156194, -21.6257975], [-47.78168278, -21.62594056], [-47.78171833, -21.62601167], [-47.781745, -21.62622194], [-47.78181806, -21.62632306], [-47.7820225, -21.62690944], [-47.78201528, -21.62709306], [-47.78208444, -21.62725917], [-47.78206556, -21.627375], [-47.78213417, -21.62753667], [-47.78221944, -21.62767722], [-47.78238194, -21.62777028], [-47.78261972, -21.62778917], [-47.78281222, -21.62765389], [-47.78294028, -21.62736667], [-47.78305972, -21.62679694], [-47.78326361, -21.62621611], [-47.7836025, -21.62589972], [-47.78419139, -21.62558944], [-47.78465528, -21.62518639], [-47.78513, -21.62508111], [-47.78564389, -21.62529361], [-47.78635833, -21.62547778], [-47.78695222, -21.6254625], [-47.78800916, -21.62577331], [-47.78829503, -21.62576346], [-47.78852215, -21.62567524], [-47.78874373, -21.62566602], [-47.78907184, -21.62579962], [-47.78922773, -21.626029], [-47.78975261, -21.62585165], [-47.79003198, -21.6260961], [-47.79048101, -21.62619192], [-47.79049625, -21.62642213], [-47.79091061, -21.6264622], [-47.79114397, -21.62642768], [-47.79142585, -21.62655636], [-47.79172954, -21.62642389], [-47.79208003, -21.62647595], [-47.79239234, -21.62676625], [-47.7929071, -21.62673575], [-47.79319163, -21.62675615], [-47.79346836, -21.62642689], [-47.79388858, -21.62646495], [-47.7942415, -21.62639195], [-47.79463952, -21.62626989], [-47.79558053, -21.62636527], [-47.79590144, -21.62624432], [-47.79629945, -21.62628727], [-47.79647473, -21.62649059], [-47.79647177, -21.62665313], [-47.79678127, -21.62676193], [-47.79688655, -21.62637831], [-47.79714259, -21.62633365], [-47.79744194, -21.62662244], [-47.79776098, -21.62667556], [-47.79810138, -21.62672508], [-47.79824318, -21.62692941], [-47.79855667, -21.62684956], [-47.79880773, -21.62695194], [-47.79893594, -21.62678684], [-47.79940439, -21.62705825], [-47.79960541, -21.62718395], [-47.80074628, -21.62722944], [-47.8009305, -21.62739505], [-47.80119481, -21.62708322], [-47.80168403, -21.62713473], [-47.80181854, -21.62717625], [-47.80179118, -21.62701413], [-47.80193344, -21.62695179], [-47.8023579, -21.62703951], [-47.8027324, -21.62692974], [-47.80304332, -21.62720704], [-47.80319383, -21.62729685], [-47.80342475, -21.62724141], [-47.80374224, -21.62754423], [-47.80401114, -21.62761525], [-47.80409355, -21.62784838], [-47.80458818, -21.62800495], [-47.80476646, -21.62829785], [-47.80457099, -21.62833961], [-47.80436066, -21.6284717], [-47.80457342, -21.62846026], [-47.80597879, -21.62856317], [-47.80696263, -21.62872538], [-47.80767771, -21.62900387], [-47.8086032, -21.6295182], [-47.80980449, -21.63020569], [-47.81043028, -21.63040372], [-47.81074844, -21.63036115], [-47.81107753, -21.630065], [-47.81144579, -21.62931368], [-47.81189668, -21.62830766], [-47.81245773, -21.62752653], [-47.81322301, -21.62628419], [-47.81424429, -21.62528006], [-47.8147702, -21.62485393], [-47.81568736, -21.62445095], [-47.816917, -21.62413212], [-47.81753409, -21.62388317], [-47.81786056, -21.623453], [-47.81788227, -21.62288023], [-47.8177581, -21.62182438], [-47.81750747, -21.62082275], [-47.81723254, -21.62021647], [-47.81680755, -21.61974181], [-47.81639687, -21.61953267], [-47.81559756, -21.6186075], [-47.81517347, -21.61770566], [-47.81522801, -21.61714245], [-47.8154876, -21.6165494], [-47.81585674, -21.61626006], [-47.81635337, -21.61596847], [-47.81724991, -21.61574466], [-47.81844951, -21.6155232], [-47.81912335, -21.61532545], [-47.81964073, -21.61486966], [-47.8198777, -21.61424161], [-47.82002899, -21.61341208], [-47.82016702, -21.61230701], [-47.82047262, -21.6116238], [-47.82115754, -21.61117266], [-47.82241531, -21.61074708], [-47.82306133, -21.6107585], [-47.82367097, -21.61094926], [-47.82479032, -21.61111656], [-47.82704744, -21.61133997], [-47.82779228, -21.61151361], [-47.82841342, -21.61188299], [-47.82922322, -21.61253232], [-47.82969839, -21.6130644], [-47.83035146, -21.61426027], [-47.83078439, -21.61478928], [-47.8311875, -21.6150209], [-47.831371, -21.61502518], [-47.83233954, -21.61399541], [-47.83319349, -21.61314948], [-47.83367533, -21.61250793], [-47.83393839, -21.61169139], [-47.83387835, -21.61065676], [-47.83366683, -21.61003706], [-47.83331027, -21.60933525], [-47.83269834, -21.60861558], [-47.83188264, -21.60766829], [-47.83125942, -21.60682442], [-47.83086115, -21.60602655], [-47.83069438, -21.60523962], [-47.83083497, -21.60462241], [-47.83136152, -21.60382367], [-47.83177227, -21.60322063], [-47.83175483, -21.60273664], [-47.83148478, -21.6023761], [-47.83072845, -21.60201652], [-47.83034727, -21.60196226], [-47.82963148, -21.60204892], [-47.82866538, -21.60197599], [-47.82823984, -21.6018193], [-47.8280593, -21.60155418], [-47.82793935, -21.60088588], [-47.82813307, -21.60052837], [-47.82881222, -21.59991255], [-47.82956376, -21.59958021], [-47.83034019, -21.59938646], [-47.83083759, -21.59935714], [-47.83142, -21.59950005], [-47.83239842, -21.59992417], [-47.8330542, -21.60039919], [-47.83360744, -21.60095232], [-47.8341326, -21.60158934], [-47.83442241, -21.60222549], [-47.83482407, -21.60300353], [-47.83528101, -21.60357219], [-47.83580847, -21.60394522], [-47.83634777, -21.60415826], [-47.83687413, -21.60409367], [-47.83735279, -21.60387021], [-47.83778222, -21.6034045], [-47.83805118, -21.60271919], [-47.83824106, -21.60176046], [-47.8382018, -21.60088597], [-47.83813231, -21.59999124], [-47.83824215, -21.59931849], [-47.83847708, -21.59879354], [-47.8388268, -21.59843336], [-47.83930611, -21.59824455], [-47.83976001, -21.59827155], [-47.84023813, -21.59840231], [-47.84071937, -21.5986927], [-47.84105672, -21.59922177], [-47.84122935, -21.59963388], [-47.84136976, -21.60035381], [-47.84141158, -21.60135327], [-47.84135909, -21.60208047], [-47.84125985, -21.60270727], [-47.84107671, -21.6032243], [-47.84078198, -21.60373638], [-47.84036325, -21.60410217], [-47.83961972, -21.60484415], [-47.83918445, -21.60538642], [-47.83903465, -21.60570844], [-47.83906885, -21.60593705], [-47.83922664, -21.60602462], [-47.83961292, -21.60601803], [-47.84029151, -21.60575648], [-47.84066715, -21.6051217], [-47.84114141, -21.60391203], [-47.84155279, -21.60273079], [-47.84190314, -21.60218058], [-47.84339933, -21.60105291], [-47.84421994, -21.60034507], [-47.84463495, -21.59971115], [-47.84501272, -21.59867834], [-47.84533229, -21.597681], [-47.8458571, -21.59676419], [-47.84590449, -21.59666084], [-47.84581372, -21.59644629], [-47.84554967, -21.59602853], [-47.84515406, -21.59562575], [-47.8441597, -21.59482095], [-47.84373919, -21.59362739], [-47.84385581, -21.5933128], [-47.84405902, -21.59200116], [-47.84402926, -21.59090824], [-47.84356747, -21.58977957], [-47.84292375, -21.58913991], [-47.84276656, -21.58887513], [-47.84265698, -21.58875948], [-47.84258697, -21.58858005], [-47.84228343, -21.58849623], [-47.8422054, -21.58835548], [-47.84230449, -21.58809201], [-47.84252113, -21.58786254], [-47.84267674, -21.58768585], [-47.84278782, -21.58726077], [-47.84269152, -21.58685639], [-47.84264753, -21.58659067], [-47.84246087, -21.58625002], [-47.8421568, -21.58590651], [-47.84204851, -21.58556552], [-47.84179019, -21.58522158], [-47.84156529, -21.5847906], [-47.84142944, -21.58456021], [-47.84142718, -21.58439487], [-47.84143813, -21.58433312], [-47.84142935, -21.58419968], [-47.84145614, -21.58410877], [-47.84141704, -21.5840142], [-47.84144276, -21.58394751], [-47.84147648, -21.58384556], [-47.84143533, -21.58367042], [-47.84143967, -21.58349757], [-47.8413068, -21.58300436], [-47.84130984, -21.58274487], [-47.84135961, -21.58249596], [-47.84127036, -21.58222027], [-47.84117535, -21.58198566], [-47.84107239, -21.58180363], [-47.84098155, -21.58151587], [-47.84084679, -21.58142041], [-47.84074439, -21.58127683], [-47.8405281, -21.58106396], [-47.84037852, -21.58089149], [-47.84028492, -21.58082295], [-47.84020897, -21.58071411], [-47.84022068, -21.58059214], [-47.84015122, -21.58047011], [-47.84006361, -21.58037682], [-47.84006349, -21.58027672], [-47.84002162, -21.58019854], [-47.84000027, -21.58008372], [-47.83999886, -21.57992261], [-47.83994718, -21.57982573], [-47.84004703, -21.57952217], [-47.83990908, -21.57941629], [-47.83979602, -21.57937444], [-47.83965679, -21.57918328], [-47.83967877, -21.57911773], [-47.83973783, -21.57906825], [-47.83969919, -21.57882356], [-47.83946856, -21.57870644], [-47.83943484, -21.57861061], [-47.83931392, -21.57851663], [-47.83926415, -21.57837449], [-47.83931846, -21.57822995], [-47.83919088, -21.57811125], [-47.83917733, -21.57798574], [-47.83904489, -21.57764769], [-47.8389932, -21.57758511], [-47.838974, -21.57746195], [-47.83887098, -21.5772717], [-47.83886183, -21.57720326], [-47.83894251, -21.57716857], [-47.83886082, -21.57689392], [-47.83878736, -21.57675923], [-47.83874792, -21.57659272], [-47.8387472, -21.5763677], [-47.83866788, -21.57625937], [-47.83868114, -21.57617231], [-47.83869966, -21.57607775], [-47.83862162, -21.57587146], [-47.8385485, -21.57569001], [-47.83853575, -21.57535776], [-47.83855486, -21.57507571], [-47.83850921, -21.57492213], [-47.83843705, -21.57475519], [-47.83843411, -21.57463897], [-47.83836802, -21.57448628], [-47.83838818, -21.57436209], [-47.83837054, -21.57423448], [-47.83834318, -21.57416733], [-47.83835361, -21.57403897], [-47.8383207, -21.573935], [-47.83834146, -21.57373741], [-47.83829174, -21.57366713], [-47.83825079, -21.57359624], [-47.83823493, -21.57352529], [-47.83822712, -21.57339191], [-47.83826356, -21.57331086], [-47.83820746, -21.57312126], [-47.83819986, -21.57305766], [-47.83803102, -21.57297099], [-47.83793821, -21.57287861], [-47.83797097, -21.57280655], [-47.83809281, -21.57275925], [-47.83816262, -21.57271672], [-47.83812439, -21.57230981], [-47.83808705, -21.57223633], [-47.83806211, -21.57206064], [-47.83805956, -21.57197412], [-47.83802666, -21.57185119], [-47.83806313, -21.57176111], [-47.83797623, -21.57165012], [-47.83792412, -21.57141721], [-47.83795065, -21.57135754], [-47.83783831, -21.57126793], [-47.83785291, -21.57112081], [-47.83788199, -21.57101361], [-47.83785749, -21.57091979], [-47.83789039, -21.57083023], [-47.83790196, -21.57070094], [-47.83782975, -21.57059602], [-47.83774974, -21.57055604], [-47.83770945, -21.57049417], [-47.83761989, -21.57043422], [-47.83763683, -21.5703526], [-47.83760717, -21.57029163], [-47.83765696, -21.57023671], [-47.83763307, -21.57015958], [-47.83759722, -21.57014755], [-47.83759393, -21.57008767], [-47.83754733, -21.57005823], [-47.83746696, -21.57009408], [-47.83739678, -21.5700681], [-47.83736395, -21.57003237], [-47.83742682, -21.56993092], [-47.8374298, -21.56982643], [-47.83738701, -21.56971035], [-47.83730292, -21.56955472], [-47.83724189, -21.56935464], [-47.83718895, -21.56921779], [-47.83722052, -21.56910974], [-47.83723012, -21.56896334], [-47.83725607, -21.56880926], [-47.83723828, -21.5685402], [-47.83713762, -21.56843053], [-47.83706766, -21.56831699], [-47.83706961, -21.56806537], [-47.83711616, -21.56786906], [-47.83716906, -21.56756278], [-47.83725213, -21.56742776], [-47.83731681, -21.56733007], [-47.83729789, -21.56717134], [-47.83730521, -21.56702651], [-47.8372346, -21.56686478], [-47.83721687, -21.56676209], [-47.83715342, -21.56665557], [-47.83710107, -21.56646996], [-47.83711197, -21.56638998], [-47.83707247, -21.56625985], [-47.8369496, -21.56618919], [-47.83680097, -21.56597517], [-47.8367752, -21.56581664], [-47.8366652, -21.56563383], [-47.83653167, -21.56532783], [-47.83647958, -21.56509583], [-47.83656353, -21.56489725], [-47.83645857, -21.56461162], [-47.83636009, -21.56448006], [-47.83629465, -21.56437511], [-47.83625988, -21.56420509], [-47.83623338, -21.56411293], [-47.83614444, -21.56387649], [-47.83606536, -21.56380517], [-47.83596647, -21.56358813], [-47.83593445, -21.56342015], [-47.83588715, -21.56312189], [-47.83584271, -21.56290131], [-47.83576499, -21.56276569], [-47.83568656, -21.56252863], [-47.83563249, -21.56230379], [-47.83564763, -21.56194173], [-47.83557914, -21.5618334], [-47.83556033, -21.56170527], [-47.83556173, -21.56152886], [-47.83552974, -21.56133812], [-47.83550668, -21.56112999], [-47.8354959, -21.5609824], [-47.83550084, -21.56076558], [-47.83553567, -21.56061126], [-47.83554978, -21.56041378], [-47.83550306, -21.56021472], [-47.83562051, -21.55997766], [-47.83560115, -21.55986506], [-47.83566385, -21.55952693], [-47.83572609, -21.5593976], [-47.8357236, -21.55927984], [-47.82632551, -21.55922467], [-47.81998403, -21.55917834], [-47.80466423, -21.55903885], [-47.7962549, -21.5589126], [-47.7960081, -21.55932242], [-47.79577921, -21.55954445], [-47.79553587, -21.55984264], [-47.79519297, -21.56025354], [-47.7951998, -21.56044362], [-47.79496619, -21.56100804], [-47.79477425, -21.56152653], [-47.79476999, -21.56180256], [-47.79471522, -21.56210634], [-47.79447758, -21.56262677], [-47.79435539, -21.56284728], [-47.79401069, -21.56325541], [-47.79390608, -21.56342137], [-47.79360136, -21.56363473], [-47.79341236, -21.56394943], [-47.79314934, -21.56432432], [-47.79291049, -21.56468138], [-47.79274463, -21.56501031], [-47.7924528, -21.5653929], [-47.79209674, -21.56585294], [-47.79200964, -21.56598611], [-47.79179361, -21.56620015], [-47.79165471, -21.5664603], [-47.79137826, -21.56662309], [-47.79130354, -21.56698949], [-47.7912025, -21.56723158], [-47.79121934, -21.56755122], [-47.79113025, -21.56777216], [-47.79112504, -21.56808468], [-47.79103319, -21.56834259], [-47.7910222, -21.56863047], [-47.79094494, -21.56887441], [-47.79073232, -21.56914527], [-47.79059186, -21.56941528], [-47.79042495, -21.56962932], [-47.79021356, -21.5699294], [-47.78997202, -21.57022783], [-47.78986864, -21.57055399], [-47.78972797, -21.57096943], [-47.78956587, -21.57123313], [-47.78960886, -21.57162852], [-47.78949109, -21.57201487], [-47.7892588, -21.57250876], [-47.78912212, -21.57284532], [-47.78895423, -21.57320516], [-47.78873787, -21.57335665], [-47.78848447, -21.57368136], [-47.78821966, -21.57383799], [-47.78728749, -21.5747417], [-47.78640985, -21.57536862], [-47.78621962, -21.57609434], [-47.78585272, -21.57642447], [-47.78531358, -21.57684161], [-47.78496728, -21.57690653], [-47.78464521, -21.57695128], [-47.7844252, -21.577014], [-47.784369, -21.57706278], [-47.78429501, -21.57723138], [-47.78421996, -21.57734422], [-47.78418363, -21.57746299], [-47.78426257, -21.57755357], [-47.78424327, -21.57760435], [-47.78409818, -21.57775925], [-47.78396997, -21.57786782], [-47.78382356, -21.57781259], [-47.78372069, -21.57774254], [-47.78362901, -21.5777578], [-47.78350901, -21.57776594], [-47.78346325, -21.57765432], [-47.78337178, -21.57755989], [-47.7833937, -21.57744921], [-47.78337705, -21.57737601], [-47.78320913, -21.57728078], [-47.78307791, -21.57727268], [-47.78301819, -21.57734933], [-47.78293319, -21.57736095], [-47.78287187, -21.57716193], [-47.78268553, -21.57701186], [-47.7825939, -21.57679286], [-47.78240465, -21.57672245], [-47.78223795, -21.57649892], [-47.78212999, -21.57651598], [-47.78183174, -21.57651474], [-47.78164131, -21.57638757], [-47.78149323, -21.57649196], [-47.78116673, -21.57655754], [-47.78091396, -21.57672407], [-47.780752, -21.57691039], [-47.78046968, -21.57684903], [-47.78025705, -21.57666608], [-47.78020527, -21.57658777], [-47.78004055, -21.57676078], [-47.77964242, -21.57693705], [-47.77955249, -21.57726669], [-47.77933298, -21.57735539], [-47.77907987, -21.57747381], [-47.77876957, -21.57746843], [-47.77841718, -21.57736093], [-47.77806743, -21.57733644], [-47.7776564, -21.57740821], [-47.77727212, -21.57745524], [-47.77683016, -21.57778796], [-47.77654155, -21.57803407], [-47.77628255, -21.57806177], [-47.77596885, -21.57826768], [-47.77516614, -21.57856064], [-47.77477516, -21.57867729], [-47.77422313, -21.57880024], [-47.7735508, -21.57916432], [-47.7734853, -21.57925686], [-47.77292597, -21.57920976], [-47.77280415, -21.57937608], [-47.77242288, -21.57942468], [-47.77186913, -21.57994431], [-47.77146564, -21.58009339], [-47.77114914, -21.58028489], [-47.77090339, -21.58022281], [-47.7706931, -21.58048711], [-47.77050568, -21.58049791], [-47.77013829, -21.5806017], [-47.76969909, -21.58067482], [-47.7694115, -21.58091485], [-47.76903711, -21.58102607], [-47.76874769, -21.58104822], [-47.76848034, -21.58123574], [-47.76807474, -21.58129476], [-47.7677447, -21.58139323], [-47.76738871, -21.58152345], [-47.76714378, -21.58167729], [-47.76681576, -21.58194345], [-47.76649531, -21.58212039], [-47.76619197, -21.5823596], [-47.76603198, -21.58273743], [-47.76570631, -21.58296988], [-47.76513778, -21.58306924], [-47.76481788, -21.58294465], [-47.76481982, -21.58383977], [-47.76491242, -21.58428896], [-47.76521252, -21.58459], [-47.76483621, -21.58497197], [-47.76468361, -21.58520037], [-47.76409387, -21.58585571], [-47.76378822, -21.58648692], [-47.7636358, -21.587005], [-47.76330207, -21.58737778], [-47.76311457, -21.58764413], [-47.76301844, -21.58788865], [-47.76267455, -21.58820436], [-47.76233042, -21.58858922], [-47.7622282, -21.58900572], [-47.7619025, -21.58926832], [-47.76148454, -21.58998426], [-47.76131071, -21.59024939], [-47.76078218, -21.59126299], [-47.7604046, -21.59144719], [-47.76002212, -21.59183602], [-47.759877, -21.59211855], [-47.75975255, -21.59210138], [-47.75732627, -21.5918689], [-47.75627994, -21.60101776], [-47.73050157, -21.59846252], [-47.72871842, -21.5990978], [-47.72859758, -21.59896952], [-47.72795138, -21.59804207], [-47.72768155, -21.59797861], [-47.72734836, -21.59799536], [-47.72703654, -21.59756129], [-47.72728464, -21.59726401], [-47.72684918, -21.59668616], [-47.72626875, -21.59622219], [-47.72540424, -21.59513527], [-47.72529864, -21.59319753], [-47.72519682, -21.59121441], [-47.72500817, -21.59094947], [-47.72401883, -21.59026063], [-47.72321666, -21.58975242], [-47.72273543, -21.58855756], [-47.72268677, -21.58822154], [-47.7177595, -21.58756798], [-47.71798332, -21.58868852], [-47.71781117, -21.58888218], [-47.71760147, -21.5890193], [-47.71737513, -21.58928868], [-47.71703501, -21.58952778], [-47.71671993, -21.58958889], [-47.71589158, -21.58955394], [-47.71549825, -21.58967835], [-47.71511614, -21.58989213], [-47.71486622, -21.58996888], [-47.71461454, -21.59022043], [-47.71440249, -21.59028294], [-47.71409405, -21.59042049], [-47.71378072, -21.59063721], [-47.71350218, -21.59067019], [-47.71317466, -21.5908095], [-47.71289992, -21.59096826], [-47.71277166, -21.59103698], [-47.71272579, -21.59125322], [-47.71237706, -21.59152883], [-47.71225343, -21.59159719], [-47.71199237, -21.59188456], [-47.71184222, -21.59217697], [-47.71169601, -21.59238518], [-47.71150039, -21.59244452], [-47.71127848, -21.59267248], [-47.71113105, -21.59289885], [-47.71111897, -21.59319831], [-47.71098094, -21.59331765], [-47.71091348, -21.5935829], [-47.7107783, -21.59384455], [-47.71093953, -21.59398601], [-47.71111381, -21.59406631], [-47.71110618, -21.59431993], [-47.71076316, -21.59452431], [-47.71084398, -21.59471708], [-47.71110173, -21.59493072], [-47.71103733, -21.59516793], [-47.71095402, -21.59542143], [-47.71078317, -21.59562896], [-47.71068309, -21.59580148], [-47.71083568, -21.5960385], [-47.71097049, -21.5961709], [-47.71091272, -21.5963133], [-47.71094505, -21.59664445], [-47.71066861, -21.59682707], [-47.71063118, -21.59706141], [-47.71073596, -21.59746784], [-47.71087497, -21.5973957], [-47.71100445, -21.59750083], [-47.71098766, -21.59761504], [-47.71111594, -21.59774448], [-47.7112608, -21.59776838], [-47.71122516, -21.59789707], [-47.71124742, -21.59819028], [-47.71141257, -21.59832887], [-47.71164725, -21.59837154], [-47.71158766, -21.59851487], [-47.71172102, -21.59865208], [-47.71198442, -21.59870746], [-47.7121964, -21.59883156], [-47.71212688, -21.5991827], [-47.71244836, -21.59944792], [-47.71271717, -21.59957101], [-47.71263036, -21.5998697], [-47.71279263, -21.60002458], [-47.7129755, -21.60000625], [-47.71291247, -21.60045677], [-47.71295745, -21.60078229], [-47.71309144, -21.60093267], [-47.71329665, -21.60138693], [-47.71321034, -21.60151571], [-47.71338866, -21.60155867], [-47.71346911, -21.60183504], [-47.71356006, -21.60192347], [-47.71341641, -21.60221298], [-47.71342472, -21.60233237], [-47.71359106, -21.60236929], [-47.71371555, -21.60244471], [-47.71371622, -21.60254807], [-47.71372894, -21.60288323], [-47.71333996, -21.60298916], [-47.71332725, -21.60326019], [-47.71359871, -21.60341555], [-47.71369356, -21.60378079], [-47.71389492, -21.60401791], [-47.71381058, -21.60434058], [-47.71358795, -21.60482023], [-47.71458764, -21.60607048], [-47.71595147, -21.6069683], [-47.71638265, -21.60721375], [-47.71665283, -21.60733139], [-47.71716625, -21.60742637], [-47.71782777, -21.60783226], [-47.71849486, -21.60821026], [-47.71986562, -21.60877454], [-47.72083501, -21.60916447], [-47.72141088, -21.60887754], [-47.72201683, -21.60922736], [-47.72206924, -21.61074213], [-47.72248882, -21.61130048], [-47.72313222, -21.61176803], [-47.72359122, -21.61288868], [-47.72484276, -21.61351698], [-47.72532731, -21.6140895], [-47.72616669, -21.61473086], [-47.72671187, -21.61495808], [-47.72701949, -21.61517104], [-47.70602444, -21.62222305], [-47.70642971, -21.62321084], [-47.70797652, -21.62701387], [-47.70896752, -21.62957147], [-47.70966697, -21.63127007], [-47.71000064, -21.63204054], [-47.71029515, -21.63249163], [-47.71064736, -21.6328478], [-47.71125268, -21.63316417], [-47.71381934, -21.63420123], [-47.71865492, -21.63616327], [-47.72577479, -21.63909885], [-47.72968105, -21.64068797], [-47.73244047, -21.64182157], [-47.73423311, -21.64256616], [-47.73217667, -21.63568028], [-47.73022528, -21.62921833]]], [[[-47.81985012, -21.54734692], [-47.82325234, -21.54601478], [-47.80654694, -21.54154083], [-47.80441139, -21.55217], [-47.80350556, -21.55310333], [-47.80305333, -21.55340361], [-47.8026259, -21.5540364], [-47.80340563, -21.55372755], [-47.80839027, -21.55180279], [-47.81985012, -21.54734692]]], [[[-47.83839276, -21.54047139], [-47.83878625, -21.5387327], [-47.83912699, -21.53740698], [-47.83936803, -21.53613892], [-47.83925613, -21.53441416], [-47.83817749, -21.53196917], [-47.83607167, -21.52894199], [-47.83326858, -21.52515192], [-47.83146806, -21.52277366], [-47.82940614, -21.52047337], [-47.82658725, -21.5197517], [-47.82455586, -21.51579166], [-47.82404283, -21.51590588], [-47.82370346, -21.51596623], [-47.82337846, -21.51602156], [-47.82187127, -21.51624386], [-47.82071744, -21.51644581], [-47.82035894, -21.51653474], [-47.81888123, -21.51698507], [-47.81666112, -21.51768354], [-47.81561233, -21.51799047], [-47.81399461, -21.51847165], [-47.81270704, -21.51886375], [-47.81199575, -21.51905917], [-47.81177806, -21.5191115], [-47.811563, -21.51914058], [-47.81119361, -21.5191825], [-47.80658639, -21.54136417], [-47.82337433, -21.54590655], [-47.82646542, -21.54475484], [-47.83042858, -21.54525284], [-47.83718238, -21.54617183], [-47.83747193, -21.54620581], [-47.83763336, -21.54415305], [-47.83782576, -21.54286885], [-47.83839276, -21.54047139]]]]}}]}