{"type": "FeatureCollection", "features": [{"type": "Feature", "properties": {"name": "Estação Ecológica Mata do Jacaré  São Carlos"}, "geometry": {"type": "MultiPolygon", "coordinates": [[[[-48.01737056, -22.08978639], [-48.02515806, -22.08538389], [-48.02862278, -22.08330278], [-48.0331775, -22.08053556], [-48.03636806, -22.07886167], [-48.03434417, -22.0782275], [-48.03015083, -22.07889278], [-48.02694111, -22.07771389], [-48.02281722, -22.08155083], [-48.02094167, -22.08411333], [-48.01911778, -22.08788139], [-48.01737056, -22.08978639]]]]}}]}