{"type": "FeatureCollection", "features": [{"type": "Feature", "properties": {"name": "Estação Ecológica Avaré"}, "geometry": {"type": "MultiPolygon", "coordinates": [[[[-48.81083192, -23.02342192], [-48.81083425, -23.02342076], [-48.81226381, -23.02264841], [-48.81226462, -23.02264798], [-48.81227588, -23.02264241], [-48.81228751, -23.02263753], [-48.81229946, -23.02263337], [-48.81231168, -23.02262994], [-48.81232412, -23.02262725], [-48.81233671, -23.02262533], [-48.81234942, -23.02262417], [-48.81236218, -23.02262379], [-48.81237494, -23.02262417], [-48.81238765, -23.02262533], [-48.81240025, -23.02262726], [-48.81241268, -23.02262994], [-48.8124249, -23.02263337], [-48.81243685, -23.02263754], [-48.81244848, -23.02264242], [-48.81245974, -23.02264799], [-48.81247058, -23.02265423], [-48.81248096, -23.02266111], [-48.81249082, -23.02266861], [-48.81250014, -23.02267669], [-48.81250887, -23.02268531], [-48.81251697, -23.02269445], [-48.81252333, -23.02270258], [-48.81352972, -23.02406758], [-48.81353103, -23.02406925], [-48.81353129, -23.02406954], [-48.81353175, -23.02406944], [-48.81353378, -23.02406888], [-48.81355822, -23.02406148], [-48.81356045, -23.0240607], [-48.81356288, -23.02405969], [-48.81361935, -23.02403349], [-48.81362232, -23.02403201], [-48.81362392, -23.02403111], [-48.8136498, -23.02401568], [-48.81365051, -23.02401524], [-48.81365112, -23.02401486], [-48.81370209, -23.02398223], [-48.81370467, -23.02398061], [-48.81371202, -23.02397629], [-48.81376792, -23.02394496], [-48.81377023, -23.02394368], [-48.81383698, -23.02390744], [-48.81383736, -23.02390723], [-48.81390298, -23.02387178], [-48.81390379, -23.02387134], [-48.81391262, -23.0238669], [-48.81412416, -23.02376694], [-48.81412788, -23.02376509], [-48.81413753, -23.02376003], [-48.8144397, -23.02360163], [-48.81444201, -23.02360043], [-48.81469913, -23.02346987], [-48.81470668, -23.02346623], [-48.8147093, -23.02346506], [-48.81487284, -23.0233932], [-48.81487893, -23.02339064], [-48.81509773, -23.02330288], [-48.81510065, -23.02330173], [-48.8151126, -23.02329757], [-48.81511517, -23.02329678], [-48.8153747, -23.02321895], [-48.81538434, -23.02321631], [-48.81539678, -23.02321363], [-48.81540938, -23.0232117], [-48.81541738, -23.02321088], [-48.81570502, -23.02318696], [-48.81570973, -23.02318662], [-48.81572249, -23.02318623], [-48.81573525, -23.02318662], [-48.81574796, -23.02318778], [-48.81576056, -23.0231897], [-48.81576153, -23.02318989], [-48.81609195, -23.02325235], [-48.81610341, -23.02325485], [-48.81611563, -23.02325828], [-48.81612147, -23.02326022], [-48.81644973, -23.02337426], [-48.81645584, -23.02337649], [-48.81646747, -23.02338137], [-48.81647873, -23.02338694], [-48.81647979, -23.02338751], [-48.81684805, -23.02358717], [-48.8168481, -23.0235872], [-48.81684878, -23.02358756], [-48.81747362, -23.02391295], [-48.817476, -23.02391411], [-48.81747831, -23.0239151], [-48.81781895, -23.02405025], [-48.8178216, -23.02405117], [-48.81782365, -23.02405176], [-48.81810562, -23.0241247], [-48.81810796, -23.0241252], [-48.81810994, -23.0241255], [-48.81841081, -23.02415672], [-48.81841211, -23.02415683], [-48.81841305, -23.02415686], [-48.81841383, -23.02415683], [-48.81841543, -23.0241567], [-48.81872371, -23.02412384], [-48.81872841, -23.02412312], [-48.81893135, -23.0240844], [-48.81893379, -23.02408387], [-48.81893563, -23.02408335], [-48.81893565, -23.02408335], [-48.81923156, -23.02398016], [-48.81923589, -23.02397835], [-48.81937134, -23.0239166], [-48.8193741, -23.02391524], [-48.81937647, -23.02391367], [-48.81956191, -23.02378118], [-48.81973049, -23.02366022], [-48.81973323, -23.02365818], [-48.81998691, -23.02346222], [-48.81999111, -23.02345906], [-48.82020463, -23.02330321], [-48.82020667, -23.02330174], [-48.82021275, -23.0232976], [-48.82046794, -23.02313046], [-48.82047224, -23.02312773], [-48.82048308, -23.02312148], [-48.82049434, -23.02311591], [-48.82049733, -23.02311458], [-48.82084311, -23.02296346], [-48.82085175, -23.02295992], [-48.8208637, -23.02295575], [-48.82087592, -23.02295232], [-48.8208875, -23.0229498], [-48.82127723, -23.02287637], [-48.82127808, -23.02287621], [-48.82129068, -23.02287429], [-48.82129216, -23.02287411], [-48.82157522, -23.02284165], [-48.82158645, -23.02284066], [-48.82159921, -23.02284028], [-48.82161197, -23.02284066], [-48.82162468, -23.02284182], [-48.82163728, -23.02284375], [-48.82163752, -23.02284379], [-48.82245931, -23.02299607], [-48.8224715, -23.02299871], [-48.82248372, -23.02300214], [-48.82249567, -23.0230063], [-48.8225073, -23.02301118], [-48.82251133, -23.02301307], [-48.82320421, -23.02334798], [-48.82320797, -23.02334985], [-48.82361078, -23.02355502], [-48.82383744, -23.02367047], [-48.82383944, -23.02367144], [-48.82384131, -23.02367224], [-48.82453228, -23.02395369], [-48.82453407, -23.02395431], [-48.82453656, -23.02395501], [-48.82513366, -23.02409872], [-48.82513606, -23.02409923], [-48.82513641, -23.02409928], [-48.82513776, -23.02409941], [-48.82513823, -23.02409943], [-48.82588937, -23.02411879], [-48.82589527, -23.02411869], [-48.82589603, -23.02411862], [-48.82660444, -23.02402132], [-48.82660601, -23.02402107], [-48.82660874, -23.02402048], [-48.82719258, -23.02386442], [-48.82719621, -23.02386348], [-48.82719625, -23.02386347], [-48.82788577, -23.02369256], [-48.82788713, -23.02369218], [-48.82788671, -23.02369181], [-48.82788582, -23.02369112], [-48.82734413, -23.0232851], [-48.82733828, -23.02328054], [-48.82732896, -23.02327246], [-48.82732023, -23.02326384], [-48.82731695, -23.02326028], [-48.82709272, -23.0230109], [-48.8270879, -23.02300532], [-48.82708047, -23.02299572], [-48.82707372, -23.02298568], [-48.8270677, -23.02297526], [-48.82706243, -23.0229645], [-48.82705794, -23.02295344], [-48.82705423, -23.02294213], [-48.82705133, -23.02293062], [-48.82704925, -23.02291896], [-48.82704915, -23.02291828], [-48.82701721, -23.02268701], [-48.82701606, -23.02267593], [-48.82701564, -23.02266412], [-48.82701599, -23.02265323], [-48.82702004, -23.02259111], [-48.82702011, -23.02259019], [-48.82702136, -23.02257843], [-48.82702344, -23.02256677], [-48.82702634, -23.02255526], [-48.82703004, -23.02254395], [-48.82703454, -23.02253289], [-48.82703981, -23.02252212], [-48.82704583, -23.0225117], [-48.82705257, -23.02250167], [-48.82706, -23.02249206], [-48.8270681, -23.02248292], [-48.82707683, -23.0224743], [-48.82708615, -23.02246622], [-48.82709602, -23.02245872], [-48.8271064, -23.02245184], [-48.82711724, -23.0224456], [-48.8271285, -23.02244002], [-48.82713497, -23.02243721], [-48.82756203, -23.02225994], [-48.82756719, -23.02225788], [-48.82757914, -23.02225372], [-48.82759136, -23.02225029], [-48.82760379, -23.02224761], [-48.82761267, -23.02224617], [-48.82802946, -23.02218778], [-48.82803076, -23.02218757], [-48.82803165, -23.02218737], [-48.82803346, -23.02218634], [-48.82829259, -23.02202043], [-48.82829459, -23.02201917], [-48.82872122, -23.02175323], [-48.82872353, -23.02175169], [-48.82872604, -23.02174978], [-48.82902208, -23.02150892], [-48.8290256, -23.02150591], [-48.82934078, -23.02122287], [-48.82934798, -23.02121672], [-48.82935785, -23.02120922], [-48.82936823, -23.02120234], [-48.82937907, -23.02119609], [-48.82938838, -23.02119143], [-48.82969781, -23.02104616], [-48.82969976, -23.02104525], [-48.82971139, -23.02104037], [-48.82972334, -23.02103621], [-48.82973556, -23.02103278], [-48.82973667, -23.02103251], [-48.8300246, -23.02096276], [-48.83003592, -23.02096035], [-48.83004852, -23.02095842], [-48.83006122, -23.02095726], [-48.83007398, -23.02095687], [-48.83007659, -23.02095695], [-48.83007832, -23.02095692], [-48.8300904, -23.02095717], [-48.83117615, -23.02097941], [-48.83117635, -23.02097941], [-48.83117919, -23.02097936], [-48.83251913, -23.02092938], [-48.83252073, -23.0209293], [-48.83252121, -23.02092927], [-48.83308343, -23.02088588], [-48.83308489, -23.02088573], [-48.83308569, -23.02088561], [-48.8330862, -23.02088486], [-48.83308676, -23.0208839], [-48.83312722, -23.02081175], [-48.83313142, -23.02080465], [-48.83313816, -23.02079462], [-48.83314559, -23.02078501], [-48.83315369, -23.02077587], [-48.83316242, -23.02076725], [-48.83316799, -23.02076229], [-48.83330057, -23.0206489], [-48.83330432, -23.02064577], [-48.83331419, -23.02063827], [-48.83332457, -23.02063139], [-48.83333541, -23.02062515], [-48.83334667, -23.02061958], [-48.8333583, -23.0206147], [-48.83337025, -23.02061053], [-48.83338247, -23.0206071], [-48.83339259, -23.02060486], [-48.83354179, -23.02057563], [-48.83354374, -23.0205752], [-48.83354652, -23.02057442], [-48.83403872, -23.02041341], [-48.834041, -23.02041268], [-48.83405322, -23.02040925], [-48.83405522, -23.02040876], [-48.83435118, -23.02033843], [-48.83435347, -23.02033779], [-48.83435429, -23.02033724], [-48.83435517, -23.02033658], [-48.83449264, -23.02022963], [-48.83449403, -23.02022842], [-48.83449501, -23.02022602], [-48.83456097, -23.02004363], [-48.83456177, -23.02004116], [-48.83456182, -23.02004099], [-48.83456192, -23.02004041], [-48.83456212, -23.02003865], [-48.83458931, -23.01971872], [-48.83458945, -23.01971712], [-48.83463327, -23.01925441], [-48.83463419, -23.01924663], [-48.83463514, -23.01924074], [-48.83466215, -23.01908942], [-48.83466328, -23.01908365], [-48.83466618, -23.01907214], [-48.83466863, -23.01906439], [-48.83475116, -23.01882291], [-48.83475149, -23.01882187], [-48.83475172, -23.01882097], [-48.83475201, -23.0188182], [-48.83477221, -23.01852453], [-48.83477584, -23.01847173], [-48.83477586, -23.0184714], [-48.83477607, -23.01846871], [-48.83482118, -23.0179499], [-48.83482134, -23.01794619], [-48.83482192, -23.01790975], [-48.83482369, -23.01779912], [-48.83482408, -23.01779], [-48.83482533, -23.01777824], [-48.83482741, -23.01776658], [-48.83483031, -23.01775507], [-48.83483401, -23.01774376], [-48.83483851, -23.0177327], [-48.83484378, -23.01772193], [-48.83484979, -23.01771151], [-48.83485654, -23.01770147], [-48.83486397, -23.01769186], [-48.83486989, -23.01768507], [-48.83502688, -23.0175135], [-48.83502906, -23.01751117], [-48.83503779, -23.01750254], [-48.8350471, -23.01749446], [-48.83505697, -23.01748696], [-48.83505947, -23.01748522], [-48.83546814, -23.01720442], [-48.83547602, -23.01719928], [-48.83548686, -23.01719304], [-48.83549597, -23.01718847], [-48.83580797, -23.01704155], [-48.83581012, -23.01704056], [-48.83582175, -23.01703568], [-48.83582669, -23.01703385], [-48.83606854, -23.01694818], [-48.83607554, -23.01694584], [-48.83608775, -23.01694241], [-48.83610019, -23.01693972], [-48.83611278, -23.0169378], [-48.83612549, -23.01693664], [-48.83612619, -23.0169366], [-48.8363077, -23.01692617], [-48.83631975, -23.01692583], [-48.83633252, -23.01692621], [-48.83634522, -23.01692737], [-48.83635782, -23.01692929], [-48.83636614, -23.016931], [-48.83668487, -23.01700317], [-48.83675737, -23.01701959], [-48.83676149, -23.01702056], [-48.83677371, -23.01702399], [-48.83678566, -23.01702815], [-48.83679729, -23.01703303], [-48.83680079, -23.01703467], [-48.83701804, -23.0171389], [-48.83701947, -23.01713956], [-48.83757456, -23.01738905], [-48.83757561, -23.01738953], [-48.83758687, -23.0173951], [-48.83759771, -23.01740134], [-48.83760169, -23.01740386], [-48.83796292, -23.01763938], [-48.83796446, -23.01764027], [-48.83796699, -23.01764152], [-48.8382742, -23.01778041], [-48.83827678, -23.01778149], [-48.83827693, -23.01778154], [-48.83827985, -23.01778199], [-48.83859724, -23.01781994], [-48.83860019, -23.01782021], [-48.83860026, -23.01782021], [-48.83860132, -23.0178196], [-48.83860184, -23.01781926], [-48.83874858, -23.01772056], [-48.83874994, -23.01771952], [-48.83875139, -23.01771788], [-48.83894565, -23.01747728], [-48.83894713, -23.01747547], [-48.83895117, -23.01747076], [-48.83929717, -23.01708086], [-48.8392972, -23.01708082], [-48.83929811, -23.01707965], [-48.83929829, -23.01707926], [-48.8392991, -23.01707731], [-48.83941286, -23.01677648], [-48.83941564, -23.01676957], [-48.83951903, -23.01652822], [-48.83951962, -23.01652672], [-48.83951983, -23.01652608], [-48.83951993, -23.01652556], [-48.83952014, -23.01652369], [-48.83953119, -23.0163914], [-48.83953127, -23.01638925], [-48.83953104, -23.01638715], [-48.83949813, -23.01617704], [-48.8394978, -23.01617529], [-48.83949767, -23.01617475], [-48.83949723, -23.01617437], [-48.83949575, -23.01617323], [-48.839344, -23.01606256], [-48.83934217, -23.01606135], [-48.83934092, -23.01606139], [-48.83934031, -23.01606143], [-48.83911233, -23.01608359], [-48.83910849, -23.01608393], [-48.8388346, -23.01610549], [-48.83883329, -23.01610562], [-48.83883237, -23.01610576], [-48.83882967, -23.01610635], [-48.83852245, -23.01618409], [-48.83852153, -23.01618432], [-48.83850909, -23.016187], [-48.8384965, -23.01618893], [-48.83848379, -23.01619009], [-48.83847103, -23.01619048], [-48.83845827, -23.01619009], [-48.83844556, -23.01618894], [-48.83843504, -23.01618738], [-48.83834503, -23.01617176], [-48.83834295, -23.01617139], [-48.83833052, -23.0161687], [-48.8383183, -23.01616528], [-48.83830635, -23.01616111], [-48.83829472, -23.01615624], [-48.83828346, -23.01615067], [-48.83827262, -23.01614443], [-48.83826224, -23.01613755], [-48.83825237, -23.01613005], [-48.83824305, -23.01612197], [-48.83823432, -23.01611335], [-48.83822622, -23.01610421], [-48.83821878, -23.01609461], [-48.83821204, -23.01608457], [-48.83820602, -23.01607415], [-48.83820075, -23.01606339], [-48.83819625, -23.01605233], [-48.83819254, -23.01604102], [-48.83818964, -23.01602951], [-48.83818865, -23.01602454], [-48.83812869, -23.01569819], [-48.8381276, -23.0156915], [-48.83812635, -23.01567974], [-48.83812597, -23.01567158], [-48.83811558, -23.01519874], [-48.83811539, -23.0151947], [-48.83810204, -23.01500514], [-48.83810162, -23.01499341], [-48.83810204, -23.0149816], [-48.83810329, -23.01496983], [-48.83810497, -23.01496006], [-48.83814727, -23.01475152], [-48.83814767, -23.01474964], [-48.83815056, -23.01473813], [-48.83815427, -23.01472682], [-48.83815739, -23.01471891], [-48.83822807, -23.01455207], [-48.83822945, -23.01454892], [-48.83823472, -23.01453815], [-48.83824073, -23.01452773], [-48.83824747, -23.01451769], [-48.83825203, -23.01451165], [-48.83834079, -23.0143989], [-48.83834367, -23.01439533], [-48.83835177, -23.0143862], [-48.83836049, -23.01437757], [-48.83836261, -23.01437564], [-48.83856055, -23.01419786], [-48.83856775, -23.0141917], [-48.83857319, -23.01418745], [-48.83879948, -23.01401681], [-48.83879976, -23.01401659], [-48.83880079, -23.0140157], [-48.83880205, -23.01401407], [-48.83889427, -23.01388195], [-48.83889515, -23.01388061], [-48.83889549, -23.01388002], [-48.83889555, -23.01387852], [-48.83888939, -23.01369304], [-48.83888924, -23.01369009], [-48.83887971, -23.0135509], [-48.83887942, -23.0135482], [-48.83887771, -23.01354707], [-48.83873484, -23.01346173], [-48.83873344, -23.01346093], [-48.83873278, -23.01346061], [-48.83873208, -23.01346054], [-48.83873034, -23.01346048], [-48.83842959, -23.01345637], [-48.8384274, -23.01345644], [-48.83842477, -23.01345668], [-48.83818906, -23.01348694], [-48.83818656, -23.01348732], [-48.83818625, -23.01348739], [-48.8381837, -23.01348811], [-48.83798424, -23.01355214], [-48.83798185, -23.01355298], [-48.83798049, -23.01355355], [-48.83797976, -23.0135539], [-48.83785797, -23.0136154], [-48.83785085, -23.01361883], [-48.83783922, -23.01362371], [-48.83782727, -23.01362787], [-48.83781505, -23.0136313], [-48.83780262, -23.01363399], [-48.83779002, -23.01363591], [-48.83777732, -23.01363707], [-48.83776456, -23.01363746], [-48.8377518, -23.01363708], [-48.83773909, -23.01363592], [-48.8377265, -23.013634], [-48.83771406, -23.01363131], [-48.83770184, -23.01362788], [-48.8376899, -23.01362372], [-48.83767827, -23.01361885], [-48.83767476, -23.01361721], [-48.83732019, -23.0134471], [-48.83731243, -23.01344317], [-48.83730159, -23.01343693], [-48.83729121, -23.01343005], [-48.83728134, -23.01342256], [-48.83727202, -23.01341448], [-48.8372633, -23.01340585], [-48.8372552, -23.01339672], [-48.83724776, -23.01338711], [-48.83724234, -23.01337917], [-48.8372085, -23.01332657], [-48.83720717, -23.01332447], [-48.83720115, -23.01331405], [-48.83719588, -23.01330329], [-48.83719208, -23.01329412], [-48.8371368, -23.01314872], [-48.83713587, -23.01314638], [-48.8370835, -23.01301988], [-48.83708191, -23.01301664], [-48.83701196, -23.01289086], [-48.83701123, -23.01288964], [-48.83701081, -23.012889], [-48.83700999, -23.01288853], [-48.83700892, -23.01288799], [-48.83686565, -23.01281925], [-48.83686386, -23.0128185], [-48.83686209, -23.01281801], [-48.83667461, -23.01277588], [-48.83667015, -23.01277483], [-48.83665794, -23.0127714], [-48.83664795, -23.01276798], [-48.83652916, -23.01272384], [-48.8365272, -23.0127231], [-48.83651557, -23.01271823], [-48.83650431, -23.01271266], [-48.83649347, -23.01270642], [-48.83648309, -23.01269953], [-48.83647322, -23.01269204], [-48.8364639, -23.01268396], [-48.83645517, -23.01267533], [-48.83644707, -23.0126662], [-48.83643964, -23.0126566], [-48.83643289, -23.01264656], [-48.83642687, -23.01263614], [-48.8364216, -23.01262537], [-48.8364171, -23.01261431], [-48.8364134, -23.01260301], [-48.8364105, -23.0125915], [-48.83640842, -23.01257984], [-48.8364081, -23.01257748], [-48.83640533, -23.01255583], [-48.83640518, -23.01255478], [-48.83637732, -23.01236113], [-48.83637729, -23.01236088], [-48.83637604, -23.01234912], [-48.83637562, -23.01233731], [-48.83637603, -23.01232549], [-48.83637728, -23.01231373], [-48.83637936, -23.01230207], [-48.83638226, -23.01229056], [-48.83638328, -23.01228717], [-48.83645917, -23.01204396], [-48.83645962, -23.01204217], [-48.83645962, -23.01204202], [-48.83645953, -23.01203939], [-48.83645271, -23.01193768], [-48.83645233, -23.0119265], [-48.83645235, -23.01192381], [-48.83645655, -23.01166046], [-48.83645695, -23.01165134], [-48.8364582, -23.01163958], [-48.83646028, -23.01162792], [-48.83646232, -23.01161947], [-48.83652565, -23.01138416], [-48.83652589, -23.01138324], [-48.83665369, -23.01091866], [-48.83665413, -23.01091687], [-48.83665422, -23.01091638], [-48.83665202, -23.01091512], [-48.83635344, -23.01075801], [-48.83365813, -23.00933972], [-48.83066316, -23.00776367], [-48.82686408, -23.00576433], [-48.82686296, -23.00576374], [-48.82685212, -23.0057575], [-48.82684174, -23.00575061], [-48.82683187, -23.00574312], [-48.82682255, -23.00573504], [-48.82681383, -23.00572641], [-48.82680573, -23.00571728], [-48.82679829, -23.00570767], [-48.82679155, -23.00569764], [-48.82678553, -23.00568722], [-48.82678026, -23.00567645], [-48.82677946, -23.00567462], [-48.82602304, -23.0039306], [-48.82532498, -23.0023211], [-48.8250949, -23.00179059], [-48.82505306, -23.00169411], [-48.82490032, -23.00134194], [-48.82464752, -23.00075905], [-48.82425766, -22.99986011], [-48.82389417, -22.99902196], [-48.8238932, -22.99901998], [-48.82389235, -22.99901969], [-48.82389112, -22.99901933], [-48.81761786, -22.99734151], [-48.81761751, -22.99734142], [-48.81760588, -22.99733828], [-48.81752249, -22.99731582], [-48.8133979, -22.99620469], [-48.80986179, -22.99525199], [-48.80893627, -22.99500263], [-48.80893553, -22.99500243], [-48.808934, -22.99500207], [-48.80830118, -22.99486178], [-48.80829951, -22.99486144], [-48.80829732, -22.99486108], [-48.80797874, -22.99481519], [-48.80797617, -22.99481496], [-48.80797443, -22.99481489], [-48.80774384, -22.9948117], [-48.80774277, -22.99481171], [-48.8077427, -22.99481171], [-48.80774116, -22.99481176], [-48.80773956, -22.99481232], [-48.80654016, -22.99530843], [-48.80653522, -22.9953104], [-48.80652827, -22.99531292], [-48.8059301, -22.99551777], [-48.80592511, -22.9955194], [-48.805918, -22.9955215], [-48.80522157, -22.9957131], [-48.80521647, -22.99571444], [-48.80520404, -22.99571712], [-48.80519144, -22.99571904], [-48.80517874, -22.9957202], [-48.80516598, -22.99572059], [-48.80515322, -22.9957202], [-48.80514052, -22.99571904], [-48.80513385, -22.99571812], [-48.80492719, -22.99568615], [-48.80352106, -22.99546865], [-48.80311427, -22.99540572], [-48.8029347, -22.99537794], [-48.80293452, -22.99537792], [-48.80293309, -22.99537779], [-48.80293254, -22.9953786], [-48.80293207, -22.9953794], [-48.80277008, -22.99566691], [-48.80276605, -22.99567371], [-48.8027593, -22.99568374], [-48.80275187, -22.99569335], [-48.80275162, -22.99569365], [-48.80259206, -22.99588528], [-48.80258421, -22.99589411], [-48.8025809, -22.99589751], [-48.80247844, -22.99600027], [-48.80242811, -22.99605076], [-48.80242268, -22.99605599], [-48.80241337, -22.99606406], [-48.8024035, -22.99607156], [-48.80239312, -22.99607844], [-48.80238228, -22.99608468], [-48.80237102, -22.99609025], [-48.80235939, -22.99609513], [-48.8023554, -22.99609661], [-48.80204669, -22.99620764], [-48.80204496, -22.99620836], [-48.80204414, -22.99620883], [-48.80204312, -22.99620949], [-48.80176961, -22.99639582], [-48.80176809, -22.99639697], [-48.80176798, -22.99639713], [-48.80176669, -22.99639936], [-48.8016441, -22.99662675], [-48.80163848, -22.99663642], [-48.80163174, -22.99664646], [-48.80162431, -22.99665606], [-48.80161621, -22.9966652], [-48.8016152, -22.99666625], [-48.80143633, -22.99685208], [-48.80142861, -22.99685965], [-48.8014193, -22.99686773], [-48.80140943, -22.99687522], [-48.80140161, -22.9968805], [-48.80115238, -22.99703996], [-48.80114983, -22.99704157], [-48.80113899, -22.99704781], [-48.80112773, -22.99705338], [-48.8011161, -22.99705825], [-48.80110415, -22.99706242], [-48.80109194, -22.99706585], [-48.8010795, -22.99706853], [-48.80106691, -22.99707045], [-48.80106069, -22.99707111], [-48.80074301, -22.99710023], [-48.80073653, -22.99710072], [-48.80072377, -22.99710111], [-48.80071101, -22.99710072], [-48.80071081, -22.99710071], [-48.80051111, -22.99708838], [-48.80049861, -22.99708723], [-48.80048601, -22.9970853], [-48.80047358, -22.99708262], [-48.80046136, -22.99707918], [-48.80044942, -22.99707502], [-48.80044515, -22.99707333], [-48.80030263, -22.99701494], [-48.80030116, -22.99701442], [-48.80030148, -22.99701499], [-48.80030213, -22.99701597], [-48.80053198, -22.99734873], [-48.80058932, -22.99743173], [-48.80119112, -22.99829771], [-48.80135559, -22.99853437], [-48.80135627, -22.99853535], [-48.80191321, -22.99934819], [-48.80191348, -22.99934858], [-48.80198634, -22.99945373], [-48.80248663, -23.00017564], [-48.80317316, -23.00116631], [-48.80363121, -23.00182725], [-48.80363158, -23.00182778], [-48.80449026, -23.00304786], [-48.80547361, -23.00444506], [-48.80589768, -23.0050476], [-48.80742209, -23.00721346], [-48.8103114, -23.01131838], [-48.81037948, -23.0114151], [-48.81038128, -23.01141769], [-48.81059613, -23.01173464], [-48.81059984, -23.01174034], [-48.81060586, -23.01175076], [-48.81061113, -23.01176153], [-48.81061563, -23.01177259], [-48.81061933, -23.0117839], [-48.81062223, -23.01179541], [-48.81062431, -23.01180707], [-48.81062556, -23.01181883], [-48.81062588, -23.01182495], [-48.81064179, -23.01229281], [-48.81064179, -23.01229292], [-48.81064212, -23.01229602], [-48.810712, -23.01271002], [-48.81071267, -23.01271434], [-48.81071392, -23.0127261], [-48.81071434, -23.01273791], [-48.81071392, -23.01274972], [-48.81071267, -23.01276148], [-48.81071059, -23.01277314], [-48.81070769, -23.01278465], [-48.81070722, -23.01278626], [-48.8105649, -23.01326022], [-48.81056434, -23.01326246], [-48.81056427, -23.01326443], [-48.81056885, -23.01353035], [-48.81056888, -23.01353325], [-48.81056846, -23.01354506], [-48.81056721, -23.01355682], [-48.81056647, -23.01356153], [-48.81043993, -23.01429984], [-48.81043959, -23.01430301], [-48.81041491, -23.01493755], [-48.81041462, -23.01494288], [-48.81041337, -23.01495464], [-48.81041298, -23.01495724], [-48.81026138, -23.01591472], [-48.81026113, -23.01591669], [-48.81016911, -23.0167522], [-48.81016845, -23.01675747], [-48.81016637, -23.01676913], [-48.81016347, -23.01678064], [-48.81015976, -23.01679195], [-48.8101571, -23.01679874], [-48.80981533, -23.01762098], [-48.80981509, -23.01762159], [-48.80981473, -23.01762269], [-48.80981469, -23.01762286], [-48.80981423, -23.01762542], [-48.80973095, -23.0181932], [-48.80973045, -23.0181964], [-48.80964811, -23.01869119], [-48.80964664, -23.01869894], [-48.80964406, -23.01870934], [-48.80962955, -23.01876073], [-48.80951322, -23.01917303], [-48.80951265, -23.01917534], [-48.8095126, -23.0191756], [-48.80951368, -23.01917826], [-48.80956145, -23.01928476], [-48.80956152, -23.01928491], [-48.80956602, -23.01929597], [-48.80956865, -23.01930373], [-48.80960255, -23.01941198], [-48.80960362, -23.01941553], [-48.80960652, -23.01942704], [-48.80960859, -23.0194387], [-48.80960984, -23.01945046], [-48.80961026, -23.01946227], [-48.80960984, -23.01947408], [-48.80960859, -23.01948584], [-48.80960651, -23.0194975], [-48.80960361, -23.01950901], [-48.80960326, -23.0195102], [-48.80960275, -23.01951225], [-48.80960338, -23.01951417], [-48.80971261, -23.01979841], [-48.80971324, -23.01979993], [-48.80971469, -23.01980289], [-48.81029661, -23.02088304], [-48.81029691, -23.02088358], [-48.81045044, -23.02116383], [-48.81045141, -23.02116564], [-48.81045668, -23.02117641], [-48.81046118, -23.02118747], [-48.81046376, -23.02119534], [-48.81046489, -23.02119878], [-48.81046778, -23.02121029], [-48.81046954, -23.02121977], [-48.8106061, -23.02209766], [-48.81060629, -23.02209886], [-48.81080591, -23.02326989], [-48.81082094, -23.02335807], [-48.81083154, -23.02342029], [-48.81083166, -23.02342091], [-48.81083192, -23.02342192]]]]}}]}