{"type": "FeatureCollection", "features": [{"type": "Feature", "properties": {"name": "Estação Ecológica Paulo de Faria"}, "geometry": {"type": "MultiPolygon", "coordinates": [[[[-49.53279889, -19.96415306], [-49.53542694, -19.96152667], [-49.53407778, -19.96066833], [-49.53729528, -19.95824778], [-49.53928139, -19.95883556], [-49.54069722, -19.95611], [-49.54301611, -19.95126111], [-49.54293389, -19.95100528], [-49.52580361, -19.95229583], [-49.52634278, -19.94967056], [-49.52503528, -19.93394583], [-49.52397694, -19.92069639], [-49.5239675, -19.92071083], [-49.52334889, -19.92090639], [-49.52303889, -19.921115], [-49.52288861, -19.92131667], [-49.52281861, -19.92178389], [-49.52219139, -19.92179694], [-49.52193333, -19.9217925], [-49.52153194, -19.92196472], [-49.52134, -19.92224667], [-49.52134722, -19.92237306], [-49.52102028, -19.922405], [-49.52082361, -19.92258306], [-49.52072583, -19.92276611], [-49.52046722, -19.92284861], [-49.52010806, -19.92301722], [-49.51990556, -19.92300944], [-49.51984194, -19.92291861], [-49.51962944, -19.9229575], [-49.51938083, -19.92313639], [-49.51927528, -19.92311], [-49.51905306, -19.92322806], [-49.51887778, -19.923465], [-49.51870056, -19.92381556], [-49.51860028, -19.9240875], [-49.51861222, -19.92423], [-49.51871222, -19.92431833], [-49.51855028, -19.92448444], [-49.51831694, -19.92495], [-49.51837139, -19.92519306], [-49.51848167, -19.92533083], [-49.51843167, -19.9255125], [-49.51887611, -19.92559083], [-49.51863528, -19.92591722], [-49.51822389, -19.92586667], [-49.51804083, -19.92589528], [-49.51775333, -19.92613111], [-49.51755611, -19.92634], [-49.51748778, -19.92655667], [-49.51758194, -19.92680111], [-49.51774917, -19.92708111], [-49.51755861, -19.92709944], [-49.51739472, -19.92724056], [-49.51737361, -19.92746611], [-49.51858778, -19.92794833], [-49.51921972, -19.9307125], [-49.51866944, -19.93757389], [-49.51816667, -19.95447778], [-49.53279889, -19.96415306]]]]}}]}