{"type": "FeatureCollection", "features": [{"type": "Feature", "properties": {"name": "Estação Ecológica Assis"}, "geometry": {"type": "MultiPolygon", "coordinates": [[[[-50.39476657, -22.62845938], [-50.39464846, -22.6273404], [-50.39354385, -22.62611699], [-50.39236533, -22.62456862], [-50.39109916, -22.62288274], [-50.39016848, -22.62152805], [-50.39042826, -22.62005072], [-50.39023726, -22.61925751], [-50.39632679, -22.6141084], [-50.39903519, -22.61189798], [-50.39995128, -22.61280885], [-50.3985163, -22.60564657], [-50.39726132, -22.59935181], [-50.39698519, -22.59800226], [-50.39484534, -22.58655801], [-50.39452019, -22.58491837], [-50.3926976, -22.57557395], [-50.39021693, -22.56244963], [-50.39014828, -22.56212721], [-50.38956595, -22.56215256], [-50.3893732, -22.56205455], [-50.38924955, -22.56172893], [-50.38924452, -22.561427], [-50.38899941, -22.56092656], [-50.38584647, -22.55808494], [-50.385452, -22.55755757], [-50.38507869, -22.55720707], [-50.38433677, -22.55674343], [-50.38395947, -22.55663077], [-50.38369248, -22.55655855], [-50.38334263, -22.55648733], [-50.38280518, -22.55649253], [-50.38183186, -22.55677443], [-50.38003574, -22.55685322], [-50.37636545, -22.55768256], [-50.37505714, -22.55823398], [-50.37427502, -22.55857888], [-50.3737153, -22.55895335], [-50.37327698, -22.55934189], [-50.3718636, -22.5610182], [-50.37460503, -22.56265339], [-50.37264438, -22.56597027], [-50.37835979, -22.56895327], [-50.37850257, -22.57105147], [-50.37853752, -22.5712568], [-50.37848851, -22.57151755], [-50.37846668, -22.57177835], [-50.37843439, -22.57201275], [-50.37836991, -22.57223819], [-50.37821656, -22.57244656], [-50.37805543, -22.57259328], [-50.37794282, -22.57274838], [-50.37782683, -22.57307955], [-50.37681552, -22.57411284], [-50.37679712, -22.57421171], [-50.37675885, -22.57447174], [-50.37669402, -22.57471424], [-50.37659178, -22.57489514], [-50.37615377, -22.5752784], [-50.37565635, -22.57533418], [-50.37524603, -22.5757899], [-50.37478498, -22.57608392], [-50.37425551, -22.57640606], [-50.37377039, -22.57653885], [-50.37322716, -22.57678132], [-50.37247185, -22.57700009], [-50.37169881, -22.57698466], [-50.37061581, -22.57741788], [-50.36844189, -22.57925589], [-50.36803387, -22.57984931], [-50.36789295, -22.58009494], [-50.36788877, -22.58058883], [-50.36770409, -22.58069115], [-50.36736702, -22.58041101], [-50.36602708, -22.58069086], [-50.36465092, -22.58126477], [-50.36342123, -22.58184578], [-50.3633956, -22.58193577], [-50.36136692, -22.58281339], [-50.36191346, -22.58805603], [-50.36078456, -22.59105243], [-50.35993973, -22.5948357], [-50.37278132, -22.60750295], [-50.37499246, -22.60966831], [-50.38188315, -22.61643554], [-50.38797382, -22.62248707], [-50.39435424, -22.62860927], [-50.39476657, -22.62845938]]], [[[-50.42922812, -22.53382623], [-50.42843604, -22.53316929], [-50.42786034, -22.53256019], [-50.426713, -22.53205636], [-50.42556534, -22.53186681], [-50.4247503, -22.53201855], [-50.42347741, -22.53185157], [-50.42236292, -22.53163773], [-50.42191336, -22.53154442], [-50.42165628, -22.53135171], [-50.42108426, -22.53142969], [-50.41986823, -22.53194665], [-50.41756943, -22.53240511], [-50.41570172, -22.53285707], [-50.41470781, -22.54505709], [-50.41469058, -22.54506118], [-50.41530432, -22.55162065], [-50.41562707, -22.55167729], [-50.41570016, -22.55184991], [-50.41616557, -22.55306699], [-50.41636772, -22.55344957], [-50.42922812, -22.53382623]]]]}}]}