{"type": "FeatureCollection", "features": [{"type": "Feature", "properties": {"name": "Estação Ecológica Chauás"}, "geometry": {"type": "MultiPolygon", "coordinates": [[[[-47.70864088, -24.79512174], [-47.7106711, -24.79361121], [-47.71301234, -24.79181715], [-47.72032751, -24.78631025], [-47.72088822, -24.7858666], [-47.72022155, -24.78529599], [-47.72012784, -24.78519662], [-47.72002539, -24.78509957], [-47.72002483, -24.78520987], [-47.71977715, -24.78521229], [-47.71987211, -24.78476646], [-47.71989139, -24.78454898], [-47.72004642, -24.78441422], [-47.71921675, -24.7838389], [-47.7189911, -24.78352759], [-47.71854337, -24.78348131], [-47.7182258, -24.78352877], [-47.7177672, -24.78365045], [-47.71741147, -24.78375682], [-47.7172829, -24.78408486], [-47.71704069, -24.7841342], [-47.71669094, -24.78340332], [-47.71610977, -24.78394751], [-47.71575423, -24.78436179], [-47.71551867, -24.78438069], [-47.71534824, -24.78467068], [-47.71543104, -24.78483712], [-47.71542667, -24.78522202], [-47.71495692, -24.78526312], [-47.71473902, -24.78528476], [-47.71465815, -24.78568846], [-47.71434345, -24.78617664], [-47.7139837, -24.78603976], [-47.71366502, -24.78582308], [-47.71365136, -24.78562244], [-47.7132572, -24.7853806], [-47.71295685, -24.78502045], [-47.71258818, -24.78462761], [-47.71224781, -24.78435005], [-47.71218715, -24.78411993], [-47.71217344, -24.78380287], [-47.71196491, -24.78321923], [-47.71194734, -24.78307957], [-47.71167132, -24.78310127], [-47.71135744, -24.78323214], [-47.7107252, -24.7826013], [-47.7105306, -24.78255781], [-47.71043534, -24.7830549], [-47.70978381, -24.78299622], [-47.70954581, -24.78268412], [-47.70935213, -24.78256905], [-47.70920466, -24.78263372], [-47.70900492, -24.78289968], [-47.70858467, -24.78310304], [-47.70818292, -24.78305264], [-47.70772522, -24.78278387], [-47.70744838, -24.78253537], [-47.70739865, -24.78221626], [-47.70752797, -24.78202151], [-47.70755141, -24.78168527], [-47.70754498, -24.78136167], [-47.70744437, -24.78093481], [-47.70794247, -24.78070207], [-47.70811784, -24.78010164], [-47.70820112, -24.77989419], [-47.70798757, -24.77942849], [-47.70728723, -24.77864617], [-47.70708674, -24.77829414], [-47.70654116, -24.77832485], [-47.70594597, -24.77871159], [-47.70575716, -24.77890705], [-47.70498797, -24.77924278], [-47.70461772, -24.7796185], [-47.7042394, -24.779759], [-47.70391026, -24.77956423], [-47.70364952, -24.77893658], [-47.70319541, -24.77842144], [-47.70310525, -24.77768213], [-47.70299275, -24.77729862], [-47.70277569, -24.77712123], [-47.70259698, -24.77717193], [-47.70239764, -24.77731497], [-47.70229421, -24.77757828], [-47.70194901, -24.77762314], [-47.70110392, -24.77739798], [-47.70078946, -24.77723273], [-47.70028014, -24.77719851], [-47.70011405, -24.77369518], [-47.70017818, -24.77361172], [-47.70606097, -24.76905308], [-47.70634842, -24.76811959], [-47.70449182, -24.76562684], [-47.7046316, -24.76354391], [-47.66860915, -24.72701928], [-47.66727012, -24.72264044], [-47.66958399, -24.7213815], [-47.6695384, -24.72057421], [-47.67241244, -24.72109103], [-47.67241115, -24.72108167], [-47.67243225, -24.7210053], [-47.6724342, -24.72094859], [-47.67241359, -24.72084454], [-47.67243039, -24.72080741], [-47.67242765, -24.72077651], [-47.67243615, -24.72072573], [-47.67246281, -24.7206137], [-47.67246124, -24.72058196], [-47.67244747, -24.72056623], [-47.67243165, -24.72051976], [-47.67246921, -24.72038625], [-47.67248084, -24.72033424], [-47.67247455, -24.7202108], [-47.67247918, -24.72015485], [-47.67245134, -24.7200632], [-47.67241877, -24.72001423], [-47.67240836, -24.71998915], [-47.67242181, -24.7199483], [-47.67239614, -24.71990769], [-47.67240703, -24.71981607], [-47.67242036, -24.71980663], [-47.67243029, -24.71976241], [-47.67242488, -24.719745], [-47.67243007, -24.71972451], [-47.67246498, -24.71969817], [-47.67247167, -24.71967395], [-47.67246597, -24.71959662], [-47.67247117, -24.71955799], [-47.67248774, -24.71949199], [-47.67250541, -24.71945873], [-47.67250083, -24.71941568], [-47.67247255, -24.71937728], [-47.672486, -24.71928075], [-47.67247625, -24.71924987], [-47.67250012, -24.71921127], [-47.67251028, -24.71912698], [-47.67249046, -24.71909213], [-47.67249547, -24.71900766], [-47.67245479, -24.71897193], [-47.67239411, -24.71889259], [-47.67237323, -24.71879848], [-47.67236489, -24.71867164], [-47.67234277, -24.71856581], [-47.67215452, -24.71833813], [-47.67213413, -24.71826214], [-47.67211555, -24.71822502], [-47.67208037, -24.71820615], [-47.67203479, -24.71819559], [-47.67196916, -24.71821301], [-47.67170884, -24.71832541], [-47.6716388, -24.71832142], [-47.67157081, -24.71830232], [-47.6715168, -24.71824381], [-47.67147606, -24.71813588], [-47.67143045, -24.71809102], [-47.67139918, -24.71801054], [-47.67138822, -24.71774711], [-47.67137119, -24.71766186], [-47.67133271, -24.71757681], [-47.67127821, -24.71749051], [-47.67123393, -24.71746684], [-47.6711737, -24.71745464], [-47.67108788, -24.71745211], [-47.67101517, -24.71743382], [-47.67093813, -24.71737978], [-47.67077203, -24.71721722], [-47.67069055, -24.71718636], [-47.67058356, -24.71715894], [-47.67050627, -24.71714885], [-47.67046625, -24.7171391], [-47.67032479, -24.71706184], [-47.67027716, -24.71698733], [-47.67024756, -24.71696168], [-47.67016688, -24.71692205], [-47.67012748, -24.71688115], [-47.66999277, -24.71668031], [-47.66993268, -24.7166284], [-47.66984496, -24.71651814], [-47.66981643, -24.71649149], [-47.66974871, -24.71644333], [-47.6696236, -24.71630323], [-47.66955917, -24.71623795], [-47.66953005, -24.71618387], [-47.66939594, -24.71604763], [-47.66924309, -24.71593177], [-47.6690791, -24.71579408], [-47.66898614, -24.71572028], [-47.66886827, -24.71569747], [-47.66875484, -24.71557657], [-47.66873249, -24.71553861], [-47.66873052, -24.71551572], [-47.66871502, -24.71547033], [-47.66868857, -24.71542983], [-47.66865183, -24.71529601], [-47.66865844, -24.71526801], [-47.66869065, -24.71521238], [-47.66873387, -24.71516342], [-47.66879876, -24.71504683], [-47.66881903, -24.71502436], [-47.66885853, -24.71494911], [-47.66887345, -24.71487502], [-47.6688708, -24.71477877], [-47.668858, -24.71470183], [-47.66887328, -24.71464949], [-47.6689171, -24.71460539], [-47.6689487, -24.71455392], [-47.66900802, -24.71444466], [-47.66905191, -24.71440841], [-47.66906819, -24.71435658], [-47.66906957, -24.71432867], [-47.66917477, -24.71421209], [-47.6692108, -24.71414548], [-47.66921369, -24.71411447], [-47.66920897, -24.71403649], [-47.66922466, -24.71397096], [-47.66921827, -24.71394481], [-47.66918202, -24.71390349], [-47.66918174, -24.71381153], [-47.66916311, -24.71373506], [-47.66917981, -24.71364252], [-47.66914653, -24.71351334], [-47.66916678, -24.71340693], [-47.66922001, -24.71328063], [-47.6692759, -24.71318198], [-47.66934069, -24.71312541], [-47.66938553, -24.7130692], [-47.66949111, -24.71305803], [-47.66961015, -24.71289102], [-47.66975698, -24.71275727], [-47.66977966, -24.71268115], [-47.66985702, -24.71266235], [-47.66999675, -24.71266374], [-47.67012633, -24.71263869], [-47.67016931, -24.71260174], [-47.67018552, -24.7125093], [-47.67015923, -24.71242123], [-47.67016385, -24.71236448], [-47.67018941, -24.71234922], [-47.67023292, -24.71229059], [-47.67028014, -24.71221187], [-47.67035717, -24.712141], [-47.67045167, -24.71211071], [-47.67056192, -24.71211488], [-47.67060808, -24.71207859], [-47.66731187, -24.71261731], [-47.6566643, -24.71677136], [-47.64227225, -24.71567304], [-47.64661335, -24.71090872], [-47.63274857, -24.70992684], [-47.63276759, -24.71269417], [-47.63267058, -24.7154602], [-47.63245747, -24.71822078], [-47.63212874, -24.72097184], [-47.6316848, -24.72370939], [-47.63112626, -24.72642937], [-47.630454, -24.7291278], [-47.62966892, -24.73180067], [-47.62877232, -24.73444418], [-47.6277653, -24.73705433], [-47.63542077, -24.72737791], [-47.66556873, -24.74706886], [-47.66647784, -24.75394687], [-47.66786462, -24.76460929], [-47.66985891, -24.76610085], [-47.69177792, -24.78207666], [-47.69332812, -24.78319672], [-47.69490881, -24.78433192], [-47.69564691, -24.78488718], [-47.69641392, -24.78545817], [-47.69712731, -24.78608174], [-47.70864088, -24.79512174]]]]}}]}