{"type": "FeatureCollection", "features": [{"type": "Feature", "properties": {"name": "Estação Ecológica Santa Bárbara"}, "geometry": {"type": "MultiPolygon", "coordinates": [[[[-49.17648094, -22.8294508], [-49.1766038, -22.82933504], [-49.17686464, -22.82908928], [-49.17737303, -22.8288389], [-49.17827788, -22.82884925], [-49.17920741, -22.82858535], [-49.18039051, -22.82825129], [-49.18186598, -22.82808509], [-49.18344786, -22.8278287], [-49.18450095, -22.82776756], [-49.18570143, -22.827708], [-49.1865705, -22.82724216], [-49.18728985, -22.82695758], [-49.18775831, -22.82654209], [-49.18810363, -22.82804708], [-49.19024432, -22.8300605], [-49.19120974, -22.8310282], [-49.20117962, -22.82972182], [-49.20150242, -22.82969507], [-49.20157939, -22.82960471], [-49.20167065, -22.82954568], [-49.20338807, -22.82920653], [-49.20626755, -22.82689804], [-49.20852307, -22.82278174], [-49.20951305, -22.82135228], [-49.20983833, -22.82123589], [-49.2118375, -22.82185859], [-49.2144225, -22.82224773], [-49.21729175, -22.82204676], [-49.21729399, -22.82206728], [-49.21782704, -22.8218067], [-49.21796583, -22.82262192], [-49.21893692, -22.82979993], [-49.22116898, -22.83481072], [-49.22117348, -22.83482494], [-49.22179108, -22.83599467], [-49.22490672, -22.84189922], [-49.22540371, -22.84170636], [-49.22586463, -22.84136427], [-49.22600167, -22.84106814], [-49.22648395, -22.8405444], [-49.22705745, -22.84031924], [-49.22751708, -22.84007638], [-49.22801845, -22.83955276], [-49.22900026, -22.83863767], [-49.22986444, -22.8380024], [-49.23045692, -22.83777753], [-49.23102986, -22.83760201], [-49.23140976, -22.83763929], [-49.23239268, -22.83811321], [-49.2334517, -22.83858797], [-49.23424895, -22.83871259], [-49.23578894, -22.83876271], [-49.23628292, -22.83880927], [-49.2365091, -22.839078], [-49.23737359, -22.83933159], [-49.23790512, -22.83967035], [-49.23841465, -22.83974254], [-49.23869504, -22.83976777], [-49.23912305, -22.84021627], [-49.23960649, -22.84033252], [-49.23986049, -22.8404241], [-49.2401366, -22.84078215], [-49.24044261, -22.84080766], [-49.24072128, -22.84096607], [-49.24117682, -22.84125954], [-49.24195849, -22.8420003], [-49.24207944, -22.84166434], [-49.24226427, -22.84092911], [-49.24256719, -22.84011887], [-49.24266444, -22.83938258], [-49.24255364, -22.8388983], [-49.24256279, -22.83818651], [-49.24277759, -22.83740067], [-49.24320066, -22.83633754], [-49.2435305, -22.8357055], [-49.24359352, -22.83535029], [-49.24366219, -22.83456284], [-49.24366904, -22.83402902], [-49.24382016, -22.83364931], [-49.24435522, -22.83296869], [-49.2445109, -22.83223305], [-49.24478162, -22.83165129], [-49.24537423, -22.83104761], [-49.24561693, -22.83036385], [-49.24568134, -22.82990688], [-49.24598118, -22.82932544], [-49.24628144, -22.82871853], [-49.24643396, -22.8279926], [-49.24691193, -22.82720974], [-49.24727095, -22.82657801], [-49.24727714, -22.82609503], [-49.24775402, -22.82538837], [-49.24823165, -22.82463088], [-49.24824011, -22.82396992], [-49.24816341, -22.82310456], [-49.24817121, -22.82249452], [-49.24829634, -22.82186022], [-49.24844645, -22.82155681], [-49.2484282, -22.82052384], [-49.24852767, -22.81960957], [-49.24859425, -22.81897472], [-49.24892369, -22.81836813], [-49.24952078, -22.81740848], [-49.24964328, -22.81697761], [-49.2497657, -22.81654674], [-49.24998702, -22.81595341], [-49.25039255, -22.81556601], [-49.2511084, -22.81441278], [-49.25133347, -22.81377668], [-49.25132883, -22.81278215], [-49.25140556, -22.8119993], [-49.2516644, -22.81133449], [-49.25202218, -22.81077245], [-49.25248035, -22.81018243], [-49.25263683, -22.80969061], [-49.2528816, -22.80882254], [-49.25343878, -22.80701444], [-49.25362746, -22.80661012], [-49.2541539, -22.80590471], [-49.25469441, -22.80540264], [-49.25533263, -22.80509039], [-49.25655019, -22.80482104], [-49.25661262, -22.80384928], [-49.25669181, -22.8028778], [-49.25691665, -22.80225613], [-49.25707237, -22.80182246], [-49.25707078, -22.80063804], [-49.25727079, -22.79934854], [-49.25742535, -22.79769569], [-49.25779348, -22.79630643], [-49.25788552, -22.79562524], [-49.25808035, -22.79474207], [-49.25845986, -22.79377377], [-49.25851379, -22.79331362], [-49.25840514, -22.79279134], [-49.25849284, -22.79245852], [-49.25891964, -22.79170847], [-49.25902289, -22.79146287], [-49.25897652, -22.79117202], [-49.25863533, -22.79044266], [-49.25850808, -22.78994783], [-49.2585149, -22.78941083], [-49.2586556, -22.78884641], [-49.25908118, -22.7881834], [-49.25970812, -22.78747183], [-49.25976149, -22.78721115], [-49.25975036, -22.78677565], [-49.25963774, -22.78644055], [-49.25931128, -22.78587102], [-49.25915173, -22.78528869], [-49.2589587, -22.78481264], [-49.25866592, -22.7842144], [-49.25865572, -22.7837063], [-49.25859628, -22.78312514], [-49.2580907, -22.78220525], [-49.25771742, -22.78137394], [-49.2576293, -22.78042961], [-49.25757005, -22.77983392], [-49.25734428, -22.77922187], [-49.25680522, -22.7783016], [-49.25594827, -22.77745047], [-49.25548521, -22.77712607], [-49.25473618, -22.77697275], [-49.25403192, -22.77687487], [-49.25251325, -22.77725322], [-49.25087235, -22.77768515], [-49.24967419, -22.77814686], [-49.24916939, -22.7782402], [-49.24856688, -22.77843434], [-49.24477104, -22.77834629], [-49.23510585, -22.77887939], [-49.23402335, -22.78101955], [-49.23108068, -22.78618397], [-49.22916285, -22.78906891], [-49.22874933, -22.78967976], [-49.22658304, -22.79180971], [-49.22467832, -22.79366901], [-49.2229961, -22.7954282], [-49.22191131, -22.79661278], [-49.22145511, -22.79766761], [-49.22129875, -22.79834968], [-49.22124679, -22.79951158], [-49.22152491, -22.80081394], [-49.22140985, -22.80115456], [-49.21948404, -22.80462052], [-49.21597513, -22.81070141], [-49.2036541, -22.80249404], [-49.20270438, -22.80179953], [-49.20170614, -22.80199341], [-49.19890114, -22.80216689], [-49.19661326, -22.80227778], [-49.19458348, -22.80239157], [-49.19306676, -22.80275048], [-49.18969466, -22.80397726], [-49.18662474, -22.80466036], [-49.18473834, -22.80508336], [-49.18225879, -22.80573891], [-49.18144531, -22.80590058], [-49.17929896, -22.80645731], [-49.17759643, -22.80691651], [-49.1760778, -22.80741199], [-49.17489245, -22.80789858], [-49.17469762, -22.80797855], [-49.17482061, -22.80822315], [-49.1749123, -22.80860908], [-49.17494194, -22.80954264], [-49.17482992, -22.81005366], [-49.17452247, -22.81101993], [-49.17417601, -22.81174789], [-49.17412686, -22.81227805], [-49.17435301, -22.81268314], [-49.17476744, -22.81316361], [-49.17478457, -22.81345658], [-49.17488294, -22.8139701], [-49.17546431, -22.8145623], [-49.17583554, -22.81513376], [-49.1758725, -22.81551844], [-49.17582579, -22.81586558], [-49.17565324, -22.81617471], [-49.17567038, -22.81646767], [-49.17589386, -22.81707402], [-49.17613926, -22.81760746], [-49.17617817, -22.81784577], [-49.1762581, -22.81840496], [-49.17614364, -22.819099], [-49.17607273, -22.81968373], [-49.175731, -22.8200626], [-49.17572147, -22.82077755], [-49.17580246, -22.82101635], [-49.1757988, -22.82129083], [-49.1754848, -22.82179481], [-49.17536621, -22.82216419], [-49.17538091, -22.82264009], [-49.17522558, -22.8232421], [-49.17506977, -22.82388076], [-49.17518918, -22.82439452], [-49.17543068, -22.82522069], [-49.17542312, -22.82578782], [-49.17518656, -22.82616936], [-49.17513911, -22.82657139], [-49.17528029, -22.82703041], [-49.17563149, -22.82752849], [-49.1756271, -22.82785779], [-49.17553708, -22.82829591], [-49.17554328, -22.82874471], [-49.17575149, -22.82891181], [-49.17648094, -22.8294508]]]]}}]}