{"type": "FeatureCollection", "features": [{"type": "Feature", "properties": {"name": "Estação Ecológica Itapeva"}, "geometry": {"type": "MultiPolygon", "coordinates": [[[[-49.06857743, -24.08131923], [-49.07181514, -24.08089066], [-49.08515429, -24.0786795], [-49.08500389, -24.07837275], [-49.08439955, -24.07787846], [-49.08369301, -24.07740161], [-49.08327326, -24.07683475], [-49.08309731, -24.0763271], [-49.08286076, -24.07578126], [-49.08262115, -24.0754413], [-49.082238, -24.0751557], [-49.08199839, -24.07481573], [-49.08187297, -24.07365352], [-49.07646486, -24.07448657], [-49.06792392, -24.07580177], [-49.06807958, -24.07618919], [-49.06812625, -24.07636551], [-49.06819173, -24.0764496], [-49.06820162, -24.07661515], [-49.06813757, -24.07679989], [-49.06804707, -24.07697134], [-49.0677971, -24.07738068], [-49.06743468, -24.07801588], [-49.06726155, -24.07840916], [-49.06713276, -24.07886023], [-49.06726779, -24.07925436], [-49.06748833, -24.07970958], [-49.06781118, -24.0800815], [-49.06814179, -24.08046474], [-49.0683847, -24.08089598], [-49.06857743, -24.08131923]]]]}}]}