{"type": "FeatureCollection", "features": [{"type": "Feature", "properties": {"name": "Estação Ecológica Noroeste Paulista"}, "geometry": {"type": "MultiPolygon", "coordinates": [[[[-49.4345775, -20.85380778], [-49.43531806, -20.85279639], [-49.43803055, -20.85384278], [-49.439595, -20.85096611], [-49.44043194, -20.85157722], [-49.44086694, -20.84872222], [-49.44022667, -20.84801139], [-49.43930861, -20.84618889], [-49.43898972, -20.84596167], [-49.43984083, -20.84450417], [-49.44064083, -20.84477139], [-49.44083306, -20.84437694], [-49.43961139, -20.84366583], [-49.43996444, -20.84261055], [-49.43899306, -20.842305], [-49.43931833, -20.84120333], [-49.43994139, -20.83997444], [-49.44052639, -20.83899167], [-49.44077167, -20.83848528], [-49.43884278, -20.83721555], [-49.436965, -20.83642028], [-49.43678333, -20.83654], [-49.43743111, -20.83692361], [-49.4382725, -20.83779944], [-49.43879167, -20.837825], [-49.43849139, -20.83850833], [-49.43835222, -20.83957028], [-49.43787111, -20.84002667], [-49.43734778, -20.83993139], [-49.43736333, -20.84049805], [-49.43772111, -20.84077722], [-49.43782306, -20.84117222], [-49.43747667, -20.84155083], [-49.433435, -20.84269944], [-49.43179726, -20.8427977], [-49.43159974, -20.84296381], [-49.43156604, -20.84327181], [-49.43283524, -20.84371364], [-49.43299304, -20.84389165], [-49.43453139, -20.84391611], [-49.43482387, -20.84391826], [-49.43647902, -20.84318051], [-49.43667442, -20.84346193], [-49.43718348, -20.843653], [-49.43735631, -20.84390553], [-49.43735942, -20.84434294], [-49.43722562, -20.84474325], [-49.43685353, -20.84532064], [-49.4369127, -20.84623896], [-49.43597547, -20.84762142], [-49.43535444, -20.84725833], [-49.43348861, -20.84632417], [-49.43285778, -20.84727055], [-49.43156201, -20.84807579], [-49.43048543, -20.8474129], [-49.42969111, -20.84746055], [-49.42969271, -20.84784595], [-49.43002021, -20.84815116], [-49.43057342, -20.84883445], [-49.43083058, -20.84922137], [-49.43118385, -20.85000519], [-49.43141585, -20.85052776], [-49.43148368, -20.85066286], [-49.43169012, -20.85086038], [-49.43318626, -20.85308286], [-49.43437353, -20.85451405], [-49.4345775, -20.85380778]]], [[[-49.45247218, -20.83621656], [-49.4522939, -20.83612575], [-49.45189689, -20.8357753], [-49.45147699, -20.83560303], [-49.45128898, -20.83543286], [-49.45112154, -20.83531242], [-49.4506917, -20.83508059], [-49.45045048, -20.83495949], [-49.45024038, -20.83488821], [-49.45001994, -20.83479703], [-49.44983805, -20.83471417], [-49.44918167, -20.83643389], [-49.44788361, -20.83576611], [-49.44715528, -20.83584555], [-49.44704444, -20.83576972], [-49.44705194, -20.83565222], [-49.44709944, -20.83555917], [-49.44723194, -20.83544889], [-49.44718361, -20.83540667], [-49.44723194, -20.83509055], [-49.44689167, -20.83493555], [-49.44599305, -20.83465889], [-49.44520167, -20.83448833], [-49.44495555, -20.83471139], [-49.44494917, -20.83508694], [-49.44338433, -20.83607314], [-49.44313534, -20.83630302], [-49.44274972, -20.83728667], [-49.4423175, -20.83708361], [-49.44189667, -20.83793667], [-49.44149222, -20.83961333], [-49.44266972, -20.84000389], [-49.44382528, -20.84091944], [-49.44435028, -20.841615], [-49.44505222, -20.84293667], [-49.44559222, -20.84432444], [-49.44594583, -20.84412722], [-49.4473575, -20.842815], [-49.45038222, -20.84499778], [-49.45041859, -20.84502658], [-49.45247218, -20.83621656]]]]}}]}