{"type": "FeatureCollection", "features": [{"type": "Feature", "properties": {"name": "Estação Ecológica Ribeirão Preto"}, "geometry": {"type": "MultiPolygon", "coordinates": [[[[-47.85374955, -21.22771491], [-47.8539385, -21.22763787], [-47.85407628, -21.22754797], [-47.85430731, -21.22743132], [-47.85442204, -21.2273846], [-47.85461594, -21.22734936], [-47.85490318, -21.22736661], [-47.85502002, -21.22727942], [-47.85532442, -21.22713814], [-47.85547062, -21.2271956], [-47.85547966, -21.2270753], [-47.85560706, -21.22696157], [-47.85577079, -21.22697965], [-47.85607764, -21.22677558], [-47.85610977, -21.22664388], [-47.85636354, -21.22664806], [-47.85638996, -21.22652521], [-47.85658542, -21.22638126], [-47.85689209, -21.2263729], [-47.85723288, -21.22638103], [-47.85673537, -21.22293101], [-47.85478211, -21.22233859], [-47.85381983, -21.22205274], [-47.8521783, -21.2220101], [-47.85172451, -21.22067048], [-47.85128123, -21.21945696], [-47.84895087, -21.21311678], [-47.8477234, -21.21256816], [-47.84717413, -21.2123495], [-47.8467015, -21.21218604], [-47.84644295, -21.21210239], [-47.8462166, -21.21203598], [-47.84590463, -21.21202761], [-47.83968235, -21.21474446], [-47.84008949, -21.21943652], [-47.84050095, -21.21975773], [-47.84734896, -21.22394884], [-47.85025422, -21.22574401], [-47.85258117, -21.22720695], [-47.852911, -21.22739663], [-47.85306979, -21.2274927], [-47.85327347, -21.22763585], [-47.85341656, -21.22770168], [-47.85348516, -21.22772471], [-47.85357654, -21.22774031], [-47.85374955, -21.22771491]]], [[[-47.83958925, -21.2137283], [-47.83962598, -21.21397259], [-47.84052141, -21.21358162], [-47.83958925, -21.2137283]]], [[[-47.84425442, -21.21147111], [-47.84383051, -21.21211674], [-47.84485329, -21.2116764], [-47.84425442, -21.21147111]]]]}}]}