{"type": "FeatureCollection", "features": [{"type": "Feature", "properties": {"name": "Estação Ecológica Marília"}, "geometry": {"type": "MultiPolygon", "coordinates": [[[[-49.90769243, -22.01947185], [-49.90736191, -22.0196066], [-49.90699063, -22.01982581], [-49.90674891, -22.01992663], [-49.90640222, -22.01997112], [-49.90622022, -22.01992754], [-49.90451467, -22.01888962], [-49.90430283, -22.01873293], [-49.90385675, -22.01824648], [-49.9036017, -22.01787731], [-49.90448054, -22.0167989], [-49.89915231, -22.01279475], [-49.89880086, -22.01260478], [-49.898142, -22.01359682], [-49.89810304, -22.01389936], [-49.89701811, -22.0136619], [-49.89560744, -22.01274349], [-49.89503577, -22.01259385], [-49.89440844, -22.01257689], [-49.89282511, -22.0126879], [-49.89254828, -22.00884029], [-49.88860138, -22.01347815], [-49.8928487, -22.01346872], [-49.89346735, -22.01808845], [-49.89407023, -22.01780065], [-49.89710165, -22.01661464], [-49.89726839, -22.0165761], [-49.89757009, -22.01654778], [-49.89768552, -22.01657972], [-49.89783556, -22.01667006], [-49.90221399, -22.02059655], [-49.90377287, -22.02091663], [-49.90531979, -22.02164663], [-49.90715643, -22.02213402], [-49.90769243, -22.01947185]]], [[[-49.91429477, -22.0349387], [-49.91424346, -22.03442437], [-49.91443365, -22.03428615], [-49.91485121, -22.03430364], [-49.91506449, -22.0342242], [-49.91531931, -22.03388081], [-49.91621452, -22.03348113], [-49.916421, -22.03327689], [-49.91656563, -22.03291064], [-49.91647325, -22.03262368], [-49.91607364, -22.0323485], [-49.91593392, -22.03206854], [-49.91601565, -22.03167993], [-49.91712108, -22.03051695], [-49.91757997, -22.03027039], [-49.91798679, -22.02974959], [-49.91822463, -22.02956028], [-49.91852461, -22.0294815], [-49.91881241, -22.02894004], [-49.91900286, -22.02876506], [-49.91933359, -22.02879659], [-49.91973118, -22.02934988], [-49.92043245, -22.02968376], [-49.92072384, -22.02971504], [-49.92089767, -22.02965006], [-49.9210899, -22.02924021], [-49.92121276, -22.02862422], [-49.92142063, -22.02822171], [-49.92269413, -22.02669305], [-49.9227828, -22.026422], [-49.92272282, -22.02602504], [-49.9220982, -22.02525563], [-49.92221391, -22.0245723], [-49.92249952, -22.02431717], [-49.92254914, -22.02344388], [-49.92318073, -22.02249338], [-49.92324614, -22.02209426], [-49.92349823, -22.02174714], [-49.92382776, -22.02147324], [-49.92425688, -22.02141797], [-49.92455248, -22.02150708], [-49.92485703, -22.02143644], [-49.92499092, -22.02125566], [-49.9250248, -22.02089987], [-49.92485569, -22.02058639], [-49.92486541, -22.02032494], [-49.9249524, -22.02015839], [-49.92544594, -22.01996307], [-49.9259105, -22.01935582], [-49.9258966, -22.01913052], [-49.92544579, -22.01895323], [-49.9255335, -22.01869229], [-49.92571442, -22.01846827], [-49.92597307, -22.01838035], [-49.92612305, -22.01813436], [-49.92679403, -22.0180588], [-49.92829988, -22.01715057], [-49.9285982, -22.01687646], [-49.92880452, -22.01639109], [-49.92911728, -22.01626955], [-49.92936668, -22.0162785], [-49.92954518, -22.0163886], [-49.93004387, -22.0164064], [-49.9309473, -22.01582141], [-49.93144198, -22.01535245], [-49.93168701, -22.01489632], [-49.93178673, -22.01429797], [-49.93205384, -22.01402355], [-49.93264151, -22.0136206], [-49.93271414, -22.01328684], [-49.93263812, -22.01302483], [-49.93271314, -22.01237148], [-49.93306794, -22.01183621], [-49.93311795, -22.01145668], [-49.93271109, -22.01062576], [-49.93281383, -22.01043754], [-49.93308814, -22.01023598], [-49.93317753, -22.00995364], [-49.9329314, -22.00954843], [-49.93279794, -22.00946544], [-49.93230736, -22.00948014], [-49.93190244, -22.00930967], [-49.93184971, -22.0091843], [-49.93190073, -22.00902032], [-49.93234933, -22.00842884], [-49.93282899, -22.00833196], [-49.93262392, -22.00808419], [-49.93278288, -22.00680348], [-49.93274153, -22.00619246], [-49.9329322, -22.00585269], [-49.93302804, -22.00534265], [-49.93327328, -22.00475111], [-49.93372474, -22.00414926], [-49.93400581, -22.00392272], [-49.93449725, -22.00372563], [-49.93467059, -22.0035385], [-49.93475633, -22.00309642], [-49.93498195, -22.00280945], [-49.93516238, -22.00281459], [-49.93538045, -22.00296822], [-49.93537473, -22.00316448], [-49.93520118, -22.0033797], [-49.93520434, -22.00353997], [-49.93532825, -22.00362885], [-49.93584206, -22.00355052], [-49.93594413, -22.00363185], [-49.9362097, -22.00354784], [-49.93650535, -22.00306593], [-49.93668065, -22.00291467], [-49.93673763, -22.00180637], [-49.93685281, -22.00158534], [-49.93681184, -22.00127261], [-49.93647004, -22.00070599], [-49.93596889, -22.00036192], [-49.93594416, -22.00005435], [-49.93680657, -21.99832442], [-49.936868, -21.99806276], [-49.93696621, -21.9979475], [-49.93717146, -21.99797403], [-49.93738293, -21.99789482], [-49.93761247, -21.99757372], [-49.93764175, -21.9973496], [-49.93743324, -21.99703082], [-49.93731311, -21.99646048], [-49.93740375, -21.99596983], [-49.93731487, -21.99556103], [-49.93751798, -21.99515918], [-49.93746659, -21.99480104], [-49.9373119, -21.99447528], [-49.93726131, -21.99401127], [-49.93742497, -21.99382082], [-49.93783765, -21.99358166], [-49.9379411, -21.99283924], [-49.93822492, -21.99247314], [-49.93821043, -21.9922463], [-49.93788937, -21.99178406], [-49.93789047, -21.9909071], [-49.93799414, -21.99078682], [-49.93823592, -21.99084953], [-49.93835968, -21.99051465], [-49.93829304, -21.99030573], [-49.93799215, -21.98995979], [-49.93787654, -21.9891594], [-49.93769663, -21.98887901], [-49.93762379, -21.98843536], [-49.93734265, -21.98801303], [-49.93687905, -21.98765313], [-49.93645416, -21.98763511], [-49.93600873, -21.98738489], [-49.93587711, -21.98723923], [-49.93579363, -21.98618431], [-49.93558981, -21.98595534], [-49.93498264, -21.98553452], [-49.93439239, -21.98530016], [-49.93407637, -21.98493316], [-49.93405527, -21.98471044], [-49.93423879, -21.98449257], [-49.9349046, -21.98320564], [-49.93507285, -21.98300889], [-49.93581087, -21.98276453], [-49.93591823, -21.98260271], [-49.93579861, -21.98238288], [-49.93577416, -21.98214125], [-49.93602961, -21.98143261], [-49.93602432, -21.98112868], [-49.93583577, -21.98091698], [-49.93575053, -21.98065853], [-49.93591941, -21.98037687], [-49.93596795, -21.97997086], [-49.93617119, -21.9796542], [-49.93611759, -21.97772051], [-49.93586552, -21.97746802], [-49.93551394, -21.97733855], [-49.93538221, -21.97714538], [-49.93533227, -21.97672454], [-49.9349341, -21.9761796], [-49.93487197, -21.97587531], [-49.9350264, -21.97549112], [-49.93530189, -21.97514665], [-49.93614657, -21.97490722], [-49.9363038, -21.97466795], [-49.9362334, -21.97444491], [-49.93571334, -21.97393431], [-49.93494786, -21.9739046], [-49.93473665, -21.97377252], [-49.93440834, -21.97297753], [-49.93443426, -21.97255366], [-49.93426077, -21.97242887], [-49.9337874, -21.97230765], [-49.93370927, -21.97210931], [-49.93378605, -21.97198252], [-49.93398719, -21.97194498], [-49.93408642, -21.97184671], [-49.9340993, -21.97165239], [-49.9340396, -21.97152834], [-49.9338012, -21.97147033], [-49.93368049, -21.97135889], [-49.933909, -21.97070319], [-49.93380354, -21.97061063], [-49.93346422, -21.97058052], [-49.93339099, -21.97045204], [-49.9334589, -21.97030722], [-49.93364852, -21.97024269], [-49.933746, -21.97011884], [-49.93359868, -21.96945934], [-49.93367353, -21.96936985], [-49.93408496, -21.96943133], [-49.93470831, -21.96993347], [-49.93490477, -21.96995209], [-49.93540392, -21.96883291], [-49.93552004, -21.96818334], [-49.93677642, -21.96561783], [-49.93659004, -21.96380207], [-49.9361792, -21.96353247], [-49.93613224, -21.96336225], [-49.93656158, -21.96307071], [-49.93690493, -21.96270066], [-49.9374769, -21.96239776], [-49.9377837, -21.96186279], [-49.9378022, -21.96155008], [-49.93798045, -21.9611767], [-49.93836189, -21.96081312], [-49.93851457, -21.96077969], [-49.93906733, -21.96097702], [-49.9392305, -21.96091231], [-49.93936759, -21.96048691], [-49.93958244, -21.96016534], [-49.93952961, -21.95982056], [-49.93960193, -21.9594829], [-49.94003679, -21.95875805], [-49.93996155, -21.9583385], [-49.94001039, -21.95798145], [-49.94044533, -21.95787233], [-49.94054991, -21.95746821], [-49.94071455, -21.95721751], [-49.94100233, -21.95702559], [-49.94111915, -21.95683691], [-49.94130401, -21.95682518], [-49.94143304, -21.95650487], [-49.94161884, -21.95634003], [-49.94174167, -21.95637406], [-49.94183448, -21.95652561], [-49.94203799, -21.95658419], [-49.94293425, -21.95607025], [-49.94343595, -21.95575811], [-49.9433783, -21.95552639], [-49.94338932, -21.95526738], [-49.94330297, -21.95517116], [-49.94312071, -21.95511977], [-49.94306357, -21.95492437], [-49.94316418, -21.9546494], [-49.94358149, -21.95427701], [-49.94356378, -21.95409243], [-49.94366713, -21.95391793], [-49.94377504, -21.95383525], [-49.94390484, -21.95380311], [-49.94421696, -21.95386654], [-49.94429289, -21.95393189], [-49.94459177, -21.95388638], [-49.94473959, -21.95380105], [-49.94481437, -21.9535616], [-49.94498511, -21.95341482], [-49.9452922, -21.95337216], [-49.94571319, -21.95339275], [-49.94599163, -21.9532836], [-49.94644551, -21.95287485], [-49.94687549, -21.95221228], [-49.94703695, -21.95205062], [-49.94688428, -21.95171594], [-49.94663065, -21.95169156], [-49.94615923, -21.95189324], [-49.94609382, -21.95204377], [-49.94582153, -21.95210761], [-49.94535688, -21.95240075], [-49.94514907, -21.95213916], [-49.94498674, -21.95211653], [-49.94473492, -21.95200462], [-49.94450299, -21.9520717], [-49.94425282, -21.95227533], [-49.94408391, -21.95254137], [-49.94395131, -21.95266383], [-49.94376471, -21.95266236], [-49.94353919, -21.95254348], [-49.94334557, -21.95256337], [-49.94315394, -21.95275835], [-49.94307247, -21.95302404], [-49.94290684, -21.95310889], [-49.94262436, -21.95311051], [-49.94257906, -21.95300299], [-49.94259408, -21.95288321], [-49.94251138, -21.95284411], [-49.94227083, -21.95292458], [-49.94213506, -21.95303013], [-49.94204741, -21.95303155], [-49.94197256, -21.95308355], [-49.94197944, -21.95312145], [-49.94167313, -21.95337332], [-49.94149927, -21.95340418], [-49.94136907, -21.9534112], [-49.94026988, -21.95316302], [-49.94008066, -21.95318873], [-49.93984686, -21.9531154], [-49.93974781, -21.95314069], [-49.93931485, -21.95307566], [-49.93905517, -21.95318898], [-49.9389154, -21.95341464], [-49.93870919, -21.95351223], [-49.93836807, -21.95357272], [-49.93789734, -21.95357474], [-49.93710359, -21.9537278], [-49.93630573, -21.95366672], [-49.93600406, -21.95372141], [-49.92357133, -21.96288569], [-49.9236076, -21.96680229], [-49.92846496, -21.96972372], [-49.93288825, -21.97239865], [-49.93275694, -21.97480929], [-49.93395723, -21.97669034], [-49.93172506, -21.97612283], [-49.93279677, -21.97702473], [-49.93397364, -21.97694357], [-49.9341382, -21.97750146], [-49.93433786, -21.97778071], [-49.93450005, -21.97822792], [-49.93480783, -21.97895793], [-49.93486095, -21.97965303], [-49.93436194, -21.97986398], [-49.93337046, -21.97975828], [-49.93352701, -21.98050546], [-49.93435333, -21.98060278], [-49.9343409, -21.98134705], [-49.93300576, -21.98544428], [-49.93363541, -21.9869659], [-49.93406157, -21.98778664], [-49.93470025, -21.9885925], [-49.9356404, -21.98973356], [-49.93577895, -21.9899097], [-49.93583649, -21.99001342], [-49.93586066, -21.99031836], [-49.9357544, -21.99111253], [-49.93575115, -21.99119679], [-49.93571894, -21.99165882], [-49.93565881, -21.99221562], [-49.93563091, -21.99231923], [-49.93558793, -21.99266629], [-49.93556128, -21.99317506], [-49.93554747, -21.99328663], [-49.93549888, -21.99348974], [-49.9353487, -21.99396267], [-49.93526314, -21.99414892], [-49.93520458, -21.99424737], [-49.9349735, -21.99448942], [-49.93446783, -21.99488307], [-49.9340875, -21.99508358], [-49.93400059, -21.99515185], [-49.93397258, -21.99524499], [-49.92687977, -21.99864635], [-49.93322132, -22.00356333], [-49.93218457, -22.00549896], [-49.92763845, -22.01100717], [-49.92459471, -22.0144793], [-49.92473935, -22.01458233], [-49.92458472, -22.01480218], [-49.92328806, -22.01632367], [-49.92314897, -22.01643441], [-49.92078764, -22.01757436], [-49.92067936, -22.01768648], [-49.920026, -22.02042353], [-49.91987283, -22.02075667], [-49.91949957, -22.0213664], [-49.91850594, -22.02237629], [-49.91823141, -22.02248659], [-49.9165678, -22.0229374], [-49.91508262, -22.02282976], [-49.91453453, -22.02278224], [-49.91178214, -22.02172148], [-49.90957906, -22.02069116], [-49.90949678, -22.0206571], [-49.90831748, -22.01972768], [-49.90780896, -22.02197892], [-49.90867133, -22.02210291], [-49.91042451, -22.02295266], [-49.91175336, -22.02368929], [-49.91337081, -22.02463297], [-49.91571987, -22.02517993], [-49.91651487, -22.02537723], [-49.9141407, -22.0289644], [-49.9141271, -22.0290326], [-49.91124043, -22.03342129], [-49.91413959, -22.0350991], [-49.91429477, -22.0349387]]]]}}]}