{"type": "FeatureCollection", "features": [{"type": "Feature", "properties": {"name": "Estação Ecológica Santa Maria"}, "geometry": {"type": "MultiPolygon", "coordinates": [[[[-47.6237302, -21.4210876], [-47.62371669, -21.42080395], [-47.62385215, -21.42074596], [-47.62382464, -21.42059645], [-47.6237463, -21.42035444], [-47.62366888, -21.42015136], [-47.62364049, -21.4200828], [-47.62360172, -21.42000038], [-47.62356619, -21.41993559], [-47.62352436, -21.41986727], [-47.62341679, -21.41970665], [-47.62336943, -21.41965224], [-47.62330117, -21.41958631], [-47.62294989, -21.41927693], [-47.62280448, -21.41911161], [-47.62274818, -21.41900353], [-47.62269286, -21.41888706], [-47.62264175, -21.41871094], [-47.62261519, -21.4184987], [-47.62263218, -21.41835009], [-47.62267189, -21.41818115], [-47.62273388, -21.41800673], [-47.62283983, -21.41781805], [-47.62295573, -21.41765058], [-47.62314184, -21.41740102], [-47.62322478, -21.41727932], [-47.62336063, -21.41707023], [-47.62346419, -21.41687543], [-47.62356512, -21.41664564], [-47.62364517, -21.41642216], [-47.62367124, -21.41633581], [-47.62372131, -21.4161251], [-47.6237557, -21.4159169], [-47.62377012, -21.41581955], [-47.62379761, -21.41554229], [-47.62384666, -21.41510217], [-47.6238874, -21.4148176], [-47.62393057, -21.41460667], [-47.62396325, -21.41450054], [-47.62398466, -21.41443532], [-47.62409908, -21.41417204], [-47.62416887, -21.41403551], [-47.62420816, -21.41397646], [-47.62439627, -21.41371214], [-47.6247469, -21.41328854], [-47.6249982, -21.4129771], [-47.62511374, -21.4128125], [-47.62516213, -21.41273424], [-47.62530211, -21.41240591], [-47.62533452, -21.41226486], [-47.62536506, -21.41208676], [-47.62539263, -21.41187005], [-47.62549487, -21.41063427], [-47.62550595, -21.41011743], [-47.6255856, -21.40969006], [-47.62570822, -21.40873834], [-47.62574861, -21.40846065], [-47.62579775, -21.40818873], [-47.62584554, -21.40795491], [-47.62594868, -21.40757554], [-47.62627951, -21.40642123], [-47.62652441, -21.40558763], [-47.62690254, -21.40410384], [-47.62705427, -21.40352566], [-47.62710277, -21.40335382], [-47.62715566, -21.40318027], [-47.62721678, -21.40301052], [-47.62730694, -21.40279817], [-47.62736984, -21.40267561], [-47.62749464, -21.40248986], [-47.62762564, -21.40236076], [-47.62790916, -21.40215544], [-47.62936846, -21.40132727], [-47.62991238, -21.40103063], [-47.63020879, -21.40087673], [-47.630743, -21.40066388], [-47.63086058, -21.40052267], [-47.63098051, -21.40043121], [-47.63117824, -21.40033022], [-47.63122244, -21.4003313], [-47.62990478, -21.39981841], [-47.62895909, -21.3994988], [-47.62218555, -21.39708943], [-47.61962024, -21.39611874], [-47.61901189, -21.39590237], [-47.61896769, -21.3961551], [-47.6189286, -21.3964705], [-47.61891898, -21.39658118], [-47.61890714, -21.39679504], [-47.61890461, -21.39689085], [-47.618905, -21.39710876], [-47.61891667, -21.39737908], [-47.61892424, -21.39747939], [-47.61894452, -21.39767593], [-47.61898645, -21.39796033], [-47.61904051, -21.39823301], [-47.61912156, -21.39856671], [-47.62011741, -21.40225827], [-47.62029115, -21.40231966], [-47.62057236, -21.40337389], [-47.621347, -21.40623792], [-47.62143403, -21.40656812], [-47.62152239, -21.40693552], [-47.62159322, -21.4072849], [-47.62162353, -21.40745211], [-47.62165431, -21.40764599], [-47.62169149, -21.40793086], [-47.62172437, -21.40825984], [-47.6217445, -21.40855791], [-47.6218173, -21.41040894], [-47.62164608, -21.41041462], [-47.62174021, -21.41279147], [-47.62192819, -21.41775017], [-47.62194793, -21.41831279], [-47.62194991, -21.418454], [-47.62194885, -21.41862295], [-47.62193995, -21.41886593], [-47.62193116, -21.41899529], [-47.62190472, -21.41924726], [-47.62186769, -21.41949701], [-47.62184457, -21.4196251], [-47.62180105, -21.41983063], [-47.62177515, -21.41993861], [-47.62213279, -21.42004684], [-47.62237255, -21.42023422], [-47.62267926, -21.42041287], [-47.6227741, -21.4205887], [-47.6227245, -21.42079161], [-47.62265124, -21.4209922], [-47.62267629, -21.42107215], [-47.62274857, -21.42114578], [-47.62303099, -21.4212217], [-47.62365684, -21.42148058], [-47.62368988, -21.4215062], [-47.6237302, -21.4210876]]], [[[-47.60854462, -21.41946388], [-47.6088514, -21.41941387], [-47.60908614, -21.41946023], [-47.60931409, -21.41969475], [-47.60939017, -21.419684], [-47.60942337, -21.41955013], [-47.60950542, -21.41944178], [-47.60963796, -21.41946111], [-47.60994742, -21.41970863], [-47.61059374, -21.41973195], [-47.61099818, -21.41959943], [-47.61144179, -21.41966393], [-47.6118309, -21.41952695], [-47.61204762, -21.41927592], [-47.6120932, -21.41912281], [-47.61208342, -21.41857305], [-47.61222908, -21.41832792], [-47.61259936, -21.4181293], [-47.6126491, -21.41806894], [-47.61265383, -21.41790699], [-47.61255043, -21.41752526], [-47.61256189, -21.41731319], [-47.61275794, -21.41689826], [-47.61283108, -21.41643523], [-47.61288771, -21.4163344], [-47.6130694, -21.41625537], [-47.61348306, -21.41620838], [-47.61386083, -21.4162906], [-47.6140955, -21.41647978], [-47.61413142, -21.41649348], [-47.61442969, -21.41625319], [-47.61452104, -21.41624463], [-47.61473607, -21.41632695], [-47.61485533, -21.41631082], [-47.615018, -21.41616536], [-47.61508629, -21.41600477], [-47.61527536, -21.41576618], [-47.61551277, -21.41568149], [-47.61602139, -21.41568311], [-47.61630604, -21.4155334], [-47.61638377, -21.41533456], [-47.61630258, -21.41491204], [-47.61639308, -21.41458534], [-47.61653892, -21.41462405], [-47.61671045, -21.41455699], [-47.61682241, -21.41437946], [-47.61693367, -21.41437655], [-47.61702777, -21.41453091], [-47.61701587, -21.41470688], [-47.61712415, -21.41488322], [-47.61741529, -21.41500055], [-47.61766676, -21.41499897], [-47.61809484, -21.41562597], [-47.61829456, -21.41586779], [-47.61847881, -21.41606989], [-47.61848334, -21.41612306], [-47.61844746, -21.41620926], [-47.61829299, -21.41640633], [-47.61818947, -21.41652582], [-47.61796118, -21.41676663], [-47.61787829, -21.41688599], [-47.6178419, -21.4170019], [-47.61781408, -21.41730675], [-47.6178991, -21.41753119], [-47.61794311, -21.41770908], [-47.61810704, -21.41797772], [-47.61822882, -21.41818713], [-47.61837984, -21.41842284], [-47.6185077, -21.4186024], [-47.61869808, -21.41879595], [-47.61893982, -21.41906346], [-47.61916844, -21.41921388], [-47.61927245, -21.41924542], [-47.61944106, -21.41933886], [-47.61952469, -21.41938218], [-47.61964095, -21.41941639], [-47.61977175, -21.4194775], [-47.62007805, -21.41962848], [-47.62024076, -21.41974252], [-47.62033415, -21.41977925], [-47.62040513, -21.41978537], [-47.62062616, -21.41986209], [-47.62067513, -21.41985664], [-47.62070129, -21.41984584], [-47.62082431, -21.41985254], [-47.62089814, -21.41984364], [-47.62116514, -21.41975288], [-47.62127656, -21.41976532], [-47.62135414, -21.41980266], [-47.62142031, -21.41978984], [-47.62144326, -21.41979813], [-47.62149355, -21.41956565], [-47.62151539, -21.41944462], [-47.62155053, -21.41920763], [-47.62156408, -21.41909179], [-47.62158376, -21.41884789], [-47.62159322, -21.41851464], [-47.62159133, -21.41832078], [-47.62148774, -21.41559209], [-47.62136838, -21.4126678], [-47.62135013, -21.41199383], [-47.62129764, -21.4106381], [-47.62129326, -21.41032813], [-47.62126303, -21.40972846], [-47.62121453, -21.40851344], [-47.62119502, -21.40822427], [-47.62117244, -21.40798824], [-47.62112717, -21.40762989], [-47.62108988, -21.40739807], [-47.62104344, -21.40715193], [-47.62099941, -21.406942], [-47.62091331, -21.40658407], [-47.61877484, -21.39864502], [-47.61869138, -21.39830124], [-47.61864533, -21.39807465], [-47.61861033, -21.39786365], [-47.61858993, -21.39771189], [-47.6185688, -21.39750721], [-47.61856078, -21.39740075], [-47.61855167, -21.39723236], [-47.61854731, -21.39699861], [-47.61855068, -21.39678361], [-47.61855596, -21.39667078], [-47.61856321, -21.39655763], [-47.61858554, -21.39632739], [-47.61861454, -21.39610845], [-47.61863249, -21.39599663], [-47.6186689, -21.39580189], [-47.61871131, -21.39560942], [-47.61875571, -21.39543469], [-47.61880577, -21.39525884], [-47.61885571, -21.39510134], [-47.6189071, -21.39495331], [-47.61899682, -21.39471954], [-47.61909712, -21.39448161], [-47.61926466, -21.39411029], [-47.62545782, -21.3805988], [-47.63038205, -21.36987038], [-47.63060507, -21.36938825], [-47.63075973, -21.36906651], [-47.63083066, -21.36892749], [-47.63091125, -21.3687785], [-47.63103222, -21.3685713], [-47.63112049, -21.36843021], [-47.63121142, -21.36829358], [-47.63131416, -21.36814713], [-47.63142687, -21.36799632], [-47.63159775, -21.36778384], [-47.63171889, -21.3676441], [-47.6318374, -21.36751513], [-47.63203222, -21.36731692], [-47.63216447, -21.3671918], [-47.63231588, -21.3670564], [-47.63255081, -21.36686222], [-47.63270121, -21.36674623], [-47.6327868, -21.36668381], [-47.63301655, -21.36652467], [-47.63317781, -21.36642119], [-47.63341398, -21.36628064], [-47.633575, -21.36619156], [-47.63399814, -21.3659735], [-47.63614795, -21.36490395], [-47.63633192, -21.36480867], [-47.63651188, -21.36471158], [-47.63674989, -21.3645733], [-47.63697307, -21.36443049], [-47.63712703, -21.364324], [-47.63727487, -21.36421492], [-47.63741202, -21.36410781], [-47.63754649, -21.36399622], [-47.63774537, -21.36382006], [-47.63787393, -21.36369815], [-47.63799614, -21.36357557], [-47.63772279, -21.36341102], [-47.63736366, -21.36321606], [-47.63709793, -21.36267755], [-47.63701028, -21.3622555], [-47.63708711, -21.36207337], [-47.63697054, -21.36187676], [-47.63698257, -21.3617574], [-47.63681457, -21.36157921], [-47.63676084, -21.36133963], [-47.63668599, -21.36123942], [-47.63657474, -21.36120587], [-47.63637102, -21.3612664], [-47.63628815, -21.36124567], [-47.63541622, -21.36067488], [-47.63514666, -21.36061068], [-47.63501487, -21.36048482], [-47.63481224, -21.36047699], [-47.6346785, -21.36037102], [-47.63451603, -21.36036698], [-47.63421525, -21.36040032], [-47.63297154, -21.36020894], [-47.63266162, -21.36008632], [-47.63197838, -21.35938977], [-47.63157739, -21.35906824], [-47.63149582, -21.35903919], [-47.63137853, -21.35936279], [-47.63109342, -21.35972839], [-47.63091405, -21.35984658], [-47.63043542, -21.35989959], [-47.63031718, -21.35998649], [-47.63031742, -21.36018375], [-47.6302356, -21.36031856], [-47.63035968, -21.36064488], [-47.63033741, -21.36079005], [-47.62999788, -21.36134085], [-47.62986769, -21.3615361], [-47.62928068, -21.3618082], [-47.6292049, -21.36194707], [-47.62907781, -21.36199203], [-47.62886789, -21.36200245], [-47.62865034, -21.36211492], [-47.62858719, -21.36221071], [-47.62864945, -21.36238326], [-47.62862561, -21.36244087], [-47.628358, -21.36252912], [-47.62758483, -21.36285243], [-47.62751917, -21.36292135], [-47.62755039, -21.3631695], [-47.6275078, -21.36324528], [-47.62710659, -21.36344648], [-47.62714334, -21.3638966], [-47.6273443, -21.36445862], [-47.62753762, -21.36448963], [-47.62746195, -21.36474297], [-47.62734303, -21.36492729], [-47.62744704, -21.36508483], [-47.62741363, -21.36513537], [-47.62697421, -21.36522631], [-47.62635818, -21.36526638], [-47.62620346, -21.36536721], [-47.62618777, -21.36545503], [-47.62638327, -21.36571135], [-47.62642578, -21.36584656], [-47.62635562, -21.36597649], [-47.62603594, -21.36625333], [-47.62573121, -21.36672486], [-47.62557935, -21.36677554], [-47.62517147, -21.36681416], [-47.62458881, -21.36627742], [-47.62441865, -21.36593999], [-47.62420044, -21.36569648], [-47.62420387, -21.36560786], [-47.62440764, -21.36546257], [-47.6244207, -21.36535754], [-47.62433846, -21.36520977], [-47.62448601, -21.36497688], [-47.62446393, -21.36471162], [-47.62438728, -21.36459635], [-47.62398012, -21.36422064], [-47.62386063, -21.36421087], [-47.62376569, -21.36432421], [-47.6236826, -21.36426963], [-47.6235503, -21.36423901], [-47.62342265, -21.36433418], [-47.62330623, -21.36436164], [-47.62315554, -21.36427787], [-47.62308351, -21.36414619], [-47.62298046, -21.36408027], [-47.62249122, -21.36412285], [-47.62231767, -21.36401136], [-47.62203314, -21.36395062], [-47.62187085, -21.36377846], [-47.62127103, -21.36360844], [-47.6209779, -21.36307024], [-47.62081749, -21.36299817], [-47.6206713, -21.36302609], [-47.62023843, -21.36330072], [-47.6199455, -21.36332624], [-47.61915569, -21.36338751], [-47.61888358, -21.36360843], [-47.61892414, -21.3637918], [-47.61888501, -21.36396485], [-47.61871027, -21.3640677], [-47.61851618, -21.36406378], [-47.61782577, -21.36383458], [-47.61748023, -21.36384466], [-47.61731305, -21.36394974], [-47.61700313, -21.36428303], [-47.61667665, -21.36438364], [-47.61614122, -21.36448516], [-47.61584531, -21.36462493], [-47.61563029, -21.36484261], [-47.61547487, -21.36519208], [-47.61531974, -21.36527602], [-47.61503234, -21.36533648], [-47.6145135, -21.36553091], [-47.61440962, -21.36570028], [-47.61430792, -21.36627489], [-47.61425897, -21.36632458], [-47.61362795, -21.36685093], [-47.61328895, -21.36698016], [-47.61303621, -21.36696785], [-47.61299413, -21.36705166], [-47.6131184, -21.36744453], [-47.61315986, -21.36800463], [-47.61300388, -21.36838615], [-47.60986724, -21.37178177], [-47.60696673, -21.37488522], [-47.6047416, -21.37727838], [-47.60626946, -21.37919626], [-47.60641922, -21.37939397], [-47.6065133, -21.37952637], [-47.60657183, -21.37961607], [-47.60663564, -21.3797226], [-47.60669874, -21.37984024], [-47.60673836, -21.37992477], [-47.60681133, -21.38010205], [-47.60686642, -21.38026755], [-47.60689188, -21.3803599], [-47.60693252, -21.38054696], [-47.60695726, -21.38071776], [-47.60696942, -21.38088796], [-47.60697086, -21.38097877], [-47.60696754, -21.38111648], [-47.60696281, -21.38118587], [-47.60694629, -21.38132796], [-47.60693199, -21.3814193], [-47.60690884, -21.3815358], [-47.60689012, -21.3816141], [-47.60683438, -21.38179869], [-47.60680531, -21.3818775], [-47.60677085, -21.3819672], [-47.60667892, -21.38216169], [-47.60660269, -21.38229657], [-47.60656301, -21.38236114], [-47.60646756, -21.38250364], [-47.60642602, -21.38256104], [-47.60628745, -21.38274134], [-47.60618813, -21.3828651], [-47.6042771, -21.38519418], [-47.60408009, -21.38545116], [-47.6039858, -21.38559175], [-47.60389128, -21.38574556], [-47.60380264, -21.3859082], [-47.60375448, -21.38600545], [-47.60366934, -21.38619516], [-47.60358113, -21.38643231], [-47.60352167, -21.38663124], [-47.60350283, -21.38670338], [-47.60348232, -21.38678958], [-47.60344301, -21.38698466], [-47.60236748, -21.39391144], [-47.60229227, -21.39437929], [-47.60224622, -21.39462951], [-47.60222031, -21.39474923], [-47.60217344, -21.39493327], [-47.6021327, -21.39506303], [-47.60251902, -21.39514669], [-47.60262664, -21.3951874], [-47.602851, -21.3952923], [-47.60455283, -21.39605433], [-47.60808404, -21.3977473], [-47.61216305, -21.39980676], [-47.61251559, -21.39988465], [-47.61236114, -21.40097207], [-47.61290069, -21.40199442], [-47.61327449, -21.40340539], [-47.61325539, -21.40402329], [-47.61328095, -21.40616834], [-47.60594416, -21.41947769], [-47.60657205, -21.41999474], [-47.6066471, -21.41993151], [-47.60673615, -21.41990162], [-47.60694432, -21.41998762], [-47.60736744, -21.42007691], [-47.6078063, -21.4199825], [-47.60854462, -21.41946388]]], [[[-47.59542768, -21.39948382], [-47.59672341, -21.40023647], [-47.59691083, -21.40002192], [-47.59700061, -21.39992624], [-47.59707637, -21.39984803], [-47.59715896, -21.39976833], [-47.59727109, -21.39966651], [-47.59770663, -21.39928275], [-47.60000681, -21.3972711], [-47.60089589, -21.39648922], [-47.60105804, -21.39634185], [-47.60116022, -21.39624391], [-47.60124904, -21.39615274], [-47.60133389, -21.39606033], [-47.6014166, -21.3959641], [-47.60149356, -21.39586456], [-47.60157388, -21.3957531], [-47.60163896, -21.39565464], [-47.60170333, -21.39554649], [-47.60176472, -21.39543766], [-47.60182193, -21.39532061], [-47.60186633, -21.39522086], [-47.60193806, -21.39504097], [-47.60198723, -21.39488645], [-47.60201012, -21.39480218], [-47.6020569, -21.39459541], [-47.60207797, -21.39448696], [-47.60217679, -21.3938849], [-47.60325287, -21.3869548], [-47.60329363, -21.38675251], [-47.60333501, -21.38658609], [-47.60339728, -21.38637778], [-47.60342881, -21.38628788], [-47.60348963, -21.38612976], [-47.60351791, -21.3860645], [-47.60357839, -21.38593195], [-47.60362865, -21.38583045], [-47.60372275, -21.38565786], [-47.60382119, -21.38549769], [-47.60391929, -21.38535135], [-47.60412241, -21.38508642], [-47.60603457, -21.38275595], [-47.60613263, -21.38263378], [-47.60626759, -21.38245816], [-47.60639823, -21.38226735], [-47.60650513, -21.38208342], [-47.60659117, -21.38190165], [-47.60665082, -21.38174345], [-47.60667905, -21.38165456], [-47.60671998, -21.38149955], [-47.6067418, -21.38138966], [-47.60675517, -21.38130434], [-47.60677067, -21.38117109], [-47.60677731, -21.3810491], [-47.60677808, -21.38097917], [-47.60677675, -21.38089469], [-47.60676537, -21.38073545], [-47.60674234, -21.38057659], [-47.60670439, -21.38040194], [-47.60665372, -21.38023184], [-47.60659632, -21.38007723], [-47.60652402, -21.37991663], [-47.60649682, -21.37986519], [-47.60643745, -21.37975889], [-47.60635041, -21.37962294], [-47.60626019, -21.37949601], [-47.60611402, -21.37930305], [-47.60461262, -21.37741849], [-47.6029306, -21.37922693], [-47.60173569, -21.38050626], [-47.60037544, -21.38196036], [-47.60017442, -21.38216318], [-47.59997815, -21.38221886], [-47.59975501, -21.38227357], [-47.59958744, -21.38231918], [-47.59947467, -21.38234325], [-47.59931012, -21.38234582], [-47.59890128, -21.38232854], [-47.5988573, -21.38232879], [-47.59854239, -21.3823675], [-47.59842917, -21.38238576], [-47.59834159, -21.38242412], [-47.59809114, -21.38254475], [-47.59759635, -21.38298828], [-47.59713609, -21.38340796], [-47.59690661, -21.38362713], [-47.5968369, -21.38371537], [-47.59666477, -21.38398203], [-47.5965372, -21.38417274], [-47.59608138, -21.3848186], [-47.59599087, -21.38526273], [-47.5959895, -21.38530278], [-47.59602186, -21.38562327], [-47.59603451, -21.38589911], [-47.59587852, -21.38688667], [-47.59595156, -21.38763966], [-47.59589915, -21.38871994], [-47.5957016, -21.38903741], [-47.59554714, -21.38927343], [-47.59535419, -21.38957834], [-47.59510295, -21.38993291], [-47.59484647, -21.3903068], [-47.5948078, -21.39038752], [-47.59452119, -21.39102637], [-47.59441328, -21.39141856], [-47.59440142, -21.39147147], [-47.59437918, -21.39172978], [-47.5943537, -21.39187389], [-47.59427254, -21.39222734], [-47.59423432, -21.39229832], [-47.59411885, -21.3924237], [-47.59370293, -21.39278013], [-47.59365568, -21.39281034], [-47.59359964, -21.39283057], [-47.59347778, -21.39285713], [-47.59329986, -21.39286766], [-47.59318135, -21.39288791], [-47.59312512, -21.3929055], [-47.59305269, -21.39295538], [-47.59290666, -21.39332129], [-47.59286936, -21.39344255], [-47.59281009, -21.39383659], [-47.59274735, -21.39401509], [-47.59266247, -21.39420612], [-47.59242728, -21.39475687], [-47.5923173, -21.39538576], [-47.59223735, -21.39587421], [-47.59218074, -21.39617579], [-47.5921332, -21.39640815], [-47.59208461, -21.39667727], [-47.59206905, -21.39695405], [-47.59205303, -21.39708856], [-47.59202338, -21.39719273], [-47.59192456, -21.39725061], [-47.59178467, -21.39727773], [-47.59033467, -21.39710305], [-47.59107387, -21.40129702], [-47.59459447, -21.40078663], [-47.59542768, -21.39948382]]]]}}]}