{"type": "FeatureCollection", "features": [{"type": "Feature", "properties": {"name": "Estação Ecológica Itirapina"}, "geometry": {"type": "MultiPolygon", "coordinates": [[[[-47.86142238, -22.24522611], [-47.86960424, -22.24696011], [-47.87019404, -22.24708509], [-47.87146551, -22.24729853], [-47.87230849, -22.2473181], [-47.87310024, -22.24713095], [-47.87451143, -22.24632023], [-47.87571927, -22.24556014], [-47.87645261, -22.24531118], [-47.87744186, -22.2451808], [-47.87965131, -22.24539723], [-47.9069037, -22.24850519], [-47.90710531, -22.24852817], [-47.90721186, -22.24796522], [-47.90729693, -22.24737517], [-47.90717041, -22.24674363], [-47.90714455, -22.24627629], [-47.90761698, -22.24560385], [-47.90823773, -22.24504948], [-47.90832343, -22.24448959], [-47.90800339, -22.24390679], [-47.90775316, -22.24356419], [-47.90757741, -22.24290335], [-47.90764815, -22.24240409], [-47.90760702, -22.24198229], [-47.90759957, -22.24191249], [-47.90759885, -22.24190577], [-47.90756682, -22.24160575], [-47.90731504, -22.24118772], [-47.90709754, -22.24085962], [-47.90699097, -22.24040881], [-47.90722219, -22.23983123], [-47.90766251, -22.23917446], [-47.90805888, -22.23874483], [-47.9086528, -22.23846257], [-47.90906724, -22.23812316], [-47.90964589, -22.23799695], [-47.9091175, -22.23788035], [-47.9085835, -22.23774447], [-47.90818045, -22.23739291], [-47.90793543, -22.23697911], [-47.90765498, -22.23590421], [-47.90751583, -22.23547035], [-47.90725415, -22.23490294], [-47.90738722, -22.2332764], [-47.90709222, -22.23185144], [-47.90685047, -22.23124004], [-47.90632971, -22.23024386], [-47.90609759, -22.22991059], [-47.90587237, -22.2294912], [-47.9053248, -22.22799202], [-47.90456658, -22.22799375], [-47.90241716, -22.22702604], [-47.90195055, -22.22683379], [-47.90168466, -22.22590252], [-47.90186626, -22.22575717], [-47.90337857, -22.22491188], [-47.90447214, -22.22430967], [-47.90529658, -22.22401374], [-47.90556475, -22.2238872], [-47.9058936, -22.22367339], [-47.90635909, -22.22351962], [-47.90690534, -22.22349531], [-47.90731766, -22.22354127], [-47.90791757, -22.22359356], [-47.90857594, -22.22370299], [-47.90890918, -22.22370188], [-47.90957416, -22.22362695], [-47.91022266, -22.22367482], [-47.91029501, -22.22366421], [-47.91059571, -22.22367169], [-47.9111236, -22.2235409], [-47.91168498, -22.22345618], [-47.91183611, -22.22344796], [-47.91232216, -22.22330624], [-47.91280605, -22.22328788], [-47.91330125, -22.22331294], [-47.91369735, -22.22333008], [-47.91445422, -22.22341833], [-47.91476684, -22.22342727], [-47.91554183, -22.22338428], [-47.91579749, -22.22340878], [-47.91636787, -22.223544], [-47.91667048, -22.22357251], [-47.91710201, -22.22354052], [-47.91741343, -22.2234913], [-47.91753815, -22.22347937], [-47.91782084, -22.22355186], [-47.91835869, -22.22362463], [-47.91888502, -22.22364427], [-47.91940621, -22.22367175], [-47.91945931, -22.22367436], [-47.92451915, -22.21590385], [-47.92911364, -22.20890402], [-47.93377672, -22.21037745], [-47.93449071, -22.21044485], [-47.93363189, -22.2097734], [-47.93300638, -22.20911922], [-47.93253987, -22.20847204], [-47.93242505, -22.20815235], [-47.93197841, -22.20766394], [-47.93134024, -22.20712683], [-47.93108141, -22.20688865], [-47.93101552, -22.20652057], [-47.93102776, -22.20609457], [-47.93098209, -22.20583164], [-47.93079931, -22.20559968], [-47.93052265, -22.20524717], [-47.93028827, -22.20499733], [-47.93015359, -22.20460466], [-47.93002318, -22.20410205], [-47.92987317, -22.20360189], [-47.92975572, -22.20322052], [-47.92971623, -22.20275375], [-47.92970862, -22.2022867], [-47.92972924, -22.20161332], [-47.92977466, -22.20099011], [-47.9297477, -22.20056902], [-47.92970133, -22.20018245], [-47.92959589, -22.19975747], [-47.92933177, -22.19945065], [-47.92915683, -22.19930104], [-47.92874169, -22.19916497], [-47.92826077, -22.19910046], [-47.92778951, -22.19901067], [-47.92692546, -22.1988327], [-47.92632427, -22.19874632], [-47.92571873, -22.19875386], [-47.92466977, -22.19839659], [-47.92410763, -22.19827781], [-47.92364184, -22.19828642], [-47.92304343, -22.19825496], [-47.92248721, -22.19831244], [-47.92204267, -22.1981789], [-47.92181831, -22.19796102], [-47.92163352, -22.19780233], [-47.92131299, -22.19748911], [-47.92087592, -22.19694562], [-47.9202911, -22.19629121], [-47.91988144, -22.19582305], [-47.91965257, -22.1956739], [-47.91930728, -22.19531509], [-47.9186192, -22.19460661], [-47.91833772, -22.1942587], [-47.91825179, -22.19380835], [-47.9175535, -22.19302668], [-47.91693517, -22.19250219], [-47.91639661, -22.19221918], [-47.91597943, -22.1921495], [-47.91535861, -22.19205409], [-47.91463123, -22.19175809], [-47.91381749, -22.19136436], [-47.91317074, -22.19101729], [-47.91269409, -22.19083591], [-47.91210067, -22.19081581], [-47.91141374, -22.1907324], [-47.91067412, -22.19043649], [-47.91004929, -22.19006402], [-47.90977594, -22.18988215], [-47.90926409, -22.18964576], [-47.90895674, -22.18992868], [-47.90397532, -22.19512202], [-47.89680635, -22.20273943], [-47.89099233, -22.20901268], [-47.88842344, -22.21115734], [-47.88808592, -22.21135416], [-47.8877632, -22.21143939], [-47.88741186, -22.21179547], [-47.88694879, -22.21198375], [-47.88703172, -22.21216341], [-47.88725107, -22.21232052], [-47.88779425, -22.21245846], [-47.88804214, -22.21260164], [-47.88843324, -22.21275759], [-47.88851881, -22.2128288], [-47.88917961, -22.21361455], [-47.88941422, -22.21413973], [-47.88950497, -22.21437354], [-47.88958996, -22.21465378], [-47.88974396, -22.21478522], [-47.89014879, -22.21485182], [-47.89099139, -22.21524852], [-47.89083978, -22.21540053], [-47.89061864, -22.21539409], [-47.89034486, -22.21538612], [-47.89009208, -22.21524862], [-47.88978266, -22.21526754], [-47.88967477, -22.21527617], [-47.88945994, -22.21534036], [-47.88925814, -22.21533724], [-47.88908405, -22.21527995], [-47.88893075, -22.21518205], [-47.88875872, -22.21522536], [-47.88857078, -22.21519515], [-47.88835348, -22.21513864], [-47.88817122, -22.21503454], [-47.88781694, -22.21497374], [-47.88762804, -22.2148966], [-47.88749579, -22.21477148], [-47.8872748, -22.21455543], [-47.88725318, -22.21453429], [-47.88700542, -22.21439781], [-47.88685217, -22.21444123], [-47.88677321, -22.21446816], [-47.88660457, -22.21452567], [-47.88649016, -22.21456796], [-47.8863525, -22.21453015], [-47.8862374, -22.2145389], [-47.88613688, -22.21435275], [-47.88590102, -22.21429666], [-47.88575575, -22.21423886], [-47.88568873, -22.21416681], [-47.88568208, -22.21415966], [-47.88566515, -22.21415996], [-47.88550202, -22.21416286], [-47.8854977, -22.21430381], [-47.88540572, -22.21438595], [-47.8852898, -22.21435446], [-47.88518273, -22.21440332], [-47.88511345, -22.21453872], [-47.88500707, -22.21462111], [-47.88507385, -22.21473673], [-47.88494287, -22.21483623], [-47.88485164, -22.21477145], [-47.88479999, -22.21471199], [-47.88459778, -22.21468875], [-47.88452062, -22.21479074], [-47.88439722, -22.21474597], [-47.88435291, -22.21469309], [-47.8841935, -22.21464896], [-47.88414103, -22.21454926], [-47.88403979, -22.21453093], [-47.88398299, -22.21457219], [-47.88390514, -22.21464065], [-47.88376953, -22.21470344], [-47.88370512, -22.2147247], [-47.88369237, -22.21480543], [-47.88373098, -22.21493221], [-47.88386865, -22.21497002], [-47.88381988, -22.21505139], [-47.88379992, -22.21513224], [-47.88387372, -22.21521814], [-47.88391858, -22.21529785], [-47.88383937, -22.21544923], [-47.88380842, -22.21554802], [-47.88358611, -22.21559892], [-47.8833706, -22.21562958], [-47.88308292, -22.2156548], [-47.88301659, -22.21559238], [-47.88289527, -22.21560601], [-47.88266568, -22.21547881], [-47.88262006, -22.21556909], [-47.8826796, -22.21566195], [-47.88258981, -22.21585139], [-47.88256388, -22.21599272], [-47.8823356, -22.21610411], [-47.88226982, -22.21605831], [-47.8822277, -22.21611273], [-47.88221508, -22.21620016], [-47.88202974, -22.21629737], [-47.88187932, -22.21634028], [-47.88180187, -22.21642887], [-47.88172333, -22.2164638], [-47.88162888, -22.21642522], [-47.8815131, -22.21640044], [-47.88149245, -22.21644777], [-47.88150184, -22.21655494], [-47.88128715, -22.21662583], [-47.88110586, -22.21656866], [-47.88103178, -22.21646935], [-47.88088773, -22.2164719], [-47.88084589, -22.21653973], [-47.88081166, -22.21662754], [-47.88074807, -22.21668905], [-47.88046135, -22.21676121], [-47.88016516, -22.21707505], [-47.87983481, -22.21712786], [-47.87970873, -22.21730452], [-47.87959267, -22.21726632], [-47.87951194, -22.21719396], [-47.87939032, -22.21723636], [-47.87930581, -22.21733178], [-47.87941508, -22.21739022], [-47.87952489, -22.21747549], [-47.87945369, -22.217517], [-47.879339, -22.21754586], [-47.87929037, -22.21763394], [-47.87918817, -22.21756866], [-47.87902971, -22.21757147], [-47.87900282, -22.21766586], [-47.87876542, -22.21768348], [-47.87859771, -22.21758582], [-47.87865149, -22.21739703], [-47.87866858, -22.21717535], [-47.87865987, -22.21710171], [-47.87847097, -22.21702455], [-47.87846144, -22.21691067], [-47.87841768, -22.21688461], [-47.87829647, -22.21694714], [-47.87817444, -22.21696942], [-47.87803746, -22.21696514], [-47.87785918, -22.2170555], [-47.87784656, -22.21714294], [-47.87784724, -22.21717647], [-47.87764599, -22.21720016], [-47.87753973, -22.21728925], [-47.87742723, -22.21742541], [-47.87718194, -22.21740962], [-47.87711129, -22.21747796], [-47.87707747, -22.2175859], [-47.87685597, -22.21767703], [-47.87674251, -22.21776624], [-47.8766209, -22.21780865], [-47.87662308, -22.21791594], [-47.87648911, -22.21805919], [-47.87643842, -22.21804667], [-47.87635755, -22.2179676], [-47.87606239, -22.21797953], [-47.8760303, -22.21781909], [-47.87593434, -22.21770675], [-47.8757025, -22.21764376], [-47.87551943, -22.21757249], [-47.87536737, -22.21769224], [-47.87514062, -22.21801027], [-47.87470341, -22.21865924], [-47.87451396, -22.21940982], [-47.87402294, -22.22011411], [-47.87358563, -22.22072411], [-47.87322254, -22.22164306], [-47.87297973, -22.22278936], [-47.87294156, -22.22310008], [-47.8726483, -22.22347315], [-47.87232318, -22.22384869], [-47.87211852, -22.22438623], [-47.87159608, -22.22529468], [-47.87149901, -22.22572155], [-47.87143155, -22.22623533], [-47.87120967, -22.22674776], [-47.87077398, -22.22808426], [-47.87036348, -22.22864596], [-47.87007473, -22.22881682], [-47.86992263, -22.22894433], [-47.86987517, -22.2289349], [-47.86884267, -22.22954583], [-47.86874814, -22.22967794], [-47.8686848, -22.2298525], [-47.8681911, -22.23047888], [-47.8681305, -22.23077718], [-47.86811947, -22.23132042], [-47.86789313, -22.23203913], [-47.86753649, -22.23257988], [-47.86742171, -22.23276851], [-47.86688346, -22.23320722], [-47.86629919, -22.23389831], [-47.86559525, -22.23478264], [-47.86522651, -22.23540138], [-47.86512463, -22.23588099], [-47.86494152, -22.23730304], [-47.86479584, -22.2379273], [-47.86478094, -22.23836769], [-47.86488983, -22.23866267], [-47.86493455, -22.23878383], [-47.86490994, -22.23881609], [-47.86485375, -22.23888976], [-47.86484663, -22.23896543], [-47.86490604, -22.23913237], [-47.86481082, -22.2392796], [-47.8648754, -22.23952672], [-47.86479275, -22.23977012], [-47.86481775, -22.23991435], [-47.86468585, -22.24009847], [-47.86468175, -22.24035287], [-47.86469908, -22.24040318], [-47.86486393, -22.24054887], [-47.86495976, -22.24063356], [-47.86491356, -22.24072503], [-47.86481603, -22.24091811], [-47.8648216, -22.24112662], [-47.86491041, -22.24127735], [-47.86494659, -22.24133875], [-47.86484223, -22.24144046], [-47.8644093, -22.2418624], [-47.86420674, -22.24220277], [-47.86402784, -22.24226571], [-47.86392542, -22.2424634], [-47.8636975, -22.24254725], [-47.86360002, -22.24275408], [-47.86344069, -22.24280085], [-47.86309845, -22.24319705], [-47.86272349, -22.24333218], [-47.86255275, -22.24365174], [-47.86229845, -22.24392595], [-47.8621569, -22.24416283], [-47.86210887, -22.2442432], [-47.86207651, -22.24429735], [-47.86195654, -22.24442527], [-47.86162153, -22.24478246], [-47.86150106, -22.24503803], [-47.86142238, -22.24522611]]]]}}]}