{"type": "FeatureCollection", "features": [{"type": "Feature", "properties": {"name": "Estação Ecológica Angatuba"}, "geometry": {"type": "MultiPolygon", "coordinates": [[[[-48.34455901, -23.43926579], [-48.34474865, -23.4392168], [-48.34492029, -23.43912398], [-48.34503658, -23.4389693], [-48.34516018, -23.43882419], [-48.34526932, -23.43865123], [-48.34536692, -23.43848753], [-48.34538, -23.43830498], [-48.34526037, -23.43815498], [-48.3451231, -23.43802156], [-48.34505919, -23.43783824], [-48.34511924, -23.43766519], [-48.3453183, -23.43761636], [-48.34547651, -23.43772349], [-48.3455675, -23.4378904], [-48.34570321, -23.43802777], [-48.34723395, -23.43393219], [-48.34741955, -23.43349285], [-48.34433323, -23.43356358], [-48.34171327, -23.43440879], [-48.33980043, -23.43431328], [-48.33833414, -23.43371139], [-48.3342914, -23.43239529], [-48.33397712, -23.43175013], [-48.33379004, -23.43141133], [-48.33606057, -23.42876972], [-48.33695438, -23.42770478], [-48.33501606, -23.42649499], [-48.33465657, -23.42627061], [-48.33378458, -23.42574628], [-48.33324688, -23.42542296], [-48.33359859, -23.42420183], [-48.33487649, -23.42318003], [-48.335473, -23.42270305], [-48.33552557, -23.42268139], [-48.33573031, -23.42254948], [-48.33603383, -23.42229597], [-48.33628423, -23.42216484], [-48.33655928, -23.42210175], [-48.3368272, -23.42207247], [-48.33735549, -23.42205892], [-48.33767509, -23.42204749], [-48.33790446, -23.4219893], [-48.33818516, -23.42197152], [-48.33834208, -23.42194604], [-48.33856648, -23.42180878], [-48.33875821, -23.42167665], [-48.33889036, -23.42158855], [-48.3388969, -23.42158419], [-48.33895537, -23.42159534], [-48.33908527, -23.42162013], [-48.33918407, -23.42157099], [-48.33922499, -23.42148142], [-48.33933805, -23.42136483], [-48.3395032, -23.42126051], [-48.33977949, -23.42113541], [-48.33997575, -23.42109922], [-48.34011944, -23.42108479], [-48.34016612, -23.42103477], [-48.34034361, -23.42095881], [-48.34050889, -23.42093108], [-48.34135419, -23.42239453], [-48.34129657, -23.4231821], [-48.34081732, -23.42332585], [-48.34033029, -23.42343336], [-48.33978661, -23.42345298], [-48.33926724, -23.4235093], [-48.33884748, -23.42360342], [-48.33854529, -23.42366335], [-48.33832811, -23.42365965], [-48.33850335, -23.42449279], [-48.33921212, -23.42451354], [-48.33986285, -23.42443816], [-48.34028311, -23.42439776], [-48.34072843, -23.4242973], [-48.34134642, -23.42411331], [-48.34222643, -23.4238084], [-48.34265727, -23.42374226], [-48.34292162, -23.42375976], [-48.34313565, -23.42379364], [-48.34332175, -23.42372766], [-48.34363297, -23.42364649], [-48.34380307, -23.42363214], [-48.34401299, -23.42362705], [-48.34418282, -23.42362127], [-48.34425863, -23.42358709], [-48.34449035, -23.42338685], [-48.34499682, -23.42325132], [-48.34522648, -23.42324728], [-48.3459613, -23.42325183], [-48.35122724, -23.41945773], [-48.35395118, -23.41749498], [-48.35693769, -23.41531531], [-48.36166704, -23.41186338], [-48.36233621, -23.41200731], [-48.36312311, -23.41217656], [-48.36412081, -23.41235245], [-48.36650877, -23.41282205], [-48.36707289, -23.41292972], [-48.36817915, -23.41314087], [-48.37241691, -23.41389601], [-48.37585173, -23.41447936], [-48.37679547, -23.41410621], [-48.37747208, -23.41379731], [-48.37928008, -23.41297709], [-48.38045812, -23.4124465], [-48.38088975, -23.41225362], [-48.381541, -23.4120544], [-48.38216877, -23.41187483], [-48.38289989, -23.41173697], [-48.38343457, -23.4115858], [-48.38362222, -23.41144885], [-48.38379991, -23.41123175], [-48.38384171, -23.4108722], [-48.38417832, -23.40962701], [-48.38457624, -23.40820268], [-48.38511307, -23.4061155], [-48.38594294, -23.4032701], [-48.38597181, -23.40298037], [-48.38593926, -23.4028697], [-48.38573736, -23.40261206], [-48.38485908, -23.40233219], [-48.38452168, -23.40215778], [-48.38411081, -23.4020034], [-48.38356539, -23.40167806], [-48.38326923, -23.40146946], [-48.38304625, -23.40125495], [-48.38281364, -23.40111755], [-48.38266014, -23.40107986], [-48.38254653, -23.40107796], [-48.38189652, -23.4011233], [-48.38186596, -23.40111836], [-48.38144089, -23.40116585], [-48.38114032, -23.40118184], [-48.38095501, -23.40111555], [-48.38078639, -23.40102137], [-48.38060289, -23.40086376], [-48.38039462, -23.40072676], [-48.38020249, -23.40059004], [-48.37975474, -23.40025233], [-48.37935545, -23.39992257], [-48.37913082, -23.39979234], [-48.37880909, -23.39964639], [-48.37864071, -23.39954527], [-48.37862333, -23.39952252], [-48.37864103, -23.39937309], [-48.37862567, -23.39917788], [-48.37861031, -23.39898267], [-48.37861415, -23.39878778], [-48.37861799, -23.39859289], [-48.37860263, -23.39839768], [-48.37858728, -23.39820247], [-48.37849444, -23.39804141], [-48.37834367, -23.39789709], [-48.37817265, -23.39780561], [-48.37800199, -23.3976964], [-48.37788996, -23.39753502], [-48.37781667, -23.39735656], [-48.37774338, -23.3971781], [-48.37768928, -23.39699996], [-48.37759645, -23.39683889], [-48.37748441, -23.39667751], [-48.37735284, -23.39653351], [-48.37718183, -23.39644203], [-48.37703071, -23.39631543], [-48.3768604, -23.39618851], [-48.37666914, -23.39614985], [-48.37645834, -23.39612859], [-48.37626744, -23.39607221], [-48.37607653, -23.39601584], [-48.37588528, -23.39597718], [-48.37569403, -23.39593852], [-48.37548288, -23.39593498], [-48.37527138, -23.39594915], [-48.37509688, -23.39603483], [-48.37490388, -23.39608475], [-48.37467318, -23.3960986], [-48.37448228, -23.39604222], [-48.37431127, -23.39595073], [-48.37414061, -23.39584153], [-48.3739895, -23.39571493], [-48.373778, -23.39572909], [-48.37360315, -23.39583249], [-48.37340979, -23.39590013], [-48.37319865, -23.39589658], [-48.37298785, -23.39587532], [-48.37279695, -23.39581894], [-48.3726057, -23.39578027], [-48.37241444, -23.39574161], [-48.37222389, -23.39566751], [-48.37201274, -23.39566396], [-48.3718023, -23.39562498], [-48.3715908, -23.39563914], [-48.3713793, -23.39565331], [-48.37118665, -23.39568551], [-48.37107008, -23.39575444], [-48.37085789, -23.39580404], [-48.37066523, -23.39583624], [-48.37045374, -23.3958504], [-48.37024259, -23.39584685], [-48.37003109, -23.39586101], [-48.3698196, -23.39587517], [-48.36962765, -23.39587194], [-48.36943464, -23.39592186], [-48.36930202, -23.39598697], [-48.36927591, -23.39598654], [-48.36906442, -23.3960007], [-48.36887176, -23.3960329], [-48.36867911, -23.3960651], [-48.36848646, -23.3960973], [-48.36829346, -23.39614722], [-48.36811895, -23.39623289], [-48.36792595, -23.39628281], [-48.36773259, -23.39635044], [-48.36753889, -23.39643579], [-48.36734589, -23.39648571], [-48.36715253, -23.39655334], [-48.36695988, -23.39658554], [-48.36676723, -23.39661774], [-48.36655643, -23.39659646], [-48.36636553, -23.39654007], [-48.36619453, -23.39644858], [-48.3661263, -23.39642204], [-48.36600398, -23.39637447], [-48.36585287, -23.39624786], [-48.36570176, -23.39612126], [-48.36553076, -23.39602976], [-48.36536011, -23.39592054], [-48.36522855, -23.39577654], [-48.36515528, -23.39559808], [-48.36508201, -23.39541961], [-48.36496999, -23.39525822], [-48.3648787, -23.39509979], [-48.36487717, -23.39509715], [-48.36476516, -23.39493575], [-48.36473028, -23.39475794], [-48.3646954, -23.39458012], [-48.36456384, -23.39443612], [-48.36443228, -23.39429212], [-48.36430073, -23.39414811], [-48.36418872, -23.39398672], [-48.3640959, -23.39382565], [-48.36404182, -23.39364751], [-48.36400694, -23.39346969], [-48.36395287, -23.39329155], [-48.3638796, -23.39311308], [-48.36378713, -23.3929343], [-48.36367512, -23.3927729], [-48.36354357, -23.3926289], [-48.36345076, -23.39246783], [-48.36329966, -23.39234122], [-48.36322584, -23.39231941], [-48.36318624, -23.39225069], [-48.36311297, -23.39207222], [-48.36302051, -23.39189343], [-48.36298563, -23.39171562], [-48.3629511, -23.39152008], [-48.36295497, -23.3913252], [-48.36293963, -23.39112999], [-48.36294349, -23.3909351], [-48.36292816, -23.39073989], [-48.36293202, -23.39054501], [-48.36293588, -23.39035012], [-48.36293974, -23.39015523], [-48.36286647, -23.38997677], [-48.36285426, -23.38994703], [-48.36284833, -23.38992329], [-48.36279426, -23.38974515], [-48.36272134, -23.38954897], [-48.36266727, -23.38937083], [-48.3626132, -23.38919269], [-48.36253993, -23.38901423], [-48.36242793, -23.38885283], [-48.36231592, -23.38869143], [-48.36222311, -23.38853036], [-48.36219968, -23.38850471], [-48.36209156, -23.38838636], [-48.36196001, -23.38824235], [-48.36184801, -23.38808096], [-48.3617552, -23.38791989], [-48.36166274, -23.3877411], [-48.36156993, -23.38758002], [-48.36143874, -23.3874183], [-48.36134593, -23.38725723], [-48.36123392, -23.38709583], [-48.36116066, -23.38691737], [-48.36110659, -23.38673923], [-48.36105252, -23.38656109], [-48.36103719, -23.38636588], [-48.36100232, -23.38618806], [-48.36100618, -23.38599317], [-48.36099203, -23.38581299], [-48.36100621, -23.38569847], [-48.36100938, -23.38553875], [-48.35996538, -23.38549819], [-48.35998537, -23.38594968], [-48.36010528, -23.38647172], [-48.36025937, -23.38709463], [-48.36035323, -23.38736658], [-48.3604389, -23.38749003], [-48.36058999, -23.38761664], [-48.36076063, -23.38772586], [-48.36089218, -23.38786987], [-48.36100418, -23.38803126], [-48.36109699, -23.38819234], [-48.36120899, -23.38835373], [-48.361321, -23.38851513], [-48.36145254, -23.38865913], [-48.36154535, -23.38882021], [-48.36161862, -23.38899867], [-48.36163395, -23.38919388], [-48.36164928, -23.38938909], [-48.36168416, -23.38956691], [-48.36171904, -23.38974473], [-48.36173437, -23.38993994], [-48.36173332, -23.38999309], [-48.36184614, -23.39205084], [-48.36168977, -23.39218998], [-48.36166694, -23.39220377], [-48.36166901, -23.39223371], [-48.36079962, -23.39337199], [-48.35964211, -23.3948892], [-48.35892514, -23.39583021], [-48.35843082, -23.39647897], [-48.35826261, -23.39670359], [-48.35743453, -23.39780934], [-48.35649908, -23.39907401], [-48.35531839, -23.40057662], [-48.35467127, -23.40145541], [-48.35185609, -23.40515615], [-48.35122499, -23.40601885], [-48.35075034, -23.40659355], [-48.35044795, -23.40699564], [-48.3487607, -23.4092391], [-48.3500319, -23.41025126], [-48.35148166, -23.41140558], [-48.35127232, -23.41166874], [-48.35121173, -23.41181232], [-48.35112857, -23.41197679], [-48.35104541, -23.41214126], [-48.35100162, -23.41233404], [-48.35089868, -23.41248896], [-48.35081552, -23.41265342], [-48.35072238, -23.41281772], [-48.35062923, -23.41298202], [-48.35050651, -23.41312738], [-48.35038379, -23.41327275], [-48.35034125, -23.41331329], [-48.35024128, -23.41340856], [-48.35006975, -23.41349781], [-48.34988841, -23.41357767], [-48.34969746, -23.41363893], [-48.3495067, -23.41369099], [-48.34930705, -23.4136876], [-48.34911831, -23.41363832], [-48.34898113, -23.41350697], [-48.34886428, -23.41335754], [-48.3487576, -23.41319907], [-48.3486609, -23.41304076], [-48.34857857, -23.41293548], [-48.34857363, -23.41291026], [-48.34847693, -23.41275196], [-48.34840038, -23.41258478], [-48.34837262, -23.41249815], [-48.34835469, -23.41237205], [-48.34834009, -23.41226941], [-48.34828996, -23.41211292], [-48.34816295, -23.41197253], [-48.34811653, -23.41179665], [-48.34809025, -23.41161189], [-48.34799374, -23.41144437], [-48.34783623, -23.41133111], [-48.34769905, -23.41119977], [-48.34756206, -23.41105921], [-48.34748257, -23.41103943], [-48.34732139, -23.41111041], [-48.34719866, -23.41125577], [-48.34713528, -23.41142979], [-48.34709623, -23.41147604], [-48.34709425, -23.41148439], [-48.34703086, -23.4116584], [-48.34688854, -23.411785], [-48.34676992, -23.41181737], [-48.34669778, -23.41183705], [-48.3466557, -23.41184408], [-48.34652863, -23.41180653], [-48.34631956, -23.41177533], [-48.34612937, -23.41179836], [-48.3460994, -23.41179923], [-48.34590845, -23.4118605], [-48.34581531, -23.41202479], [-48.34582161, -23.41220921], [-48.34586803, -23.41238509], [-48.34591444, -23.41256097], [-48.34601096, -23.41272849], [-48.3461466, -23.41284972], [-48.34618696, -23.41291579], [-48.34626351, -23.41308297], [-48.34630993, -23.41325885], [-48.3463362, -23.41344361], [-48.34637245, -23.41362853], [-48.3464087, -23.41381346], [-48.34643497, -23.41399821], [-48.34645107, -23.41419201], [-48.34645738, -23.41437643], [-48.34644592, -23.4144138], [-48.34646571, -23.41445951], [-48.34646203, -23.41464375], [-48.34644837, -23.41482783], [-48.34644469, -23.41501207], [-48.34639129, -23.41518626], [-48.34633788, -23.41536045], [-48.34629428, -23.41554401], [-48.34617155, -23.41568937], [-48.34604034, -23.41582399], [-48.34603902, -23.41582535], [-48.34593606, -23.41598026], [-48.34581333, -23.41612562], [-48.3456906, -23.41627099], [-48.34565733, -23.41641103], [-48.34564699, -23.41645455], [-48.34561406, -23.41647648], [-48.34548507, -23.41656238], [-48.34535254, -23.41669836], [-48.34521982, -23.41684355], [-48.34510688, -23.41699829], [-48.34511978, -23.41706405], [-48.34514314, -23.41718322], [-48.3450302, -23.41733796], [-48.34501762, -23.41734634], [-48.34486827, -23.41744579], [-48.34470634, -23.41755362], [-48.34454442, -23.41766145], [-48.34439228, -23.41777866], [-48.34435348, -23.41780857], [-48.34421057, -23.41782718], [-48.34401062, -23.41783852], [-48.34381778, -23.41789422], [-48.34361813, -23.41789082], [-48.34344082, -23.4179689], [-48.34338255, -23.41797907], [-48.34324842, -23.41800249], [-48.34305763, -23.41795501], [-48.34292452, -23.41782004], [-48.34277529, -23.41769217], [-48.34262591, -23.41757167], [-48.34242626, -23.41756827], [-48.34224126, -23.41763147], [-48.3421027, -23.41776919], [-48.34197996, -23.41791454], [-48.34186506, -23.41806741], [-48.34182774, -23.41813322], [-48.34181333, -23.41814007], [-48.34162144, -23.41809385], [-48.34149134, -23.41795051], [-48.34142831, -23.41777764], [-48.34135186, -23.41761068], [-48.34120822, -23.41747938], [-48.34101633, -23.41743317], [-48.3408167, -23.41744204], [-48.34062925, -23.41750634], [-48.34046753, -23.41761402], [-48.3404108, -23.41779099], [-48.34037388, -23.41797443], [-48.34034492, -23.41815009], [-48.34034362, -23.41815798], [-48.34033994, -23.41834199], [-48.34039619, -23.41852088], [-48.34041245, -23.41870523], [-48.34032839, -23.41883413], [-48.34030957, -23.418863], [-48.34011596, -23.41890265], [-48.33992851, -23.41896695], [-48.33977319, -23.41908701], [-48.33963743, -23.41922582], [-48.33944407, -23.4192532], [-48.33930031, -23.41912804], [-48.33924405, -23.41894915], [-48.33929413, -23.41877207], [-48.33922446, -23.41859908], [-48.33906026, -23.41849811], [-48.3389165, -23.41837295], [-48.33881966, -23.41832268], [-48.33873285, -23.41824711], [-48.33858232, -23.41812796], [-48.33840434, -23.4180513], [-48.33820483, -23.41805404], [-48.33801122, -23.41809368], [-48.3378367, -23.41817661], [-48.33766857, -23.41827191], [-48.33752642, -23.41839833], [-48.33743017, -23.41855622], [-48.33724925, -23.41862676], [-48.33706783, -23.41872183], [-48.33693872, -23.41886075], [-48.33696131, -23.4189718], [-48.33677417, -23.41917833], [-48.33669644, -23.41927753], [-48.33653601, -23.41932202], [-48.33621302, -23.41944108], [-48.33475845, -23.4196109], [-48.33450298, -23.41929366], [-48.33411636, -23.41881356], [-48.33409426, -23.41874149], [-48.33403717, -23.41855528], [-48.33501802, -23.41718458], [-48.33622788, -23.41565164], [-48.33645501, -23.41536386], [-48.33649979, -23.41506564], [-48.33651695, -23.41462993], [-48.33636357, -23.41428473], [-48.33584051, -23.41386316], [-48.33504664, -23.41348367], [-48.33441926, -23.41321603], [-48.3338145, -23.41274634], [-48.33318743, -23.41204269], [-48.33305452, -23.41151876], [-48.33307487, -23.41146092], [-48.33317977, -23.41116275], [-48.33337967, -23.4108703], [-48.33378526, -23.4108383], [-48.33417133, -23.41093832], [-48.33483774, -23.41136235], [-48.33574578, -23.41193843], [-48.33670738, -23.41236749], [-48.33714499, -23.41242167], [-48.33726925, -23.41233097], [-48.33738472, -23.41224668], [-48.33750199, -23.41186717], [-48.33763206, -23.41126988], [-48.33705103, -23.40995194], [-48.33692435, -23.40953713], [-48.3367556, -23.40841422], [-48.3367308, -23.40824916], [-48.33652305, -23.40724902], [-48.33653974, -23.40684066], [-48.33672915, -23.40645097], [-48.33703961, -23.40591376], [-48.33763637, -23.40508073], [-48.3378062, -23.40480701], [-48.33794525, -23.404622], [-48.33835787, -23.40417308], [-48.33887068, -23.40342784], [-48.33901239, -23.4031484], [-48.33910217, -23.40297136], [-48.33914923, -23.40279371], [-48.33901309, -23.40277951], [-48.33889356, -23.40276705], [-48.33842467, -23.4030089], [-48.33769993, -23.403233], [-48.33707005, -23.40354794], [-48.33613449, -23.4040165], [-48.33441396, -23.40496419], [-48.33377744, -23.40536824], [-48.33349377, -23.40553293], [-48.33314201, -23.40620059], [-48.33225501, -23.40704203], [-48.33170672, -23.40738511], [-48.3312633, -23.40756045], [-48.33066793, -23.40759935], [-48.33029924, -23.40766443], [-48.33006424, -23.4078121], [-48.32986512, -23.40809869], [-48.32941185, -23.40852369], [-48.32889174, -23.40866648], [-48.32870122, -23.40852492], [-48.32846086, -23.40821743], [-48.32837182, -23.40783669], [-48.32833739, -23.40690367], [-48.32824004, -23.40621495], [-48.32805634, -23.40549353], [-48.32784418, -23.40498576], [-48.32787292, -23.40427689], [-48.32781628, -23.40396808], [-48.32784957, -23.40375451], [-48.32785531, -23.40373881], [-48.32791607, -23.40357273], [-48.32781155, -23.40293897], [-48.32780834, -23.40291952], [-48.32782499, -23.40257182], [-48.32808048, -23.40212559], [-48.32827592, -23.40178094], [-48.32855207, -23.40150906], [-48.32933462, -23.40105399], [-48.32997658, -23.40061883], [-48.33033756, -23.40045547], [-48.3305627, -23.40031655], [-48.33110749, -23.39990734], [-48.33160805, -23.39953136], [-48.3317081, -23.39950235], [-48.33180791, -23.39938414], [-48.33195913, -23.39924964], [-48.33210996, -23.39913472], [-48.33226079, -23.39901979], [-48.33241162, -23.39890487], [-48.33256284, -23.39877036], [-48.33273488, -23.3986558], [-48.33288571, -23.39854087], [-48.33303654, -23.39842595], [-48.33318737, -23.39831102], [-48.33335941, -23.39819646], [-48.33353105, -23.39810147], [-48.33370309, -23.3979869], [-48.33385392, -23.39787198], [-48.33402556, -23.39777699], [-48.33419721, -23.397682], [-48.33436885, -23.39758701], [-48.3345405, -23.39749202], [-48.33473257, -23.39743655], [-48.33492425, -23.39740065], [-48.33511671, -23.3973256], [-48.33530878, -23.39727013], [-48.33545961, -23.3971552], [-48.33563125, -23.39706021], [-48.33578247, -23.3969257], [-48.33597454, -23.39687023], [-48.33618703, -23.39685427], [-48.33639914, -23.39685788], [-48.33661085, -23.39688108], [-48.33680096, -23.39692348], [-48.33701306, -23.3969271], [-48.33722556, -23.39691114], [-48.33743806, -23.39689518], [-48.33762973, -23.39685928], [-48.33784223, -23.39684332], [-48.33805434, -23.39684693], [-48.33824601, -23.39681103], [-48.33839684, -23.3966961], [-48.33854766, -23.39658116], [-48.3387193, -23.39648617], [-48.33891176, -23.39641111], [-48.33910422, -23.39633606], [-48.33929589, -23.39630016], [-48.33950839, -23.39628419], [-48.33970007, -23.39624829], [-48.33991217, -23.3962519], [-48.34010228, -23.3962943], [-48.34029161, -23.39637586], [-48.34043773, -23.39649585], [-48.34062746, -23.39655783], [-48.34081639, -23.39665897], [-48.34100572, -23.39674053], [-48.34115185, -23.39686052], [-48.34131958, -23.39696129], [-48.3414441, -23.39710049], [-48.34154664, -23.39727849], [-48.34162796, -23.39745613], [-48.34168807, -23.3976334], [-48.341791, -23.39779183], [-48.34197994, -23.39789296], [-48.34219204, -23.39789657], [-48.34240415, -23.39790018], [-48.34261587, -23.39792336], [-48.34276006, -23.39797047], [-48.34289278, -23.39786932], [-48.34293872, -23.39769385], [-48.34292142, -23.39749772], [-48.34286824, -23.39738157], [-48.34284009, -23.39732008], [-48.34273756, -23.39714209], [-48.34267744, -23.39696481], [-48.34261733, -23.39678753], [-48.34251441, -23.39662911], [-48.34241148, -23.39647069], [-48.34233016, -23.39629306], [-48.34218403, -23.39617307], [-48.34199431, -23.39611109], [-48.34180498, -23.39602953], [-48.34161565, -23.39594798], [-48.34142593, -23.395886], [-48.34123582, -23.39584359], [-48.34104649, -23.39576204], [-48.34083439, -23.39575843], [-48.34062268, -23.39573524], [-48.34041096, -23.39571205], [-48.34022085, -23.39566965], [-48.34000914, -23.39564646], [-48.33981903, -23.39560405], [-48.33960732, -23.39558086], [-48.33939522, -23.39557725], [-48.33918272, -23.39559322], [-48.33899105, -23.39562912], [-48.33879937, -23.39566502], [-48.3386077, -23.39570092], [-48.33841563, -23.3957564], [-48.33822356, -23.39581188], [-48.33818539, -23.3958229], [-48.33803149, -23.39586736], [-48.33783943, -23.39592284], [-48.33762772, -23.39589964], [-48.337416, -23.39587645], [-48.33722433, -23.39591235], [-48.33703265, -23.39594825], [-48.33684098, -23.39598415], [-48.33662926, -23.39596096], [-48.33641716, -23.39595734], [-48.33620467, -23.3959733], [-48.33603302, -23.39606829], [-48.33590361, -23.3961318], [-48.33587753, -23.39613537], [-48.33518025, -23.39653848], [-48.33431994, -23.39653921], [-48.33351783, -23.39657398], [-48.33226685, -23.39700655], [-48.33207168, -23.39761068], [-48.33220668, -23.39796533], [-48.33195476, -23.39831453], [-48.33175642, -23.39852187], [-48.33156988, -23.39818607], [-48.33175169, -23.39781162], [-48.32783851, -23.39500108], [-48.3235465, -23.40021932], [-48.32275297, -23.39959154], [-48.32172603, -23.39948025], [-48.32161837, -23.39950459], [-48.32139611, -23.39955523], [-48.32114289, -23.39967795], [-48.32098595, -23.39990216], [-48.32059647, -23.40019952], [-48.32050803, -23.40024417], [-48.32021399, -23.40039262], [-48.31994061, -23.40080608], [-48.31967299, -23.40105111], [-48.31876587, -23.40147627], [-48.31807114, -23.40198513], [-48.31728893, -23.4024961], [-48.3168095, -23.40286451], [-48.31632853, -23.40306498], [-48.31577438, -23.40323698], [-48.31552128, -23.40323926], [-48.3144854, -23.40310243], [-48.31418841, -23.40311732], [-48.31392863, -23.40433068], [-48.31451138, -23.40608049], [-48.31602189, -23.40992139], [-48.31629268, -23.4106446], [-48.31805716, -23.41275518], [-48.31765893, -23.41338343], [-48.31777376, -23.41347034], [-48.31819455, -23.4138917], [-48.31829353, -23.41415354], [-48.31827055, -23.41438142], [-48.31804972, -23.41468551], [-48.31769609, -23.4148865], [-48.3164712, -23.41559469], [-48.31669962, -23.41733781], [-48.31696425, -23.420568], [-48.31681624, -23.42180746], [-48.31696303, -23.42183956], [-48.31701608, -23.42201454], [-48.31690712, -23.42216739], [-48.31679292, -23.42232402], [-48.31660295, -23.42239038], [-48.31643114, -23.42249187], [-48.3162595, -23.42258465], [-48.31606098, -23.42260735], [-48.31586369, -23.42256914], [-48.31583931, -23.42259082], [-48.31571964, -23.42269722], [-48.31576309, -23.42288073], [-48.31594938, -23.422953], [-48.31617652, -23.42295747], [-48.31637504, -23.42293477], [-48.31657338, -23.42292078], [-48.31677119, -23.42293288], [-48.31689095, -23.42307876], [-48.31707149, -23.42300767], [-48.31720551, -23.42294549], [-48.31725238, -23.42292375], [-48.31727092, -23.42296169], [-48.31733389, -23.42309051], [-48.31734973, -23.42327846], [-48.31756214, -23.42334277], [-48.31780161, -23.42328132], [-48.31792716, -23.42313552], [-48.31799667, -23.42296265], [-48.3179815, -23.42277962], [-48.31797816, -23.42267322], [-48.31797576, -23.42259675], [-48.3180547, -23.42242404], [-48.3181303, -23.42240452], [-48.31824431, -23.42237508], [-48.31843165, -23.42243922], [-48.31849043, -23.42255052], [-48.31851967, -23.42260589], [-48.3187501, -23.42254913], [-48.31870664, -23.42236561], [-48.3186327, -23.42219724], [-48.31885227, -23.42215924], [-48.31901802, -23.42226478], [-48.31920553, -23.42232022], [-48.31936335, -23.42244478], [-48.31954056, -23.42254356], [-48.31969873, -23.42265072], [-48.31986651, -23.42274933], [-48.31993675, -23.42279003], [-48.3200399, -23.42284979], [-48.32020768, -23.42294841], [-48.32038489, -23.42304718], [-48.32054306, -23.42315434], [-48.32073268, -23.42310537], [-48.32081161, -23.42293266], [-48.3209279, -23.422778], [-48.32112642, -23.4227553], [-48.32126521, -23.42288823], [-48.32136576, -23.42304661], [-48.32156323, -23.42307611], [-48.32174394, -23.42300088], [-48.32196477, -23.42299423], [-48.32197158, -23.42298855], [-48.32211825, -23.42286631], [-48.32231554, -23.42290451], [-48.32230243, -23.42308706], [-48.32216539, -23.42321728], [-48.32226294, -23.42343454], [-48.32235603, -23.42360113], [-48.32237326, -23.42378454], [-48.32223846, -23.42392148], [-48.32205775, -23.42399671], [-48.32190158, -23.42409447], [-48.32189537, -23.42409836], [-48.32195786, -23.4242735], [-48.32203638, -23.42444612], [-48.32212169, -23.42461059], [-48.32223307, -23.42476034], [-48.32235063, -23.42488578], [-48.32236148, -23.42489736], [-48.32250783, -23.42507789], [-48.32257024, -23.4251602], [-48.32267776, -23.42531737], [-48.32282978, -23.42546863], [-48.32295897, -23.4256101], [-48.32305953, -23.42576849], [-48.32317912, -23.4259185], [-48.32333712, -23.42603435], [-48.32348535, -23.42616744], [-48.32362414, -23.42630037], [-48.32372453, -23.42646746], [-48.32380605, -23.42663422], [-48.32388758, -23.42680098], [-48.32394065, -23.42697596], [-48.32396525, -23.42715915], [-48.32399929, -23.4273425], [-48.32401446, -23.42752553], [-48.32402021, -23.4277084], [-48.32401653, -23.42789111], [-48.32401965, -23.42807831], [-48.32409001, -23.42825152], [-48.32413674, -23.42842619], [-48.32425077, -23.42857747], [-48.32435115, -23.42874455], [-48.32439067, -23.4288068], [-48.32445172, -23.42890294], [-48.32453897, -23.42906631], [-48.32471636, -23.42915639], [-48.32480732, -23.42932331], [-48.32497493, -23.42943063], [-48.32497584, -23.42943116], [-48.32514272, -23.42952924], [-48.32532029, -23.42961061], [-48.3254687, -23.429735], [-48.32541788, -23.4299169], [-48.32522005, -23.42990481], [-48.32503253, -23.42984937], [-48.32487434, -23.42974222], [-48.32469695, -23.42965215], [-48.32454364, -23.42977136], [-48.32456825, -23.42995456], [-48.32459285, -23.43013775], [-48.32462688, -23.43020019], [-48.32468381, -23.43030467], [-48.32479398, -23.43045452], [-48.32484009, -23.43052098], [-48.32490397, -23.43061306], [-48.32506215, -23.43072022], [-48.32521547, -23.430601], [-48.32538711, -23.4305082], [-48.32549728, -23.43065805], [-48.32542777, -23.43083092], [-48.32531148, -23.43098559], [-48.32511417, -23.43094739], [-48.32491704, -23.4309005], [-48.32475465, -23.43100215], [-48.3247604, -23.43118502], [-48.3247641, -23.43122963], [-48.32477558, -23.43136805], [-48.32482814, -23.43143954], [-48.32488575, -23.4315179], [-48.3250834, -23.43153869], [-48.32523522, -23.43161578], [-48.3252608, -23.43162877], [-48.32526655, -23.43181164], [-48.32510416, -23.43191329], [-48.32509334, -23.43191729], [-48.3249218, -23.43198067], [-48.32496172, -23.43202788], [-48.32490265, -23.43208391], [-48.32481321, -23.43224158], [-48.32480486, -23.4322563], [-48.32493785, -23.43239489], [-48.32494472, -23.43262193], [-48.3251394, -23.43273975], [-48.32525201, -23.43253376], [-48.32536813, -23.4323878], [-48.32553419, -23.43228846], [-48.32564683, -23.43213148], [-48.3257537, -23.43197665], [-48.32586074, -23.43181312], [-48.32588328, -23.43163073], [-48.32587483, -23.43142142], [-48.32604606, -23.43127495], [-48.32606749, -23.43128754], [-48.32621386, -23.43137356], [-48.32632403, -23.4315234], [-48.32635718, -23.43161632], [-48.32638653, -23.43169854], [-48.32637342, -23.43188109], [-48.32630656, -23.43205996], [-48.32635502, -23.43224345], [-48.32653386, -23.43234511], [-48.32673954, -23.43239616], [-48.32689398, -23.43228485], [-48.32695363, -23.43210861], [-48.3270605, -23.43195378], [-48.32725885, -23.43193977], [-48.3273801, -23.43198128], [-48.32744621, -23.43200391], [-48.327614, -23.43210252], [-48.32777184, -23.43222707], [-48.32793003, -23.43233422], [-48.32801139, -23.43250968], [-48.32803078, -23.43254021], [-48.32811196, -23.43266806], [-48.32829949, -23.43272349], [-48.32849732, -23.43273558], [-48.32869778, -23.43276998], [-48.32887727, -23.43260283], [-48.32889038, -23.43242029], [-48.3287802, -23.43227044], [-48.32873749, -23.43221304], [-48.32864244, -23.43208531], [-48.32870252, -23.43191227], [-48.32889232, -23.4318546], [-48.32905051, -23.43196175], [-48.32920853, -23.43205299], [-48.32939588, -23.43214173], [-48.32946781, -23.43231703], [-48.32960662, -23.43244995], [-48.3296714, -23.43246608], [-48.32972152, -23.43236489], [-48.32986557, -23.4322368], [-48.33005275, -23.43230963], [-48.33009623, -23.43249314], [-48.33023504, -23.43262607], [-48.33041261, -23.43270744], [-48.33056103, -23.43283183], [-48.33067103, -23.43299037], [-48.3307145, -23.43317388], [-48.33072026, -23.43335675], [-48.330744, -23.43353645], [-48.33077805, -23.4337198], [-48.3307998, -23.43390468], [-48.33083384, -23.43408804], [-48.33082074, -23.43427058], [-48.33085479, -23.43445394], [-48.33092672, -23.43462923], [-48.33095134, -23.43481243], [-48.33100442, -23.4349874], [-48.33104789, -23.43517092], [-48.33107251, -23.43535411], [-48.33113788, -23.43552755], [-48.33118053, -23.43570877], [-48.33129118, -23.43587831], [-48.33146859, -23.43596838], [-48.33165612, -23.43602381], [-48.33183457, -23.43593636], [-48.33184913, -23.43592086], [-48.33191286, -23.43577717], [-48.33201368, -23.4356769], [-48.33205413, -23.43555266], [-48.33199283, -23.4353904], [-48.33199525, -23.43526975], [-48.3322155, -23.43528228], [-48.33240398, -23.43530657], [-48.33251713, -23.43541456], [-48.33237714, -23.43555819], [-48.33229424, -23.4357113], [-48.33223767, -23.43587813], [-48.33219288, -23.43602874], [-48.33210997, -23.43618194], [-48.33203536, -23.43630234], [-48.33198949, -23.43664113], [-48.33223147, -23.43672992], [-48.332419, -23.43678534], [-48.33261793, -23.43676462], [-48.33271515, -23.43659893], [-48.33279322, -23.43642644], [-48.33282604, -23.43624399], [-48.33301235, -23.43617029], [-48.33295403, -23.43597637], [-48.33276684, -23.43590355], [-48.33281766, -23.43572164], [-48.33300519, -23.43577707], [-48.33316322, -23.43589292], [-48.33322746, -23.43592092], [-48.33335023, -23.43597444], [-48.33355246, -23.43597475], [-48.33370657, -23.43609476], [-48.33390393, -23.43611446], [-48.33405724, -23.43599523], [-48.33414542, -23.43583137], [-48.33434256, -23.43587826], [-48.33443354, -23.43604518], [-48.33454372, -23.43619502], [-48.33470192, -23.43630216], [-48.33488946, -23.43635758], [-48.33508712, -23.43637837], [-48.33527577, -23.43644456], [-48.33548979, -23.4365245], [-48.33567977, -23.43645812], [-48.33587462, -23.43641871], [-48.33591825, -23.43644235], [-48.33601557, -23.4365164], [-48.33608241, -23.43659319], [-48.33610552, -23.43676797], [-48.33609515, -23.43690924], [-48.33605566, -23.43698096], [-48.33602602, -23.43713173], [-48.33597486, -23.43721968], [-48.33594713, -23.43727517], [-48.33595285, -23.43737067], [-48.33597031, -23.43744661], [-48.33597549, -23.43756838], [-48.33597035, -23.43782491], [-48.33599913, -23.43783443], [-48.33605077, -23.43780651], [-48.33624075, -23.43774013], [-48.33637556, -23.43760318], [-48.33651961, -23.43747509], [-48.33665441, -23.43733813], [-48.33681773, -23.43722052], [-48.3368848, -23.43704441], [-48.33696557, -23.43687346], [-48.33705375, -23.4367096], [-48.33721631, -23.43659923], [-48.33739721, -23.43651529], [-48.33756886, -23.43642248], [-48.33776774, -23.43638236], [-48.33796489, -23.43642924], [-48.33815242, -23.43648466], [-48.33828164, -23.43662612], [-48.33833473, -23.43680109], [-48.33831416, -23.43691844], [-48.33830278, -23.43698332], [-48.33823329, -23.4371562], [-48.33812643, -23.43731104], [-48.33803825, -23.4374749], [-48.33810295, -23.43764526], [-48.33835658, -23.43759347], [-48.33853748, -23.43750953], [-48.3387149, -23.43759959], [-48.33871124, -23.43778229], [-48.33864175, -23.43795518], [-48.33857502, -23.43813304], [-48.33865468, -23.43825131], [-48.33885035, -23.43827238], [-48.33892305, -23.43828302], [-48.33904984, -23.43830157], [-48.33919389, -23.43817348], [-48.3391813, -23.4379884], [-48.33930518, -23.43784658], [-48.33935226, -23.43780193], [-48.33955271, -23.4376835], [-48.33975038, -23.43770428], [-48.33985097, -23.43786266], [-48.33982845, -23.43804505], [-48.33977764, -23.43822695], [-48.33984959, -23.43840225], [-48.34002718, -23.4384836], [-48.34021473, -23.43853902], [-48.34038254, -23.43863762], [-48.34051159, -23.43878778], [-48.34070995, -23.43877375], [-48.3408355, -23.43862794], [-48.34103334, -23.43864001], [-48.34114476, -23.43868857], [-48.34122036, -23.43872153], [-48.34132722, -23.43856669], [-48.3412647, -23.43839156], [-48.34116432, -23.43823318], [-48.34119658, -23.43802485], [-48.34120024, -23.43784214], [-48.34117505, -23.43778333], [-48.34111012, -23.43763172], [-48.34112321, -23.43744918], [-48.34127652, -23.43732994], [-48.34147436, -23.43734202], [-48.34155574, -23.43751747], [-48.34146757, -23.43768133], [-48.34139619, -23.43785591], [-48.34152713, -23.43800437], [-48.34167633, -23.43813747], [-48.34184798, -23.43804466], [-48.34203796, -23.43797827], [-48.34221885, -23.43789431], [-48.34241635, -23.43792379], [-48.34249791, -23.43809054], [-48.34264634, -23.43821492], [-48.34282376, -23.43830497], [-48.3430209, -23.43835185], [-48.34321875, -23.43836392], [-48.34341642, -23.4383847], [-48.34358423, -23.43848329], [-48.34363733, -23.43865826], [-48.34376656, -23.43879972], [-48.34390301, -23.43893609], [-48.34412331, -23.43888412], [-48.34421148, -23.43872026], [-48.34436952, -23.4388361], [-48.34430946, -23.43900914], [-48.34432703, -23.43919353], [-48.34455901, -23.43926579]]]]}}]}