{"type": "FeatureCollection", "features": [{"type": "Feature", "properties": {"name": "Floresta Estadual de Pederneiras"}, "geometry": {"type": "MultiPolygon", "coordinates": [[[[-48.85884419, -22.36032986], [-48.86222927, -22.35680988], [-48.86293267, -22.35628903], [-48.86429724, -22.35531053], [-48.86485887, -22.35468333], [-48.86539518, -22.35393336], [-48.86776764, -22.35104053], [-48.8682801, -22.35042089], [-48.8689711, -22.34962689], [-48.86931374, -22.34890721], [-48.86963847, -22.3480245], [-48.86979381, -22.34725658], [-48.86986718, -22.34629958], [-48.86991747, -22.34532178], [-48.86996989, -22.34471495], [-48.87003221, -22.34332953], [-48.87018359, -22.34268707], [-48.87037594, -22.34191629], [-48.87094767, -22.34127042], [-48.8714293, -22.34061957], [-48.87257139, -22.33894863], [-48.88254361, -22.33711678], [-48.88001536, -22.33640034], [-48.87950604, -22.33621632], [-48.879213, -22.33612084], [-48.87756921, -22.33553955], [-48.87467795, -22.33458413], [-48.87478169, -22.33437419], [-48.87450968, -22.33302592], [-48.87429877, -22.33258403], [-48.87380896, -22.33203672], [-48.8736016, -22.33163642], [-48.87353549, -22.33121504], [-48.87309783, -22.32829151], [-48.87224232, -22.32353524], [-48.87275083, -22.32261013], [-48.87087992, -22.32174851], [-48.86308026, -22.3185166], [-48.86005308, -22.31728881], [-48.85875656, -22.31789663], [-48.85826741, -22.31812061], [-48.8578061, -22.31830702], [-48.85702491, -22.31855142], [-48.85648171, -22.3186982], [-48.85534263, -22.32401895], [-48.8548939, -22.32418782], [-48.85329275, -22.32478136], [-48.85161227, -22.32542141], [-48.85091086, -22.32567496], [-48.84950363, -22.32619717], [-48.84886958, -22.32644998], [-48.84560157, -22.32768796], [-48.84528236, -22.32770006], [-48.84624204, -22.32672073], [-48.84792412, -22.32535911], [-48.84858577, -22.32512229], [-48.84906251, -22.32481755], [-48.84941067, -22.32449918], [-48.84984153, -22.3239902], [-48.85043694, -22.32328774], [-48.85099297, -22.32242529], [-48.85140611, -22.32164022], [-48.85159436, -22.32092549], [-48.8501792, -22.32034101], [-48.84861832, -22.31988029], [-48.84785132, -22.31966612], [-48.84732556, -22.31957408], [-48.84690233, -22.31958607], [-48.84649754, -22.31963053], [-48.84596249, -22.31975769], [-48.84556989, -22.31977893], [-48.84521405, -22.31985195], [-48.84471157, -22.32005159], [-48.84435448, -22.3201868], [-48.84390664, -22.3204111], [-48.84337939, -22.32070026], [-48.84264548, -22.3210989], [-48.84217741, -22.32139516], [-48.84180644, -22.32158102], [-48.84153576, -22.32177065], [-48.84139814, -22.32204169], [-48.8412823, -22.32227248], [-48.84082803, -22.32258011], [-48.84028875, -22.32291822], [-48.83996694, -22.32308116], [-48.83978936, -22.32329993], [-48.83974204, -22.32384568], [-48.83706853, -22.32111477], [-48.8359809, -22.31956594], [-48.83505455, -22.32029066], [-48.82898263, -22.32454995], [-48.82684017, -22.32148856], [-48.82592382, -22.32374332], [-48.82190384, -22.31769932], [-48.81177962, -22.32067976], [-48.81122253, -22.32040767], [-48.80449067, -22.32965849], [-48.80855115, -22.33652006], [-48.8139977, -22.333175], [-48.81460329, -22.33520759], [-48.82000725, -22.33354114], [-48.81990317, -22.33766271], [-48.82104119, -22.33853149], [-48.82198478, -22.33957743], [-48.82283943, -22.34030126], [-48.82357442, -22.34082429], [-48.82261862, -22.34151276], [-48.82414657, -22.34230261], [-48.82716702, -22.34279717], [-48.82677151, -22.34511083], [-48.82739082, -22.34554091], [-48.82841024, -22.34629745], [-48.82903115, -22.34675698], [-48.82949922, -22.34721988], [-48.82988124, -22.34757923], [-48.83027236, -22.34794709], [-48.83053889, -22.34823681], [-48.83072704, -22.34861704], [-48.83081124, -22.34875262], [-48.83112301, -22.34902299], [-48.83131748, -22.34921476], [-48.83157382, -22.34940456], [-48.83256674, -22.34995096], [-48.83336745, -22.35034733], [-48.83482995, -22.35101721], [-48.83579513, -22.3488613], [-48.83625144, -22.34785672], [-48.83676892, -22.3467623], [-48.83698341, -22.34635549], [-48.83805482, -22.34668412], [-48.83910888, -22.34700565], [-48.83981991, -22.34720051], [-48.84041379, -22.34733124], [-48.84146739, -22.34748777], [-48.84205099, -22.34751786], [-48.84239799, -22.34751291], [-48.84382404, -22.34748053], [-48.84421287, -22.34748886], [-48.84455292, -22.34756319], [-48.8448312, -22.34765882], [-48.84530725, -22.34787843], [-48.845868, -22.3481575], [-48.84641471, -22.34839016], [-48.8476082, -22.34880622], [-48.84983044, -22.34960155], [-48.84922702, -22.35144966], [-48.84926253, -22.35171678], [-48.84901261, -22.35294654], [-48.84873368, -22.35356832], [-48.84835405, -22.35438849], [-48.85335499, -22.35683429], [-48.85361889, -22.356793], [-48.85454144, -22.35745618], [-48.8575569, -22.35962089], [-48.85884419, -22.36032986]]]]}}]}