{"type": "FeatureCollection", "features": [{"type": "Feature", "properties": {"name": "Floresta Estadual de Assis"}, "geometry": {"type": "MultiPolygon", "coordinates": [[[[-50.36724125, -22.63796836], [-50.3732098, -22.63568973], [-50.37492296, -22.63525097], [-50.37603268, -22.63479365], [-50.37786485, -22.63466477], [-50.37868756, -22.63436284], [-50.37985726, -22.63368115], [-50.37981896, -22.63405452], [-50.3790545, -22.6345278], [-50.37824798, -22.63516377], [-50.37776214, -22.63571647], [-50.37926362, -22.63835196], [-50.3950463, -22.6300567], [-50.38501276, -22.62027958], [-50.38069825, -22.62157926], [-50.37826871, -22.622072], [-50.37354209, -22.62002409], [-50.36918293, -22.62100696], [-50.36675901, -22.6210549], [-50.36216139, -22.63825204], [-50.36424394, -22.63687828], [-50.36621693, -22.63889298], [-50.36724125, -22.63796836]]], [[[-50.366614, -22.60190101], [-50.35978296, -22.59512058], [-50.35903296, -22.59859062], [-50.35593881, -22.59891709], [-50.34967865, -22.60859144], [-50.35032671, -22.60895453], [-50.35069108, -22.60907763], [-50.35109563, -22.60925514], [-50.35148868, -22.60945534], [-50.35225939, -22.61009203], [-50.35251239, -22.61025815], [-50.35279481, -22.61033479], [-50.35294558, -22.61033408], [-50.35308978, -22.61033935], [-50.35324169, -22.61035968], [-50.35338009, -22.61041042], [-50.3535257, -22.61051678], [-50.35391469, -22.61070416], [-50.35414819, -22.61083527], [-50.35431679, -22.61097034], [-50.35442897, -22.61111272], [-50.35455254, -22.61134595], [-50.35493764, -22.61176638], [-50.35506958, -22.61188809], [-50.36061636, -22.60717246], [-50.366614, -22.60190101]]], [[[-50.41000861, -22.6150105], [-50.41054822, -22.61500478], [-50.41135937, -22.61502784], [-50.41173097, -22.61504959], [-50.41224253, -22.6150397], [-50.41263192, -22.61498604], [-50.41300902, -22.61491584], [-50.4136906, -22.61466979], [-50.41389883, -22.61454691], [-50.41442776, -22.61446838], [-50.41493344, -22.61425672], [-50.41596193, -22.61389642], [-50.41640757, -22.61367691], [-50.41640679, -22.61342894], [-50.41646647, -22.6132096], [-50.4166008, -22.61285208], [-50.4166706, -22.61267855], [-50.41672476, -22.61246416], [-50.41687069, -22.61224333], [-50.41700206, -22.61206462], [-50.41711523, -22.61194439], [-50.41722327, -22.61180377], [-50.41745843, -22.61163593], [-50.41767127, -22.61148881], [-50.41789604, -22.61136431], [-50.42342698, -22.60925064], [-50.42377199, -22.60913286], [-50.42417826, -22.60895972], [-50.42446167, -22.60885305], [-50.42486004, -22.60871137], [-50.42528236, -22.60850708], [-50.42553742, -22.6083883], [-50.42573048, -22.60826146], [-50.42598599, -22.60807804], [-50.42619374, -22.60785807], [-50.42632625, -22.60770237], [-50.42651531, -22.60751498], [-50.42661104, -22.60733375], [-50.42673229, -22.60706444], [-50.42691638, -22.60645815], [-50.42723681, -22.60564743], [-50.42743557, -22.60521109], [-50.42772193, -22.60486973], [-50.42806964, -22.60455452], [-50.42846748, -22.60427582], [-50.42883687, -22.6041215], [-50.42930076, -22.6040765], [-50.42975335, -22.60408326], [-50.43045795, -22.60427122], [-50.43093779, -22.60441818], [-50.43150961, -22.60462509], [-50.43223218, -22.60486884], [-50.4336347, -22.60538416], [-50.43393013, -22.60547786], [-50.43440812, -22.60563948], [-50.43470725, -22.60574598], [-50.43553913, -22.60599054], [-50.43635742, -22.60626401], [-50.43682861, -22.60642475], [-50.43725869, -22.60655558], [-50.43781221, -22.60671585], [-50.43816684, -22.60685461], [-50.43853521, -22.60697174], [-50.43922454, -22.60722662], [-50.43956551, -22.60734772], [-50.44002853, -22.60747718], [-50.44041863, -22.60759403], [-50.44077697, -22.60768613], [-50.4409913, -22.60771935], [-50.44121812, -22.60774853], [-50.44192151, -22.60776402], [-50.44222057, -22.60774686], [-50.44255071, -22.6077223], [-50.44276289, -22.60768517], [-50.4430348, -22.60760983], [-50.44336703, -22.60753716], [-50.44363015, -22.60744841], [-50.4442041, -22.60723337], [-50.44474717, -22.60691629], [-50.44515594, -22.60665922], [-50.44540302, -22.60645599], [-50.44566798, -22.60622788], [-50.44589575, -22.60600191], [-50.44616496, -22.60567575], [-50.44637376, -22.60544114], [-50.44652056, -22.60518528], [-50.44679203, -22.60475109], [-50.44692197, -22.60444863], [-50.4470382, -22.60413336], [-50.44712323, -22.60382611], [-50.44721331, -22.60341976], [-50.44725415, -22.60310959], [-50.44728972, -22.60279064], [-50.44729411, -22.60258372], [-50.44728074, -22.60226892], [-50.44724469, -22.60199173], [-50.44718628, -22.60167303], [-50.44700835, -22.6007993], [-50.44679604, -22.5997947], [-50.44664917, -22.59893887], [-50.446606, -22.59865135], [-50.44658948, -22.59805743], [-50.44666788, -22.59777478], [-50.44675092, -22.59753238], [-50.44686122, -22.59725629], [-50.44693833, -22.59708889], [-50.44696886, -22.59704802], [-50.44726269, -22.59660386], [-50.44756892, -22.59630977], [-50.44773368, -22.59616412], [-50.44808283, -22.59592219], [-50.44821362, -22.59580545], [-50.44895068, -22.5956265], [-50.44923761, -22.59560329], [-50.44952414, -22.59556421], [-50.44969943, -22.59556496], [-50.44997721, -22.59557841], [-50.45040806, -22.59562815], [-50.45108711, -22.59494661], [-50.45461704, -22.59732957], [-50.45467952, -22.59721153], [-50.4550279, -22.59639133], [-50.45526471, -22.59617028], [-50.45691307, -22.59743651], [-50.45583657, -22.59815926], [-50.45939573, -22.60077025], [-50.45979061, -22.60061894], [-50.46038671, -22.60040997], [-50.46066165, -22.60028967], [-50.46106384, -22.60006734], [-50.46131034, -22.59995347], [-50.46184362, -22.59956664], [-50.46219573, -22.59931935], [-50.46232894, -22.59919285], [-50.46264892, -22.59881811], [-50.46311355, -22.59815771], [-50.46339174, -22.59758491], [-50.46361768, -22.59690385], [-50.46378941, -22.59606774], [-50.46383251, -22.59543042], [-50.46381343, -22.59500213], [-50.46365439, -22.59409446], [-50.46337015, -22.59265352], [-50.46306804, -22.59139715], [-50.46261695, -22.58988835], [-50.46254022, -22.58935319], [-50.46256636, -22.58887563], [-50.46281746, -22.58784543], [-50.4634115, -22.58704935], [-50.46373933, -22.58675893], [-50.46419699, -22.58639622], [-50.46529085, -22.58603031], [-50.46603298, -22.58595981], [-50.46675861, -22.58329599], [-50.46656505, -22.58280172], [-50.46586874, -22.58309276], [-50.46488322, -22.58299559], [-50.46324033, -22.58337966], [-50.46251289, -22.58447551], [-50.46261913, -22.58463329], [-50.46221609, -22.5854081], [-50.4607367, -22.58610632], [-50.46013281, -22.58630848], [-50.45882849, -22.58640748], [-50.45803173, -22.59094278], [-50.4560511, -22.59272952], [-50.45540735, -22.59369592], [-50.45156828, -22.59037917], [-50.45141719, -22.59028273], [-50.45115366, -22.59022483], [-50.45042926, -22.59024267], [-50.4501914, -22.59032951], [-50.44958832, -22.59067028], [-50.44827131, -22.59152785], [-50.44672019, -22.59175794], [-50.44192873, -22.57848829], [-50.44180837, -22.57840956], [-50.44166584, -22.57833142], [-50.43924639, -22.5790078], [-50.43849271, -22.57843416], [-50.4382772, -22.57831594], [-50.43805111, -22.57827701], [-50.41444238, -22.58100082], [-50.41362307, -22.58077591], [-50.41432321, -22.57336526], [-50.40274709, -22.56465423], [-50.40156502, -22.55837542], [-50.39047288, -22.56174968], [-50.40018909, -22.61287152], [-50.40060031, -22.6130848], [-50.40093025, -22.61328689], [-50.40112789, -22.61339129], [-50.40132629, -22.6135065], [-50.40158184, -22.61364281], [-50.40176359, -22.61372143], [-50.40196801, -22.61381584], [-50.40230365, -22.61395253], [-50.40254844, -22.61403669], [-50.40275307, -22.61412588], [-50.40300901, -22.61420939], [-50.40338244, -22.61396184], [-50.40608519, -22.61435472], [-50.40382891, -22.60042619], [-50.40882737, -22.60185703], [-50.40828861, -22.61502531], [-50.40839181, -22.61504139], [-50.40870152, -22.61505194], [-50.40951876, -22.615022], [-50.41000861, -22.6150105]]]]}}]}