{"type": "FeatureCollection", "features": [{"type": "Feature", "properties": {"name": "Floresta Estadual de Noroeste Paulista"}, "geometry": {"type": "MultiPolygon", "coordinates": [[[[-49.44184639, -20.86285583], [-49.44250917, -20.86242472], [-49.44305806, -20.86305417], [-49.44356111, -20.86227972], [-49.44418222, -20.86060833], [-49.44491639, -20.85872778], [-49.44512139, -20.85825111], [-49.44594111, -20.85673972], [-49.44678972, -20.85484611], [-49.44865667, -20.85337889], [-49.44939611, -20.85262806], [-49.45014833, -20.85197139], [-49.45073694, -20.85107028], [-49.45105111, -20.85030722], [-49.45144139, -20.84850639], [-49.45122917, -20.84685389], [-49.45100972, -20.84638], [-49.4512425, -20.84567917], [-49.45038222, -20.84499778], [-49.4473575, -20.842815], [-49.44594583, -20.84412722], [-49.44559222, -20.84432444], [-49.44505222, -20.84293667], [-49.44435028, -20.841615], [-49.44382528, -20.84091944], [-49.44266972, -20.84000389], [-49.44149222, -20.83961333], [-49.44189667, -20.83793667], [-49.4423175, -20.83708361], [-49.44274972, -20.83728667], [-49.44313534, -20.83630302], [-49.44338433, -20.83607314], [-49.44494917, -20.83508694], [-49.44495556, -20.83471139], [-49.44520167, -20.83448833], [-49.44599306, -20.83465889], [-49.44689167, -20.83493556], [-49.44723194, -20.83509056], [-49.44718361, -20.83540667], [-49.44723194, -20.83544889], [-49.44709944, -20.83555917], [-49.44705194, -20.83565222], [-49.44704444, -20.83576972], [-49.44715528, -20.83584556], [-49.44788361, -20.83576611], [-49.44918167, -20.83643389], [-49.44983806, -20.83471417], [-49.44938472, -20.83451167], [-49.44922917, -20.83462111], [-49.44887667, -20.83446528], [-49.44880944, -20.8343425], [-49.44833139, -20.83426611], [-49.44778167, -20.83409778], [-49.44759194, -20.83408778], [-49.44727556, -20.83397611], [-49.44717806, -20.83388917], [-49.44709722, -20.83387861], [-49.44681333, -20.83355722], [-49.44670722, -20.83339694], [-49.4464825, -20.83329722], [-49.44624333, -20.83323722], [-49.44598944, -20.83309611], [-49.44572889, -20.83301833], [-49.44523944, -20.83305444], [-49.44485, -20.83301833], [-49.44462389, -20.83287444], [-49.44454806, -20.83276972], [-49.4445525, -20.83262778], [-49.44445556, -20.83242361], [-49.44409444, -20.83215639], [-49.44380778, -20.83156028], [-49.44276944, -20.83155417], [-49.44185694, -20.83171417], [-49.44032028, -20.83167472], [-49.43898806, -20.83152472], [-49.43877667, -20.83154611], [-49.43826056, -20.83177333], [-49.43847694, -20.83216944], [-49.43842667, -20.83239417], [-49.43784694, -20.83266694], [-49.4380625, -20.83306167], [-49.4368575, -20.83364056], [-49.43657, -20.83311611], [-49.43461639, -20.83372917], [-49.43448972, -20.83337667], [-49.43208611, -20.83407194], [-49.43069222, -20.8373], [-49.43022167, -20.83840528], [-49.43020333, -20.83844778], [-49.4301375, -20.83860222], [-49.42995944, -20.83901889], [-49.42992389, -20.83943333], [-49.429905, -20.83979889], [-49.42983194, -20.84055611], [-49.42978778, -20.84091611], [-49.42978222, -20.84128833], [-49.4297625, -20.84163667], [-49.42967083, -20.84199806], [-49.42948833, -20.84230889], [-49.42928722, -20.84261972], [-49.4275475, -20.84593111], [-49.42969111, -20.84746056], [-49.43048543, -20.8474129], [-49.43156201, -20.84807579], [-49.43285778, -20.84727056], [-49.43348861, -20.84632417], [-49.43535444, -20.84725833], [-49.43597547, -20.84762142], [-49.43691269, -20.84623896], [-49.43685353, -20.84532064], [-49.43722562, -20.84474325], [-49.43735942, -20.84434294], [-49.43735631, -20.84390553], [-49.43718348, -20.843653], [-49.43667442, -20.84346193], [-49.43647902, -20.84318051], [-49.43482387, -20.84391826], [-49.43453139, -20.84391611], [-49.43299304, -20.84389165], [-49.43283524, -20.84371365], [-49.43156604, -20.84327182], [-49.43159974, -20.84296381], [-49.43179726, -20.8427977], [-49.433435, -20.84269944], [-49.43747667, -20.84155083], [-49.43782306, -20.84117222], [-49.43772111, -20.84077722], [-49.43736333, -20.84049806], [-49.43734778, -20.83993139], [-49.43787111, -20.84002667], [-49.43835222, -20.83957028], [-49.43849139, -20.83850833], [-49.43879167, -20.837825], [-49.4382725, -20.83779944], [-49.43743111, -20.83692361], [-49.43678333, -20.83654], [-49.436965, -20.83642028], [-49.43884278, -20.83721556], [-49.44077167, -20.83848528], [-49.44052639, -20.83899167], [-49.43994139, -20.83997444], [-49.43940611, -20.84103], [-49.43931833, -20.84120333], [-49.43899306, -20.842305], [-49.43996444, -20.84261056], [-49.43961139, -20.84366583], [-49.44083306, -20.84437694], [-49.44064083, -20.84477139], [-49.43984083, -20.84450417], [-49.43898972, -20.84596167], [-49.43930861, -20.84618889], [-49.44022667, -20.84801139], [-49.44086694, -20.84872222], [-49.44043194, -20.85157722], [-49.439595, -20.85096611], [-49.43803056, -20.85384278], [-49.43531806, -20.85279639], [-49.4345775, -20.85380778], [-49.43437353, -20.85451405], [-49.44184639, -20.86285583]]]]}}]}