{"type": "FeatureCollection", "features": [{"type": "Feature", "properties": {"name": "Floresta Estadual Edmundo Navarro de Andrade"}, "geometry": {"type": "MultiPolygon", "coordinates": [[[[-47.52059583, -22.43497912], [-47.5214047, -22.43406373], [-47.52164337, -22.43383427], [-47.52337783, -22.43308493], [-47.52366585, -22.43289985], [-47.52400236, -22.43271403], [-47.52428952, -22.43248385], [-47.52467213, -22.4321619], [-47.52491243, -22.4320227], [-47.52525144, -22.43197225], [-47.52592937, -22.43187137], [-47.52617048, -22.4317773], [-47.52641078, -22.4316381], [-47.52665188, -22.43154403], [-47.52736526, -22.43072038], [-47.5275084, -22.43058275], [-47.52774787, -22.43039842], [-47.52793873, -22.4302149], [-47.52808188, -22.43007726], [-47.52831884, -22.42975759], [-47.5284604, -22.42952963], [-47.52860355, -22.42939199], [-47.5287944, -22.42920847], [-47.5295637, -22.42879016], [-47.53059192, -22.4295414], [-47.53156528, -22.42939072], [-47.53228112, -22.42870239], [-47.53588389, -22.42656941], [-47.53607474, -22.42638588], [-47.53601472, -22.42575487], [-47.53644662, -22.42547727], [-47.53679622, -22.42601342], [-47.54025257, -22.42758406], [-47.54516781, -22.42980871], [-47.54570501, -22.42998078], [-47.54594858, -22.43002208], [-47.54623735, -22.42988214], [-47.54647754, -22.42974296], [-47.54671772, -22.42960378], [-47.5470057, -22.42941866], [-47.54724597, -22.42927943], [-47.5471567, -22.42912794], [-47.54716798, -22.42898586], [-47.54722017, -22.42880443], [-47.54723863, -22.42867513], [-47.54715092, -22.4284314], [-47.54711341, -22.42827719], [-47.54708061, -22.42800035], [-47.54707684, -22.427794], [-47.54705332, -22.42764601], [-47.54698807, -22.42749223], [-47.5468805, -22.42730042], [-47.54677316, -22.42712151], [-47.54675599, -22.42694117], [-47.54684428, -22.42683658], [-47.54689883, -22.42678411], [-47.54694432, -22.42661569], [-47.5469837, -22.42649251], [-47.54715487, -22.42636726], [-47.54729864, -22.42626178], [-47.54735142, -22.42611259], [-47.54730028, -22.4259715], [-47.5473058, -22.42589401], [-47.54735905, -22.42577061], [-47.54735599, -22.42560295], [-47.54725019, -22.42550787], [-47.54706808, -22.42541399], [-47.54687893, -22.42531377], [-47.54678077, -22.42525726], [-47.54671023, -22.42519387], [-47.54671634, -22.42514862], [-47.54671552, -22.42510348], [-47.54675643, -22.42506414], [-47.54678382, -22.42504435], [-47.54686058, -22.42506895], [-47.54693712, -22.42508064], [-47.54701341, -22.42507943], [-47.54708853, -22.42501375], [-47.54710028, -22.42489746], [-47.54704291, -22.42479516], [-47.54693628, -22.42465493], [-47.54680744, -22.42443766], [-47.54667753, -22.42416234], [-47.54661099, -22.42393763], [-47.5466225, -22.42380845], [-47.54666906, -22.42369806], [-47.54668857, -22.4236268], [-47.54672913, -22.42356811], [-47.54678414, -22.42354144], [-47.54684715, -22.42357269], [-47.5468756, -22.42361095], [-47.54689912, -22.42375893], [-47.54693697, -22.42393249], [-47.54696684, -22.42404813], [-47.54701704, -22.42413764], [-47.54710144, -22.42420081], [-47.54717798, -22.4242125], [-47.54723264, -22.42416649], [-47.54725897, -22.42408867], [-47.54723616, -22.42397937], [-47.54717891, -22.42388352], [-47.54722511, -22.42375379], [-47.54721429, -22.4235411], [-47.54723862, -22.42335366], [-47.54729022, -22.42313999], [-47.54729339, -22.42293353], [-47.54715643, -22.42265188], [-47.54704334, -22.42253756], [-47.54695834, -22.42244214], [-47.54692213, -22.42235886], [-47.54692096, -22.42229438], [-47.54700936, -22.42219623], [-47.54711786, -22.42205906], [-47.54721931, -22.42191555], [-47.54725951, -22.42183752], [-47.54725845, -22.42177948], [-47.54721554, -22.42170921], [-47.54716628, -22.42167128], [-47.54702698, -22.42164123], [-47.54688744, -22.42159828], [-47.5467466, -22.42148439], [-47.54661282, -22.42137685], [-47.54658273, -22.42124832], [-47.54665514, -22.42103432], [-47.54676376, -22.4209036], [-47.54683123, -22.42079933], [-47.5468645, -22.4207214], [-47.54682159, -22.42065113], [-47.54671755, -22.42065277], [-47.54657308, -22.42071955], [-47.54643542, -22.42077977], [-47.54629001, -22.42079496], [-47.54616363, -22.4207131], [-47.54611908, -22.42055255], [-47.54611614, -22.42039134], [-47.54612096, -22.42027516], [-47.54614635, -22.42014575], [-47.54619313, -22.42004826], [-47.54628165, -22.41995656], [-47.54646069, -22.41988278], [-47.54654274, -22.41981699], [-47.54660375, -22.41973862], [-47.5467126, -22.4196208], [-47.54691409, -22.41963697], [-47.54700437, -22.419642], [-47.54710065, -22.41959533], [-47.5472041, -22.41956145], [-47.54730261, -22.4196373], [-47.54735974, -22.4197267], [-47.54744391, -22.41977697], [-47.54755441, -22.41974943], [-47.54779974, -22.4195069], [-47.54801674, -22.41923256], [-47.54815521, -22.41883691], [-47.54823432, -22.4186099], [-47.54825395, -22.41854509], [-47.54826629, -22.41846104], [-47.54823655, -22.41835186], [-47.54814368, -22.41820497], [-47.54805151, -22.41809677], [-47.54781969, -22.41793917], [-47.54766534, -22.41784485], [-47.54723181, -22.41765818], [-47.5469659, -22.41753337], [-47.54658855, -22.41738451], [-47.54634392, -22.41728516], [-47.54614784, -22.41718505], [-47.54595059, -22.41702045], [-47.54566952, -22.41682493], [-47.54548614, -22.41666011], [-47.54537928, -22.41650699], [-47.54527913, -22.41634086], [-47.54524621, -22.41605757], [-47.54522682, -22.41575471], [-47.54516639, -22.41548475], [-47.54507976, -22.41529906], [-47.54502028, -22.41508068], [-47.54502063, -22.41507288], [-47.54503015, -22.41486122], [-47.5450834, -22.41473782], [-47.5451644, -22.41461399], [-47.5452455, -22.41449661], [-47.5452354, -22.41432261], [-47.54517768, -22.41420096], [-47.54503674, -22.41408063], [-47.54491037, -22.41399877], [-47.54489462, -22.41389581], [-47.54494105, -22.41377897], [-47.54509786, -22.41362815], [-47.54518708, -22.41357514], [-47.54528394, -22.41356071], [-47.54528731, -22.41355283], [-47.54546522, -22.41350175], [-47.54549935, -22.41346892], [-47.54561958, -22.41339707], [-47.54576345, -22.41335175], [-47.54594312, -22.41336506], [-47.54607669, -22.41338986], [-47.54628538, -22.4134081], [-47.54638375, -22.41340655], [-47.54652291, -22.4134205], [-47.54669139, -22.41345551], [-47.54682546, -22.41350721], [-47.54708103, -22.41355699], [-47.54732483, -22.4135962], [-47.54752725, -22.41358763], [-47.5476769, -22.41354221], [-47.54783205, -22.41348057], [-47.54793502, -22.41341437], [-47.54809458, -22.41327732], [-47.54827718, -22.41313452], [-47.54854257, -22.4131829], [-47.54962289, -22.41341288], [-47.54977366, -22.41269807], [-47.54996268, -22.41257937], [-47.55074009, -22.4126743], [-47.55068746, -22.41290778], [-47.55128923, -22.41303624], [-47.55138409, -22.41260775], [-47.55171729, -22.41266964], [-47.55176751, -22.41251008], [-47.55189815, -22.41236087], [-47.55180823, -22.41208319], [-47.55296314, -22.41177447], [-47.55291554, -22.41121078], [-47.55301361, -22.41033059], [-47.55297981, -22.41032733], [-47.55302727, -22.40988422], [-47.55115599, -22.40913517], [-47.55113994, -22.40778841], [-47.55014897, -22.40773869], [-47.55015376, -22.40674064], [-47.54776363, -22.40691336], [-47.54748649, -22.40694996], [-47.5474926, -22.40821813], [-47.54750952, -22.41049003], [-47.54676965, -22.41167838], [-47.54591254, -22.41121751], [-47.54250809, -22.4088541], [-47.54237981, -22.40876504], [-47.54441055, -22.4077617], [-47.54462412, -22.40664793], [-47.5449535, -22.40493022], [-47.54499106, -22.40473433], [-47.54450285, -22.40167379], [-47.5398369, -22.40044935], [-47.5354456, -22.39929683], [-47.53543648, -22.39923071], [-47.5354513, -22.39909056], [-47.53547249, -22.3989826], [-47.53553359, -22.39884172], [-47.53556027, -22.39871753], [-47.53559843, -22.39858778], [-47.53557746, -22.39838899], [-47.53557973, -22.39819523], [-47.53570753, -22.39790262], [-47.53580266, -22.39772354], [-47.53593839, -22.39754921], [-47.53606206, -22.39734815], [-47.53621072, -22.39724896], [-47.53643548, -22.397197], [-47.53661454, -22.39717804], [-47.53683978, -22.39715298], [-47.53695461, -22.39710274], [-47.53707474, -22.39702552], [-47.537148, -22.39691674], [-47.53716928, -22.39681416], [-47.53716174, -22.39671741], [-47.53710242, -22.39663762], [-47.53695004, -22.39653238], [-47.53669255, -22.39637498], [-47.53653429, -22.39626446], [-47.53639261, -22.39611062], [-47.53629741, -22.39596681], [-47.53617298, -22.39580732], [-47.53604905, -22.39567473], [-47.53587382, -22.395586], [-47.53564045, -22.39548203], [-47.53549465, -22.39541974], [-47.53541258, -22.39536183], [-47.53524294, -22.39526225], [-47.53510341, -22.39522677], [-47.53492309, -22.39517578], [-47.53478787, -22.39505951], [-47.53478778, -22.39505413], [-47.53483016, -22.39483821], [-47.53496, -22.39465858], [-47.53506121, -22.39449555], [-47.5351281, -22.39435458], [-47.53521696, -22.3941487], [-47.53536445, -22.39398494], [-47.53559843, -22.39380368], [-47.53590859, -22.39367504], [-47.53619591, -22.39356291], [-47.53655216, -22.39342278], [-47.53694264, -22.39325521], [-47.53717779, -22.39313851], [-47.53756728, -22.39291713], [-47.53793383, -22.39270688], [-47.53822017, -22.39254094], [-47.53850062, -22.39236972], [-47.53870605, -22.39221043], [-47.53895641, -22.39197509], [-47.53920734, -22.39177204], [-47.53951044, -22.39157355], [-47.53986463, -22.39132044], [-47.54004702, -22.39116689], [-47.54033797, -22.3909363], [-47.54065312, -22.39076452], [-47.54089944, -22.39062611], [-47.54105369, -22.39051606], [-47.54120291, -22.39040173], [-47.54127999, -22.39034267], [-47.54133335, -22.39030179], [-47.54164684, -22.39003855], [-47.54183501, -22.38988491], [-47.54210791, -22.38961693], [-47.54226107, -22.3894477], [-47.54251612, -22.38915309], [-47.5426738, -22.38891383], [-47.54276941, -22.38876164], [-47.54284835, -22.38864739], [-47.54286671, -22.38862289], [-47.54285201, -22.38861386], [-47.54244599, -22.38837751], [-47.54209333, -22.38762981], [-47.54055182, -22.38937485], [-47.53825067, -22.38745909], [-47.53978887, -22.38585693], [-47.54220309, -22.38334223], [-47.54238846, -22.379802], [-47.54041414, -22.37822087], [-47.54132975, -22.37765958], [-47.54133635, -22.37765554], [-47.54175203, -22.37740071], [-47.54144694, -22.37737011], [-47.54103861, -22.37733139], [-47.54071674, -22.37724617], [-47.54037546, -22.37716126], [-47.53978988, -22.37698989], [-47.53939924, -22.37696985], [-47.53910811, -22.37697442], [-47.53881699, -22.37697899], [-47.53813933, -22.3770799], [-47.53780132, -22.37717548], [-47.53746331, -22.37727106], [-47.5373522, -22.37734754], [-47.53712777, -22.37750201], [-47.5367914, -22.37768784], [-47.53431213, -22.37853921], [-47.53416822, -22.37830419], [-47.53408415, -22.37808762], [-47.53394544, -22.37791779], [-47.53383263, -22.37781635], [-47.5336888, -22.37770393], [-47.53350172, -22.37758646], [-47.53330252, -22.37748064], [-47.53309726, -22.37738065], [-47.53294716, -22.37726259], [-47.53283394, -22.37713823], [-47.53278883, -22.37702999], [-47.5327924, -22.3768866], [-47.53282605, -22.37670259], [-47.53278586, -22.37652548], [-47.5326904, -22.3763607], [-47.53259546, -22.37622458], [-47.53247022, -22.3761176], [-47.53229537, -22.3759942], [-47.53211508, -22.37591101], [-47.53199088, -22.37586136], [-47.53182447, -22.37586396], [-47.53165076, -22.37580361], [-47.53144644, -22.37575521], [-47.53130448, -22.37574596], [-47.53117557, -22.37577665], [-47.53098084, -22.3759173], [-47.53090185, -22.37598161], [-47.53074317, -22.3760701], [-47.5306458, -22.37614042], [-47.53050089, -22.37630897], [-47.5304101, -22.37640213], [-47.53031252, -22.37646099], [-47.53021391, -22.37646253], [-47.53007122, -22.37641316], [-47.52989207, -22.37639303], [-47.52976295, -22.37641225], [-47.52962788, -22.37644303], [-47.52942574, -22.376515], [-47.5293034, -22.37656851], [-47.52923038, -22.37662126], [-47.5291891, -22.37672511], [-47.52918542, -22.37686277], [-47.529176, -22.37702346], [-47.52918434, -22.37714374], [-47.52917963, -22.37722409], [-47.52916259, -22.37730462], [-47.52911453, -22.37737418], [-47.52904735, -22.37740963], [-47.52894257, -22.37741127], [-47.52883132, -22.37739581], [-47.5286949, -22.37735207], [-47.52848965, -22.37725208], [-47.52828952, -22.37709466], [-47.5281575, -22.37695338], [-47.52806277, -22.37682873], [-47.52797307, -22.37664092], [-47.52787073, -22.3764361], [-47.52773767, -22.37623751], [-47.52760586, -22.37610769], [-47.52740677, -22.3760076], [-47.52720934, -22.37599922], [-47.52703061, -22.37600201], [-47.52689388, -22.37594107], [-47.52681764, -22.37581613], [-47.52678988, -22.37564455], [-47.52679335, -22.37549542], [-47.5267917, -22.37540371], [-47.52682691, -22.37530568], [-47.52676311, -22.37518627], [-47.52665051, -22.37509629], [-47.52650076, -22.37484171], [-47.52582264, -22.37760585], [-47.5241526, -22.38075845], [-47.52230229, -22.38425119], [-47.52186963, -22.38448365], [-47.52124454, -22.38480936], [-47.52085878, -22.38495079], [-47.52042774, -22.3852735], [-47.51999833, -22.38568645], [-47.51675139, -22.38867112], [-47.5156385, -22.38886901], [-47.51437847, -22.38897889], [-47.51180985, -22.38919938], [-47.50955981, -22.38824126], [-47.50907051, -22.38802316], [-47.50848414, -22.38780656], [-47.50799566, -22.38763358], [-47.50687469, -22.38738013], [-47.50653339, -22.38729514], [-47.50633608, -22.38711767], [-47.50613877, -22.3869402], [-47.50594059, -22.38671754], [-47.50538499, -22.38550741], [-47.50458511, -22.3842107], [-47.50433841, -22.38398879], [-47.50419043, -22.38385569], [-47.50370033, -22.38359243], [-47.50160161, -22.38294781], [-47.50192386, -22.40530102], [-47.50219264, -22.42391911], [-47.50220512, -22.4247831], [-47.50220539, -22.42479205], [-47.50327326, -22.4247755], [-47.50375865, -22.42476797], [-47.50419625, -22.42480632], [-47.50458456, -22.42480029], [-47.50502216, -22.42483864], [-47.50526642, -22.42492511], [-47.50502287, -22.42488374], [-47.5055649, -22.42532672], [-47.50571538, -22.42559522], [-47.50591197, -22.42572758], [-47.50620398, -22.42576819], [-47.50703081, -22.42584563], [-47.50819653, -22.42587266], [-47.50853716, -22.42591251], [-47.50882917, -22.42595311], [-47.50907353, -22.4260396], [-47.50971102, -22.4263908], [-47.51019965, -22.42656376], [-47.51068909, -22.42678184], [-47.51117853, -22.42699992], [-47.51147137, -22.42708563], [-47.51152478, -22.42735561], [-47.511435, -22.42776328], [-47.51148761, -22.4279882], [-47.51149736, -22.42852972], [-47.51155728, -22.42916076], [-47.51157027, -22.42988279], [-47.51162289, -22.43010771], [-47.51181867, -22.43019494], [-47.51215931, -22.43023479], [-47.51240288, -22.43027614], [-47.51362211, -22.43057314], [-47.51571909, -22.43108214], [-47.51591648, -22.43125959], [-47.51606615, -22.43148292], [-47.51622887, -22.43242834], [-47.51633004, -22.4326525], [-47.51657515, -22.43278407], [-47.51764797, -22.43303818], [-47.51794082, -22.43312389], [-47.51823451, -22.43325472], [-47.5185285, -22.4334315], [-47.5187745, -22.43360824], [-47.52059583, -22.43497912]]]]}}]}