{"type": "FeatureCollection", "features": [{"type": "Feature", "properties": {"name": "Floresta Estadual de Guarulhos"}, "geometry": {"type": "MultiPolygon", "coordinates": [[[[-46.38950737, -23.33876712], [-46.39045642, -23.33878007], [-46.39132235, -23.33884768], [-46.3911873, -23.33889058], [-46.39202322, -23.33892486], [-46.39482909, -23.33946292], [-46.39578925, -23.34058041], [-46.39786385, -23.34029082], [-46.39744081, -23.33870979], [-46.39913601, -23.33861265], [-46.40059967, -23.33845219], [-46.39989684, -23.33818739], [-46.39975698, -23.33777158], [-46.39945885, -23.33733634], [-46.39886827, -23.33700797], [-46.39845877, -23.33671969], [-46.39811746, -23.33659582], [-46.39750872, -23.33580246], [-46.39759302, -23.33576686], [-46.39733244, -23.33440439], [-46.39586773, -23.33356852], [-46.39509581, -23.33294174], [-46.39451473, -23.33289818], [-46.394483, -23.33238666], [-46.39418864, -23.33199934], [-46.39371363, -23.33200357], [-46.39291153, -23.33101148], [-46.39165419, -23.32980815], [-46.39079858, -23.32874341], [-46.38973661, -23.32813542], [-46.38966928, -23.32842848], [-46.38935397, -23.32856125], [-46.38699364, -23.32946462], [-46.38703721, -23.32984808], [-46.38680179, -23.33005123], [-46.38570502, -23.33117593], [-46.38649067, -23.33235911], [-46.38874394, -23.3337216], [-46.38899488, -23.33406799], [-46.38882829, -23.33432192], [-46.38876483, -23.33447876], [-46.38879186, -23.33457469], [-46.38898824, -23.33468114], [-46.38906834, -23.33487277], [-46.38916121, -23.33504024], [-46.38899587, -23.33541437], [-46.38910238, -23.33564183], [-46.38933881, -23.3358441], [-46.38960228, -23.33614229], [-46.38987664, -23.33623603], [-46.38982708, -23.3364769], [-46.39005125, -23.3367514], [-46.39041761, -23.33692846], [-46.38989411, -23.33812256], [-46.38936318, -23.33825549], [-46.38950737, -23.33876712]]]]}}]}