{"type": "FeatureCollection", "features": [{"type": "Feature", "properties": {"name": "Floresta Estadual de Serra D´Água"}, "geometry": {"type": "MultiPolygon", "coordinates": [[[[-47.04269002, -22.95974168], [-47.04291258, -22.95970615], [-47.04296456, -22.95970025], [-47.04301374, -22.95968027], [-47.04305042, -22.95966377], [-47.04310121, -22.95965249], [-47.0431887, -22.95961804], [-47.04327816, -22.95958281], [-47.04330565, -22.95956849], [-47.0433609, -22.95955922], [-47.04343343, -22.9595448], [-47.04357892, -22.95954435], [-47.04363502, -22.9595422], [-47.04368937, -22.95952893], [-47.04370015, -22.9595263], [-47.0437808, -22.95947245], [-47.0437985, -22.95946063], [-47.04384093, -22.95943443], [-47.04388924, -22.95940459], [-47.04397758, -22.95936094], [-47.04410126, -22.95934872], [-47.04420104, -22.95933887], [-47.04442101, -22.95930055], [-47.04444781, -22.95929588], [-47.04453315, -22.95927336], [-47.04462582, -22.95926462], [-47.04464415, -22.95926289], [-47.04469428, -22.95925654], [-47.04474302, -22.95923212], [-47.04481461, -22.95917917], [-47.04483083, -22.95916465], [-47.04489295, -22.95910901], [-47.04491488, -22.95909397], [-47.04500982, -22.95904739], [-47.04503787, -22.9590409], [-47.04509263, -22.95902824], [-47.04513173, -22.95902567], [-47.04513924, -22.95902814], [-47.04517441, -22.95903971], [-47.04523671, -22.95904355], [-47.04536057, -22.95905116], [-47.04552478, -22.95906126], [-47.04560725, -22.95906633], [-47.04563853, -22.95906632], [-47.04574647, -22.95906628], [-47.04584667, -22.95905023], [-47.04591719, -22.95904932], [-47.04596346, -22.95904873], [-47.0459818, -22.95904849], [-47.04609219, -22.95902185], [-47.04615464, -22.95899649], [-47.04625432, -22.95895601], [-47.04629875, -22.95893797], [-47.04632012, -22.95892929], [-47.04641349, -22.95888538], [-47.04646621, -22.95886059], [-47.0464668, -22.95886031], [-47.04655353, -22.95878338], [-47.04656749, -22.95877247], [-47.04659623, -22.95874999], [-47.04666855, -22.95872146], [-47.04674147, -22.95870831], [-47.04685925, -22.95870679], [-47.04694133, -22.95868844], [-47.04710096, -22.95867085], [-47.04717285, -22.95866293], [-47.04714937, -22.9586142], [-47.04705788, -22.95842438], [-47.04702853, -22.95836349], [-47.04702076, -22.95834736], [-47.04700919, -22.95827062], [-47.04696972, -22.95800881], [-47.04696657, -22.95798792], [-47.04696291, -22.95796365], [-47.04752737, -22.9577313], [-47.04752731, -22.95750671], [-47.04755852, -22.95742098], [-47.04768002, -22.95720117], [-47.04777315, -22.95696032], [-47.04781585, -22.95685318], [-47.04783756, -22.95679882], [-47.04784993, -22.95671348], [-47.04788681, -22.95659686], [-47.04788941, -22.95658863], [-47.04794914, -22.95642547], [-47.04798622, -22.95632418], [-47.04802739, -22.95621174], [-47.04810986, -22.95590108], [-47.04816786, -22.9557311], [-47.04826458, -22.95546403], [-47.04829754, -22.95537303], [-47.04840438, -22.95507805], [-47.04841873, -22.95503842], [-47.04842467, -22.95502203], [-47.04843808, -22.954985], [-47.04845637, -22.95493449], [-47.04842414, -22.95487279], [-47.04834689, -22.9547249], [-47.0475494, -22.95319826], [-47.04742994, -22.95296957], [-47.04778598, -22.95310474], [-47.04784191, -22.95312597], [-47.04807685, -22.95321516], [-47.04887091, -22.95351662], [-47.04892331, -22.95353651], [-47.04945609, -22.95373877], [-47.04960779, -22.95379636], [-47.04911104, -22.95222585], [-47.04837773, -22.9505499], [-47.04833443, -22.95040501], [-47.04832531, -22.95037448], [-47.04829065, -22.95016304], [-47.04827823, -22.94996805], [-47.04827845, -22.94994968], [-47.04827914, -22.94988973], [-47.04828025, -22.94979423], [-47.0482803, -22.94979041], [-47.04829588, -22.94960598], [-47.0482965, -22.94959854], [-47.04830117, -22.94954336], [-47.04830858, -22.94922433], [-47.04831336, -22.94901833], [-47.04831543, -22.94892927], [-47.04830515, -22.94888248], [-47.04830389, -22.9488767], [-47.04829137, -22.94881967], [-47.0482701, -22.94874736], [-47.04822113, -22.94862796], [-47.04817492, -22.94851531], [-47.04816639, -22.94849451], [-47.04816276, -22.94848565], [-47.04718792, -22.94913139], [-47.04706415, -22.94921338], [-47.04698577, -22.9492653], [-47.04686087, -22.94934804], [-47.0465358, -22.94956337], [-47.04509332, -22.95051886], [-47.04507578, -22.95053048], [-47.04502622, -22.95160528], [-47.04500323, -22.95210384], [-47.04495602, -22.95241372], [-47.0449522, -22.95243875], [-47.04493742, -22.95245773], [-47.04481165, -22.95261922], [-47.04460785, -22.95279601], [-47.04460259, -22.95280057], [-47.04458469, -22.95280828], [-47.04429933, -22.95293127], [-47.04400391, -22.95302515], [-47.04400381, -22.9530252], [-47.04353109, -22.95328274], [-47.04310893, -22.95350322], [-47.04289054, -22.95365183], [-47.04283099, -22.95370406], [-47.0426681, -22.95384692], [-47.04264169, -22.95387008], [-47.04243504, -22.9540527], [-47.04239205, -22.95411939], [-47.04237855, -22.95414032], [-47.04235772, -22.95417264], [-47.04231038, -22.95424608], [-47.04230558, -22.95425964], [-47.04228282, -22.95432386], [-47.04223652, -22.95445453], [-47.04222243, -22.9544943], [-47.04222189, -22.95450492], [-47.04221939, -22.95455454], [-47.04221228, -22.95469538], [-47.04221014, -22.95473786], [-47.04223457, -22.95503085], [-47.04228335, -22.95532352], [-47.04228731, -22.95534388], [-47.04232661, -22.95554561], [-47.04237431, -22.95570014], [-47.04242644, -22.95586905], [-47.04263825, -22.95652959], [-47.04263872, -22.95653105], [-47.04270549, -22.95671335], [-47.04277765, -22.95691035], [-47.04280519, -22.9569662], [-47.0429287, -22.95721663], [-47.04303601, -22.95750101], [-47.04309181, -22.95764886], [-47.04311031, -22.9579337], [-47.04299778, -22.95864675], [-47.04298592, -22.9587219], [-47.04290275, -22.95915096], [-47.04287099, -22.95925], [-47.04283599, -22.95935912], [-47.0428345, -22.95936376], [-47.04268502, -22.95969345], [-47.04267883, -22.9597071], [-47.04269002, -22.95974168]]]]}}]}