{"type": "FeatureCollection", "features": [{"type": "Feature", "properties": {"name": "Monumento Natural Estadual da Pedra do Baú"}, "geometry": {"type": "MultiPolygon", "coordinates": [[[[-45.61905628, -22.70325841], [-45.62190367, -22.70167129], [-45.62191909, -22.70165903], [-45.62190992, -22.70164903], [-45.62182239, -22.70155356], [-45.62168805, -22.70140702], [-45.62157394, -22.70122697], [-45.62147568, -22.70106458], [-45.62136159, -22.70087605], [-45.62132949, -22.70076744], [-45.62130457, -22.70068223], [-45.62128227, -22.70060599], [-45.62126433, -22.70046384], [-45.6212604, -22.70043277], [-45.62124209, -22.7002458], [-45.62122231, -22.70004389], [-45.62120464, -22.69986351], [-45.6211906, -22.69974], [-45.62115631, -22.69964543], [-45.62112259, -22.6995537], [-45.62107432, -22.69951043], [-45.62102541, -22.69946658], [-45.62093794, -22.69938818], [-45.62088199, -22.69933803], [-45.62084683, -22.69930651], [-45.62081191, -22.69927992], [-45.62052911, -22.69918666], [-45.62033271, -22.69915877], [-45.62010397, -22.69912912], [-45.61997784, -22.69911276], [-45.61993649, -22.6991074], [-45.61984174, -22.69909512], [-45.61958524, -22.69903818], [-45.61955299, -22.69902315], [-45.61950159, -22.69899919], [-45.61944045, -22.6989227], [-45.61939395, -22.69886254], [-45.61939869, -22.69869855], [-45.61944347, -22.69863365], [-45.61945347, -22.69861914], [-45.6195966, -22.69841169], [-45.61971733, -22.69822497], [-45.61973012, -22.69805834], [-45.61971863, -22.69802313], [-45.61969407, -22.69794792], [-45.61966242, -22.69785096], [-45.61957098, -22.69774794], [-45.61946968, -22.69765565], [-45.61930147, -22.69753008], [-45.61919242, -22.69744765], [-45.61908113, -22.69728421], [-45.61903658, -22.69721459], [-45.61900939, -22.69709546], [-45.61898671, -22.69699605], [-45.61898241, -22.69697722], [-45.61898459, -22.6969298], [-45.61898854, -22.69684361], [-45.6189918, -22.69677279], [-45.61899792, -22.69663173], [-45.61901001, -22.69635351], [-45.61900116, -22.6962882], [-45.61898741, -22.69618667], [-45.618957, -22.6959622], [-45.61896856, -22.69591477], [-45.6190233, -22.69581658], [-45.61905971, -22.69579965], [-45.6190651, -22.69579714], [-45.61912284, -22.69577029], [-45.61912486, -22.69576935], [-45.61919285, -22.69576231], [-45.61928345, -22.69576298], [-45.61948415, -22.69580548], [-45.61959094, -22.69582809], [-45.6196578, -22.69583647], [-45.61969089, -22.69583035], [-45.61975843, -22.69581786], [-45.61979789, -22.69581056], [-45.61992114, -22.69573868], [-45.61996006, -22.69571598], [-45.61996632, -22.69559339], [-45.61996932, -22.69553471], [-45.61997476, -22.69542826], [-45.61997721, -22.69538036], [-45.6199852, -22.69522397], [-45.61998773, -22.69517451], [-45.61999118, -22.69516609], [-45.6200032, -22.69513672], [-45.62017054, -22.69491674], [-45.62027533, -22.69477898], [-45.62038771, -22.69463124], [-45.62041009, -22.6945794], [-45.62042221, -22.69443435], [-45.62042571, -22.69428881], [-45.62041769, -22.69423884], [-45.62039791, -22.69413499], [-45.62031116, -22.69398819], [-45.62011113, -22.69382102], [-45.61997285, -22.69372951], [-45.61978672, -22.69361411], [-45.61968499, -22.69355104], [-45.61960546, -22.69350173], [-45.6194643, -22.69341421], [-45.61938739, -22.69334574], [-45.61928935, -22.69324511], [-45.6192479, -22.69320257], [-45.61924212, -22.6931843], [-45.61923993, -22.69317736], [-45.61922773, -22.69311219], [-45.61921912, -22.69306621], [-45.61922175, -22.6930173], [-45.61922726, -22.69300732], [-45.61923984, -22.69298453], [-45.61924369, -22.69297756], [-45.6192515, -22.69296342], [-45.61937106, -22.69300972], [-45.6193716, -22.69301037], [-45.6194645, -22.69302858], [-45.61947206, -22.6930336], [-45.61964776, -22.69308236], [-45.61979874, -22.69310515], [-45.61985388, -22.69310493], [-45.62014754, -22.69316252], [-45.62018042, -22.69316239], [-45.62018136, -22.69316289], [-45.6206161, -22.69317763], [-45.62110976, -22.69318993], [-45.62143879, -22.69319813], [-45.6216179, -22.69320259], [-45.62181963, -22.69320761], [-45.62182753, -22.69320781], [-45.62199885, -22.69321207], [-45.62215253, -22.69323714], [-45.62227088, -22.69325669], [-45.62250891, -22.693296], [-45.62264589, -22.69331862], [-45.62289884, -22.69336039], [-45.62311232, -22.69343996], [-45.62318197, -22.69346823], [-45.6232758, -22.69350632], [-45.62330245, -22.69351714], [-45.62334521, -22.69348667], [-45.62338191, -22.69347219], [-45.62338473, -22.69347107], [-45.62355901, -22.69348895], [-45.62365101, -22.69350204], [-45.6237613, -22.69353703], [-45.62391382, -22.69358542], [-45.62405916, -22.69363154], [-45.62423471, -22.69368724], [-45.62434013, -22.69372069], [-45.62434146, -22.69372111], [-45.62440923, -22.69374261], [-45.62445948, -22.69375855], [-45.62454956, -22.69375888], [-45.62463972, -22.69375921], [-45.62481161, -22.69375854], [-45.62497669, -22.69371153], [-45.62515233, -22.69365614], [-45.62520905, -22.69365448], [-45.62534659, -22.69368218], [-45.6253785, -22.69370216], [-45.62542276, -22.69372988], [-45.6254394, -22.69371133], [-45.62545893, -22.69368956], [-45.62552775, -22.69361283], [-45.62553383, -22.69360605], [-45.62560213, -22.6935299], [-45.62574632, -22.69337236], [-45.62579976, -22.69333196], [-45.6259123, -22.69324686], [-45.62621766, -22.69301598], [-45.62667, -22.69265439], [-45.62669406, -22.69263516], [-45.62669517, -22.69263605], [-45.62673534, -22.69266837], [-45.62674566, -22.69272633], [-45.62674658, -22.69274244], [-45.62674908, -22.69278633], [-45.62675033, -22.69280818], [-45.62674614, -22.69283673], [-45.62674476, -22.69284615], [-45.62673866, -22.69285955], [-45.62668015, -22.69298813], [-45.62663072, -22.69306835], [-45.62652463, -22.69324054], [-45.62649699, -22.69329738], [-45.62649216, -22.69349865], [-45.62649941, -22.69358702], [-45.62650748, -22.69361425], [-45.62652681, -22.69367943], [-45.62654252, -22.69373242], [-45.62661553, -22.69384916], [-45.62664534, -22.69388358], [-45.6267225, -22.69397266], [-45.62684423, -22.69408819], [-45.62686745, -22.69410848], [-45.62696282, -22.69419186], [-45.62704806, -22.694246], [-45.62711748, -22.6942901], [-45.62724849, -22.69434538], [-45.62733856, -22.6943801], [-45.62744201, -22.69439435], [-45.62747113, -22.69439837], [-45.62773781, -22.69443512], [-45.62793649, -22.69446251], [-45.62802239, -22.69448652], [-45.62806816, -22.69449931], [-45.62810234, -22.69450944], [-45.62819418, -22.69453664], [-45.62825614, -22.694555], [-45.628758, -22.69484961], [-45.62910672, -22.69505518], [-45.62913428, -22.69506067], [-45.62938608, -22.69511084], [-45.629472, -22.69512526], [-45.62979536, -22.69509885], [-45.6298356, -22.69508533], [-45.63013917, -22.69498332], [-45.63045319, -22.69486764], [-45.63054776, -22.69483227], [-45.63062505, -22.69480337], [-45.6306821, -22.69476146], [-45.63073507, -22.69472255], [-45.63079701, -22.69467705], [-45.63089604, -22.69458772], [-45.63108172, -22.69439754], [-45.6311133, -22.69433373], [-45.63128512, -22.69396728], [-45.63133026, -22.69387101], [-45.63133686, -22.69385693], [-45.63136808, -22.69379034], [-45.63156703, -22.69372526], [-45.63171907, -22.69374265], [-45.63171924, -22.69374267], [-45.6317187, -22.69375108], [-45.63171051, -22.69388034], [-45.63171562, -22.6938944], [-45.63171062, -22.69390462], [-45.6317123, -22.69427215], [-45.63171944, -22.69448549], [-45.63176403, -22.69480016], [-45.63179376, -22.69500998], [-45.631889, -22.69529234], [-45.63195246, -22.69547829], [-45.63197994, -22.69548424], [-45.63491991, -22.69612085], [-45.63493006, -22.69612304], [-45.63517204, -22.69572073], [-45.63554503, -22.69515011], [-45.63570592, -22.69499662], [-45.63579369, -22.6948587], [-45.63611972, -22.69447781], [-45.6364348, -22.69410862], [-45.63643761, -22.69411013], [-45.63647742, -22.69413163], [-45.6364862, -22.69413612], [-45.63654879, -22.69423091], [-45.6366452, -22.69487009], [-45.63672294, -22.69504864], [-45.63691015, -22.69532071], [-45.63739999, -22.69577133], [-45.63757087, -22.69587905], [-45.63784984, -22.69599267], [-45.63836904, -22.69605473], [-45.63880205, -22.69600332], [-45.63906411, -22.69582974], [-45.63920263, -22.69567833], [-45.63934078, -22.69544832], [-45.63955768, -22.6954041], [-45.63966588, -22.69543257], [-45.6398914, -22.69556808], [-45.64023358, -22.69587565], [-45.64060568, -22.69612529], [-45.64082325, -22.69622469], [-45.64110985, -22.69630303], [-45.64259714, -22.6964407], [-45.64333305, -22.69662383], [-45.64394227, -22.69681116], [-45.64232381, -22.69879086], [-45.64232402, -22.69879107], [-45.64233868, -22.69880594], [-45.64385532, -22.69962829], [-45.64442642, -22.69993794], [-45.64574634, -22.70065359], [-45.64708559, -22.7013797], [-45.64709882, -22.70138879], [-45.64865511, -22.69599542], [-45.64888746, -22.69607244], [-45.64920528, -22.69617676], [-45.64943648, -22.69623415], [-45.64948287, -22.69623778], [-45.64968433, -22.69627425], [-45.64980283, -22.69629571], [-45.64981974, -22.69629877], [-45.64988742, -22.69630753], [-45.65008966, -22.69629813], [-45.65020045, -22.69629298], [-45.65021169, -22.69628902], [-45.65022466, -22.69628876], [-45.650413, -22.69619705], [-45.65042237, -22.69619248], [-45.65258134, -22.69841383], [-45.6525924, -22.69842521], [-45.65276147, -22.69835988], [-45.65319086, -22.69836371], [-45.65319149, -22.6983608], [-45.65397196, -22.69476868], [-45.65398212, -22.6947219], [-45.65622294, -22.69512781], [-45.65623145, -22.69512935], [-45.65626328, -22.69513941], [-45.65987245, -22.69581774], [-45.66005579, -22.6958522], [-45.6600662, -22.69586358], [-45.66008217, -22.69588225], [-45.66013476, -22.69594375], [-45.66019071, -22.69644577], [-45.66025385, -22.69661805], [-45.66037835, -22.6967973], [-45.6605808, -22.69698978], [-45.66106977, -22.69723979], [-45.66180553, -22.69738761], [-45.66205434, -22.6975013], [-45.66238757, -22.69775828], [-45.66300285, -22.69835916], [-45.66340618, -22.69861584], [-45.66366157, -22.69867982], [-45.66397885, -22.69865683], [-45.66431911, -22.69855424], [-45.66511467, -22.69817786], [-45.66533939, -22.69814079], [-45.66543987, -22.69818373], [-45.66550246, -22.69824129], [-45.66556463, -22.69841266], [-45.66556567, -22.69862856], [-45.66536716, -22.69925449], [-45.66543808, -22.69942583], [-45.66559327, -22.69950468], [-45.66569362, -22.69951871], [-45.66591065, -22.69950336], [-45.66644459, -22.69938641], [-45.66661504, -22.69940016], [-45.66680819, -22.69947794], [-45.66694842, -22.69968603], [-45.66709001, -22.70017324], [-45.66728542, -22.7005175], [-45.66763529, -22.70078885], [-45.66821679, -22.70106786], [-45.66833685, -22.70111304], [-45.66850185, -22.70121879], [-45.66850662, -22.70122184], [-45.67217684, -22.70326625], [-45.67219809, -22.70327262], [-45.67227948, -22.70329698], [-45.67257447, -22.70341465], [-45.67282676, -22.7034842], [-45.67301331, -22.70353276], [-45.67322921, -22.70360781], [-45.67344314, -22.7037113], [-45.67347908, -22.70372869], [-45.6736296, -22.70380151], [-45.67385579, -22.70387547], [-45.67407211, -22.70390727], [-45.67420479, -22.70389641], [-45.67432746, -22.70386166], [-45.67445769, -22.70380652], [-45.67454759, -22.70373295], [-45.6746355, -22.70366101], [-45.67477957, -22.70350157], [-45.67485306, -22.70338254], [-45.67493965, -22.70320404], [-45.67501697, -22.70309827], [-45.67510887, -22.70306274], [-45.67510994, -22.70306265], [-45.67511005, -22.7030624], [-45.67521563, -22.70303836], [-45.675387, -22.70305096], [-45.67538826, -22.70306663], [-45.67544685, -22.70379762], [-45.67545082, -22.70380739], [-45.67545287, -22.7038104], [-45.67674303, -22.70570779], [-45.67675355, -22.70570318], [-45.67675374, -22.7057031], [-45.67675595, -22.70571458], [-45.67690782, -22.70579431], [-45.67712583, -22.70590878], [-45.67735488, -22.70598684], [-45.67756194, -22.70604734], [-45.67781097, -22.70611103], [-45.67784237, -22.70611905], [-45.67957991, -22.70449961], [-45.67959772, -22.70451636], [-45.68011535, -22.70498606], [-45.68024338, -22.70510246], [-45.68038627, -22.70517001], [-45.68049796, -22.7052228], [-45.68070028, -22.70525307], [-45.68105713, -22.70477315], [-45.68105953, -22.70476991], [-45.68148266, -22.70485284], [-45.68173957, -22.70489746], [-45.68173957, -22.70489876], [-45.68174108, -22.70657701], [-45.6817464, -22.70657649], [-45.68177086, -22.70658772], [-45.68214352, -22.70675884], [-45.68224984, -22.70685253], [-45.68234681, -22.70693798], [-45.68240439, -22.7069893], [-45.68255954, -22.70708587], [-45.68256107, -22.70708503], [-45.68256525, -22.70708273], [-45.68256584, -22.70708316], [-45.68337794, -22.70667721], [-45.68419269, -22.70336985], [-45.68419316, -22.70336314], [-45.68419693, -22.70332517], [-45.68420421, -22.70325176], [-45.68419458, -22.70320638], [-45.68410317, -22.70285969], [-45.68398702, -22.70258348], [-45.68383721, -22.70220976], [-45.68372288, -22.70187293], [-45.68365707, -22.70164591], [-45.68363073, -22.70143059], [-45.68359764, -22.70116015], [-45.68357987, -22.70101488], [-45.68351794, -22.70084279], [-45.68336417, -22.70067978], [-45.68313505, -22.70057978], [-45.68295631, -22.70054165], [-45.68258299, -22.70059652], [-45.68227665, -22.70062689], [-45.68202536, -22.70056386], [-45.68164542, -22.70042113], [-45.68131474, -22.70025583], [-45.68096286, -22.70004919], [-45.68046072, -22.69984026], [-45.68008622, -22.69958987], [-45.67973587, -22.6992713], [-45.67959514, -22.69912932], [-45.67936099, -22.69879049], [-45.67906682, -22.69836481], [-45.67886876, -22.69809939], [-45.67849441, -22.69765848], [-45.6783558, -22.69750353], [-45.67818334, -22.69734731], [-45.6779182, -22.69715653], [-45.6776874, -22.6969902], [-45.67762486, -22.69683455], [-45.67761604, -22.69681254], [-45.67574405, -22.69525754], [-45.67573888, -22.6952392], [-45.67573772, -22.69523509], [-45.67573663, -22.69523489], [-45.67571922, -22.69520156], [-45.67564234, -22.69505438], [-45.6754319, -22.69482582], [-45.67448359, -22.69401772], [-45.67389199, -22.69328761], [-45.6736111, -22.69278654], [-45.67357016, -22.6923775], [-45.67369952, -22.69195329], [-45.67414494, -22.69126127], [-45.67424481, -22.69098081], [-45.674244, -22.6908155], [-45.67411027, -22.69054326], [-45.67386463, -22.69028826], [-45.67386637, -22.69027683], [-45.67439382, -22.68682202], [-45.67439522, -22.68681286], [-45.67429798, -22.68679195], [-45.67409141, -22.68668699], [-45.67374324, -22.68634509], [-45.67329419, -22.68590412], [-45.67286166, -22.68559306], [-45.67274995, -22.68551768], [-45.67244615, -22.68535362], [-45.67193933, -22.6852017], [-45.67123479, -22.68507488], [-45.67092209, -22.68506019], [-45.67047273, -22.68505197], [-45.67024737, -22.68511326], [-45.66991117, -22.68523364], [-45.66959683, -22.68551288], [-45.66958797, -22.68552814], [-45.66957974, -22.68553569], [-45.66956596, -22.68554833], [-45.66792585, -22.68433905], [-45.66791388, -22.68433023], [-45.66792724, -22.68429188], [-45.66794967, -22.68409847], [-45.66793951, -22.68360981], [-45.66777197, -22.68258341], [-45.6676984, -22.68186557], [-45.66760415, -22.68150011], [-45.66751007, -22.68137042], [-45.66727756, -22.68119975], [-45.66702905, -22.68114298], [-45.66674289, -22.68115139], [-45.66624817, -22.68131154], [-45.66598558, -22.68136322], [-45.66552861, -22.6812784], [-45.66518008, -22.68127262], [-45.66506442, -22.68130923], [-45.66484028, -22.68146102], [-45.66447915, -22.68187173], [-45.66428606, -22.68194982], [-45.66426249, -22.68195935], [-45.66426253, -22.68195927], [-45.66426242, -22.68195931], [-45.66419394, -22.68191177], [-45.66418449, -22.68193524], [-45.66418445, -22.68193533], [-45.66418381, -22.68193501], [-45.66340828, -22.68254681], [-45.66340759, -22.68254719], [-45.66322665, -22.68214973], [-45.66310116, -22.68196417], [-45.66278818, -22.68125363], [-45.66249205, -22.68080951], [-45.66204044, -22.68021608], [-45.6615251, -22.67932751], [-45.66105816, -22.67878292], [-45.66061561, -22.67845503], [-45.6600874, -22.67812658], [-45.65973951, -22.67804943], [-45.65945398, -22.67818701], [-45.65931352, -22.67812977], [-45.65920496, -22.67802272], [-45.65904861, -22.67769274], [-45.65891376, -22.67697514], [-45.65878797, -22.67652309], [-45.65870928, -22.67635087], [-45.6585224, -22.6761511], [-45.65830568, -22.67602281], [-45.65800351, -22.67593733], [-45.65750797, -22.67592491], [-45.65685039, -22.67602156], [-45.65657203, -22.67602993], [-45.65636498, -22.67599418], [-45.65634916, -22.67599027], [-45.65630491, -22.67595706], [-45.65629794, -22.67596838], [-45.65629752, -22.67596782], [-45.65615861, -22.67569262], [-45.65607998, -22.67536969], [-45.65598427, -22.67475373], [-45.65590568, -22.67424799], [-45.65583799, -22.67381242], [-45.65572528, -22.67341613], [-45.65552986, -22.67312179], [-45.65525341, -22.67282775], [-45.65498005, -22.6726621], [-45.65456828, -22.67241131], [-45.65449534, -22.67226242], [-45.65450806, -22.67206109], [-45.65449714, -22.67200038], [-45.65433658, -22.67110764], [-45.65428262, -22.67080765], [-45.65415739, -22.67061051], [-45.65374151, -22.67042625], [-45.65326496, -22.67019111], [-45.65292412, -22.66993447], [-45.65256564, -22.66954646], [-45.65205661, -22.66911336], [-45.6518666, -22.66896706], [-45.65185052, -22.66895468], [-45.65171758, -22.66746768], [-45.65170152, -22.66728807], [-45.6517015, -22.66728359], [-45.65170094, -22.66716593], [-45.65168922, -22.6671257], [-45.65167149, -22.66706843], [-45.65163784, -22.66695972], [-45.6515893, -22.66680291], [-45.65152658, -22.66660031], [-45.65147242, -22.66644812], [-45.65144313, -22.6663703], [-45.65138777, -22.66624299], [-45.65130507, -22.66609813], [-45.65120859, -22.66592913], [-45.65117838, -22.66587622], [-45.65104403, -22.66572055], [-45.6508807, -22.66553695], [-45.65067072, -22.66534931], [-45.65062241, -22.6653064], [-45.65040855, -22.66516958], [-45.65013898, -22.66499711], [-45.64997595, -22.66489407], [-45.64976212, -22.66478015], [-45.64967819, -22.66473543], [-45.64966181, -22.6647267], [-45.64961034, -22.66469928], [-45.64956972, -22.66467367], [-45.64953505, -22.6646518], [-45.64950814, -22.66462967], [-45.64938365, -22.66452724], [-45.64934284, -22.66449366], [-45.64924889, -22.66441635], [-45.6491436, -22.66432972], [-45.64912156, -22.66430973], [-45.64909047, -22.6642699], [-45.64905006, -22.66421814], [-45.64903833, -22.66420311], [-45.64897664, -22.66412408], [-45.64890993, -22.66403861], [-45.64888247, -22.66400002], [-45.64886549, -22.66397615], [-45.64879581, -22.66377843], [-45.648728, -22.66358602], [-45.64861787, -22.66331175], [-45.64856797, -22.66323134], [-45.64847663, -22.66308413], [-45.64847609, -22.66308121], [-45.64846156, -22.66305983], [-45.64832329, -22.66283699], [-45.64823342, -22.66271898], [-45.64821395, -22.66269569], [-45.64815641, -22.66262688], [-45.64810421, -22.66256445], [-45.64798612, -22.66242322], [-45.6479076, -22.66233576], [-45.64782743, -22.66226033], [-45.64773108, -22.66216968], [-45.64762751, -22.66207224], [-45.64746004, -22.66191468], [-45.64726855, -22.66173452], [-45.6472655, -22.66173165], [-45.647275, -22.66172296], [-45.64727439, -22.6617224], [-45.64754476, -22.66119736], [-45.6475507, -22.66118581], [-45.64868054, -22.66087539], [-45.64852273, -22.6607086], [-45.64851312, -22.6607003], [-45.64820013, -22.6603921], [-45.64791909, -22.66008286], [-45.64786022, -22.66000779], [-45.64775785, -22.65987723], [-45.6475884, -22.65966112], [-45.64758383, -22.6596553], [-45.64746088, -22.65949848], [-45.64744247, -22.65948168], [-45.6474372, -22.65946829], [-45.64740269, -22.65942781], [-45.6473627, -22.65940295], [-45.6473425, -22.65939039], [-45.64729974, -22.65936382], [-45.64727938, -22.65935116], [-45.64723116, -22.65932119], [-45.64720303, -22.6593057], [-45.6471484, -22.65927562], [-45.64699245, -22.65922808], [-45.64692025, -22.65920606], [-45.6466987, -22.65913851], [-45.64650528, -22.65907954], [-45.64635538, -22.65903384], [-45.64609982, -22.65898483], [-45.64604391, -22.65897008], [-45.64600587, -22.65896005], [-45.64599104, -22.65895613], [-45.64591351, -22.6589208], [-45.64587797, -22.65890172], [-45.64584843, -22.65886369], [-45.64584751, -22.6588275], [-45.64584821, -22.6588254], [-45.64584623, -22.65882569], [-45.64584302, -22.65880267], [-45.64542943, -22.65824066], [-45.64542875, -22.65823973], [-45.64539645, -22.65819026], [-45.64539504, -22.65818934], [-45.64534823, -22.65811599], [-45.64531365, -22.65802393], [-45.64525393, -22.65786494], [-45.6451949, -22.65776382], [-45.64517742, -22.65773388], [-45.64516896, -22.65771938], [-45.64516165, -22.65771046], [-45.64502034, -22.65753799], [-45.64490111, -22.65739422], [-45.64484332, -22.6573241], [-45.64482701, -22.65730431], [-45.644687, -22.65699621], [-45.64465514, -22.65692286], [-45.64463623, -22.65687932], [-45.64460347, -22.65667293], [-45.64458949, -22.65658071], [-45.64460516, -22.65651271], [-45.64463876, -22.65636681], [-45.64466005, -22.65627945], [-45.64467604, -22.65626744], [-45.64469499, -22.65625321], [-45.64478115, -22.65621877], [-45.64489077, -22.65627896], [-45.64494571, -22.65633869], [-45.64495029, -22.65634367], [-45.64513301, -22.65654356], [-45.64527734, -22.6567052], [-45.64531441, -22.65674552], [-45.64535309, -22.65675732], [-45.64536352, -22.65675836], [-45.64550123, -22.65677215], [-45.64556867, -22.65677891], [-45.64562104, -22.65677869], [-45.64563707, -22.65677863], [-45.64572529, -22.6568077], [-45.64577871, -22.65682964], [-45.64585744, -22.65689588], [-45.64592091, -22.6569662], [-45.64592593, -22.65697176], [-45.64599649, -22.6570439], [-45.64610833, -22.65704505], [-45.64619808, -22.65701223], [-45.64627097, -22.65698559], [-45.64633938, -22.65691235], [-45.64635564, -22.6568193], [-45.64627633, -22.65673166], [-45.64615831, -22.65663295], [-45.64607351, -22.65654972], [-45.64603319, -22.65651015], [-45.64601258, -22.65647501], [-45.64601247, -22.65647481], [-45.64600653, -22.65646469], [-45.64600899, -22.65639722], [-45.64604169, -22.65633584], [-45.64612783, -22.65629729], [-45.64623876, -22.65630488], [-45.64638451, -22.65635981], [-45.64655403, -22.65641789], [-45.6466973, -22.65647629], [-45.64670009, -22.65647743], [-45.64662252, -22.6563031], [-45.64653639, -22.65611033], [-45.64622832, -22.65563691], [-45.64615006, -22.65551856], [-45.64615195, -22.65538826], [-45.64623691, -22.65532974], [-45.6463321, -22.65531307], [-45.64660045, -22.65533758], [-45.64696193, -22.65544083], [-45.64766482, -22.65564275], [-45.64802356, -22.65569481], [-45.64814135, -22.65568736], [-45.64814541, -22.65570189], [-45.64837248, -22.65651386], [-45.64838218, -22.65651797], [-45.6485246, -22.65657828], [-45.64861643, -22.65661717], [-45.64869125, -22.65664885], [-45.64871968, -22.65666089], [-45.64883987, -22.65679141], [-45.64886041, -22.65681391], [-45.64891007, -22.65686829], [-45.64906855, -22.65697], [-45.64913467, -22.65701052], [-45.64928592, -22.65706865], [-45.64946534, -22.65713442], [-45.6494944, -22.65714507], [-45.64956529, -22.65717106], [-45.64965054, -22.65723846], [-45.64967525, -22.657258], [-45.64972307, -22.65730979], [-45.64973883, -22.65730655], [-45.64976239, -22.65730172], [-45.64976999, -22.65730602], [-45.65020846, -22.65721012], [-45.6503862, -22.65712946], [-45.65088153, -22.65690889], [-45.65088877, -22.65690566], [-45.65146109, -22.65736662], [-45.6514718, -22.65736152], [-45.65170432, -22.65725055], [-45.65187553, -22.65716883], [-45.65212303, -22.6570886], [-45.65213001, -22.65709163], [-45.65285874, -22.65740787], [-45.65379284, -22.65778187], [-45.65380257, -22.6577955], [-45.6538039, -22.65779737], [-45.65391811, -22.6578001], [-45.65419972, -22.65778921], [-45.65443344, -22.65779906], [-45.65466578, -22.65780885], [-45.65488932, -22.65781827], [-45.65498378, -22.65783008], [-45.65531705, -22.65791078], [-45.65564831, -22.65799099], [-45.65580411, -22.65802872], [-45.65597678, -22.65807053], [-45.65604567, -22.65808721], [-45.65617761, -22.65809537], [-45.65647156, -22.65811063], [-45.656747, -22.65812493], [-45.65674809, -22.65812661], [-45.65700752, -22.65852907], [-45.65700817, -22.65853008], [-45.65749191, -22.65860481], [-45.65775471, -22.65864715], [-45.65782715, -22.65865882], [-45.65793517, -22.65867623], [-45.65802866, -22.65869129], [-45.65825622, -22.658729], [-45.6583403, -22.65874293], [-45.65835095, -22.65874618], [-45.65846718, -22.65878161], [-45.65860722, -22.65882429], [-45.6588694, -22.65890376], [-45.65896471, -22.65892195], [-45.65903725, -22.65893579], [-45.65924171, -22.65897481], [-45.65938606, -22.65900236], [-45.65951375, -22.65902087], [-45.65962403, -22.65903113], [-45.65970469, -22.65903863], [-45.65974993, -22.65904284], [-45.65985351, -22.65904922], [-45.66000339, -22.65904556], [-45.66006713, -22.659044], [-45.66012743, -22.65904252], [-45.66013444, -22.65904235], [-45.66018769, -22.65903874], [-45.66027568, -22.65900614], [-45.66031131, -22.65899294], [-45.66036625, -22.65897259], [-45.66047444, -22.6589325], [-45.66050953, -22.65888709], [-45.66059555, -22.65877571], [-45.66062028, -22.65871525], [-45.66062923, -22.65866476], [-45.66063801, -22.65861522], [-45.66065478, -22.65852063], [-45.66065626, -22.65848784], [-45.6606445, -22.65841222], [-45.660633, -22.65833828], [-45.66062269, -22.65827203], [-45.66060615, -22.65816567], [-45.66058767, -22.65804689], [-45.66058647, -22.65803216], [-45.66058527, -22.65803143], [-45.66056748, -22.65801046], [-45.65917934, -22.65637456], [-45.65943071, -22.65623468], [-45.65954599, -22.65611999], [-45.65961162, -22.65589601], [-45.65958044, -22.65577255], [-45.65954579, -22.65570116], [-45.65946092, -22.65552629], [-45.65936904, -22.65529893], [-45.65938727, -22.65516035], [-45.65948032, -22.65504939], [-45.65974743, -22.65499449], [-45.65993596, -22.65496169], [-45.66017496, -22.65490111], [-45.66041132, -22.65475312], [-45.66065414, -22.65455873], [-45.66088809, -22.65437144], [-45.66111015, -22.65419366], [-45.66124532, -22.65405551], [-45.66135373, -22.65399876], [-45.66152678, -22.65401091], [-45.66162916, -22.65412716], [-45.6617322, -22.65425896], [-45.66186668, -22.65437018], [-45.66195336, -22.65441926], [-45.66204613, -22.65447178], [-45.66237463, -22.6545862], [-45.6627808, -22.65468743], [-45.6631732, -22.65478523], [-45.66350706, -22.65490368], [-45.66382583, -22.65506723], [-45.66415121, -22.65526871], [-45.66448107, -22.65555274], [-45.66481519, -22.65590644], [-45.66521197, -22.65627775], [-45.66562501, -22.65661686], [-45.66594414, -22.65678449], [-45.66622447, -22.65692998], [-45.66657208, -22.65704748], [-45.66702033, -22.65710594], [-45.66740527, -22.65711388], [-45.66775446, -22.65707896], [-45.6684004, -22.65694852], [-45.66879732, -22.65684161], [-45.66916793, -22.65671731], [-45.66955501, -22.65650935], [-45.66984643, -22.65628571], [-45.66996675, -22.65616358], [-45.66998603, -22.65615814], [-45.66999819, -22.65615471], [-45.67001861, -22.65617538], [-45.6701549, -22.65632], [-45.67026831, -22.65646235], [-45.67031062, -22.65652509], [-45.67039394, -22.65670078], [-45.67042846, -22.65677357], [-45.67044101, -22.65682981], [-45.67045702, -22.65690948], [-45.67052151, -22.65693312], [-45.67056684, -22.65689915], [-45.67060853, -22.65685826], [-45.67062627, -22.6568375], [-45.67064135, -22.65682981], [-45.67064597, -22.65682745], [-45.67065031, -22.65682858], [-45.67071932, -22.65684657], [-45.67075555, -22.65687132], [-45.67075681, -22.65687136], [-45.67076775, -22.65687893], [-45.67076827, -22.65687928], [-45.6707977, -22.65689965], [-45.67083492, -22.65694974], [-45.67088749, -22.65701851], [-45.6709155, -22.65703653], [-45.67094881, -22.65705796], [-45.6709551, -22.65706201], [-45.67098021, -22.65707817], [-45.67100439, -22.65709373], [-45.67103195, -22.65710143], [-45.67107789, -22.65710834], [-45.67109076, -22.65711027], [-45.67115906, -22.65712055], [-45.67116082, -22.65712081], [-45.67116275, -22.65712054], [-45.67125055, -22.65710822], [-45.67139781, -22.6570848], [-45.67153956, -22.65710811], [-45.67163022, -22.65721528], [-45.6716823, -22.65733457], [-45.67186372, -22.65757282], [-45.67207043, -22.65771536], [-45.67214827, -22.65783454], [-45.67223962, -22.65808511], [-45.67231793, -22.65829989], [-45.67233197, -22.65853884], [-45.67232043, -22.65881375], [-45.67230813, -22.65893331], [-45.67232159, -22.65905276], [-45.67236098, -22.65920795], [-45.67245157, -22.65930317], [-45.67260626, -22.65933837], [-45.67277347, -22.65930182], [-45.67296626, -22.65922931], [-45.67309484, -22.65919292], [-45.67318503, -22.65920449], [-45.67319929, -22.65922012], [-45.67320046, -22.65922114], [-45.6742781, -22.66014822], [-45.67429951, -22.66014407], [-45.67478078, -22.66005085], [-45.67537553, -22.65986136], [-45.67579383, -22.65981623], [-45.67611913, -22.65985822], [-45.67676944, -22.66008583], [-45.67743595, -22.66024019], [-45.67776903, -22.66028214], [-45.67819429, -22.66026589], [-45.67851131, -22.66020764], [-45.67894466, -22.66005495], [-45.67924536, -22.659845], [-45.67962206, -22.65945587], [-45.67979203, -22.65938288], [-45.67991103, -22.65937179], [-45.67991221, -22.65937223], [-45.67991298, -22.65937161], [-45.67995792, -22.65936879], [-45.68005576, -22.65939881], [-45.68009448, -22.65941116], [-45.6801494, -22.65947186], [-45.68016335, -22.65948729], [-45.68016445, -22.65948782], [-45.68049631, -22.6598666], [-45.68054859, -22.6599131], [-45.68063963, -22.66001373], [-45.68073824, -22.66012273], [-45.68084876, -22.66021028], [-45.68103699, -22.66035389], [-45.68104568, -22.66035526], [-45.68119349, -22.66048673], [-45.68147714, -22.66062693], [-45.68149006, -22.66063332], [-45.68177547, -22.66001298], [-45.68203045, -22.65945877], [-45.68223783, -22.65902805], [-45.68232289, -22.65907762], [-45.68236959, -22.65910484], [-45.68249606, -22.65918562], [-45.68260081, -22.65925253], [-45.68269209, -22.65931839], [-45.68295568, -22.65950859], [-45.68312729, -22.65963242], [-45.68322323, -22.65970164], [-45.68323131, -22.65970698], [-45.68335847, -22.6597645], [-45.6834593, -22.65978611], [-45.68363574, -22.65982392], [-45.68365888, -22.65982888], [-45.68373657, -22.65984553], [-45.68383826, -22.65986732], [-45.68394035, -22.65986584], [-45.68395729, -22.65986559], [-45.68411269, -22.65985992], [-45.68433065, -22.65985035], [-45.68468578, -22.65977647], [-45.68470721, -22.65977201], [-45.68471291, -22.65980169], [-45.68485232, -22.66035082], [-45.68490876, -22.66057314], [-45.68491497, -22.6605976], [-45.68426224, -22.6615727], [-45.68426086, -22.66158033], [-45.68428021, -22.66159014], [-45.68440465, -22.66165323], [-45.6846197, -22.66197812], [-45.68497078, -22.66227979], [-45.68523531, -22.66242635], [-45.68524671, -22.66243267], [-45.68473816, -22.66317258], [-45.68476022, -22.66318779], [-45.68493012, -22.66330494], [-45.68536698, -22.6636045], [-45.68552151, -22.66371046], [-45.68577208, -22.66385355], [-45.68585439, -22.66389662], [-45.68588528, -22.66390856], [-45.68603856, -22.66395225], [-45.68624599, -22.66401137], [-45.68625587, -22.66400907], [-45.68679856, -22.66416772], [-45.68681308, -22.66417197], [-45.68723034, -22.66531101], [-45.68992077, -22.66595328], [-45.68993605, -22.66595693], [-45.69020595, -22.66995558], [-45.69257701, -22.67027176], [-45.69260055, -22.6702749], [-45.69379347, -22.67252424], [-45.69376966, -22.67253061], [-45.69267465, -22.67282366], [-45.69267305, -22.67283542], [-45.69263739, -22.67309868], [-45.69261272, -22.67331389], [-45.69261368, -22.6735051], [-45.69264033, -22.67368424], [-45.69270174, -22.6737977], [-45.69280954, -22.67404202], [-45.69283721, -22.67442431], [-45.69281302, -22.67473513], [-45.69283956, -22.67489037], [-45.69280158, -22.67502199], [-45.69275049, -22.67510586], [-45.69266065, -22.675166], [-45.69263526, -22.67523781], [-45.69262286, -22.67533347], [-45.69259747, -22.67540528], [-45.69237897, -22.67548988], [-45.69225044, -22.67553824], [-45.6922508, -22.67560994], [-45.69228979, -22.67568147], [-45.69240587, -22.67571682], [-45.69249607, -22.67572838], [-45.69268941, -22.6757634], [-45.69272822, -22.67579908], [-45.69265132, -22.67587112], [-45.69245846, -22.6759317], [-45.69218857, -22.67604042], [-45.69206305, -22.676177], [-45.69206094, -22.67626803], [-45.69230615, -22.67637452], [-45.69255148, -22.67650492], [-45.69269343, -22.67656406], [-45.69270184, -22.67656848], [-45.69391353, -22.67720574], [-45.69393297, -22.67721596], [-45.69364467, -22.67773364], [-45.69363943, -22.67774305], [-45.69450162, -22.67812201], [-45.69451238, -22.67813273], [-45.69475812, -22.67837761], [-45.69477597, -22.6783954], [-45.69587153, -22.67858185], [-45.69588628, -22.67857692], [-45.69851991, -22.67769794], [-45.69851675, -22.67768412], [-45.69800224, -22.67543409], [-45.69799696, -22.67541099], [-45.69799194, -22.67540845], [-45.6965922, -22.6721757], [-45.69774215, -22.67102214], [-45.69775012, -22.67101414], [-45.69714639, -22.66933255], [-45.69680251, -22.66837964], [-45.69680103, -22.66838019], [-45.69679845, -22.66837173], [-45.69664501, -22.66786823], [-45.69604582, -22.6677142], [-45.6960443, -22.66771228], [-45.69546804, -22.6669876], [-45.69545903, -22.66697627], [-45.6950182, -22.66681804], [-45.69389113, -22.66641347], [-45.69388993, -22.66641182], [-45.69332446, -22.66563253], [-45.693304, -22.66560434], [-45.69326559, -22.66528841], [-45.69317617, -22.66455287], [-45.69317596, -22.66455114], [-45.69228284, -22.6639142], [-45.6921816, -22.66387084], [-45.69213245, -22.6638498], [-45.68994562, -22.66291325], [-45.69011055, -22.66214358], [-45.69012069, -22.66214419], [-45.6905226, -22.66216817], [-45.69054384, -22.66215963], [-45.69063748, -22.66213953], [-45.6907994, -22.66210477], [-45.69088276, -22.66207108], [-45.69094878, -22.66204088], [-45.69105528, -22.66199217], [-45.69113662, -22.66194571], [-45.69117058, -22.66191259], [-45.69129133, -22.66179484], [-45.69143923, -22.66165061], [-45.69150407, -22.66159599], [-45.69156215, -22.66155558], [-45.69158534, -22.66153945], [-45.69161906, -22.66151599], [-45.69162974, -22.66150856], [-45.69178428, -22.66140105], [-45.69193551, -22.66129583], [-45.69199967, -22.66126748], [-45.69217843, -22.66120345], [-45.69224688, -22.66117894], [-45.69236071, -22.66113816], [-45.69252407, -22.66107965], [-45.69258033, -22.66106247], [-45.69267816, -22.66104288], [-45.69267816, -22.66104285], [-45.69244717, -22.65996903], [-45.69243474, -22.65996504], [-45.69187856, -22.65978637], [-45.6919066, -22.65925937], [-45.69189271, -22.65924575], [-45.69112223, -22.65849089], [-45.69105597, -22.65842597], [-45.69098479, -22.65834404], [-45.69067421, -22.65813039], [-45.69006905, -22.65778792], [-45.68975826, -22.6575309], [-45.6896171, -22.65733007], [-45.68946859, -22.65702176], [-45.6894523, -22.6568782], [-45.6894586, -22.65686198], [-45.68946688, -22.656865], [-45.68973788, -22.65698262], [-45.69008576, -22.65707773], [-45.69018442, -22.65710471], [-45.69041986, -22.65716907], [-45.69045707, -22.65717925], [-45.69061625, -22.65722276], [-45.69073827, -22.65725505], [-45.69105589, -22.65729959], [-45.69121197, -22.65732148], [-45.69140322, -22.6573483], [-45.69165907, -22.6573554], [-45.69192225, -22.65735273], [-45.6921277, -22.65727791], [-45.69241422, -22.65717356], [-45.6924422, -22.65715719], [-45.69244338, -22.65715839], [-45.69244573, -22.65715894], [-45.69261753, -22.6571994], [-45.69280587, -22.65724355], [-45.69284018, -22.65725178], [-45.69289932, -22.65726595], [-45.69296425, -22.65733422], [-45.6930476, -22.65742187], [-45.69307228, -22.65745236], [-45.69309281, -22.65750227], [-45.69417769, -22.65683573], [-45.6941838, -22.65684111], [-45.69434547, -22.65698329], [-45.69446702, -22.6570902], [-45.69456325, -22.65717483], [-45.69458781, -22.65719643], [-45.69436622, -22.65779691], [-45.69435809, -22.65781894], [-45.69595288, -22.65734944], [-45.69622889, -22.65728585], [-45.69623475, -22.6572845], [-45.69634688, -22.65723585], [-45.6967057, -22.65716441], [-45.69736769, -22.65707898], [-45.6976249, -22.65704579], [-45.69819687, -22.65693889], [-45.69820461, -22.65693745], [-45.70082329, -22.65821473], [-45.70082414, -22.65821373], [-45.70096217, -22.65805065], [-45.70107026, -22.65792894], [-45.70126864, -22.65773801], [-45.70134302, -22.65767265], [-45.701467, -22.65760346], [-45.70148838, -22.65759152], [-45.70169747, -22.65747484], [-45.7018124, -22.6574107], [-45.70204111, -22.65733394], [-45.70230404, -22.65726087], [-45.70255373, -22.65719317], [-45.70276326, -22.65716038], [-45.70299345, -22.65712436], [-45.70316911, -22.65709688], [-45.70347325, -22.65707521], [-45.70358869, -22.6570683], [-45.70361696, -22.65706661], [-45.70371953, -22.65619478], [-45.70389763, -22.65511302], [-45.7038951, -22.6551129], [-45.7038457, -22.65511056], [-45.70312499, -22.65497741], [-45.70253578, -22.65486855], [-45.70234799, -22.65483386], [-45.70198518, -22.65476683], [-45.70128515, -22.65463749], [-45.700516, -22.65449538], [-45.70051114, -22.65449905], [-45.70050885, -22.65450078], [-45.69990583, -22.65500212], [-45.69973598, -22.65514536], [-45.69971719, -22.65513877], [-45.6990439, -22.65490298], [-45.69898128, -22.65492173], [-45.69850739, -22.65506364], [-45.6984744, -22.65504406], [-45.6978059, -22.65464714], [-45.69778444, -22.65462308], [-45.69717974, -22.65394533], [-45.69711308, -22.65395801], [-45.69658329, -22.65405875], [-45.69640275, -22.65377456], [-45.696412, -22.65376924], [-45.69723088, -22.653299], [-45.69718499, -22.65327779], [-45.69718035, -22.65327773], [-45.69557953, -22.65253804], [-45.69402705, -22.65181964], [-45.6939863, -22.65180949], [-45.68445537, -22.64943611], [-45.68439459, -22.64951879], [-45.68425452, -22.64953385], [-45.6840996, -22.64949837], [-45.68391401, -22.64936276], [-45.68364835, -22.64897636], [-45.6832761, -22.64868346], [-45.68318156, -22.64846074], [-45.6831795, -22.64804431], [-45.68327137, -22.64772775], [-45.68353168, -22.64723161], [-45.68354637, -22.64705178], [-45.68345201, -22.64686519], [-45.68333578, -22.64677987], [-45.68301787, -22.64665204], [-45.6821279, -22.64656189], [-45.68057319, -22.64666244], [-45.67934309, -22.64667489], [-45.67812689, -22.64654363], [-45.67741545, -22.64653941], [-45.67597643, -22.64661685], [-45.67490143, -22.64670087], [-45.67466904, -22.64674431], [-45.67415119, -22.64672481], [-45.67351701, -22.64679974], [-45.67319196, -22.64680111], [-45.67246435, -22.64667498], [-45.67230704, -22.64667074], [-45.67229836, -22.64666981], [-45.67229334, -22.64668825], [-45.67223106, -22.64691726], [-45.67223097, -22.64691726], [-45.67219134, -22.64706192], [-45.66621731, -22.65131695], [-45.65944224, -22.64855896], [-45.6544942, -22.64911397], [-45.64768914, -22.64834299], [-45.6441111, -22.64640199], [-45.63287216, -22.64397017], [-45.63280187, -22.64395241], [-45.63267977, -22.64428069], [-45.63270582, -22.64482693], [-45.63270907, -22.64483282], [-45.63270283, -22.6448316], [-45.63271204, -22.64546784], [-45.63276938, -22.6456362], [-45.63282941, -22.64575901], [-45.63279202, -22.64578902], [-45.63270815, -22.6459288], [-45.63258688, -22.6461036], [-45.63242762, -22.64618266], [-45.63216562, -22.64638416], [-45.63191294, -22.64656818], [-45.63177313, -22.64679534], [-45.63161438, -22.64698771], [-45.63145551, -22.64715394], [-45.63132509, -22.64738106], [-45.63120366, -22.64752099], [-45.63100667, -22.64756534], [-45.63066864, -22.64756667], [-45.63036816, -22.64756785], [-45.63016179, -22.64761224], [-45.63001215, -22.64774357], [-45.62982578, -22.64805806], [-45.62967638, -22.64824168], [-45.62953585, -22.64831196], [-45.62938561, -22.64831255], [-45.62920684, -22.64823481], [-45.62907491, -22.64813074], [-45.62890526, -22.64799195], [-45.62876409, -22.64792278], [-45.6285763, -22.64792352], [-45.62845474, -22.6480373], [-45.62831469, -22.64821216], [-45.62820368, -22.64857865], [-45.62823323, -22.64888358], [-45.62823375, -22.64899689], [-45.62815875, -22.64902333], [-45.62806473, -22.64899755], [-45.62790463, -22.64889359], [-45.62775371, -22.64874601], [-45.62745241, -22.64856416], [-45.62716069, -22.64842585], [-45.62653125, -22.64835859], [-45.6260051, -22.64829092], [-45.62600534, -22.64829296], [-45.62599571, -22.64829096], [-45.62530969, -22.64817161], [-45.62488695, -22.64812968], [-45.62457713, -22.64813961], [-45.62456491, -22.64814122], [-45.63000456, -22.65573195], [-45.6296689, -22.65632648], [-45.62948283, -22.65674596], [-45.62948505, -22.65723448], [-45.62978949, -22.65803587], [-45.63043358, -22.65911508], [-45.63066155, -22.65963761], [-45.63062539, -22.65995181], [-45.63055227, -22.66040573], [-45.630143, -22.6613495], [-45.6300713, -22.66211748], [-45.62996393, -22.66330433], [-45.62970472, -22.66417772], [-45.62948135, -22.66466713], [-45.62891992, -22.66522766], [-45.62869591, -22.66557748], [-45.62843447, -22.66596236], [-45.62734838, -22.66690878], [-45.62667428, -22.66750463], [-45.62614804, -22.66754158], [-45.62547125, -22.66754423], [-45.62471768, -22.66719822], [-45.62438634, -22.66714726], [-45.62410109, -22.66725372], [-45.62363265, -22.66688198], [-45.62362489, -22.6668895], [-45.62334021, -22.66742349], [-45.62319176, -22.66782499], [-45.6229217, -22.66833154], [-45.622698, -22.66870719], [-45.62245493, -22.66895217], [-45.62231484, -22.66912703], [-45.62225005, -22.66933646], [-45.6222425, -22.66974612], [-45.62223437, -22.67002505], [-45.6221877, -22.67015683], [-45.62217873, -22.67018215], [-45.62207629, -22.67037429], [-45.62192673, -22.67053176], [-45.62189618, -22.67055662], [-45.62185325, -22.67059156], [-45.62171152, -22.6707069], [-45.62123401, -22.67103124], [-45.62089694, -22.67125915], [-45.62042827, -22.67146143], [-45.61991272, -22.67168131], [-45.61974398, -22.67175169], [-45.61957494, -22.67175235], [-45.61941508, -22.67170939], [-45.61931143, -22.67163135], [-45.61894375, -22.671319], [-45.61859525, -22.67109374], [-45.61844487, -22.67106818], [-45.61823818, -22.67105154], [-45.61804069, -22.6709913], [-45.61793695, -22.67089582], [-45.61779495, -22.67064362], [-45.61765314, -22.67043499], [-45.61744575, -22.67026147], [-45.61724207, -22.67009429], [-45.61709698, -22.6699752], [-45.61668236, -22.66966303], [-45.6163532, -22.66955971], [-45.61610875, -22.66949964], [-45.61591335, -22.66930741], [-45.61584455, -22.66922176], [-45.61557092, -22.66893519], [-45.61548593, -22.66883093], [-45.6154574, -22.6687526], [-45.61538999, -22.66837809], [-45.61532309, -22.66811687], [-45.61524687, -22.66787313], [-45.6150866, -22.66773429], [-45.61474747, -22.66750027], [-45.61453046, -22.6672745], [-45.61433223, -22.66704865], [-45.61395465, -22.66661431], [-45.61337993, -22.66619816], [-45.61286172, -22.66581666], [-45.61245627, -22.66545215], [-45.61215479, -22.66523541], [-45.61198548, -22.66517504], [-45.61180705, -22.66517573], [-45.61134732, -22.66527335], [-45.61080302, -22.66536259], [-45.61021173, -22.66544328], [-45.61010601, -22.66542734], [-45.61004258, -22.66541778], [-45.60976997, -22.66535781], [-45.60960982, -22.66524511], [-45.60935453, -22.66485388], [-45.60912038, -22.66456087], [-45.60911844, -22.66455844], [-45.60911617, -22.66455716], [-45.60877952, -22.66436799], [-45.60838429, -22.66418646], [-45.60819932, -22.6641015], [-45.6081867, -22.66410005], [-45.60798922, -22.66403979], [-45.60768867, -22.66403221], [-45.60749134, -22.66400682], [-45.60715319, -22.66399067], [-45.60677759, -22.66400081], [-45.60632663, -22.66395893], [-45.60606361, -22.6639425], [-45.60576518, -22.66389173], [-45.60575954, -22.66388836], [-45.60575794, -22.66388804], [-45.60574757, -22.66388111], [-45.60574395, -22.66388521], [-45.60573802, -22.66388401], [-45.60572541, -22.66387337], [-45.60567275, -22.66383095], [-45.60550089, -22.6635333], [-45.6053752, -22.66329026], [-45.60508463, -22.66284695], [-45.60491308, -22.66261627], [-45.60471507, -22.66233698], [-45.60448439, -22.66208825], [-45.60412219, -22.66176087], [-45.60398354, -22.66155441], [-45.60376554, -22.66120214], [-45.6036988, -22.66094062], [-45.60369155, -22.66078236], [-45.60370959, -22.66057826], [-45.60213616, -22.66252693], [-45.60214081, -22.66254461], [-45.59969627, -22.67861587], [-45.59991157, -22.67857507], [-45.60051979, -22.67820423], [-45.60090176, -22.67786028], [-45.60139684, -22.67760338], [-45.60178716, -22.67745785], [-45.60220069, -22.67736026], [-45.60248804, -22.67733251], [-45.60324125, -22.67734034], [-45.60398894, -22.67740155], [-45.60500138, -22.67752577], [-45.60533517, -22.67759921], [-45.60633081, -22.67782486], [-45.60668655, -22.67783769], [-45.60667311, -22.67784847], [-45.60213396, -22.681487], [-45.60214582, -22.6814975], [-45.60285787, -22.68212827], [-45.60440254, -22.68279423], [-45.61155195, -22.68587627], [-45.616218, -22.68622126], [-45.62060802, -22.68363723], [-45.62182904, -22.68445723], [-45.61860902, -22.68857326], [-45.61391299, -22.68998628], [-45.61267642, -22.69211592], [-45.6126788, -22.69213273], [-45.61269071, -22.69221665], [-45.61270086, -22.69228815], [-45.61273954, -22.69242753], [-45.6127709, -22.69254055], [-45.61281326, -22.69261681], [-45.61286239, -22.69270241], [-45.61293341, -22.69279728], [-45.61324115, -22.69320318], [-45.61329003, -22.69327706], [-45.613341, -22.69335409], [-45.61351707, -22.69363572], [-45.61355365, -22.69368283], [-45.61393298, -22.6945614], [-45.61395691, -22.69464004], [-45.61400752, -22.69483712], [-45.61402533, -22.69490649], [-45.61409363, -22.69514486], [-45.61410077, -22.69523686], [-45.61410494, -22.6953783], [-45.61410671, -22.69543804], [-45.6141109, -22.69562519], [-45.61412456, -22.69604937], [-45.61416253, -22.69612636], [-45.6141975, -22.69619726], [-45.61421101, -22.69621125], [-45.61436623, -22.69633855], [-45.61442182, -22.69636485], [-45.6148311, -22.69654576], [-45.61495086, -22.69663733], [-45.61511846, -22.69675919], [-45.61514847, -22.69678681], [-45.61515157, -22.69678785], [-45.61546189, -22.69701593], [-45.61569331, -22.69726771], [-45.6158427, -22.69742564], [-45.61595373, -22.69761452], [-45.61601636, -22.69771098], [-45.61618734, -22.69797859], [-45.61620785, -22.69805338], [-45.61622464, -22.69810386], [-45.61634416, -22.69846306], [-45.61640037, -22.69862817], [-45.61642427, -22.69870381], [-45.61644811, -22.69877928], [-45.61646021, -22.69885254], [-45.61648621, -22.69902868], [-45.61648919, -22.69912752], [-45.61649214, -22.69922518], [-45.61649397, -22.69963538], [-45.6165152, -22.69987237], [-45.61652427, -22.70001895], [-45.61653808, -22.70010156], [-45.61653975, -22.70010377], [-45.61660834, -22.70039919], [-45.61665245, -22.70049399], [-45.61666774, -22.70052686], [-45.61673736, -22.700681], [-45.61684057, -22.70083033], [-45.61702666, -22.7010932], [-45.6171498, -22.70118787], [-45.61733169, -22.70133544], [-45.61735783, -22.70135307], [-45.61743998, -22.70142071], [-45.61777065, -22.70168614], [-45.61795803, -22.7018601], [-45.61816062, -22.70205272], [-45.61828055, -22.70218015], [-45.61840732, -22.70233407], [-45.61861217, -22.70257812], [-45.61862955, -22.70260474], [-45.61873354, -22.70273054], [-45.61881303, -22.70283785], [-45.6190128, -22.70315057], [-45.61905628, -22.70325841]]]]}}]}