{"type": "FeatureCollection", "features": [{"type": "Feature", "properties": {"name": "Monumento Natural Estadual da Pedra Grande"}, "geometry": {"type": "MultiPolygon", "coordinates": [[[[-46.48776093, -23.23772379], [-46.48889799, -23.23766523], [-46.48912976, -23.2375794], [-46.48973176, -23.2370719], [-46.48965354, -23.23701291], [-46.48979521, -23.23696377], [-46.49086763, -23.23690581], [-46.49171803, -23.23664685], [-46.49176669, -23.23637159], [-46.49212705, -23.2362248], [-46.49252859, -23.23629267], [-46.49291693, -23.23633677], [-46.49343255, -23.23620045], [-46.49417232, -23.23645626], [-46.49455266, -23.23694249], [-46.49517649, -23.23723524], [-46.49565413, -23.23717095], [-46.4959993, -23.23682119], [-46.49633274, -23.23657907], [-46.49695204, -23.23530675], [-46.49760852, -23.2350496], [-46.49776151, -23.23485699], [-46.49796661, -23.23469972], [-46.49846809, -23.23445599], [-46.50047122, -23.23438908], [-46.50025715, -23.23258708], [-46.50082549, -23.23138692], [-46.50247915, -23.23128748], [-46.50299265, -23.23211889], [-46.50445443, -23.23220048], [-46.50527055, -23.23234798], [-46.50687573, -23.2325357], [-46.50705402, -23.23229504], [-46.50858329, -23.2314799], [-46.51009959, -23.2318118], [-46.50874281, -23.23301957], [-46.50973195, -23.23360743], [-46.50977208, -23.23372652], [-46.51012231, -23.23383068], [-46.51020283, -23.23409275], [-46.51316239, -23.23629842], [-46.51358198, -23.23682006], [-46.51400009, -23.23721029], [-46.514729, -23.23764531], [-46.51497826, -23.23796549], [-46.51536931, -23.23824845], [-46.51597165, -23.23892363], [-46.51680949, -23.2387005], [-46.51749517, -23.23874166], [-46.51845029, -23.23860101], [-46.52006239, -23.2382509], [-46.52200566, -23.23860245], [-46.52372181, -23.23944602], [-46.52508881, -23.24028101], [-46.5252001, -23.24097287], [-46.52421803, -23.24101824], [-46.5243945, -23.24175726], [-46.52471972, -23.24193331], [-46.52694923, -23.24243733], [-46.52773045, -23.24291957], [-46.52836063, -23.24262671], [-46.52902538, -23.24309813], [-46.52907586, -23.24185513], [-46.53002703, -23.24136798], [-46.53078743, -23.24115747], [-46.53122, -23.24054394], [-46.52999639, -23.23981514], [-46.5298218, -23.23924337], [-46.52987895, -23.23858572], [-46.53103638, -23.23804877], [-46.53177483, -23.23704995], [-46.53067519, -23.23582911], [-46.53077792, -23.23576837], [-46.53109537, -23.23526349], [-46.53122368, -23.23517861], [-46.53157093, -23.23501991], [-46.53191968, -23.23499262], [-46.53267949, -23.23473432], [-46.53265227, -23.23461511], [-46.53302578, -23.234492], [-46.53294672, -23.23436135], [-46.53251904, -23.23418241], [-46.53252053, -23.23418194], [-46.532703, -23.2340988], [-46.53210129, -23.23344701], [-46.5322246, -23.23332376], [-46.53238305, -23.23306458], [-46.53245384, -23.23295477], [-46.5316686, -23.23257983], [-46.53082977, -23.23248287], [-46.52904325, -23.23272009], [-46.52794947, -23.232941], [-46.52551578, -23.23356679], [-46.52321593, -23.23505144], [-46.52337372, -23.23346332], [-46.52355216, -23.23278299], [-46.52390564, -23.23203405], [-46.52403617, -23.2316887], [-46.52415617, -23.23041635], [-46.52418394, -23.23012935], [-46.52435528, -23.22973582], [-46.52456897, -23.22942789], [-46.52482598, -23.22929159], [-46.52490729, -23.22916655], [-46.52517496, -23.22905882], [-46.52561528, -23.22867223], [-46.52579433, -23.22895723], [-46.52728364, -23.22986987], [-46.52779111, -23.22993184], [-46.52829695, -23.22985046], [-46.52854676, -23.22999139], [-46.52882434, -23.22984533], [-46.52951729, -23.22984814], [-46.52954363, -23.2294369], [-46.52969493, -23.22819292], [-46.53063051, -23.22861391], [-46.53106417, -23.22855234], [-46.53142905, -23.22880684], [-46.53203262, -23.22822749], [-46.53256076, -23.22828925], [-46.53318362, -23.22849344], [-46.53327876, -23.22867411], [-46.53331207, -23.2288745], [-46.53325167, -23.22901846], [-46.5332544, -23.22925737], [-46.53329685, -23.22935254], [-46.53372301, -23.22953954], [-46.53423216, -23.22988691], [-46.53423057, -23.22988456], [-46.53429227, -23.22992774], [-46.53478469, -23.23003046], [-46.53503016, -23.23001612], [-46.53546705, -23.22978485], [-46.53572434, -23.22967481], [-46.53603485, -23.22969567], [-46.53591619, -23.22949373], [-46.53571942, -23.22924476], [-46.53695035, -23.22836058], [-46.53742519, -23.22805726], [-46.53755199, -23.22784097], [-46.53819432, -23.22748821], [-46.53837583, -23.22753422], [-46.53893219, -23.22757657], [-46.53954908, -23.2272599], [-46.5397009, -23.22697168], [-46.53995599, -23.2266705], [-46.54122811, -23.22600093], [-46.54130402, -23.22585682], [-46.54125149, -23.22578565], [-46.54086358, -23.22577751], [-46.54077255, -23.22573061], [-46.54083609, -23.22563441], [-46.54121865, -23.22517667], [-46.54129236, -23.22484142], [-46.54123366, -23.22423269], [-46.54125444, -23.22379044], [-46.54110774, -23.22339762], [-46.54121831, -23.22289476], [-46.54124762, -23.22207011], [-46.5415074, -23.22105205], [-46.54172205, -23.2206079], [-46.54196503, -23.22037852], [-46.54233972, -23.2203629], [-46.54265116, -23.22046737], [-46.5429384, -23.22071544], [-46.54309721, -23.22103646], [-46.5436721, -23.22156843], [-46.54375309, -23.22186632], [-46.54371761, -23.2221534], [-46.54329807, -23.22276683], [-46.54298166, -23.22335535], [-46.54281871, -23.22379899], [-46.54296279, -23.22508787], [-46.54311928, -23.22520581], [-46.5436271, -23.22440036], [-46.54394653, -23.22407465], [-46.54407483, -23.22398976], [-46.54427999, -23.22384438], [-46.54461372, -23.223638], [-46.54481723, -23.22334926], [-46.54509856, -23.22308366], [-46.54541923, -23.22286546], [-46.54601215, -23.22271626], [-46.54678933, -23.22285198], [-46.54729232, -23.22275145], [-46.54762494, -23.2224495], [-46.54777481, -23.22199403], [-46.54805655, -23.22176426], [-46.5480296, -23.22166895], [-46.54805242, -23.22140589], [-46.54838076, -23.22073361], [-46.54863141, -23.22005015], [-46.54867816, -23.21961959], [-46.54841552, -23.21926377], [-46.54815358, -23.21896767], [-46.54788063, -23.21883893], [-46.54714184, -23.218667], [-46.54695951, -23.21854932], [-46.54641048, -23.21914014], [-46.54608542, -23.21897607], [-46.54563208, -23.2188969], [-46.54493399, -23.21889181], [-46.54467425, -23.21878684], [-46.54428265, -23.21845617], [-46.54404025, -23.2176103], [-46.54529989, -23.21698861], [-46.545902, -23.21651675], [-46.54679023, -23.21619739], [-46.54746136, -23.21610716], [-46.54808024, -23.21596965], [-46.54853081, -23.2158099], [-46.54890591, -23.21583009], [-46.54916495, -23.21587533], [-46.54965927, -23.21614524], [-46.55004825, -23.21624894], [-46.55026783, -23.21623482], [-46.55051037, -23.21596959], [-46.55052081, -23.21575444], [-46.55055338, -23.2152165], [-46.55064096, -23.21496474], [-46.55106131, -23.21554601], [-46.55122068, -23.2159148], [-46.55127707, -23.21632045], [-46.55116378, -23.2165844], [-46.55074085, -23.2168992], [-46.55058824, -23.21711575], [-46.55059003, -23.21727105], [-46.55070746, -23.21736547], [-46.55210813, -23.21664676], [-46.55340566, -23.21595296], [-46.55387987, -23.21560181], [-46.55420008, -23.21534775], [-46.55420623, -23.21476228], [-46.55430756, -23.21458207], [-46.55361357, -23.21381236], [-46.55358468, -23.21354981], [-46.55299396, -23.21276713], [-46.55258447, -23.21200656], [-46.5525927, -23.21160027], [-46.55279631, -23.21132348], [-46.55293447, -23.21097565], [-46.55292619, -23.2102589], [-46.55327639, -23.21036296], [-46.5537326, -23.21069298], [-46.55407029, -23.21083301], [-46.55499386, -23.2113376], [-46.55563005, -23.2115822], [-46.55601765, -23.21156642], [-46.55623556, -23.21140895], [-46.55655715, -23.21127435], [-46.55687721, -23.21100834], [-46.5568743, -23.21075748], [-46.55672784, -23.21038857], [-46.55666018, -23.2101264], [-46.55665505, -23.20968441], [-46.55675554, -23.20943252], [-46.55708783, -23.20910666], [-46.55729032, -23.20873429], [-46.55595043, -23.20799488], [-46.55580591, -23.20779321], [-46.5558037, -23.20760208], [-46.55598118, -23.20730164], [-46.55631333, -23.20696384], [-46.55645272, -23.20672351], [-46.55644802, -23.20631736], [-46.55625684, -23.20543516], [-46.55515604, -23.20413186], [-46.55477518, -23.20360995], [-46.55433917, -23.2027899], [-46.55427137, -23.20251579], [-46.55431892, -23.2021569], [-46.55362382, -23.20240271], [-46.55343452, -23.20279884], [-46.55285476, -23.20295988], [-46.55223995, -23.20344383], [-46.551925, -23.20415183], [-46.55165802, -23.20453677], [-46.55150652, -23.20484889], [-46.55105433, -23.2048653], [-46.55062729, -23.20482172], [-46.54996819, -23.20482822], [-46.54971192, -23.2050219], [-46.54942911, -23.2051561], [-46.54906724, -23.20515967], [-46.5486398, -23.20508025], [-46.54843274, -23.20505839], [-46.54825263, -23.20513185], [-46.54822555, -23.20502459], [-46.5485056, -23.20465147], [-46.54865546, -23.204196], [-46.54868583, -23.20346692], [-46.5485537, -23.20321733], [-46.54820023, -23.20282655], [-46.54788566, -23.20244734], [-46.54772562, -23.20201881], [-46.54761962, -23.20179286], [-46.54734685, -23.20167607], [-46.54675141, -23.2015983], [-46.54687941, -23.20148951], [-46.54763171, -23.20059802], [-46.54814232, -23.20004342], [-46.54899236, -23.19978416], [-46.54870817, -23.19867587], [-46.54869112, -23.19831762], [-46.5487615, -23.19769568], [-46.54897335, -23.1970126], [-46.5492384, -23.19646042], [-46.55042849, -23.19431015], [-46.55043962, -23.19415472], [-46.55023394, -23.19312929], [-46.54993642, -23.19198529], [-46.54979083, -23.19168804], [-46.54956785, -23.19140351], [-46.54925041, -23.19077343], [-46.54918264, -23.19049931], [-46.54916559, -23.19014106], [-46.54927693, -23.18970987], [-46.54923459, -23.18939965], [-46.54911567, -23.18917383], [-46.54898163, -23.18875699], [-46.54890314, -23.18867414], [-46.54857761, -23.18846229], [-46.54824383, -23.18809521], [-46.54837892, -23.18785494], [-46.54839211, -23.18750436], [-46.54831861, -23.18710684], [-46.54796009, -23.1873971], [-46.54720511, -23.18767533], [-46.54648221, -23.18774615], [-46.5454565, -23.18845713], [-46.54500908, -23.18850931], [-46.54443739, -23.18824412], [-46.54415045, -23.18822209], [-46.54373587, -23.18612653], [-46.54234257, -23.17912476], [-46.54171646, -23.17590991], [-46.54081785, -23.17146477], [-46.54073724, -23.17164715], [-46.54039898, -23.17189897], [-46.53992118, -23.17207263], [-46.53995725, -23.17075505], [-46.53954728, -23.17083791], [-46.53942381, -23.1708893], [-46.53907742, -23.17110774], [-46.53828008, -23.17121589], [-46.53824222, -23.17129511], [-46.53814111, -23.17126742], [-46.53778556, -23.17136408], [-46.53751472, -23.17140974], [-46.53725049, -23.17135497], [-46.53707912, -23.17128496], [-46.5369372, -23.17107846], [-46.53681178, -23.17095782], [-46.5362669, -23.1707696], [-46.53605074, -23.17085056], [-46.53589561, -23.1708449], [-46.53570874, -23.17077504], [-46.53555948, -23.17060446], [-46.53548848, -23.17049762], [-46.53524718, -23.17041395], [-46.53485173, -23.17041064], [-46.53455486, -23.17021282], [-46.53430539, -23.17009339], [-46.53407919, -23.16997373], [-46.53344407, -23.1693491], [-46.52951656, -23.16555193], [-46.52957234, -23.16507832], [-46.52967712, -23.16461911], [-46.52971188, -23.16446738], [-46.52974011, -23.16420707], [-46.52972892, -23.16322273], [-46.5296772, -23.1627889], [-46.52961131, -23.16250056], [-46.52939545, -23.16206822], [-46.52938165, -23.16205579], [-46.52922765, -23.16191708], [-46.52920504, -23.16189671], [-46.52902473, -23.16185502], [-46.528822, -23.16189312], [-46.52871362, -23.1619664], [-46.52862745, -23.16203955], [-46.52855806, -23.1621197], [-46.52849727, -23.16226472], [-46.5284678, -23.16242496], [-46.52847113, -23.16272117], [-46.52872578, -23.16346992], [-46.52877294, -23.16444768], [-46.52881968, -23.16469455], [-46.52879266, -23.16489074], [-46.52847155, -23.16533662], [-46.52822618, -23.16549513], [-46.52801088, -23.16571935], [-46.52778215, -23.16604744], [-46.52728824, -23.16658608], [-46.52724682, -23.16682136], [-46.52711947, -23.16713592], [-46.5270466, -23.16767034], [-46.52697484, -23.16781464], [-46.52669978, -23.16784255], [-46.52602892, -23.16760158], [-46.52554795, -23.16747626], [-46.52498597, -23.16719452], [-46.52457816, -23.16705484], [-46.52410631, -23.16700945], [-46.52383691, -23.16698345], [-46.52319085, -23.16702856], [-46.52292968, -23.16708346], [-46.52262459, -23.16706019], [-46.52236302, -23.16698419], [-46.5220847, -23.16681705], [-46.52188711, -23.16662049], [-46.52101075, -23.16521715], [-46.52012365, -23.16433623], [-46.52006854, -23.16429347], [-46.5198967, -23.16430232], [-46.51966473, -23.16451408], [-46.51935906, -23.16520428], [-46.5192561, -23.16578413], [-46.51925949, -23.16608123], [-46.51958128, -23.16682326], [-46.52005033, -23.16761167], [-46.52019738, -23.1678315], [-46.52058257, -23.16821695], [-46.52096143, -23.16845987], [-46.52118119, -23.16854441], [-46.52151038, -23.16862786], [-46.52183986, -23.16865367], [-46.52216715, -23.16858548], [-46.52249485, -23.16844507], [-46.52278205, -23.16827522], [-46.52285331, -23.16827448], [-46.52294778, -23.16833865], [-46.52305044, -23.16843253], [-46.52310677, -23.16857634], [-46.52315401, -23.16860487], [-46.52320229, -23.16872], [-46.52333692, -23.16888484], [-46.5233904, -23.16894377], [-46.52348722, -23.1690505], [-46.52357532, -23.16915793], [-46.52384559, -23.16955995], [-46.52394377, -23.16985968], [-46.52408073, -23.17047162], [-46.52407051, -23.17078416], [-46.52398236, -23.17137117], [-46.52402929, -23.17163164], [-46.52413334, -23.17185197], [-46.52416359, -23.17263376], [-46.52404524, -23.17282195], [-46.52398233, -23.17292181], [-46.52374158, -23.17313815], [-46.52355375, -23.17321221], [-46.52294393, -23.17325789], [-46.52184397, -23.17316829], [-46.52149178, -23.17320777], [-46.52097178, -23.17352433], [-46.5206764, -23.17375123], [-46.52052321, -23.17402097], [-46.52037666, -23.17418863], [-46.52012835, -23.17442201], [-46.51976366, -23.17467212], [-46.51959492, -23.17502781], [-46.51944289, -23.17540584], [-46.51941569, -23.17576822], [-46.51944124, -23.17664316], [-46.51941155, -23.17678068], [-46.51922185, -23.17728912], [-46.51915263, -23.17738376], [-46.5188579, -23.17766929], [-46.5185401, -23.1779036], [-46.51833109, -23.17815933], [-46.51822818, -23.17873814], [-46.51804193, -23.17885658], [-46.51793267, -23.17886485], [-46.51739809, -23.17868125], [-46.51706933, -23.17862655], [-46.51684986, -23.17864318], [-46.51666329, -23.17873974], [-46.51652599, -23.17903744], [-46.51652938, -23.1793408], [-46.51663397, -23.17960068], [-46.51692786, -23.18003233], [-46.51738767, -23.1805192], [-46.51755494, -23.18080753], [-46.51763283, -23.18120595], [-46.51764614, -23.18126264], [-46.51780481, -23.18139115], [-46.51805611, -23.18149714], [-46.51833791, -23.18153771], [-46.51862, -23.18152059], [-46.51869778, -23.18148366], [-46.5189983, -23.18119278], [-46.51918457, -23.18091459], [-46.51927749, -23.18083424], [-46.51941004, -23.18080407], [-46.51960692, -23.18094669], [-46.51977766, -23.18118519], [-46.52045888, -23.18215393], [-46.52077496, -23.18246974], [-46.52113833, -23.18272638], [-46.52138932, -23.18281058], [-46.52161618, -23.18282279], [-46.52188976, -23.18274786], [-46.52227844, -23.18256352], [-46.52245902, -23.18255468], [-46.52263997, -23.18266132], [-46.52293175, -23.18290398], [-46.52316037, -23.18298946], [-46.52328558, -23.18299546], [-46.5234575, -23.18298656], [-46.52357387, -23.18292045], [-46.52360428, -23.18284693], [-46.52360153, -23.18283486], [-46.52443168, -23.18323707], [-46.52484962, -23.18362489], [-46.5251001, -23.18383274], [-46.52530052, -23.18418444], [-46.52542106, -23.18478541], [-46.52556824, -23.18591181], [-46.52571459, -23.18605376], [-46.52572807, -23.18633081], [-46.52575027, -23.1864644], [-46.52588715, -23.18668291], [-46.52635491, -23.18781575], [-46.52686252, -23.1888144], [-46.52699952, -23.18904246], [-46.52704293, -23.18922364], [-46.52714902, -23.18946156], [-46.5273475, -23.18964123], [-46.52811511, -23.18986317], [-46.52875062, -23.1902871], [-46.52917632, -23.19044544], [-46.52956176, -23.19069976], [-46.52971019, -23.19102328], [-46.52987821, -23.19125104], [-46.53000297, -23.19155811], [-46.52969081, -23.19159003], [-46.52891654, -23.19169313], [-46.52826252, -23.19176321], [-46.52788455, -23.19186246], [-46.52712949, -23.19214059], [-46.52669856, -23.19212884], [-46.52595911, -23.19226345], [-46.52571969, -23.19242507], [-46.5253446, -23.19277916], [-46.52491529, -23.19291076], [-46.52434796, -23.19302777], [-46.523919, -23.19319122], [-46.52367832, -23.19324134], [-46.52352613, -23.19349769], [-46.52273733, -23.19383985], [-46.52249935, -23.19412889], [-46.52214977, -23.1952155], [-46.52222338, -23.19562896], [-46.52252676, -23.19654995], [-46.52271919, -23.19680296], [-46.52286389, -23.19740689], [-46.52280164, -23.19799689], [-46.52273741, -23.19841169], [-46.52222643, -23.19894231], [-46.52215967, -23.19913412], [-46.52221335, -23.19930883], [-46.52263177, -23.19973488], [-46.52270376, -23.20000499], [-46.52269158, -23.20045114], [-46.52239892, -23.20199916], [-46.52178454, -23.20253078], [-46.52120462, -23.20306207], [-46.52113857, -23.20331759], [-46.52112405, -23.20355667], [-46.52074188, -23.20328956], [-46.52011902, -23.20307257], [-46.51970258, -23.20282172], [-46.51887024, -23.20236779], [-46.51836405, -23.20179921], [-46.51778984, -23.20131093], [-46.51759615, -23.20094641], [-46.51743927, -23.20078863], [-46.51741899, -23.20051802], [-46.51719012, -23.20009012], [-46.51668085, -23.19844755], [-46.51626733, -23.19852546], [-46.51531671, -23.19868246], [-46.51460636, -23.19887075], [-46.51401769, -23.19888986], [-46.51403755, -23.1989391], [-46.51242834, -23.19930548], [-46.51269994, -23.20020909], [-46.51290211, -23.20075089], [-46.51373364, -23.20204181], [-46.51436878, -23.20330442], [-46.51444264, -23.20405889], [-46.51380306, -23.20530356], [-46.51296332, -23.20618766], [-46.51143327, -23.2067159], [-46.51029568, -23.20727057], [-46.50990932, -23.20778781], [-46.50948994, -23.20827515], [-46.50884283, -23.20885531], [-46.5085281, -23.20856758], [-46.50727246, -23.20806987], [-46.50566911, -23.20771141], [-46.50463938, -23.20768728], [-46.50370096, -23.20796812], [-46.50338461, -23.2083439], [-46.50295367, -23.20864432], [-46.50248051, -23.20886867], [-46.5021812, -23.20891932], [-46.50183147, -23.20908514], [-46.50135831, -23.20930949], [-46.50110078, -23.20939797], [-46.50069807, -23.20944961], [-46.50046101, -23.20951877], [-46.50018237, -23.20956922], [-46.49978094, -23.20973553], [-46.49943185, -23.20995869], [-46.49889664, -23.21018363], [-46.49865936, -23.21023368], [-46.49819397, -23.21022856], [-46.49736595, -23.21015998], [-46.49702485, -23.21017278], [-46.49670507, -23.21024273], [-46.4965407, -23.21033988], [-46.49624298, -23.21053387], [-46.49603671, -23.21058362], [-46.4956647, -23.21060628], [-46.49538574, -23.21062804], [-46.49512672, -23.21058272], [-46.49567161, -23.21122747], [-46.49555798, -23.21123811], [-46.49425305, -23.21105936], [-46.49407791, -23.21111837], [-46.49375664, -23.21105452], [-46.49308477, -23.21108001], [-46.49273216, -23.21098778], [-46.49196299, -23.21063188], [-46.49153524, -23.21029185], [-46.49095028, -23.20976216], [-46.49062869, -23.20966963], [-46.48998816, -23.20972349], [-46.48896729, -23.20998166], [-46.48875048, -23.21001239], [-46.48842973, -23.20999631], [-46.48814951, -23.20990338], [-46.48771164, -23.20958255], [-46.48724022, -23.20903265], [-46.48677819, -23.20839664], [-46.48573547, -23.20761318], [-46.48550441, -23.2072904], [-46.48523641, -23.20643271], [-46.48519906, -23.20585959], [-46.48523397, -23.20527622], [-46.4855128, -23.20430824], [-46.4855013, -23.20420321], [-46.48537723, -23.20420438], [-46.48446147, -23.20461446], [-46.48444395, -23.20396468], [-46.4842013, -23.20446399], [-46.48396559, -23.2046593], [-46.48374087, -23.20490992], [-46.48339091, -23.20505659], [-46.48316556, -23.20524988], [-46.48311566, -23.20541283], [-46.48310859, -23.2057092], [-46.4830053, -23.20571973], [-46.48285981, -23.2056542], [-46.48273732, -23.20579872], [-46.48257568, -23.20614433], [-46.48236024, -23.20629929], [-46.48221686, -23.20642489], [-46.48204394, -23.20668459], [-46.48102255, -23.20689493], [-46.48060021, -23.20704227], [-46.480075, -23.20723838], [-46.47954029, -23.20751103], [-46.47897499, -23.2078222], [-46.47880069, -23.20795765], [-46.47852057, -23.20787426], [-46.47837414, -23.20772271], [-46.47812199, -23.20736188], [-46.47796364, -23.20706707], [-46.47781679, -23.20687729], [-46.47752476, -23.20665064], [-46.47747117, -23.2064791], [-46.47746896, -23.20627841], [-46.47752827, -23.20602934], [-46.47749515, -23.20583849], [-46.47738955, -23.20563877], [-46.47727707, -23.20575452], [-46.47714518, -23.20598515], [-46.47708766, -23.20639668], [-46.47691799, -23.20695264], [-46.47680698, -23.20720219], [-46.47683947, -23.2073357], [-46.4770279, -23.2075442], [-46.47744494, -23.2078557], [-46.47760256, -23.20808361], [-46.4776361, -23.20831269], [-46.47732272, -23.20896557], [-46.47727291, -23.20913808], [-46.47737778, -23.20927091], [-46.47754343, -23.20928847], [-46.47794594, -23.20921778], [-46.47822395, -23.20911003], [-46.47908617, -23.20852845], [-46.47950651, -23.20819952], [-46.47975466, -23.20819719], [-46.47992094, -23.20827209], [-46.47994425, -23.20851082], [-46.47976266, -23.20892352], [-46.47963225, -23.20928795], [-46.47954508, -23.20982401], [-46.47950054, -23.21047437], [-46.47935957, -23.21081979], [-46.4792166, -23.21098362], [-46.47901034, -23.21103335], [-46.47877126, -23.2109209], [-46.47844704, -23.21058942], [-46.47830124, -23.21049521], [-46.4780323, -23.21048818], [-46.47783668, -23.21056648], [-46.47765319, -23.21080716], [-46.47755526, -23.21130509], [-46.47744405, -23.21153553], [-46.47734202, -23.21166074], [-46.47706505, -23.21186406], [-46.47682754, -23.21189496], [-46.4760836, -23.21194974], [-46.47558886, -23.21209775], [-46.47532013, -23.21210983], [-46.47470892, -23.21201042], [-46.47442995, -23.21203216], [-46.47433612, -23.21211906], [-46.47378762, -23.21192348], [-46.47293441, -23.21144402], [-46.47222784, -23.21113522], [-46.4718859, -23.21107152], [-46.47191922, -23.21128148], [-46.47182784, -23.21143526], [-46.47110289, -23.21133691], [-46.47101005, -23.2113569], [-46.47105277, -23.21148075], [-46.47118938, -23.21168019], [-46.47161572, -23.21189603], [-46.47173135, -23.21206699], [-46.47149552, -23.2122508], [-46.4712082, -23.21245421], [-46.47085863, -23.21263908], [-46.47033318, -23.21281604], [-46.46965178, -23.21291799], [-46.4690106, -23.21291442], [-46.46844242, -23.21296752], [-46.46799018, -23.21322025], [-46.46738607, -23.2137707], [-46.46703649, -23.21395556], [-46.46670634, -23.21402555], [-46.46611716, -23.21405016], [-46.46602379, -23.21402235], [-46.46576571, -23.21406299], [-46.46559128, -23.21418887], [-46.46535679, -23.21449691], [-46.46514122, -23.21464229], [-46.46433448, -23.21463069], [-46.46407681, -23.21470955], [-46.46362403, -23.21491449], [-46.46308832, -23.21510107], [-46.46248973, -23.21521178], [-46.46176623, -23.21524718], [-46.46249972, -23.21612926], [-46.46292156, -23.21688042], [-46.4640132, -23.2183613], [-46.46477618, -23.21909972], [-46.46560895, -23.21959853], [-46.46586976, -23.21980638], [-46.46642323, -23.22029823], [-46.46683163, -23.22076276], [-46.4670752, -23.22128618], [-46.46719542, -23.22187765], [-46.46708585, -23.22226099], [-46.46656391, -23.22276288], [-46.46633077, -23.22319516], [-46.46653016, -23.22346093], [-46.46683276, -23.22370661], [-46.46744767, -23.22414054], [-46.46786361, -23.22434693], [-46.46840311, -23.22450438], [-46.46891075, -23.22458566], [-46.46943856, -23.22461895], [-46.4711005, -23.22433579], [-46.4720177, -23.22404046], [-46.47259353, -23.22373877], [-46.47243143, -23.22404614], [-46.47233148, -23.22436249], [-46.47225201, -23.22465953], [-46.47226633, -23.2250226], [-46.47243388, -23.22521219], [-46.47301832, -23.22569417], [-46.47329857, -23.22578712], [-46.4735993, -23.22586077], [-46.47360786, -23.2256982], [-46.47300972, -23.2249105], [-46.47296469, -23.22457639], [-46.4731061, -23.22426921], [-46.47342541, -23.22415152], [-46.47376645, -23.22412921], [-46.47408775, -23.2241931], [-46.47445031, -23.22424705], [-46.47473995, -23.22425389], [-46.47492441, -23.22409923], [-46.4750158, -23.22394545], [-46.47502288, -23.22364908], [-46.47495685, -23.2232865], [-46.47500341, -23.22281773], [-46.47513437, -23.22250108], [-46.47536853, -23.22216436], [-46.47561461, -23.22197089], [-46.4759855, -23.22184315], [-46.47616098, -23.22181283], [-46.47655476, -23.2218856], [-46.47674384, -23.22215144], [-46.4767682, -23.22248574], [-46.47669262, -23.22313639], [-46.47666496, -23.22344251], [-46.47670958, -23.22373839], [-46.47686816, -23.22405231], [-46.47745177, -23.22445782], [-46.47872367, -23.22538253], [-46.47907029, -23.22586673], [-46.47925303, -23.22649583], [-46.47932932, -23.22684876], [-46.47931316, -23.2272599], [-46.47933521, -23.22738395], [-46.47953772, -23.22699017], [-46.47981376, -23.22670083], [-46.48030518, -23.22624698], [-46.48123406, -23.22701242], [-46.48169276, -23.22734262], [-46.48233812, -23.22771886], [-46.48280843, -23.22816364], [-46.48319686, -23.22868566], [-46.48405054, -23.22919373], [-46.48424987, -23.22944991], [-46.48466301, -23.2303349], [-46.48528034, -23.230979], [-46.48542988, -23.2314077], [-46.48553628, -23.23261099], [-46.48569679, -23.23309693], [-46.48592886, -23.23350572], [-46.48612778, -23.23372367], [-46.48633895, -23.23411355], [-46.4872632, -23.23538557], [-46.48756914, -23.23592747], [-46.48775072, -23.23645901], [-46.48785017, -23.2368082], [-46.48766156, -23.23692425], [-46.48776093, -23.23772379]]]]}}]}