{"type": "FeatureCollection", "features": [{"type": "Feature", "properties": {"name": "Parque Estadual Ilha do Cardoso"}, "geometry": {"type": "MultiPolygon", "coordinates": [[[[-48.09154448, -25.3010113], [-48.09266984, -25.30131441], [-48.0932942, -25.30104604], [-48.09300697, -25.30010523], [-48.09202503, -25.29812099], [-48.09154413, -25.29670733], [-48.09064857, -25.29537969], [-48.08972878, -25.29508117], [-48.08861146, -25.29381754], [-48.08714528, -25.29316702], [-48.08568115, -25.29241312], [-48.08410078, -25.29176071], [-48.08286511, -25.29101051], [-48.08174872, -25.29005636], [-48.08075476, -25.28869055], [-48.07980181, -25.28566744], [-48.07897231, -25.28223273], [-48.07821193, -25.28066394], [-48.07767477, -25.2793074], [-48.07635991, -25.27710559], [-48.07308855, -25.27569455], [-48.07037899, -25.27460462], [-48.06813848, -25.27300624], [-48.06702646, -25.27184528], [-48.0644137, -25.27148243], [-48.06318858, -25.27031871], [-48.06114572, -25.26996695], [-48.06025699, -25.26901731], [-48.05857009, -25.26805186], [-48.05711465, -25.26698682], [-48.05545873, -25.26477841], [-48.05335137, -25.26235395], [-48.05172134, -25.2591102], [-48.05052329, -25.25680769], [-48.04582752, -25.25308818], [-48.04415127, -25.25170831], [-48.04225501, -25.25001283], [-48.04092337, -25.24853614], [-48.03855498, -25.24755663], [-48.03621879, -25.24523077], [-48.0347482, -25.24478749], [-48.03081709, -25.24242979], [-48.02958004, -25.24178356], [-48.02602899, -25.23787938], [-48.02370358, -25.23513911], [-48.02208599, -25.23137844], [-48.02154442, -25.23022764], [-48.01964353, -25.22873958], [-48.01594454, -25.22628211], [-48.01392542, -25.22499882], [-48.01157232, -25.22339708], [-48.00754898, -25.2202085], [-48.0033038, -25.21680848], [-48.00062427, -25.21457902], [-47.99916708, -25.21296477], [-47.99763089, -25.21162438], [-47.99571904, -25.20962291], [-47.99446406, -25.20658742], [-47.99437355, -25.20539995], [-47.99346552, -25.20383127], [-47.9927048, -25.20276351], [-47.9911862, -25.20197507], [-47.99148528, -25.20154814], [-47.99186856, -25.20199364], [-47.99230183, -25.20192841], [-47.99235087, -25.20141675], [-47.99244513, -25.20016839], [-47.99285551, -25.19919639], [-47.99319613, -25.19788603], [-47.99365647, -25.1964033], [-47.99438153, -25.19559514], [-47.99506087, -25.19450821], [-47.99582922, -25.19386626], [-47.9952543, -25.19319804], [-47.99432265, -25.19315947], [-47.99376512, -25.19322777], [-47.99327832, -25.19363447], [-47.99290317, -25.19352844], [-47.99296008, -25.19330046], [-47.99306479, -25.19250499], [-47.99376953, -25.1920548], [-47.99536357, -25.19257187], [-47.99630788, -25.19312009], [-47.99676427, -25.19401741], [-47.99691625, -25.1951471], [-47.9971717, -25.19542549], [-47.99772702, -25.19530131], [-47.99807453, -25.19427367], [-47.99842823, -25.19097939], [-47.99781292, -25.18866875], [-47.9961561, -25.18439547], [-47.99439686, -25.18097442], [-47.99233588, -25.17795586], [-47.99122827, -25.17582501], [-47.99150836, -25.17457247], [-47.99253985, -25.17358779], [-47.99400444, -25.17253874], [-47.99627176, -25.1713593], [-47.99781636, -25.17104478], [-47.99930532, -25.17101406], [-48.00046014, -25.17149877], [-48.00097444, -25.17242989], [-48.00199392, -25.17265815], [-48.0031317, -25.17268159], [-48.00449558, -25.17281218], [-48.00563027, -25.17293892], [-48.00709473, -25.17358991], [-48.0095995, -25.17364054], [-48.01117704, -25.17429424], [-48.01252536, -25.17504665], [-48.01444003, -25.17591362], [-48.01613272, -25.17656923], [-48.01634743, -25.17709153], [-48.0173639, -25.17742303], [-48.01793334, -25.17743426], [-48.01883155, -25.17797059], [-48.02108758, -25.17884403], [-48.02289341, -25.17950233], [-48.02414021, -25.1797342], [-48.02528632, -25.17944655], [-48.02597398, -25.17925381], [-48.02600401, -25.17801089], [-48.02557965, -25.17675959], [-48.02435465, -25.17559574], [-48.02370424, -25.1742364], [-48.02236413, -25.17317316], [-48.02136526, -25.17211735], [-48.02013825, -25.17105684], [-48.01925559, -25.16989955], [-48.01872142, -25.16843872], [-48.01817483, -25.16749555], [-48.01868601, -25.1652276], [-48.01927717, -25.16430683], [-48.01964421, -25.16327899], [-48.02057758, -25.16236479], [-48.02257483, -25.15981564], [-48.02454199, -25.15850937], [-48.02738975, -25.15846279], [-48.03025294, -25.15779516], [-48.03094258, -25.1574981], [-48.03176991, -25.15627189], [-48.03146275, -25.15481572], [-48.03084528, -25.15211014], [-48.03052469, -25.15127505], [-48.02986914, -25.15012244], [-48.02953726, -25.1497016], [-48.0302309, -25.14930124], [-48.0302577, -25.14816254], [-48.03005838, -25.14701925], [-48.02975223, -25.14556312], [-48.0286796, -25.14284827], [-48.02882255, -25.14160808], [-48.02876923, -25.13912128], [-48.02850841, -25.13580122], [-48.02796488, -25.13475477], [-48.02652754, -25.13296535], [-48.02575696, -25.13191428], [-48.02555155, -25.13097766], [-48.02477073, -25.13033998], [-48.02441415, -25.13095447], [-48.0242929, -25.13126265], [-48.02340522, -25.13031302], [-48.02272713, -25.13009236], [-48.02192056, -25.13048996], [-48.021711, -25.12976097], [-48.02137711, -25.1294435], [-48.02058082, -25.12942769], [-48.01977633, -25.1297219], [-48.01885877, -25.13001426], [-48.0178354, -25.1299938], [-48.01715524, -25.1298765], [-48.01725897, -25.13029267], [-48.01613606, -25.1296484], [-48.0156912, -25.12922569], [-48.01502039, -25.12869405], [-48.015152, -25.12797159], [-48.01539455, -25.12735524], [-48.01485329, -25.1262045], [-48.01452971, -25.12547363], [-48.01510923, -25.12507054], [-48.01592818, -25.12415533], [-48.01664551, -25.12271966], [-48.01791445, -25.12201953], [-48.0189738, -25.1205913], [-48.01970137, -25.11874132], [-48.02030041, -25.11751048], [-48.02056865, -25.11585883], [-48.0202451, -25.11512707], [-48.01921573, -25.11531331], [-48.01897629, -25.11582634], [-48.017944, -25.11561782], [-48.01738596, -25.11569136], [-48.01717341, -25.1150648], [-48.01660427, -25.11505362], [-48.01623838, -25.11608242], [-48.0155501, -25.11627514], [-48.015095, -25.11626584], [-48.01428847, -25.1166643], [-48.0151156, -25.11543816], [-48.01650572, -25.11442985], [-48.01720846, -25.1136161], [-48.0171326, -25.11206038], [-48.0179463, -25.11135183], [-48.01933117, -25.11055108], [-48.01932186, -25.11096541], [-48.02023202, -25.11098398], [-48.02093682, -25.11006593], [-48.02152037, -25.10945607], [-48.02188717, -25.10842728], [-48.02156362, -25.10769553], [-48.01995796, -25.10818158], [-48.01940221, -25.10765279], [-48.01894714, -25.1076435], [-48.01814793, -25.10773104], [-48.01746582, -25.10771712], [-48.01699837, -25.10822549], [-48.01676309, -25.10853178], [-48.0154351, -25.10850464], [-48.01531477, -25.10725914], [-48.01544841, -25.10643331], [-48.0162373, -25.10676008], [-48.01714644, -25.10677862], [-48.01783678, -25.10648162], [-48.01864836, -25.10587642], [-48.01901206, -25.10495188], [-48.01969933, -25.10475819], [-48.02040714, -25.10373681], [-48.02078421, -25.10229373], [-48.02081405, -25.10105171], [-48.02049982, -25.09990562], [-48.01949931, -25.09895417], [-48.01824512, -25.09903243], [-48.01710801, -25.09900924], [-48.01564431, -25.0983585], [-48.01283053, -25.09804469], [-48.01067493, -25.09680846], [-48.00987064, -25.09710266], [-48.00996709, -25.09782979], [-48.01038704, -25.09928779], [-48.01013422, -25.10031842], [-48.00982311, -25.0990699], [-48.00914313, -25.09895259], [-48.00860198, -25.09780186], [-48.00851069, -25.09686804], [-48.00829915, -25.09624242], [-48.01126363, -25.09599104], [-48.01127603, -25.09547339], [-48.01026534, -25.09493528], [-48.00856644, -25.09459078], [-48.00697436, -25.0945582], [-48.00490965, -25.09524153], [-48.00352388, -25.09604212], [-48.00305123, -25.09675803], [-48.00291447, -25.09768717], [-48.00357474, -25.09863311], [-48.00377695, -25.09967215], [-48.00287718, -25.09924011], [-48.00164577, -25.09838631], [-48.00132751, -25.09744784], [-48.00038247, -25.0973531], [-48.00037153, -25.09735356], [-47.99877303, -25.09780574], [-47.99858012, -25.0972364], [-47.99790958, -25.09725075], [-47.99758951, -25.09786934], [-47.9968668, -25.09803721], [-47.99614066, -25.09805201], [-47.99590592, -25.09759727], [-47.9962309, -25.09718219], [-47.99604642, -25.0964713], [-47.99597958, -25.09601253], [-47.99584924, -25.09524985], [-47.9948303, -25.09475989], [-47.99486932, -25.09404452], [-47.99571111, -25.09418011], [-47.99642594, -25.09370697], [-47.99590429, -25.09295101], [-47.99598961, -25.09187768], [-47.99580367, -25.09111546], [-47.99513321, -25.09112892], [-47.99463697, -25.09139407], [-47.99454377, -25.09216213], [-47.99409487, -25.09206846], [-47.99430221, -25.09140126], [-47.99395967, -25.09110139], [-47.99362051, -25.09095548], [-47.99320623, -25.08999335], [-47.99369123, -25.08926897], [-47.9945232, -25.08899667], [-47.99535709, -25.08882699], [-47.9957884, -25.08820569], [-47.99576689, -25.08728728], [-47.99641975, -25.08655887], [-47.99709703, -25.08685153], [-47.99711316, -25.08751515], [-47.99696928, -25.08848807], [-47.99781934, -25.0889811], [-47.99851573, -25.09003915], [-47.99826203, -25.09106612], [-47.99727153, -25.09169817], [-47.99701195, -25.09252069], [-47.99754391, -25.09373494], [-47.99855698, -25.09402045], [-48.00005719, -25.09374015], [-48.00044246, -25.09428262], [-48.00105691, -25.09454216], [-48.00311747, -25.09406562], [-48.00393625, -25.09315044], [-48.00543501, -25.09235169], [-48.006375, -25.09112833], [-48.00674391, -25.08999623], [-48.0059851, -25.08842744], [-48.00578291, -25.08738751], [-48.00591967, -25.08645746], [-48.00594028, -25.08562979], [-48.0057371, -25.08458982], [-48.00430149, -25.08280039], [-48.00341735, -25.0817465], [-47.99982633, -25.08114135], [-47.99964978, -25.08111985], [-47.99745677, -25.08116465], [-47.99627108, -25.08037384], [-47.994065, -25.07985495], [-47.99166645, -25.07990307], [-47.98798637, -25.08085387], [-47.98476353, -25.08085602], [-47.98229828, -25.08096877], [-47.97969411, -25.08102099], [-47.97792907, -25.08174575], [-47.97690667, -25.08201656], [-47.97442932, -25.08162764], [-47.97312998, -25.08177928], [-47.97157514, -25.08268787], [-47.97077229, -25.08351802], [-47.96842488, -25.08446106], [-47.96714423, -25.08399003], [-47.96488343, -25.08420071], [-47.96268847, -25.08341645], [-47.95978925, -25.08347434], [-47.95615834, -25.08329831], [-47.95286841, -25.08220414], [-47.95103333, -25.08124724], [-47.95026604, -25.07952322], [-47.94880475, -25.07905551], [-47.94636227, -25.07926933], [-47.94280508, -25.07834671], [-47.94051155, -25.07723253], [-47.93722662, -25.07630377], [-47.93449802, -25.07594358], [-47.93021046, -25.07478588], [-47.92744468, -25.07285266], [-47.92619418, -25.06981363], [-47.92563227, -25.06907925], [-47.92463618, -25.06909892], [-47.92334843, -25.06829626], [-47.9224273, -25.06831357], [-47.92223964, -25.06740645], [-47.92096118, -25.06701791], [-47.91931656, -25.06647052], [-47.91656503, -25.06511699], [-47.91520651, -25.0651434], [-47.91267105, -25.06527555], [-47.91075067, -25.06456839], [-47.90864594, -25.06369808], [-47.90629402, -25.06391048], [-47.90440151, -25.06436109], [-47.90268968, -25.06480918], [-47.9018089, -25.06590286], [-47.90165675, -25.06714778], [-47.90141884, -25.06856098], [-47.90108495, -25.06980925], [-47.90158487, -25.07178781], [-47.90184414, -25.07509492], [-47.90175469, -25.07898949], [-47.90109423, -25.08173547], [-47.90119563, -25.0860408], [-47.9022556, -25.08867012], [-47.90330445, -25.09088523], [-47.90384967, -25.09476711], [-47.90401847, -25.09807682], [-47.90311333, -25.10198748], [-47.90179954, -25.10391788], [-47.89846329, -25.10472834], [-47.89629234, -25.10493708], [-47.89513994, -25.10603574], [-47.89499953, -25.1077776], [-47.89674325, -25.10865499], [-47.89884132, -25.10919341], [-47.90060159, -25.11081529], [-47.90243579, -25.11169093], [-47.90459112, -25.11462957], [-47.90735183, -25.11631484], [-47.90904772, -25.11901517], [-47.90960509, -25.12339318], [-47.9119674, -25.1274052], [-47.91322059, -25.13052814], [-47.9143843, -25.13373467], [-47.91488917, -25.13587807], [-47.91583698, -25.13759884], [-47.91535438, -25.14017587], [-47.91624687, -25.1433884], [-47.91744481, -25.14419295], [-47.91899812, -25.14465943], [-47.91999671, -25.14472184], [-47.9208154, -25.14478859], [-47.92085887, -25.14661], [-47.92153269, -25.148253], [-47.92060801, -25.15133548], [-47.91986328, -25.15433176], [-47.91854613, -25.15618028], [-47.91710534, -25.15662235], [-47.91528055, -25.15616181], [-47.9140068, -25.15602063], [-47.91311241, -25.15653539], [-47.91276899, -25.15737042], [-47.91288991, -25.15861034], [-47.91382398, -25.15975133], [-47.91583434, -25.1603742], [-47.9182749, -25.15999464], [-47.91991416, -25.16029376], [-47.92199376, -25.16000461], [-47.92264086, -25.1604889], [-47.92383248, -25.16104492], [-47.925002, -25.16060789], [-47.92793829, -25.1620402], [-47.9295208, -25.16278304], [-47.93116156, -25.16413271], [-47.93147583, -25.16542191], [-47.93187851, -25.16645027], [-47.93349872, -25.16693557], [-47.93622392, -25.16644697], [-47.93718613, -25.16686295], [-47.94286, -25.17072287], [-47.94692597, -25.17461427], [-47.95078352, -25.17764618], [-47.95753799, -25.18312471], [-47.97001925, -25.19453233], [-47.97251957, -25.19620981], [-47.97254657, -25.19733172], [-47.97275469, -25.19810477], [-47.97287885, -25.19931069], [-47.97366069, -25.2003319], [-47.97528048, -25.20081682], [-47.97720823, -25.20224613], [-47.9789042, -25.2019533], [-47.9796564, -25.20176522], [-47.98420034, -25.20573198], [-47.98864737, -25.20961465], [-47.99337901, -25.21349166], [-47.9988826, -25.21795661], [-48.00226658, -25.22090994], [-48.00934065, -25.22676224], [-48.02325914, -25.2383651], [-48.0312327, -25.24479445], [-48.03778552, -25.25044578], [-48.04191758, -25.25408437], [-48.0436166, -25.25617676], [-48.0470554, -25.25867818], [-48.04967235, -25.26116364], [-48.05721729, -25.26842493], [-48.06497628, -25.27540935], [-48.07201264, -25.28247343], [-48.0790373, -25.2900982], [-48.08224783, -25.29362361], [-48.08405281, -25.29562368], [-48.08596366, -25.29753261], [-48.08727285, -25.29877514], [-48.09001624, -25.30032683], [-48.09154448, -25.3010113]]]]}}]}