{"type": "FeatureCollection", "features": [{"type": "Feature", "properties": {"name": "Parque Estadual Mananciais de Campos do Jordão"}, "geometry": {"type": "MultiPolygon", "coordinates": [[[[-45.56645843, -22.77904122], [-45.56666817, -22.77910968], [-45.56689203, -22.77908368], [-45.56697129, -22.77902685], [-45.56731601, -22.77851676], [-45.5677112, -22.77801273], [-45.56818612, -22.77753985], [-45.56841652, -22.7773505], [-45.5686823, -22.7769789], [-45.56886247, -22.77687139], [-45.56961368, -22.77682472], [-45.5698523, -22.77688042], [-45.57017777, -22.77697357], [-45.57043117, -22.77709199], [-45.57125938, -22.77722038], [-45.57194583, -22.77724927], [-45.57254592, -22.77736022], [-45.57319682, -22.77750865], [-45.57342084, -22.77752049], [-45.57369528, -22.77750063], [-45.57391883, -22.77739928], [-45.57407748, -22.77734216], [-45.57425092, -22.77734786], [-45.57451129, -22.7774097], [-45.57508668, -22.77753329], [-45.5755932, -22.77772623], [-45.57600504, -22.7777373], [-45.57691266, -22.7770995], [-45.57722238, -22.77687218], [-45.577228, -22.77649519], [-45.57730641, -22.77623727], [-45.57773776, -22.77574564], [-45.57790966, -22.77538693], [-45.5778868, -22.77525756], [-45.57772673, -22.7750005], [-45.57765301, -22.77463635], [-45.57768691, -22.77410217], [-45.57777949, -22.77378773], [-45.57813108, -22.77323352], [-45.57851262, -22.77289916], [-45.57889224, -22.77250437], [-45.57920173, -22.77222673], [-45.57961886, -22.77178546], [-45.58002101, -22.77121227], [-45.58015638, -22.7707657], [-45.58015468, -22.77036362], [-45.57998054, -22.77018828], [-45.57960397, -22.76992126], [-45.57945157, -22.76977104], [-45.57931997, -22.76938199], [-45.57917343, -22.76891124], [-45.57904939, -22.76860383], [-45.57879513, -22.76827973], [-45.57849026, -22.76794162], [-45.57838051, -22.76760272], [-45.57834223, -22.7670939], [-45.57831908, -22.76673174], [-45.57828212, -22.76653711], [-45.57816609, -22.76641811], [-45.57793432, -22.7662745], [-45.57747129, -22.76610653], [-45.57731161, -22.76593745], [-45.57732491, -22.76567353], [-45.57743813, -22.765263], [-45.57707323, -22.76524056], [-45.57683564, -22.76512245], [-45.57660647, -22.76485362], [-45.5766046, -22.76440945], [-45.57652112, -22.76406069], [-45.57619944, -22.76347494], [-45.57603321, -22.7629759], [-45.5760491, -22.76242064], [-45.57598703, -22.7620447], [-45.57478389, -22.76217596], [-45.57275077, -22.76231814], [-45.57042898, -22.76242798], [-45.56989702, -22.76087846], [-45.56849989, -22.76264426], [-45.56339422, -22.75850618], [-45.56309674, -22.75934004], [-45.56049092, -22.75767564], [-45.5571521, -22.75502928], [-45.55659507, -22.75551741], [-45.55612227, -22.7557832], [-45.55590454, -22.75601648], [-45.55583248, -22.75623869], [-45.55576065, -22.7564926], [-45.55560609, -22.75695539], [-45.55532783, -22.7572523], [-45.55502496, -22.75748588], [-45.55475841, -22.75766648], [-45.55455296, -22.75795257], [-45.55425107, -22.75842923], [-45.55411816, -22.75860928], [-45.55358456, -22.75887537], [-45.55322096, -22.75909858], [-45.55313655, -22.75927855], [-45.553138, -22.7596379], [-45.55311545, -22.76006075], [-45.55303101, -22.76020902], [-45.55278862, -22.7603684], [-45.55248644, -22.76055806], [-45.54784613, -22.7663075], [-45.54466638, -22.77038458], [-45.54500355, -22.77048623], [-45.54561013, -22.77067495], [-45.54597998, -22.77066547], [-45.5462839, -22.77068557], [-45.54656376, -22.77077973], [-45.54699006, -22.77100023], [-45.54740071, -22.77123008], [-45.54755845, -22.77118726], [-45.54817728, -22.77093147], [-45.54892921, -22.77055896], [-45.54937714, -22.77012408], [-45.54984777, -22.77000602], [-45.55023572, -22.76977216], [-45.55053756, -22.76927436], [-45.55075587, -22.76917848], [-45.55086569, -22.7692838], [-45.55090496, -22.7699918], [-45.55096978, -22.77099557], [-45.55111654, -22.77122759], [-45.5514698, -22.77142719], [-45.55192077, -22.77177442], [-45.55208001, -22.77208038], [-45.55216773, -22.77274594], [-45.5523151, -22.77312592], [-45.5527053, -22.77345222], [-45.55287655, -22.77371586], [-45.5530469, -22.77377869], [-45.55334976, -22.77353454], [-45.55365317, -22.7734278], [-45.55424932, -22.77358427], [-45.55568569, -22.77417115], [-45.556039, -22.77438131], [-45.55650277, -22.77487645], [-45.55683119, -22.77492815], [-45.55753604, -22.77493626], [-45.55789994, -22.77477645], [-45.55829911, -22.77431], [-45.55857684, -22.77387569], [-45.55907258, -22.77325037], [-45.55967751, -22.77257181], [-45.56004109, -22.77233801], [-45.56021123, -22.77232685], [-45.56038171, -22.77242137], [-45.56054071, -22.77266391], [-45.56063909, -22.77294893], [-45.56090791, -22.77331791], [-45.5612621, -22.77373944], [-45.56147032, -22.77412977], [-45.56178771, -22.77448801], [-45.56208011, -22.77466666], [-45.56236043, -22.77484535], [-45.56283155, -22.77551055], [-45.56333169, -22.77591087], [-45.56373779, -22.77628017], [-45.56439152, -22.7771449], [-45.56477626, -22.77757706], [-45.56519671, -22.77792743], [-45.56580551, -22.7784027], [-45.56604472, -22.77857783], [-45.5663207, -22.7789287], [-45.56645843, -22.77904122]]]]}}]}