{"type": "FeatureCollection", "features": [{"type": "Feature", "properties": {"name": "Parque Estadual Carlos Botelho"}, "geometry": {"type": "MultiPolygon", "coordinates": [[[[-47.96386211, -24.25609492], [-47.96393085, -24.25606254], [-47.96397749, -24.2560832], [-47.96401645, -24.25608244], [-47.96404374, -24.25604942], [-47.96404344, -24.25599835], [-47.96403366, -24.2559629], [-47.96405962, -24.25593207], [-47.96411923, -24.25591809], [-47.96415953, -24.25592823], [-47.96419857, -24.25589696], [-47.96420766, -24.25583488], [-47.96425492, -24.25581005], [-47.9643016, -24.25580291], [-47.96433876, -24.25575445], [-47.96438037, -24.25572359], [-47.96450486, -24.25574399], [-47.96458655, -24.2557609], [-47.96468043, -24.25577269], [-47.96476067, -24.25577392], [-47.96480348, -24.25573555], [-47.96488294, -24.25577064], [-47.96494639, -24.25576895], [-47.96508018, -24.25574919], [-47.96512161, -24.25571481], [-47.96511207, -24.25566447], [-47.96505245, -24.25558496], [-47.96495091, -24.25546331], [-47.96488896, -24.25534703], [-47.96487668, -24.25521669], [-47.96490774, -24.25507901], [-47.96494928, -24.25500745], [-47.96499651, -24.25491349], [-47.9650152, -24.25486187], [-47.96507479, -24.25482976], [-47.96510835, -24.25477469], [-47.96517754, -24.25470665], [-47.96525584, -24.25461137], [-47.96535979, -24.25450177], [-47.96543055, -24.25449715], [-47.96551068, -24.25451913], [-47.96574866, -24.25452712], [-47.96583719, -24.25447793], [-47.96593848, -24.25432598], [-47.96598504, -24.25423311], [-47.9660012, -24.25411522], [-47.96601353, -24.25398485], [-47.9659888, -24.25384384], [-47.96597967, -24.2537601], [-47.96599245, -24.25364497], [-47.96607232, -24.25357501], [-47.96616551, -24.25352762], [-47.96643891, -24.25343331], [-47.96652114, -24.2533846], [-47.96658035, -24.25332768], [-47.96665332, -24.25328673], [-47.96672006, -24.25326196], [-47.9668107, -24.25327815], [-47.9669419, -24.25335464], [-47.96707022, -24.25340014], [-47.96717172, -24.25340547], [-47.967251, -24.25338254], [-47.96738982, -24.25326143], [-47.96750289, -24.25312901], [-47.96753843, -24.25303609], [-47.96758493, -24.25295749], [-47.96764279, -24.25293606], [-47.96775042, -24.25288315], [-47.96777096, -24.25284376], [-47.96775901, -24.25278697], [-47.96769904, -24.25271793], [-47.96752727, -24.25260244], [-47.96735751, -24.25250992], [-47.96729199, -24.25244785], [-47.96720942, -24.25235886], [-47.96716479, -24.25226805], [-47.96716894, -24.2521669], [-47.96720675, -24.25209578], [-47.96729765, -24.25207686], [-47.96741185, -24.25206136], [-47.9675579, -24.25207764], [-47.96771465, -24.2521567], [-47.96784275, -24.25224805], [-47.96796133, -24.25235745], [-47.96804659, -24.2524518], [-47.96811732, -24.25251792], [-47.96820474, -24.25258642], [-47.96827509, -24.25258116], [-47.96836855, -24.25254559], [-47.96844922, -24.25248463], [-47.96847344, -24.25240024], [-47.96846503, -24.25230538], [-47.96849532, -24.25216032], [-47.96853224, -24.25208885], [-47.9685984, -24.25203034], [-47.9686653, -24.2520164], [-47.96873936, -24.25203544], [-47.96887927, -24.25209245], [-47.96912797, -24.25222349], [-47.96920504, -24.25223624], [-47.96938091, -24.25222297], [-47.96950899, -24.25219051], [-47.96962209, -24.25217431], [-47.9697609, -24.25211637], [-47.96989201, -24.25208313], [-47.96996533, -24.25212077], [-47.97003541, -24.25215081], [-47.97012957, -24.25223839], [-47.97019494, -24.2523916], [-47.9702892, -24.25252584], [-47.97036682, -24.25262576], [-47.97047543, -24.25270828], [-47.97060339, -24.25275126], [-47.97074771, -24.2527654], [-47.97094656, -24.25272461], [-47.97109351, -24.25268257], [-47.97121269, -24.25265227], [-47.971316, -24.2526128], [-47.97143879, -24.25258567], [-47.97151793, -24.25256066], [-47.97158296, -24.25254676], [-47.97166696, -24.2525573], [-47.97172761, -24.25258355], [-47.971771, -24.25265065], [-47.97179001, -24.25274024], [-47.97187641, -24.2528749], [-47.97196269, -24.25303826], [-47.97200115, -24.25315582], [-47.97206937, -24.2532495], [-47.97212466, -24.25330735], [-47.97220037, -24.25336768], [-47.97227602, -24.2534041], [-47.97236063, -24.25341986], [-47.97244105, -24.25341567], [-47.97249565, -24.25338519], [-47.97250528, -24.25332093], [-47.97247859, -24.25325675], [-47.9724529, -24.25314265], [-47.97234071, -24.25278768], [-47.97233735, -24.25261764], [-47.9724171, -24.25252179], [-47.97254347, -24.25245804], [-47.97266419, -24.25243926], [-47.97282965, -24.25250316], [-47.97312995, -24.25263057], [-47.97326167, -24.25265741], [-47.97340867, -24.25263865], [-47.97354189, -24.2526661], [-47.97367706, -24.25271435], [-47.97377449, -24.25279438], [-47.97384483, -24.25290273], [-47.97387039, -24.25299482], [-47.97386546, -24.25308732], [-47.97380874, -24.25322974], [-47.97378113, -24.25337123], [-47.97380799, -24.25348937], [-47.9739129, -24.25361149], [-47.97407805, -24.25370887], [-47.97424504, -24.25376218], [-47.97448188, -24.25378065], [-47.97465298, -24.2536682], [-47.97477754, -24.25351841], [-47.97481612, -24.25337435], [-47.97481598, -24.25322898], [-47.97484865, -24.25310616], [-47.97495253, -24.2529814], [-47.97517476, -24.25287508], [-47.9753854, -24.25282494], [-47.9755666, -24.25283357], [-47.97581972, -24.252765], [-47.97612135, -24.2526666], [-47.97626944, -24.25263951], [-47.97632964, -24.25267623], [-47.97640871, -24.25274958], [-47.97648516, -24.25286675], [-47.97660095, -24.25290247], [-47.97673, -24.25289056], [-47.97687336, -24.25285085], [-47.97698336, -24.25277731], [-47.97705864, -24.25265871], [-47.97713277, -24.25255357], [-47.97721257, -24.25248532], [-47.97732338, -24.25242558], [-47.97750192, -24.25242136], [-47.97758621, -24.25244435], [-47.97770869, -24.25250511], [-47.97775747, -24.25256714], [-47.9777665, -24.25260415], [-47.97772972, -24.25266036], [-47.97770223, -24.25271784], [-47.9777197, -24.2527961], [-47.97779208, -24.25284846], [-47.97791163, -24.25286399], [-47.97799908, -24.25284513], [-47.97806952, -24.25286495], [-47.97812634, -24.25293775], [-47.97959027, -24.25230455], [-47.98112248, -24.25151046], [-47.98416902, -24.25084969], [-47.98660681, -24.25029855], [-47.98746467, -24.25011476], [-47.98858651, -24.24985177], [-47.99143685, -24.24923027], [-47.99155212, -24.24722157], [-47.99164924, -24.24434468], [-47.99171639, -24.24286412], [-47.9924472, -24.24405845], [-48.00052362, -24.23691844], [-48.00052362, -24.23684668], [-48.00594535, -24.23226763], [-48.0352586, -24.23036334], [-48.03523544, -24.23011498], [-48.03510806, -24.22975346], [-48.03489427, -24.22946392], [-48.03449044, -24.22914676], [-48.03396546, -24.22862158], [-48.03378179, -24.22834116], [-48.03372228, -24.22811075], [-48.03369706, -24.22737933], [-48.03376386, -24.22709963], [-48.03383626, -24.22697795], [-48.03403884, -24.22676182], [-48.0344642, -24.22653731], [-48.03474245, -24.22650651], [-48.03517714, -24.22661608], [-48.03552495, -24.22658096], [-48.03622823, -24.22623534], [-48.03702689, -24.22589452], [-48.03726131, -24.22572362], [-48.03736884, -24.22558849], [-48.0374924, -24.22543986], [-48.03764936, -24.2250611], [-48.03802942, -24.22476421], [-48.03829624, -24.22446701], [-48.03850239, -24.22410193], [-48.03853942, -24.22388533], [-48.03851976, -24.22369115], [-48.03862016, -24.22347925], [-48.03878464, -24.22324496], [-48.03909814, -24.22297499], [-48.03943609, -24.22275022], [-48.0401694, -24.22240198], [-48.05535266, -24.22520056], [-48.05527622, -24.22486177], [-48.05491831, -24.22403013], [-48.05487539, -24.22379526], [-48.05485208, -24.22319928], [-48.05489076, -24.22303686], [-48.05491881, -24.22254937], [-48.05489592, -24.22201659], [-48.05464513, -24.22079699], [-48.0546672, -24.22006119], [-48.05469524, -24.21995743], [-48.05478853, -24.21984032], [-48.05504251, -24.21969654], [-48.05529991, -24.21963404], [-48.05563383, -24.21969815], [-48.05584081, -24.21982061], [-48.05607812, -24.21988446], [-48.0563636, -24.21989426], [-48.05742449, -24.21968044], [-48.05854897, -24.21959772], [-48.05908031, -24.21950435], [-48.05970568, -24.21944284], [-48.06004132, -24.21935345], [-48.06042592, -24.21915585], [-48.0607127, -24.21894894], [-48.06098747, -24.21865624], [-48.06120343, -24.21827309], [-48.0612569, -24.21810169], [-48.06137653, -24.21802074], [-48.06152596, -24.21785411], [-48.06203892, -24.21753946], [-48.06215991, -24.21742242], [-48.0625234, -24.21689068], [-48.06285343, -24.21662972], [-48.06322207, -24.21641401], [-48.06341919, -24.21634682], [-48.0637078, -24.21633857], [-48.06379511, -24.21635685], [-48.0639051, -24.21640681], [-48.06402025, -24.21638003], [-48.06416678, -24.21635333], [-48.06436942, -24.21628615], [-48.06465781, -24.21615149], [-48.06531085, -24.21570178], [-48.06570104, -24.21528748], [-48.06582035, -24.21511172], [-48.06597746, -24.21465618], [-48.06603672, -24.2142094], [-48.06606659, -24.21293639], [-48.06611822, -24.21276045], [-48.06625857, -24.21254412], [-48.06648085, -24.21229643], [-48.06680888, -24.2120806], [-48.06721377, -24.21187852], [-48.06732968, -24.21180207], [-48.06740967, -24.21179777], [-48.0675542, -24.21182073], [-48.06785304, -24.21188473], [-48.06812796, -24.21192157], [-48.06861292, -24.21188674], [-48.06892631, -24.21181985], [-48.0695993, -24.21147852], [-48.07078654, -24.21057874], [-48.07199533, -24.20947584], [-48.07343047, -24.20838708], [-48.07452121, -24.20744188], [-48.07506869, -24.20688349], [-48.07529662, -24.20659516], [-48.0756867, -24.20600026], [-48.07946224, -24.20149547], [-48.07959565, -24.20153193], [-48.07985402, -24.20154162], [-48.08002384, -24.20153754], [-48.08049514, -24.20133109], [-48.08103819, -24.2009984], [-48.08129673, -24.20075078], [-48.08159437, -24.20059353], [-48.08202192, -24.20060365], [-48.08221722, -24.20072153], [-48.08241281, -24.20094325], [-48.08261349, -24.20110629], [-48.08278437, -24.20116088], [-48.08297756, -24.20116138], [-48.08318705, -24.20106259], [-48.08342783, -24.20078783], [-48.08369117, -24.20058082], [-48.08403672, -24.20044627], [-48.084871, -24.2002362], [-48.0850602, -24.20013285], [-48.08538984, -24.19977253], [-48.08555386, -24.19964654], [-48.08584079, -24.19936736], [-48.08601378, -24.19912853], [-48.08656726, -24.1985927], [-48.08717738, -24.19763264], [-48.08732721, -24.19731699], [-48.08754453, -24.19706473], [-48.08788099, -24.196885], [-48.08816427, -24.19679091], [-48.08876622, -24.1965035], [-48.08904678, -24.1962875], [-48.08957654, -24.19565227], [-48.09017166, -24.19435358], [-48.09055774, -24.19368857], [-48.09020212, -24.193577], [-48.08992732, -24.19350407], [-48.08969147, -24.19349234], [-48.08933969, -24.19356052], [-48.08895564, -24.19361995], [-48.08838509, -24.1936614], [-48.08812516, -24.19362664], [-48.08768814, -24.19350638], [-48.08739096, -24.19333646], [-48.08716672, -24.19316071], [-48.08659418, -24.19259657], [-48.08626679, -24.19228438], [-48.08604878, -24.19187682], [-48.08585802, -24.1916566], [-48.08549814, -24.19138891], [-48.0851687, -24.19121023], [-48.08488606, -24.19109292], [-48.08464321, -24.19104406], [-48.08433278, -24.1910679], [-48.08396425, -24.19117997], [-48.08369119, -24.19137687], [-48.08352406, -24.19154513], [-48.08333845, -24.19183307], [-48.08322781, -24.19206919], [-48.08310422, -24.19248554], [-48.0830635, -24.19267685], [-48.08200622, -24.19101464], [-48.08205158, -24.19045495], [-48.08199668, -24.19030582], [-48.08176551, -24.19005694], [-48.08090234, -24.18946782], [-48.08018374, -24.18867593], [-48.07999271, -24.18838199], [-48.07989641, -24.18788964], [-48.0798866, -24.18767744], [-48.07994774, -24.18719453], [-48.08016121, -24.18659012], [-48.08041702, -24.18602194], [-48.08109799, -24.18502145], [-48.08147319, -24.18463867], [-48.08149623, -24.18454843], [-48.08151171, -24.1843092], [-48.08132965, -24.18369926], [-48.08135686, -24.18324334], [-48.08131715, -24.18275567], [-48.08127263, -24.18262463], [-48.08120891, -24.18253868], [-48.08115309, -24.18248889], [-48.08107817, -24.18244807], [-48.08085392, -24.18235269], [-48.08077603, -24.18227573], [-48.08072464, -24.1821853], [-48.08068934, -24.18205882], [-48.08067856, -24.18155766], [-48.08066595, -24.18146282], [-48.08063847, -24.18139052], [-48.08043375, -24.18114619], [-48.08014857, -24.18106421], [-48.07987369, -24.18103641], [-48.07963674, -24.18107643], [-48.07945198, -24.18113915], [-48.07908772, -24.18136846], [-48.07892765, -24.1814132], [-48.07868711, -24.18142161], [-48.07839571, -24.18135765], [-48.0782982, -24.18126259], [-48.07817752, -24.18109524], [-48.0779779, -24.1805981], [-48.07777694, -24.18033123], [-48.07757142, -24.18015462], [-48.0772655, -24.18001388], [-48.07718864, -24.18000014], [-48.07701314, -24.17985972], [-48.0763865, -24.17900033], [-48.07584011, -24.17864677], [-48.07558372, -24.17840682], [-48.07550483, -24.17825764], [-48.07544259, -24.17809042], [-48.07547644, -24.17788736], [-48.0755236, -24.17775205], [-48.07564361, -24.17754016], [-48.07590425, -24.17719774], [-48.07598721, -24.17702188], [-48.07595921, -24.17672836], [-48.07584602, -24.17652942], [-48.07565347, -24.17633931], [-48.07515798, -24.17603552], [-48.07481973, -24.17561478], [-48.0745658, -24.17537937], [-48.07421281, -24.17515271], [-48.07407013, -24.17514332], [-48.07370817, -24.1750295], [-48.0734889, -24.17492058], [-48.07331583, -24.17479372], [-48.07307249, -24.17451317], [-48.07291773, -24.17423738], [-48.0729059, -24.17388972], [-48.07300765, -24.17361007], [-48.07299357, -24.17319018], [-48.07284076, -24.17248098], [-48.07269891, -24.17201108], [-48.0727146, -24.17170864], [-48.07288409, -24.17140659], [-48.07290764, -24.17114932], [-48.07259034, -24.17072412], [-48.07256748, -24.17036289], [-48.07247676, -24.17006469], [-48.07239477, -24.16992], [-48.0721913, -24.1696802], [-48.07211854, -24.16954455], [-48.07212954, -24.16897575], [-48.07234747, -24.16832168], [-48.07239623, -24.16807352], [-48.07238435, -24.16773939], [-48.07221011, -24.16739583], [-48.07199495, -24.16716049], [-48.07189112, -24.16711959], [-48.07154794, -24.16710516], [-48.07146937, -24.16705528], [-48.07133024, -24.16689239], [-48.07138203, -24.16665777], [-48.07161401, -24.16623851], [-48.07181037, -24.16599072], [-48.07199971, -24.16563456], [-48.07206699, -24.16535482], [-48.07204982, -24.16514258], [-48.07194395, -24.16497075], [-48.07174701, -24.16481222], [-48.0712776, -24.16464395], [-48.07070909, -24.16450702], [-48.07056108, -24.16443438], [-48.07032376, -24.164199], [-48.06993448, -24.16358849], [-48.07023008, -24.16308362], [-48.07043829, -24.16259208], [-48.07076056, -24.16200602], [-48.07106763, -24.16137026], [-48.0711147, -24.16047647], [-48.07123739, -24.15998921], [-48.07125309, -24.15969129], [-48.07122571, -24.15959189], [-48.07075487, -24.15910757], [-48.07058921, -24.15878208], [-48.07051562, -24.15811824], [-48.07062293, -24.15782507], [-48.07096571, -24.15756863], [-48.071285, -24.15754689], [-48.07145462, -24.15758796], [-48.07161365, -24.15767417], [-48.07205952, -24.15808165], [-48.07231365, -24.15824033], [-48.07275678, -24.15834534], [-48.07304093, -24.1583506], [-48.0732249, -24.15832399], [-48.0734011, -24.15822964], [-48.07344014, -24.15813944], [-48.07334173, -24.15754777], [-48.07337977, -24.1573763], [-48.0734841, -24.15725469], [-48.07399129, -24.15712507], [-48.07438584, -24.15682814], [-48.07509779, -24.15652301], [-48.07544922, -24.15644265], [-48.07569222, -24.15642974], [-48.07583291, -24.15647525], [-48.07597716, -24.15657043], [-48.07603213, -24.15669248], [-48.07602548, -24.15685499], [-48.07585137, -24.15707124], [-48.07575304, -24.15724705], [-48.07566531, -24.15757188], [-48.07564435, -24.15778853], [-48.07573184, -24.15813188], [-48.07591563, -24.15837163], [-48.07632384, -24.15863003], [-48.07643752, -24.15866644], [-48.07671246, -24.1588658], [-48.07688581, -24.15909198], [-48.07712971, -24.15958472], [-48.07727133, -24.15972955], [-48.07747571, -24.15987005], [-48.07766383, -24.15990214], [-48.07793519, -24.15986219], [-48.07825411, -24.15975919], [-48.07840423, -24.15975055], [-48.07855809, -24.15971483], [-48.07876297, -24.15969278], [-48.07890074, -24.15969314], [-48.0790193, -24.15974311], [-48.0790745, -24.15979742], [-48.07907419, -24.15989674], [-48.07898581, -24.16003648], [-48.07877126, -24.16020296], [-48.07853848, -24.1604913], [-48.0784718, -24.16077556], [-48.0785035, -24.16087045], [-48.07860217, -24.16098356], [-48.07885036, -24.16107901], [-48.07909753, -24.16110674], [-48.07944227, -24.16100831], [-48.07957723, -24.16092738], [-48.07994477, -24.16041366], [-48.08003912, -24.16033264], [-48.08013949, -24.16029228], [-48.08027902, -24.16032424], [-48.08042784, -24.16052778], [-48.08057698, -24.1606365], [-48.08086084, -24.16073204], [-48.08127127, -24.16067893], [-48.08222571, -24.16032019], [-48.08253639, -24.1602939], [-48.08277237, -24.16036224], [-48.08292332, -24.16047548], [-48.08299808, -24.16056597], [-48.08305236, -24.16071961], [-48.08304492, -24.16114397], [-48.08310023, -24.16136082], [-48.08315769, -24.16148284], [-48.08323734, -24.16158239], [-48.08335467, -24.16163234], [-48.08350832, -24.16167336], [-48.08381946, -24.16169673], [-48.08416746, -24.16173825], [-48.08482306, -24.16176249], [-48.08505876, -24.16171795], [-48.08526541, -24.16172299], [-48.08595245, -24.16192789], [-48.0861468, -24.16192838], [-48.08642206, -24.16182525], [-48.08649858, -24.16173966], [-48.08650302, -24.16149136], [-48.08640721, -24.16083198], [-48.0864261, -24.16068304], [-48.08652078, -24.16049819], [-48.08668164, -24.16039023], [-48.08698145, -24.16029618], [-48.08749505, -24.16028846], [-48.08760399, -24.16026164], [-48.08840965, -24.15987542], [-48.08851029, -24.15995241], [-48.08866287, -24.16014242], [-48.08884521, -24.16025575], [-48.08894725, -24.16027857], [-48.08907576, -24.16028794], [-48.08924812, -24.16024321], [-48.08936889, -24.16016677], [-48.08957702, -24.16008602], [-48.08966688, -24.1600682], [-48.08978301, -24.16010912], [-48.08984868, -24.16015444], [-48.08989585, -24.16021777], [-48.08995654, -24.16049331], [-48.0900317, -24.16065602], [-48.09028351, -24.16098622], [-48.09043758, -24.16109046], [-48.09077769, -24.16109582], [-48.09095582, -24.16117753], [-48.09117372, -24.16153926], [-48.09132339, -24.16167507], [-48.09148734, -24.16176578], [-48.09158993, -24.16181117], [-48.09166554, -24.16182039], [-48.09174974, -24.16184318], [-48.09218826, -24.16206098], [-48.09230503, -24.16209288], [-48.09242617, -24.16210221], [-48.09261148, -24.16204397], [-48.09274765, -24.16196306], [-48.09282291, -24.16188649], [-48.09292592, -24.16179193], [-48.09296063, -24.16170172], [-48.09297144, -24.16157536], [-48.09294904, -24.16145791], [-48.09288092, -24.16140807], [-48.09280842, -24.16138082], [-48.09270646, -24.16133541], [-48.09251348, -24.16128074], [-48.09243377, -24.16119929], [-48.0924106, -24.161127], [-48.09242871, -24.16103675], [-48.09279042, -24.16060875], [-48.09289774, -24.16029752], [-48.09306941, -24.1600677], [-48.09327642, -24.15995083], [-48.09361616, -24.15987493], [-48.09413367, -24.15958728], [-48.0943966, -24.15948408], [-48.09459292, -24.15944394], [-48.09484072, -24.15946262], [-48.09511575, -24.15943622], [-48.0953104, -24.15933287], [-48.09554749, -24.15902645], [-48.09559056, -24.15881436], [-48.09550738, -24.15823176], [-48.09560225, -24.15797015], [-48.09563379, -24.15770386], [-48.0956115, -24.15754579], [-48.09540695, -24.15704415], [-48.0954336, -24.15655663], [-48.09563255, -24.15603794], [-48.09569122, -24.15595681], [-48.09574698, -24.15582151], [-48.09580177, -24.1555914], [-48.09611587, -24.15502783], [-48.09625647, -24.15490177], [-48.09675092, -24.15470886], [-48.09705335, -24.15455612], [-48.09718049, -24.15440744], [-48.09736429, -24.15401512], [-48.09749645, -24.15383034], [-48.09761607, -24.15373132], [-48.0978402, -24.15364157], [-48.09835702, -24.15357513], [-48.09852396, -24.15348524], [-48.09868265, -24.15326892], [-48.09875215, -24.15305691], [-48.09873794, -24.15287177], [-48.09866729, -24.15263684], [-48.09867365, -24.15234791], [-48.09873327, -24.15215393], [-48.09886123, -24.15192851], [-48.09895737, -24.15186554], [-48.09910079, -24.15182073], [-48.09938251, -24.15180789], [-48.09979795, -24.15170959], [-48.10035655, -24.15144006], [-48.10133807, -24.15061176], [-48.10193472, -24.14973736], [-48.10198865, -24.1495885], [-48.10238931, -24.14885811], [-48.10270636, -24.14810943], [-48.10288623, -24.14779385], [-48.10310357, -24.1474964], [-48.10338898, -24.14705918], [-48.10360242, -24.14661725], [-48.10390442, -24.14575116], [-48.10410967, -24.14538144], [-48.10433729, -24.14514272], [-48.10490843, -24.14478293], [-48.10539104, -24.14440937], [-48.10552838, -24.14433747], [-48.10561105, -24.14425188], [-48.10587467, -24.14410804], [-48.10614275, -24.14391004], [-48.10649777, -24.14342331], [-48.10698935, -24.14292789], [-48.10727169, -24.14226038], [-48.10741636, -24.14177314], [-48.10782455, -24.1409705], [-48.10814768, -24.14043854], [-48.10831614, -24.14002358], [-48.10837785, -24.1397393], [-48.10833084, -24.13918839], [-48.10820853, -24.13873211], [-48.10821319, -24.1386012], [-48.10832798, -24.13845699], [-48.10874893, -24.13835417], [-48.1091284, -24.13812032], [-48.10935363, -24.13784996], [-48.1095239, -24.13744857], [-48.10949229, -24.13710085], [-48.10931517, -24.13667153], [-48.10886439, -24.13602936], [-48.10862954, -24.13579402], [-48.10839739, -24.13568511], [-48.10820259, -24.13563497], [-48.10742324, -24.13570535], [-48.10722957, -24.13569133], [-48.10711411, -24.1356414], [-48.10697115, -24.13552367], [-48.10690202, -24.1354016], [-48.1068801, -24.1353248], [-48.10692013, -24.1350856], [-48.10702478, -24.13483756], [-48.10720476, -24.13469351], [-48.10749285, -24.13458586], [-48.10778363, -24.13441047], [-48.10788613, -24.13426174], [-48.10794147, -24.13404968], [-48.1078757, -24.13382378], [-48.10764645, -24.13334918], [-48.10674587, -24.13194744], [-48.10658397, -24.13157683], [-48.10648963, -24.13145019], [-48.10645441, -24.1306555], [-48.10650548, -24.13042538], [-48.10675025, -24.12998805], [-48.10710471, -24.12946518], [-48.1073212, -24.12923996], [-48.10743684, -24.1290145], [-48.10747851, -24.12884305], [-48.10746329, -24.12878883], [-48.10707609, -24.12829128], [-48.10676945, -24.12801062], [-48.10647961, -24.12765325], [-48.10637074, -24.12744983], [-48.10635201, -24.1273324], [-48.10647048, -24.1271882], [-48.10683345, -24.12712587], [-48.10741358, -24.12725368], [-48.10797934, -24.12723699], [-48.10820917, -24.12729173], [-48.10837905, -24.12745014], [-48.1085702, -24.12791111], [-48.10886398, -24.1283949], [-48.10897208, -24.12865701], [-48.10915446, -24.12895993], [-48.10941817, -24.12921339], [-48.10977423, -24.12942193], [-48.1104823, -24.1297532], [-48.11109086, -24.12982688], [-48.11118806, -24.12981358], [-48.11166374, -24.12991403], [-48.11257568, -24.1303451], [-48.11313041, -24.13054506], [-48.11326813, -24.13055443], [-48.11383599, -24.13044741], [-48.11416266, -24.12996059], [-48.11459434, -24.12951916], [-48.11478079, -24.12926226], [-48.11535789, -24.12827037], [-48.11544271, -24.12806741], [-48.11544646, -24.12804484], [-48.11547469, -24.12784175], [-48.11545487, -24.12767466], [-48.11536258, -24.1274758], [-48.1152529, -24.1273401], [-48.1149971, -24.12711827], [-48.11447337, -24.1268326], [-48.1139191, -24.12647913], [-48.11336204, -24.12623852], [-48.11307912, -24.12604823], [-48.1129106, -24.12583565], [-48.11285742, -24.12572264], [-48.11281946, -24.12545167], [-48.11291715, -24.12526228], [-48.11304099, -24.12517679], [-48.11327046, -24.12513671], [-48.11348012, -24.12514171], [-48.11395632, -24.12526475], [-48.11418506, -24.1252698], [-48.11445518, -24.12520723], [-48.11464114, -24.12511286], [-48.11501038, -24.12478867], [-48.11547441, -24.12421187], [-48.11587245, -24.12391935], [-48.11613837, -24.12359943], [-48.11635905, -24.1234013], [-48.11660843, -24.12327998], [-48.11691426, -24.12319491], [-48.1173516, -24.12314178], [-48.11801047, -24.12325167], [-48.11883347, -24.12360123], [-48.11896506, -24.12359703], [-48.11919342, -24.12351178], [-48.1192786, -24.1233991], [-48.11932629, -24.12327732], [-48.11932963, -24.12317801], [-48.11922017, -24.1227353], [-48.11918998, -24.12253658], [-48.11919608, -24.12233342], [-48.11911749, -24.12185015], [-48.11910054, -24.12153408], [-48.11923367, -24.12097005], [-48.11943935, -24.12064095], [-48.11982288, -24.12025356], [-48.12008322, -24.11994266], [-48.12025746, -24.11963605], [-48.12043522, -24.11917145], [-48.12042557, -24.11888248], [-48.12025111, -24.11837641], [-48.12019724, -24.11806927], [-48.12014877, -24.11736034], [-48.12005575, -24.11675062], [-48.12010473, -24.11638956], [-48.12016233, -24.11623618], [-48.12020926, -24.11615955], [-48.12029259, -24.11604686], [-48.12054349, -24.11581268], [-48.12082064, -24.11564628], [-48.12105085, -24.11555201], [-48.12145396, -24.11541299], [-48.12159743, -24.11534107], [-48.12169851, -24.11525554], [-48.12180148, -24.11514741], [-48.12189665, -24.11474582], [-48.12200859, -24.11450535], [-48.00053313, -24.09073548], [-48.00053314, -24.09055584], [-47.99418593, -24.08932203], [-47.99389795, -24.08959426], [-47.99357502, -24.08981449], [-47.99320399, -24.09023773], [-47.99299205, -24.09053507], [-47.99280281, -24.09083697], [-47.99271803, -24.09115726], [-47.9927085, -24.09173965], [-47.99276841, -24.0923313], [-47.99279444, -24.09294089], [-47.99272446, -24.09341021], [-47.99259205, -24.09364456], [-47.99243357, -24.09377502], [-47.99221516, -24.09381948], [-47.99216903, -24.09382385], [-47.99198302, -24.09375103], [-47.99177211, -24.09359687], [-47.99173604, -24.09354708], [-47.9915946, -24.09338864], [-47.99147534, -24.0932212], [-47.99142815, -24.09318042], [-47.99129937, -24.09309876], [-47.99124161, -24.09308954], [-47.99101052, -24.09307077], [-47.99075718, -24.09308803], [-47.99052877, -24.09317762], [-47.99025214, -24.09317224], [-47.99015938, -24.09315388], [-47.98994952, -24.09304939], [-47.98986737, -24.09299044], [-47.98967867, -24.09281377], [-47.9895955, -24.09269612], [-47.98939091, -24.09232978], [-47.98934318, -24.09227094], [-47.98924778, -24.09213519], [-47.98918842, -24.09206277], [-47.98907135, -24.09196759], [-47.98896642, -24.09191759], [-47.98881533, -24.09187649], [-47.98868815, -24.09185802], [-47.98850425, -24.09188454], [-47.98841255, -24.09190683], [-47.98812959, -24.09212264], [-47.98795409, -24.09252844], [-47.98789104, -24.09278559], [-47.9878916, -24.09280366], [-47.98783172, -24.09319626], [-47.98783381, -24.09329559], [-47.98768385, -24.09378273], [-47.98726995, -24.0943187], [-47.9870049, -24.09483256], [-47.98693335, -24.09522513], [-47.98698845, -24.09561809], [-47.98722057, -24.09618319], [-47.98752319, -24.09680267], [-47.98753595, -24.09684336], [-47.98783168, -24.09716935], [-47.98802137, -24.09740472], [-47.98805797, -24.09748158], [-47.98819734, -24.09802831], [-47.98827631, -24.09844844], [-47.98827793, -24.09851166], [-47.98840192, -24.0988913], [-47.98849625, -24.09898641], [-47.98854285, -24.09901816], [-47.98860121, -24.09903641], [-47.98869338, -24.09904572], [-47.98891281, -24.09905995], [-47.98930606, -24.09911536], [-47.98950376, -24.09918821], [-47.98978576, -24.09940581], [-47.98994213, -24.09967721], [-47.99000572, -24.09993926], [-47.98993359, -24.1003228], [-47.98950854, -24.10137795], [-47.98949743, -24.10138694], [-47.98935965, -24.1019012], [-47.98933684, -24.10191918], [-47.98929706, -24.10219898], [-47.98937027, -24.10235272], [-47.98966387, -24.10259292], [-47.98981812, -24.10277851], [-47.98987855, -24.10289609], [-47.98988279, -24.10307669], [-47.98987218, -24.1031173], [-47.98980646, -24.10326608], [-47.98978422, -24.10329761], [-47.98972745, -24.10335162], [-47.98968188, -24.10337405], [-47.98955628, -24.1034188], [-47.98945294, -24.10343203], [-47.98939457, -24.10342281], [-47.98933686, -24.10340458], [-47.98923192, -24.10335007], [-47.98915029, -24.10331369], [-47.98903363, -24.1032727], [-47.98884761, -24.10319987], [-47.9884316, -24.1031444], [-47.98809658, -24.10312979], [-47.98800439, -24.10312048], [-47.98757824, -24.10314172], [-47.98748604, -24.10314143], [-47.98695759, -24.10322553], [-47.98643017, -24.10336385], [-47.98584826, -24.10361034], [-47.98558747, -24.10380365], [-47.98547719, -24.10402904], [-47.98542365, -24.10420946], [-47.98542473, -24.10425009], [-47.98547347, -24.10436764], [-47.98549732, -24.10439932], [-47.98563884, -24.1045352], [-47.98581431, -24.10463508], [-47.98583764, -24.1046442], [-47.98606077, -24.10482097], [-47.98619006, -24.10493426], [-47.98621446, -24.1049885], [-47.98625313, -24.10516922], [-47.98624517, -24.10532722], [-47.98624838, -24.10545365], [-47.98630882, -24.1055667], [-47.9863899, -24.10558953], [-47.98648156, -24.10557629], [-47.98651548, -24.10554479], [-47.98666285, -24.10543237], [-47.98685684, -24.10534719], [-47.98702858, -24.10528906], [-47.98729309, -24.10525377], [-47.98751305, -24.10529058], [-47.98754745, -24.10529971], [-47.98764182, -24.1053858], [-47.98771494, -24.1055621], [-47.98771812, -24.10569755], [-47.98768689, -24.10582838], [-47.98760895, -24.10595455], [-47.98731158, -24.1060665], [-47.98693261, -24.10612851], [-47.98668037, -24.10617286], [-47.98640416, -24.10621262], [-47.9861397, -24.10623888], [-47.9858063, -24.10627848], [-47.98559959, -24.10631394], [-47.98553071, -24.10632275], [-47.98533666, -24.10642146], [-47.98515541, -24.10655182], [-47.98503134, -24.10668235], [-47.98500067, -24.10683125], [-47.98500064, -24.10732788], [-47.98503237, -24.10772078], [-47.98510325, -24.10800543], [-47.98524181, -24.10818879], [-47.98502107, -24.10811353], [-47.98481624, -24.10797291], [-47.9846882, -24.10785062], [-47.98462165, -24.10772851], [-47.98447953, -24.10726302], [-47.98451049, -24.10703738], [-47.98477547, -24.1065461], [-47.98488372, -24.10621236], [-47.98483948, -24.10571106], [-47.98476822, -24.10553024], [-47.98455178, -24.105209], [-47.98425208, -24.10463015], [-47.9841076, -24.10446716], [-47.98393397, -24.10436728], [-47.98359812, -24.10424885], [-47.9832952, -24.10436075], [-47.98269334, -24.10451235], [-47.98243383, -24.10452958], [-47.9819043, -24.10441503], [-47.9815287, -24.10423775], [-47.98136691, -24.10409728], [-47.98106144, -24.10374866], [-47.98087496, -24.10347268], [-47.98080946, -24.10340022], [-47.98073713, -24.10334131], [-47.98033071, -24.10286144], [-47.98019466, -24.10274361], [-47.98009021, -24.10256721], [-47.9799242, -24.10240414], [-47.97941999, -24.10177496], [-47.97907208, -24.10126818], [-47.97839213, -24.09997025], [-47.97787493, -24.09920107], [-47.97723298, -24.09906808], [-47.97690827, -24.0989316], [-47.97655824, -24.09866862], [-47.97610611, -24.0982518], [-47.97545398, -24.09756343], [-47.97469033, -24.09710497], [-47.97451772, -24.09690577], [-47.97431635, -24.09651233], [-47.97414916, -24.09634472], [-47.97370416, -24.09615819], [-47.97300521, -24.09598436], [-47.97278998, -24.0958392], [-47.97273762, -24.0957081], [-47.9728531, -24.0955685], [-47.973429, -24.09528592], [-47.97362888, -24.09510598], [-47.9736429, -24.09497509], [-47.97354627, -24.09484837], [-47.9734433, -24.09476676], [-47.97333406, -24.09471675], [-47.97317615, -24.09469366], [-47.97143053, -24.09476476], [-47.97119269, -24.09474594], [-47.97098913, -24.09460532], [-47.97095005, -24.09453746], [-47.97097901, -24.09436148], [-47.97124896, -24.09402373], [-47.9713369, -24.09385246], [-47.97132907, -24.09333322], [-47.97135862, -24.09316176], [-47.9714659, -24.09292281], [-47.97184082, -24.09246351], [-47.97194748, -24.09222456], [-47.97191413, -24.09194454], [-47.97175472, -24.09167312], [-47.9716579, -24.09143353], [-47.97134276, -24.09089523], [-47.97111712, -24.09058296], [-47.97114395, -24.09015866], [-47.97100203, -24.08981506], [-47.97099751, -24.08971121], [-47.97105238, -24.08951273], [-47.97115509, -24.08934151], [-47.97138327, -24.08915262], [-47.97192743, -24.08880222], [-47.97222723, -24.0885368], [-47.97235389, -24.08837016], [-47.9724681, -24.08808158], [-47.97259788, -24.08790592], [-47.97287449, -24.0877488], [-47.97309918, -24.08766825], [-47.97346874, -24.08748432], [-47.97372448, -24.0873181], [-47.97385232, -24.08716953], [-47.97394228, -24.08695311], [-47.97395083, -24.08664611], [-47.97400225, -24.08654244], [-47.97431804, -24.08626804], [-47.97443918, -24.08609687], [-47.97443549, -24.08593884], [-47.97431544, -24.08566305], [-47.97409202, -24.08541401], [-47.97396918, -24.08522398], [-47.97394725, -24.0850117], [-47.97400456, -24.08481324], [-47.97412368, -24.0846872], [-47.97478531, -24.08431912], [-47.97505155, -24.08414389], [-47.97531558, -24.08389643], [-47.97585356, -24.08306291], [-47.97621912, -24.08263515], [-47.97645039, -24.08227471], [-47.9765166, -24.0819995], [-47.97650124, -24.08167438], [-47.97642662, -24.08141679], [-47.97624009, -24.08100082], [-47.97623659, -24.08079313], [-47.97653139, -24.07957054], [-47.97669096, -24.07915116], [-47.97704246, -24.07853373], [-47.97728035, -24.07820942], [-47.9775709, -24.07793947], [-47.97812225, -24.07762519], [-47.97876535, -24.07742859], [-47.97905996, -24.07738437], [-47.97930522, -24.07722262], [-47.97947948, -24.07697938], [-47.97953184, -24.07678541], [-47.97955061, -24.07621207], [-47.97960668, -24.07585106], [-47.97973555, -24.07558508], [-47.97998425, -24.07532852], [-47.98029034, -24.07517147], [-47.98065395, -24.07508233], [-47.98140148, -24.07506214], [-47.98233822, -24.0749071], [-47.98283571, -24.07469195], [-47.98314814, -24.07448074], [-47.98342583, -24.07419266], [-47.98387738, -24.07344011], [-47.98451051, -24.07310801], [-47.98526701, -24.07282145], [-47.98572145, -24.07260616], [-47.98619717, -24.07228258], [-47.98679889, -24.07180589], [-47.98713391, -24.07163086], [-47.98736148, -24.07159545], [-47.98753909, -24.07160053], [-47.98767078, -24.07172736], [-47.98770049, -24.07183582], [-47.98767401, -24.07201181], [-47.98744592, -24.07252129], [-47.9874269, -24.07284179], [-47.98755614, -24.07345622], [-47.98764069, -24.07369579], [-47.98782273, -24.07400337], [-47.98803554, -24.07413045], [-47.98844806, -24.07427624], [-47.98870863, -24.07445764], [-47.98891301, -24.07470661], [-47.98911463, -24.07486977], [-47.98935403, -24.07495631], [-47.98957662, -24.07493443], [-47.98982264, -24.07473203], [-47.98992405, -24.07456981], [-47.99008286, -24.0741775], [-47.99028279, -24.07346928], [-47.99044468, -24.07307699], [-47.99084703, -24.07248227], [-47.99139142, -24.07137782], [-47.99162293, -24.07110312], [-47.9918338, -24.0709277], [-47.99215767, -24.07077971], [-47.99245788, -24.07070841], [-47.99282275, -24.07077727], [-47.9930213, -24.07093591], [-47.99313016, -24.07108976], [-47.99317654, -24.07134275], [-47.99317503, -24.07192065], [-47.99320836, -24.07204718], [-47.99331957, -24.07223262], [-47.99357337, -24.07241401], [-47.99384889, -24.07253678], [-47.99426361, -24.07259225], [-47.99451504, -24.07257947], [-47.99496354, -24.07247251], [-47.99525255, -24.07260434], [-47.99572954, -24.07311149], [-47.99605153, -24.07330211], [-47.99635131, -24.0733527], [-47.99666794, -24.07333109], [-47.99693579, -24.07337257], [-47.99711393, -24.07340472], [-47.99741763, -24.07355915], [-47.99771707, -24.07370456], [-47.99786149, -24.07371403], [-47.99800304, -24.07366481], [-47.99809549, -24.07359284], [-47.99816369, -24.07343503], [-47.99819833, -24.07320939], [-47.99816621, -24.07274426], [-47.99818668, -24.0725276], [-47.99832822, -24.07231132], [-47.99869243, -24.07188804], [-47.99877197, -24.071649], [-47.9987929, -24.07130592], [-47.99866652, -24.07106625], [-47.99839981, -24.07088483], [-47.99833318, -24.07078529], [-47.99833538, -24.07068597], [-47.998415, -24.07059592], [-47.99904024, -24.07039467], [-47.99999931, -24.07000029], [-48.0003024, -24.06998768], [-48.00067167, -24.07019198], [-48.00070177, -24.0702011], [-48.0009508, -24.07017025], [-48.00140062, -24.06986462], [-48.00151038, -24.06976563], [-48.00155739, -24.0696845], [-48.00156997, -24.06960779], [-48.00151872, -24.06949928], [-48.00149317, -24.06943146], [-48.00142231, -24.06930936], [-48.00085135, -24.06861682], [-48.0007568, -24.06841336], [-48.00031583, -24.06764447], [-48.00024417, -24.06740494], [-48.0002304, -24.06645677], [-48.0001719, -24.06597801], [-48.00007544, -24.06563006], [-47.99999743, -24.06493904], [-47.99973034, -24.06436031], [-47.99966749, -24.06406664], [-47.99969862, -24.06395837], [-47.99971905, -24.06324056], [-47.99981366, -24.06291126], [-47.9998611, -24.0628798], [-47.9999856, -24.0626183], [-48.00007809, -24.06253732], [-48.00021351, -24.06248355], [-48.00029281, -24.06247929], [-48.00034007, -24.06249297], [-48.00046758, -24.06258817], [-48.0008542, -24.06292348], [-48.00109677, -24.06314997], [-48.00123472, -24.06341225], [-48.00146236, -24.06368837], [-48.00221309, -24.06395253], [-48.00236886, -24.06405233], [-48.00241586, -24.06413825], [-48.00242713, -24.06425116], [-48.00242065, -24.06434596], [-48.00229534, -24.06449458], [-48.00215053, -24.06459346], [-48.00170446, -24.06472303], [-48.00111336, -24.06484313], [-48.00086189, -24.0650365], [-48.00082962, -24.06512218], [-48.00089107, -24.06529394], [-48.00098535, -24.06539807], [-48.00122884, -24.06553877], [-48.00194466, -24.06577575], [-48.00215305, -24.06593893], [-48.00231993, -24.06619226], [-48.00255579, -24.06623814], [-48.00300896, -24.06618533], [-48.003623, -24.06635425], [-48.00385241, -24.06648137], [-48.00408408, -24.06666719], [-48.00423071, -24.06674439], [-48.00440325, -24.06679007], [-48.00498258, -24.06686858], [-48.00539138, -24.06685177], [-48.00584798, -24.06687572], [-48.00611459, -24.06691266], [-48.00631809, -24.06690423], [-48.00651127, -24.06685065], [-48.00658343, -24.06678313], [-48.00668011, -24.06656221], [-48.00675368, -24.06609738], [-48.00693605, -24.06580897], [-48.00750989, -24.06535921], [-48.00762064, -24.06515187], [-48.0075869, -24.06496214], [-48.00750041, -24.06474515], [-48.00671965, -24.06341991], [-48.00669943, -24.06323474], [-48.00674629, -24.06302267], [-48.00689, -24.06287863], [-48.00700148, -24.06281576], [-48.00759804, -24.06288077], [-48.00794054, -24.06301274], [-48.00894553, -24.06350789], [-48.00912915, -24.06355361], [-48.00924099, -24.06355846], [-48.00931358, -24.06354061], [-48.00934997, -24.06350911], [-48.00936913, -24.06347756], [-48.00938589, -24.06343247], [-48.00939404, -24.06338282], [-48.00937531, -24.06329246], [-48.00933383, -24.06320657], [-48.00920464, -24.0630662], [-48.00902948, -24.06289411], [-48.00867356, -24.06273502], [-48.00836323, -24.06254896], [-48.00831183, -24.06248109], [-48.0082754, -24.06235456], [-48.00828187, -24.06226429], [-48.00832204, -24.06220572], [-48.00839777, -24.06216983], [-48.00847036, -24.06215198], [-48.00857116, -24.06215228], [-48.00880713, -24.06216653], [-48.00904492, -24.06218531], [-48.00922381, -24.06217231], [-48.00980081, -24.06203859], [-48.01018729, -24.06189979], [-48.01045883, -24.06176065], [-48.01060682, -24.06162563], [-48.01069585, -24.06148143], [-48.01081807, -24.06116123], [-48.01086201, -24.06107557], [-48.01092123, -24.06101254], [-48.01100312, -24.06097216], [-48.01110944, -24.06097699], [-48.01135158, -24.06098223], [-48.0114414, -24.0609554], [-48.01148154, -24.06090587], [-48.01149213, -24.06086527], [-48.01146905, -24.06061236], [-48.01151138, -24.06046349], [-48.01158467, -24.06041857], [-48.01181405, -24.06038314], [-48.01222958, -24.06037082], [-48.01263149, -24.06038558], [-48.01285781, -24.06034561], [-48.01300907, -24.0603235], [-48.01317841, -24.06023821], [-48.01325572, -24.060103], [-48.01329625, -24.05993607], [-48.01331754, -24.05982776], [-48.01330008, -24.05972387], [-48.01324467, -24.05957922], [-48.01314197, -24.0594209], [-48.01302666, -24.05930008], [-48.01078038, -24.05925618], [-48.00809761, -24.05612917], [-48.00788188, -24.05605048], [-48.00760893, -24.05590065], [-48.00727148, -24.05573709], [-48.00706158, -24.0556552], [-48.00688717, -24.05561855], [-48.00650992, -24.05558581], [-48.00608648, -24.05558452], [-48.00561779, -24.05551538], [-48.00522422, -24.05540582], [-48.00207063, -24.05543233], [-48.00198456, -24.05544111], [-48.00176666, -24.05536368], [-48.00166223, -24.05534982], [-48.00156204, -24.05535403], [-48.00111262, -24.05539329], [-48.00068183, -24.05537843], [-48.00026621, -24.05525525], [-48.00011155, -24.05519608], [-47.99893644, -24.05519698], [-47.99841419, -24.05515475], [-47.99801267, -24.05504064], [-47.99732107, -24.05559385], [-47.99675678, -24.0559533], [-47.99611947, -24.05611387], [-47.99577705, -24.05613539], [-47.99528625, -24.05628641], [-47.99309131, -24.05622336], [-47.9930854, -24.05622638], [-47.99304578, -24.056303], [-47.99303062, -24.05641132], [-47.99299738, -24.05675888], [-47.99298379, -24.05694393], [-47.99295909, -24.05714251], [-47.99290644, -24.05742228], [-47.99285217, -24.05763884], [-47.99280139, -24.05773801], [-47.99272723, -24.05785066], [-47.9926403, -24.05792262], [-47.99249986, -24.05800796], [-47.99235955, -24.0580572], [-47.99211783, -24.05810612], [-47.99189401, -24.05813249], [-47.99161168, -24.05819482], [-47.99140558, -24.05824837], [-47.99113495, -24.05830622], [-47.99109989, -24.05831062], [-47.99094172, -24.05836883], [-47.99080691, -24.0584271], [-47.99070718, -24.05847193], [-47.99063748, -24.05853493], [-47.99054657, -24.05868816], [-47.99040833, -24.05884124], [-47.99032755, -24.05891773], [-47.99023446, -24.05898967], [-47.99009352, -24.05904342], [-47.98999389, -24.05906118], [-47.98984579, -24.05905167], [-47.98973222, -24.05901971], [-47.98959485, -24.05893802], [-47.98946351, -24.05888793], [-47.98943956, -24.05888335], [-47.98919075, -24.05885096], [-47.98916123, -24.05885538], [-47.98906707, -24.05889121], [-47.98902139, -24.05894525], [-47.98896392, -24.05903086], [-47.9889187, -24.05912553], [-47.9888334, -24.05925168], [-47.98876534, -24.05937789], [-47.98865045, -24.05952651], [-47.98858636, -24.05957147], [-47.98851004, -24.05960284], [-47.98841597, -24.05961157], [-47.98832686, -24.05961129], [-47.98822503, -24.05955678], [-47.98808098, -24.05945249], [-47.98793691, -24.05935722], [-47.98775164, -24.05926634], [-47.98754798, -24.05916186], [-47.98746401, -24.05909838], [-47.98739777, -24.05906206], [-47.98712635, -24.05883546], [-47.98698229, -24.05873116], [-47.98677038, -24.05853182], [-47.98672198, -24.05849104], [-47.98662021, -24.058423], [-47.98650007, -24.05833683], [-47.98639766, -24.0582733], [-47.98625412, -24.05820061], [-47.98602046, -24.05806443], [-47.98590135, -24.05802793], [-47.98571156, -24.05800024], [-47.98555181, -24.05798618], [-47.98529734, -24.05799442], [-47.9850557, -24.05801622], [-47.98486131, -24.05806528], [-47.98468079, -24.05818211], [-47.98459943, -24.05824506], [-47.98455877, -24.058272], [-47.98448968, -24.05833953], [-47.98446627, -24.05835299], [-47.98438488, -24.05842497], [-47.98426285, -24.05851037], [-47.98425117, -24.05851034], [-47.98414583, -24.05857772], [-47.98401105, -24.05862244], [-47.98384012, -24.05864448], [-47.98378112, -24.05864429], [-47.98372766, -24.05863961], [-47.98360965, -24.05863924], [-47.98349667, -24.05861179], [-47.98331241, -24.0585796], [-47.98316961, -24.05853948], [-47.98293351, -24.05849714], [-47.9828362, -24.05843795], [-47.98263235, -24.05832911], [-47.98256668, -24.05830634], [-47.98244766, -24.05825178], [-47.98241143, -24.05824264], [-47.98229791, -24.05819261], [-47.9822044, -24.0582194], [-47.98215757, -24.05824635], [-47.9820278, -24.05827303], [-47.98189751, -24.0582681], [-47.98164769, -24.05818603], [-47.98149911, -24.05814492], [-47.9813316, -24.05806763], [-47.98121757, -24.05799503], [-47.98110349, -24.05793145], [-47.98097779, -24.05785431], [-47.98097166, -24.05784526], [-47.9808759, -24.05781787], [-47.98079246, -24.05777695], [-47.98064333, -24.05772231], [-47.98052419, -24.05769484], [-47.98016087, -24.05755823], [-47.97977964, -24.05743962], [-47.97967218, -24.0574167], [-47.97958926, -24.0574029], [-47.97946512, -24.05739799], [-47.9793593, -24.05742474], [-47.97908414, -24.05754124], [-47.97893978, -24.05768527], [-47.97881201, -24.05784634], [-47.972176, -24.05461142], [-47.97036841, -24.0555306], [-47.96747801, -24.05386203], [-47.96810421, -24.04703162], [-47.96200244, -24.0456322], [-47.96218755, -24.04460657], [-47.95653482, -24.0437897], [-47.95257703, -24.0440897], [-47.95340486, -24.0407521], [-47.95290609, -24.0393501], [-47.95283749, -24.03918851], [-47.95192021, -24.03666063], [-47.95397223, -24.03515186], [-47.95139141, -24.03178419], [-47.95497212, -24.0271798], [-47.95142656, -24.02571515], [-47.949112, -24.02387792], [-47.94910322, -24.02391861], [-47.94909015, -24.0239592], [-47.94907012, -24.02404944], [-47.9490014, -24.02418014], [-47.94882513, -24.024464], [-47.94873539, -24.02462624], [-47.94854002, -24.0249281], [-47.94836659, -24.02511714], [-47.94818661, -24.02525649], [-47.94809968, -24.02532844], [-47.94796456, -24.02546796], [-47.947591, -24.02576468], [-47.94742695, -24.02591311], [-47.9471989, -24.02608843], [-47.9469993, -24.02621418], [-47.94691177, -24.02628612], [-47.94666793, -24.02641172], [-47.94657501, -24.02644752], [-47.94644707, -24.02647869], [-47.94625522, -24.02650964], [-47.94595521, -24.02654925], [-47.94593552, -24.02655372], [-47.94560491, -24.02656162], [-47.94536228, -24.02653821], [-47.94521372, -24.0265061], [-47.9448771, -24.02648237], [-47.94484763, -24.02647325], [-47.94469408, -24.02645468], [-47.94448595, -24.02641332], [-47.9443324, -24.02639474], [-47.94417885, -24.02638067], [-47.94400512, -24.02642244], [-47.93924517, -24.03025558], [-47.93712732, -24.0297459], [-47.93784026, -24.03235047], [-47.93543114, -24.03699951], [-47.93359803, -24.03863565], [-47.93229992, -24.03984458], [-47.93078314, -24.0370219], [-47.93295202, -24.03497911], [-47.93060218, -24.02154919], [-47.93478295, -24.02014017], [-47.93455136, -24.01993615], [-47.93403149, -24.01952919], [-47.93354114, -24.01917377], [-47.93288187, -24.01887371], [-47.93245653, -24.01888186], [-47.93166846, -24.01915752], [-47.93105113, -24.01945599], [-47.93009411, -24.01978699], [-47.92930663, -24.0200887], [-47.92845654, -24.02013101], [-47.92749124, -24.02009737], [-47.92714918, -24.02002572], [-47.92677289, -24.01969418], [-47.92653836, -24.01935991], [-47.92608882, -24.01830013], [-47.92588089, -24.01788719], [-47.92556544, -24.01773687], [-47.9250568, -24.01782475], [-47.92387528, -24.01826424], [-47.92322958, -24.01856321], [-47.92257334, -24.01897759], [-47.92139699, -24.01969262], [-47.92081152, -24.02014676], [-47.92050842, -24.02054341], [-47.92043513, -24.02106597], [-47.92053073, -24.02185851], [-47.92053862, -24.02212189], [-47.92054231, -24.02236807], [-47.92041493, -24.02268194], [-47.91996652, -24.02292502], [-47.9194868, -24.0230384], [-47.91892025, -24.02307525], [-47.91811028, -24.02301252], [-47.91725546, -24.0228464], [-47.91648333, -24.02257448], [-47.91607986, -24.02229554], [-47.91541238, -24.02163073], [-47.91493985, -24.02080588], [-47.91438579, -24.02013893], [-47.91380749, -24.01965483], [-47.91314883, -24.01938073], [-47.91257523, -24.01910501], [-47.91194845, -24.01898662], [-47.91075689, -24.01898323], [-47.90999796, -24.01929493], [-47.90991692, -24.01930929], [-47.90928372, -24.01940088], [-47.90827291, -24.01939357], [-47.90766559, -24.01935205], [-47.90714725, -24.01941495], [-47.90674914, -24.01968775], [-47.90644239, -24.02017098], [-47.90602614, -24.02092153], [-47.9055575, -24.02191179], [-47.90523143, -24.02281978], [-47.90515, -24.02293852], [-47.90512561, -24.02315901], [-47.9049395, -24.02370917], [-47.90445488, -24.02437563], [-47.90389275, -24.02505988], [-47.9033965, -24.02557278], [-47.90313594, -24.02586531], [-47.90299476, -24.02611312], [-47.90295588, -24.02629357], [-47.90294897, -24.0267541], [-47.90307064, -24.02717895], [-47.90319129, -24.02755413], [-47.90332048, -24.0279429], [-47.90336054, -24.02820042], [-47.90328725, -24.02837623], [-47.90313597, -24.02854725], [-47.90303821, -24.02861914], [-47.90272672, -24.03022091], [-47.90221715, -24.03163963], [-47.90135884, -24.03360371], [-47.90052701, -24.03473843], [-47.8992892, -24.03588085], [-47.8978147, -24.03653042], [-47.89553477, -24.03748531], [-47.89369753, -24.03805884], [-47.89216858, -24.03829495], [-47.89086734, -24.03859242], [-47.89002568, -24.03884985], [-47.8889295, -24.03948782], [-47.88807181, -24.04033599], [-47.88756403, -24.04115071], [-47.88717008, -24.04182909], [-47.88687817, -24.04314965], [-47.88695641, -24.04403383], [-47.88712467, -24.04502366], [-47.88728093, -24.04547695], [-47.88737756, -24.0458777], [-47.88771451, -24.04656912], [-47.8879632, -24.04723538], [-47.88838839, -24.04795197], [-47.88875796, -24.04843593], [-47.88895329, -24.04943486], [-47.88890479, -24.04985813], [-47.88917967, -24.05059115], [-47.88962447, -24.05118919], [-47.8902135, -24.05186393], [-47.89048484, -24.05243907], [-47.89049903, -24.05307232], [-47.89025014, -24.05349848], [-47.88994779, -24.05408446], [-47.88978674, -24.05461543], [-47.88991407, -24.05516714], [-47.89021924, -24.055979], [-47.89031723, -24.05666625], [-47.89019211, -24.05720893], [-47.88982928, -24.05764803], [-47.88932681, -24.05798171], [-47.88870226, -24.05811959], [-47.88813492, -24.05818433], [-47.88743274, -24.05835969], [-47.88686086, -24.05834021], [-47.8860214, -24.05844195], [-47.88542363, -24.05866437], [-47.88474128, -24.05904086], [-47.88428725, -24.05978785], [-47.88412773, -24.0605473], [-47.88404339, -24.06116126], [-47.88410111, -24.06198867], [-47.88451178, -24.0628094], [-47.88485515, -24.06325319], [-47.88537055, -24.06349562], [-47.88643211, -24.06360164], [-47.88745736, -24.06347007], [-47.88819985, -24.06327104], [-47.88879832, -24.06304857], [-47.89037895, -24.06262162], [-47.89069821, -24.06261558], [-47.89100202, -24.06266399], [-47.89126571, -24.06289634], [-47.89173748, -24.0634677], [-47.8920983, -24.06417382], [-47.89227969, -24.06459182], [-47.89267809, -24.06474164], [-47.89304566, -24.06462933], [-47.89337249, -24.06433499], [-47.89364793, -24.06411742], [-47.89422924, -24.06313087], [-47.89464454, -24.06241097], [-47.89492132, -24.06195723], [-47.89520402, -24.06176687], [-47.89606678, -24.06180378], [-47.89705037, -24.06210101], [-47.89772285, -24.0625494], [-47.89824861, -24.06302856], [-47.8987772, -24.06354557], [-47.89973529, -24.06397593], [-47.90089203, -24.06432309], [-47.90262524, -24.0647387], [-47.90323438, -24.06499065], [-47.90387023, -24.06516358], [-47.90482143, -24.06533051], [-47.90546023, -24.06563423], [-47.90572456, -24.06589362], [-47.90608189, -24.06644093], [-47.90633195, -24.0673323], [-47.90675519, -24.06827452], [-47.90697026, -24.06887686], [-47.90700887, -24.06932465], [-47.90696318, -24.06982638], [-47.9064057, -24.07060225], [-47.90539177, -24.07149148], [-47.90479985, -24.07200448], [-47.90438081, -24.07251329], [-47.9040823, -24.07331041], [-47.90395075, -24.07384083], [-47.9035881, -24.07432242], [-47.90327768, -24.07459182], [-47.90290672, -24.07470445], [-47.90216241, -24.07482417], [-47.90152534, -24.07459893], [-47.90091654, -24.07431989], [-47.90048109, -24.07414406], [-47.899991, -24.07407395], [-47.89910562, -24.07427021], [-47.89838664, -24.07479376], [-47.8976969, -24.07551534], [-47.89681389, -24.07584883], [-47.89618806, -24.07612421], [-47.89544612, -24.07634945], [-47.89519089, -24.07653927], [-47.89473739, -24.07678522], [-47.89439787, -24.07702899], [-47.89417862, -24.07750781], [-47.89407373, -24.07795832], [-47.89405769, -24.07851273], [-47.89407963, -24.07896445], [-47.89381932, -24.07884122], [-47.89369537, -24.07866127], [-47.89334919, -24.07830325], [-47.89300686, -24.07807238], [-47.89248598, -24.07789993], [-47.89184824, -24.07782086], [-47.89145194, -24.07790055], [-47.8910546, -24.07789003], [-47.8910149, -24.07787273], [-47.89071417, -24.07778726], [-47.8903156, -24.07772171], [-47.88944279, -24.0778113], [-47.88884886, -24.07793174], [-47.8884141, -24.07805006], [-47.88811639, -24.07805567], [-47.88736672, -24.07828824], [-47.88673718, -24.07857448], [-47.88585124, -24.0789558], [-47.88526385, -24.07936848], [-47.88471673, -24.07978038], [-47.88426556, -24.0800443], [-47.88379133, -24.08019944], [-47.88329963, -24.08040907], [-47.88254975, -24.08067862], [-47.88197645, -24.08079952], [-47.88164049, -24.08089701], [-47.88126236, -24.08086714], [-47.88016448, -24.08065048], [-47.87944674, -24.0805548], [-47.87904841, -24.08054426], [-47.87851194, -24.08055437], [-47.87736226, -24.08070327], [-47.87716377, -24.08070701], [-47.87694525, -24.08069308], [-47.87654407, -24.08055442], [-47.87628321, -24.08045014], [-47.8759409, -24.08021924], [-47.87542663, -24.07946273], [-47.87511915, -24.07902992], [-47.87481271, -24.07868914], [-47.87436737, -24.07833292], [-47.87382275, -24.07797766], [-47.87321798, -24.07756939], [-47.8725527, -24.07718031], [-47.87203159, -24.07695276], [-47.87162799, -24.07670495], [-47.87130494, -24.07645562], [-47.87104491, -24.07638739], [-47.87052444, -24.07623293], [-47.86980551, -24.07608219], [-47.86936667, -24.07601732], [-47.86882982, -24.07600936], [-47.86851409, -24.07608838], [-47.86815929, -24.07622319], [-47.86790496, -24.07641026], [-47.86767149, -24.07665198], [-47.86754065, -24.07700098], [-47.86738863, -24.07820862], [-47.86733356, -24.07842805], [-47.86727811, -24.07863034], [-47.86687572, -24.07927683], [-47.86676639, -24.07975266], [-47.8668782, -24.08031641], [-47.86702953, -24.08084332], [-47.86709717, -24.08118861], [-47.86706255, -24.08144464], [-47.86696777, -24.08164677], [-47.8667175, -24.08201696], [-47.86654841, -24.08245782], [-47.86652007, -24.08295111], [-47.86666835, -24.08338601], [-47.86695698, -24.08385529], [-47.86738677, -24.08439501], [-47.86755405, -24.08475648], [-47.86770114, -24.08513727], [-47.86774874, -24.08546486], [-47.86775807, -24.08588433], [-47.86758899, -24.0863252], [-47.86720322, -24.08688023], [-47.86622482, -24.08757362], [-47.86567316, -24.08778522], [-47.86502017, -24.08790668], [-47.864142, -24.0877589], [-47.86384508, -24.08780146], [-47.86331425, -24.08806679], [-47.86288268, -24.08833028], [-47.86254749, -24.0884638], [-47.86203834, -24.0888208], [-47.86159075, -24.08924883], [-47.86130071, -24.0896008], [-47.86111542, -24.09024322], [-47.86097627, -24.09110316], [-47.86084686, -24.09156224], [-47.86059937, -24.09205962], [-47.85997737, -24.09269125], [-47.85946739, -24.09301125], [-47.85909652, -24.09330969], [-47.85878641, -24.09364399], [-47.85847777, -24.09408836], [-47.85836695, -24.09445503], [-47.85843929, -24.09505652], [-47.85859259, -24.09567365], [-47.85878765, -24.0964001], [-47.85886096, -24.09700067], [-47.85883608, -24.09769513], [-47.85869349, -24.09844594], [-47.85837302, -24.09920007], [-47.85771801, -24.10016172], [-47.85692802, -24.10128924], [-47.85652859, -24.10211796], [-47.85635781, -24.10269159], [-47.85610491, -24.10315256], [-47.85576075, -24.10345422], [-47.85492333, -24.10392612], [-47.85416796, -24.10422474], [-47.85317118, -24.1043745], [-47.85214307, -24.10472158], [-47.85112001, -24.10529804], [-47.85037969, -24.10573809], [-47.84942369, -24.10611658], [-47.84831977, -24.10626833], [-47.84717291, -24.106093], [-47.84592112, -24.10601797], [-47.84502634, -24.10593628], [-47.84381678, -24.10615553], [-47.84226101, -24.106873], [-47.84116432, -24.10735242], [-47.83985628, -24.10796692], [-47.83894605, -24.10880351], [-47.8384592, -24.10940272], [-47.83801023, -24.11009958], [-47.83737982, -24.11066867], [-47.83703289, -24.11113413], [-47.83701164, -24.11179026], [-47.83713684, -24.11260759], [-47.83714839, -24.11313197], [-47.83733849, -24.11365302], [-47.83738431, -24.11411118], [-47.83729167, -24.11476862], [-47.83701716, -24.11520849], [-47.83623264, -24.11502534], [-47.83572983, -24.1149962], [-47.83516992, -24.1150752], [-47.83477206, -24.11521353], [-47.83430758, -24.11551863], [-47.83365814, -24.11580042], [-47.8329186, -24.11589672], [-47.83249987, -24.11589954], [-47.83154843, -24.11581888], [-47.83117206, -24.1158354], [-47.83091969, -24.11588853], [-47.83033383, -24.11612091], [-47.82987432, -24.116417], [-47.82929126, -24.11669904], [-47.82854198, -24.11689912], [-47.82743231, -24.11711577], [-47.82715178, -24.11714622], [-47.82692438, -24.1171227], [-47.82676359, -24.11706336], [-47.8265306, -24.11692694], [-47.82643662, -24.1169085], [-47.82627784, -24.11693494], [-47.82595233, -24.11710966], [-47.82574744, -24.11714042], [-47.82563576, -24.11709482], [-47.82533562, -24.11685879], [-47.82491112, -24.11678029], [-47.8246711, -24.11670255], [-47.82439268, -24.1165524], [-47.82425128, -24.11642089], [-47.82413616, -24.1162037], [-47.82402488, -24.11582399], [-47.82399058, -24.11579675], [-47.82379812, -24.11567407], [-47.82363856, -24.1156102], [-47.82338178, -24.11556397], [-47.82316344, -24.11557662], [-47.82278352, -24.11568791], [-47.82258812, -24.11578642], [-47.82223675, -24.11609198], [-47.82196882, -24.11618568], [-47.82166438, -24.11620246], [-47.82113265, -24.11605127], [-47.82068997, -24.11604491], [-47.82047701, -24.11608917], [-47.8200865, -24.11622749], [-47.81929701, -24.11635062], [-47.81908763, -24.11641746], [-47.81869055, -24.11663703], [-47.81868746, -24.11664153], [-47.81837929, -24.11666734], [-47.81813125, -24.11658956], [-47.81756809, -24.11620795], [-47.81707092, -24.11578599], [-47.81649012, -24.11511536], [-47.81632337, -24.11501534], [-47.81607889, -24.11496917], [-47.81576768, -24.11498591], [-47.8155254, -24.11511583], [-47.81523776, -24.11534036], [-47.81507667, -24.11558349], [-47.81473667, -24.11594776], [-47.81448775, -24.11605057], [-47.81426681, -24.11609027], [-47.81398594, -24.11606651], [-47.81381962, -24.11600711], [-47.8134888, -24.11576193], [-47.81324104, -24.11551257], [-47.8131447, -24.11547153], [-47.812781, -24.1154113], [-47.81251703, -24.11545082], [-47.81198829, -24.11568789], [-47.81162083, -24.11588498], [-47.8112428, -24.11598271], [-47.81080434, -24.1159944], [-47.80921624, -24.11585224], [-47.80889759, -24.11588249], [-47.80816261, -24.11604642], [-47.80754947, -24.11607091], [-47.80631157, -24.11597986], [-47.80558477, -24.11598581], [-47.80538271, -24.11581791], [-47.8052006, -24.11571779], [-47.80459977, -24.11549402], [-47.80432094, -24.11542962], [-47.80408431, -24.11529315], [-47.80396932, -24.11517078], [-47.80387892, -24.11493109], [-47.80380616, -24.11448832], [-47.80373538, -24.11426228], [-47.80346167, -24.11403537], [-47.80295354, -24.11372169], [-47.80254931, -24.11329104], [-47.80234903, -24.11301479], [-47.80225504, -24.11275704], [-47.80221584, -24.11248597], [-47.80203989, -24.1117809], [-47.80174254, -24.11112949], [-47.80152733, -24.11076739], [-47.80142706, -24.1105367], [-47.80119466, -24.11016999], [-47.80096175, -24.10966333], [-47.80061476, -24.10862343], [-47.80040431, -24.10817104], [-47.80020694, -24.10793091], [-47.7999963, -24.10776295], [-47.79979514, -24.10766276], [-47.79945976, -24.10760262], [-47.79906004, -24.10761446], [-47.79887579, -24.10769945], [-47.79805281, -24.10788552], [-47.79752761, -24.10791035], [-47.79731582, -24.10784623], [-47.79702331, -24.10769599], [-47.79684521, -24.1075372], [-47.79670478, -24.10734697], [-47.79656159, -24.10721091], [-47.79625178, -24.10720053], [-47.79580085, -24.10737016], [-47.79552546, -24.10735993], [-47.79537441, -24.10732316], [-47.7951331, -24.10725891], [-47.79467134, -24.10690475], [-47.79358106, -24.10598353], [-47.79326669, -24.10554422], [-47.7925104, -24.10412327], [-47.79230605, -24.10380634], [-47.79204878, -24.10350273], [-47.79181137, -24.10340238], [-47.79166134, -24.10340624], [-47.79152075, -24.1034426], [-47.79155906, -24.10364432], [-47.79164397, -24.10426571], [-47.79169462, -24.10495333], [-47.79164099, -24.105774], [-47.79147597, -24.10639997], [-47.7913074, -24.10686208], [-47.79110453, -24.10739039], [-47.79100595, -24.10778564], [-47.79390319, -24.1170115], [-47.79168914, -24.11869138], [-47.79051559, -24.12058171], [-47.79096402, -24.12149156], [-47.79003186, -24.12298404], [-47.79334242, -24.13066131], [-47.78861293, -24.13243778], [-47.78933824, -24.1384886], [-47.79335559, -24.14164347], [-47.79370881, -24.14424617], [-47.79191957, -24.14651159], [-47.79383273, -24.14751785], [-47.79454135, -24.14904199], [-47.79392818, -24.15190436], [-47.79661896, -24.15374917], [-47.7989391, -24.15408345], [-47.8006158, -24.1526643], [-47.80215163, -24.15370711], [-47.80866329, -24.15602685], [-47.80989967, -24.15720997], [-47.80826973, -24.15918644], [-47.81199697, -24.16275805], [-47.81174489, -24.16488683], [-47.8144467, -24.16584258], [-47.81603498, -24.16551158], [-47.82098551, -24.16448998], [-47.8255243, -24.16711929], [-47.82849087, -24.17024357], [-47.83122242, -24.16948025], [-47.83527444, -24.17266646], [-47.83863824, -24.16928633], [-47.84121772, -24.17009884], [-47.83989157, -24.1600268], [-47.84029707, -24.15994123], [-47.84067066, -24.1600195], [-47.84126427, -24.16038758], [-47.84159225, -24.16048372], [-47.84212504, -24.16045426], [-47.84287108, -24.16059271], [-47.84315817, -24.16049454], [-47.8434118, -24.1603195], [-47.8435243, -24.16020256], [-47.84374955, -24.15978811], [-47.84402995, -24.15941453], [-47.84445233, -24.15906408], [-47.84456025, -24.15900582], [-47.84498083, -24.15889915], [-47.84602472, -24.15887624], [-47.84657949, -24.15874754], [-47.84691592, -24.15862247], [-47.84727969, -24.15856074], [-47.84753367, -24.15857078], [-47.84785129, -24.15864879], [-47.84826973, -24.15886718], [-47.84841953, -24.15931473], [-47.84867108, -24.159704], [-47.84914289, -24.16021154], [-47.84959326, -24.16056999], [-47.84958782, -24.1605519], [-47.84959161, -24.16039841], [-47.84964028, -24.16025415], [-47.84980809, -24.16001554], [-47.85005919, -24.159854], [-47.85050354, -24.15966617], [-47.85154139, -24.15935426], [-47.85201597, -24.15914395], [-47.85211535, -24.15907211], [-47.85221682, -24.1589461], [-47.85226772, -24.15871606], [-47.85223533, -24.15828251], [-47.85213814, -24.15788935], [-47.85211615, -24.15760032], [-47.85220203, -24.15725302], [-47.85238525, -24.15700997], [-47.85286012, -24.15686737], [-47.85323459, -24.15688692], [-47.85427752, -24.15705809], [-47.85541698, -24.15710774], [-47.85607018, -24.15710581], [-47.85632868, -24.1570662], [-47.85656891, -24.15699039], [-47.85705715, -24.15675304], [-47.85717738, -24.15669031], [-47.85730783, -24.15667728], [-47.85833201, -24.15665422], [-47.85870136, -24.15658344], [-47.85909134, -24.15644501], [-47.8596069, -24.15614456], [-47.8598488, -24.15597393], [-47.85992545, -24.15576205], [-47.86004685, -24.15557742], [-47.86032175, -24.15532116], [-47.86061044, -24.15513719], [-47.8617817, -24.15455937], [-47.86250812, -24.15415137], [-47.86339436, -24.15375754], [-47.86361856, -24.1536907], [-47.86463806, -24.15360437], [-47.86567209, -24.15357228], [-47.86612329, -24.15349276], [-47.86629071, -24.15346632], [-47.86639405, -24.15346221], [-47.86655382, -24.15348992], [-47.86664932, -24.15349688], [-47.87590911, -24.17858144], [-47.87627275, -24.17851413], [-47.87687676, -24.17848269], [-47.8776704, -24.17852459], [-47.8786005, -24.17842358], [-47.87925923, -24.17839027], [-47.87982751, -24.17837952], [-47.88060269, -24.17846918], [-47.88277009, -24.17878284], [-47.88352115, -24.17881035], [-47.88595334, -24.1787643], [-47.88692843, -24.17864152], [-47.88776476, -24.17841706], [-47.88880802, -24.17829297], [-47.88955766, -24.17825788], [-47.89028647, -24.17830665], [-47.89101667, -24.17841796], [-47.89172367, -24.17850886], [-47.89247661, -24.17861974], [-47.89322717, -24.17862634], [-47.89399721, -24.17848655], [-47.89467442, -24.17826507], [-47.89560024, -24.17797627], [-47.89619061, -24.17776791], [-47.91036553, -24.20158559], [-47.94167346, -24.20324043], [-47.9419215, -24.20360678], [-47.94235876, -24.2039559], [-47.94259577, -24.20422307], [-47.94291693, -24.20437766], [-47.94348583, -24.20458275], [-47.94420374, -24.20475675], [-47.944638, -24.20493882], [-47.94478283, -24.2050296], [-47.94509117, -24.20531507], [-47.94516892, -24.20556362], [-47.94518337, -24.20579391], [-47.94508128, -24.20624051], [-47.94485636, -24.20678149], [-47.94490932, -24.20707512], [-47.94500403, -24.20723796], [-47.94507999, -24.20747299], [-47.94508337, -24.20769873], [-47.94495513, -24.20837547], [-47.94496863, -24.20853804], [-47.94514351, -24.20926096], [-47.9450259, -24.2100461], [-47.94510227, -24.21079125], [-47.94488498, -24.21157606], [-47.94476385, -24.21216253], [-47.94471415, -24.21273571], [-47.94473169, -24.21311499], [-47.94482637, -24.21344036], [-47.94498177, -24.21381107], [-47.94513653, -24.21403732], [-47.94555913, -24.21452182], [-47.94574932, -24.21481139], [-47.9459858, -24.21506501], [-47.94627042, -24.21528719], [-47.94677644, -24.2155327], [-47.94715931, -24.21565282], [-47.94713794, -24.2156888], [-47.94693878, -24.21762011], [-47.94662265, -24.22026225], [-47.94926171, -24.22041154], [-47.95250659, -24.22057664], [-47.95559438, -24.22067173], [-47.95805363, -24.22417803], [-47.96442562, -24.23349865], [-47.96684484, -24.23702992], [-47.96828553, -24.2390967], [-47.96670552, -24.24016592], [-47.96508473, -24.2412509], [-47.96302486, -24.24301499], [-47.96120694, -24.24439633], [-47.96305293, -24.24596653], [-47.96399799, -24.2465501], [-47.95902329, -24.25050592], [-47.96386211, -24.25609492]]]]}}]}