{"type": "FeatureCollection", "features": [{"type": "Feature", "properties": {"name": "Parque Estadual Serra do Mar - Núcleo Cunha"}, "geometry": {"type": "MultiPolygon", "coordinates": [[[[-45.06626708, -23.32138342], [-45.06725027, -23.32118366], [-45.0685929, -23.32040789], [-45.06937699, -23.32012254], [-45.06965209, -23.31932691], [-45.06988329, -23.31880232], [-45.07027126, -23.31799191], [-45.07058019, -23.31713375], [-45.07133641, -23.31547908], [-45.07147458, -23.31519377], [-45.07152415, -23.31504934], [-45.07179271, -23.31451651], [-45.07187016, -23.31435189], [-45.07212218, -23.31409158], [-45.07285011, -23.31322149], [-45.07312743, -23.31284786], [-45.0736342, -23.31209778], [-45.07380662, -23.31165417], [-45.0740389, -23.31112418], [-45.07430266, -23.31046835], [-45.07448245, -23.30964811], [-45.07445686, -23.30937831], [-45.07442303, -23.30865113], [-45.07434098, -23.3080142], [-45.07434063, -23.30775216], [-45.07437605, -23.30723065], [-45.07443098, -23.30686948], [-45.0745287, -23.30639989], [-45.07460059, -23.30590717], [-45.07454922, -23.3050983], [-45.0744354, -23.30455918], [-45.07434529, -23.3042085], [-45.07425283, -23.30403126], [-45.07412322, -23.30399234], [-45.10944793, -23.26706601], [-45.10873492, -23.26632548], [-45.1069486, -23.26427403], [-45.10595023, -23.26287337], [-45.1058483, -23.26268329], [-45.10583201, -23.26258988], [-45.10592328, -23.26233789], [-45.10604194, -23.26212533], [-45.10585526, -23.26152325], [-45.10558855, -23.26103426], [-45.10536454, -23.26075759], [-45.10443318, -23.25997546], [-45.10411224, -23.2597835], [-45.10359062, -23.25959998], [-45.10325186, -23.25941668], [-45.10299343, -23.25914832], [-45.10296451, -23.25909169], [-45.10298317, -23.25904871], [-45.10304007, -23.25884209], [-45.1032021, -23.25873525], [-45.10346363, -23.25863863], [-45.10421317, -23.25850074], [-45.10459139, -23.25831169], [-45.10494437, -23.2574372], [-45.10502777, -23.25698807], [-45.10500689, -23.25580667], [-45.10503771, -23.25502934], [-45.10511964, -23.25463981], [-45.10589642, -23.25410853], [-45.1059852, -23.25395768], [-45.10605889, -23.25358515], [-45.10591771, -23.25344033], [-45.10578287, -23.25335618], [-45.10471634, -23.25290373], [-45.10448402, -23.25268743], [-45.10432076, -23.25228734], [-45.1039606, -23.25178192], [-45.10372914, -23.25137136], [-45.10276979, -23.2503781], [-45.10246972, -23.24985496], [-45.10224889, -23.24929102], [-45.10200419, -23.24842478], [-45.10183272, -23.24804078], [-45.10139259, -23.24740808], [-45.10076372, -23.24677594], [-45.10062498, -23.24657243], [-45.10051871, -23.2462413], [-45.10045391, -23.2457746], [-45.10115423, -23.24505108], [-45.10114465, -23.24492347], [-45.10126634, -23.2443884], [-45.10129207, -23.2438983], [-45.10126643, -23.24346947], [-45.10111055, -23.24261051], [-45.10107869, -23.2419177], [-45.10117556, -23.2412782], [-45.10139536, -23.24069007], [-45.10209536, -23.23950029], [-45.10236362, -23.23916798], [-45.10268064, -23.23864152], [-45.10393482, -23.23754016], [-45.10413066, -23.23732921], [-45.10477424, -23.23636504], [-45.10527873, -23.23576931], [-45.10566178, -23.23546019], [-45.10596308, -23.23529482], [-45.10645144, -23.23519663], [-45.10698103, -23.23521134], [-45.10732432, -23.2352872], [-45.10776444, -23.23548165], [-45.1082451, -23.23561732], [-45.10871767, -23.23608352], [-45.10894362, -23.23615963], [-45.10927998, -23.23615944], [-45.10978491, -23.23602363], [-45.11046125, -23.23607484], [-45.11052231, -23.23613665], [-45.11061705, -23.23618111], [-45.1116438, -23.23621705], [-45.11192101, -23.23615688], [-45.11218186, -23.23600602], [-45.1125319, -23.23560674], [-45.11267859, -23.23548601], [-45.11305358, -23.23530591], [-45.11326415, -23.23525158], [-45.11343068, -23.2352388], [-45.11385971, -23.23532729], [-45.11441375, -23.23534158], [-45.11520512, -23.23556685], [-45.11566919, -23.23558197], [-45.11594586, -23.23554347], [-45.11619908, -23.23566442], [-45.1164025, -23.23582228], [-45.11668853, -23.23616077], [-45.11674204, -23.23633176], [-45.11693329, -23.23662761], [-45.11701535, -23.23671064], [-45.11717014, -23.23677803], [-45.11718693, -23.23689133], [-45.11733314, -23.23722961], [-45.11752559, -23.23759686], [-45.11829654, -23.2381777], [-45.11868784, -23.23869006], [-45.11881808, -23.23880211], [-45.11922548, -23.23897597], [-45.11947903, -23.23904361], [-45.11990249, -23.23908046], [-45.12039084, -23.23898312], [-45.12077356, -23.23884654], [-45.12137675, -23.23889075], [-45.1219237, -23.23887595], [-45.12263935, -23.23867944], [-45.12316933, -23.23867874], [-45.12347159, -23.23863354], [-45.12369124, -23.23852788], [-45.12414008, -23.2380457], [-45.12419625, -23.23794747], [-45.12427749, -23.23762388], [-45.12426903, -23.23720897], [-45.12416259, -23.23668267], [-45.12363982, -23.23526672], [-45.12365634, -23.23507099], [-45.12373694, -23.2348531], [-45.1241444, -23.23418301], [-45.12419068, -23.23400959], [-45.12421171, -23.23386907], [-45.12421185, -23.23370281], [-45.12418991, -23.23356049], [-45.12414324, -23.23342941], [-45.124062, -23.23311237], [-45.12406585, -23.23303474], [-45.1240759, -23.23294369], [-45.12410455, -23.23285122], [-45.1241387, -23.23277422], [-45.12417813, -23.23272083], [-45.12426012, -23.23264664], [-45.12433188, -23.23263096], [-45.12443373, -23.23262405], [-45.12449517, -23.23263075], [-45.12455379, -23.23264652], [-45.12302773, -23.23180197], [-45.12205316, -23.23132892], [-45.1207708, -23.23066657], [-45.12036056, -23.23057212], [-45.11933482, -23.23019385], [-45.1180018, -23.23019486], [-45.11692497, -23.23000613], [-45.11641202, -23.22972223], [-45.11589891, -23.22924879], [-45.11482189, -23.22882315], [-45.11369372, -23.22853968], [-45.11266738, -23.22740326], [-45.11184644, -23.22664574], [-45.11117948, -23.22607763], [-45.11025614, -23.22546232], [-45.10958958, -23.22536803], [-45.10892313, -23.22541587], [-45.10830791, -23.2254163], [-45.10748755, -23.2253221], [-45.10656442, -23.22494367], [-45.10579548, -23.22503895], [-45.10492421, -23.22541859], [-45.10420631, -23.22522954], [-45.1034366, -23.2243298], [-45.10282088, -23.22366686], [-45.10174376, -23.22300422], [-45.10133326, -23.22253067], [-45.10046169, -23.22248385], [-45.09964141, -23.22248437], [-45.09902656, -23.22295857], [-45.09841146, -23.2231011], [-45.09769368, -23.22305417], [-45.09728285, -23.22210679], [-45.09676937, -23.22096995], [-45.09661526, -23.22054361], [-45.09630695, -23.21954879], [-45.09533232, -23.21874389], [-45.0947159, -23.21699114], [-45.0947153, -23.21613827], [-45.09404836, -23.21542795], [-45.09317664, -23.2150968], [-45.09235569, -23.21405488], [-45.09230397, -23.21339157], [-45.09061122, -23.21182896], [-45.08994382, -23.21036051], [-45.08958435, -23.20941308], [-45.08861018, -23.20912934], [-45.08732832, -23.20865624], [-45.08645635, -23.20785124], [-45.08594319, -23.20699865], [-45.08563502, -23.20605118], [-45.08481446, -23.20543566], [-45.08384027, -23.20505713], [-45.08291764, -23.20515238], [-45.08199548, -23.20600574], [-45.0811241, -23.20610095], [-45.08030393, -23.20610137], [-45.07922739, -23.20600716], [-45.07748453, -23.20600802], [-45.07656202, -23.20634015], [-45.07599783, -23.20577184], [-45.07492088, -23.20491949], [-45.07440788, -23.204209], [-45.07302332, -23.20321464], [-45.07225381, -23.20207783], [-45.07204837, -23.20131981], [-45.07225315, -23.2008459], [-45.07194532, -23.20032485], [-45.07097115, -23.19985147], [-45.07025331, -23.19942536], [-45.06943306, -23.19918881], [-45.06912551, -23.19918895], [-45.06861319, -23.19971037], [-45.06789574, -23.20004235], [-45.06753717, -23.20051633], [-45.06779375, -23.2010848], [-45.06789648, -23.20151119], [-45.06789703, -23.20260097], [-45.06774356, -23.203217], [-45.06774387, -23.20383296], [-45.06779554, -23.20463843], [-45.06779609, -23.20572821], [-45.06759152, -23.20667593], [-45.06723312, -23.20752896], [-45.06600343, -23.20871402], [-45.06426048, -23.20861998], [-45.06369651, -23.20843068], [-45.0613385, -23.208479], [-45.06036452, -23.20847937], [-45.05959572, -23.20876396], [-45.05877584, -23.20947499], [-45.05826341, -23.20990162], [-45.05810972, -23.21013858], [-45.05754606, -23.21065999], [-45.05682868, -23.21137098], [-45.05667514, -23.21193961], [-45.05709293, -23.2125398], [-45.01771217, -23.22720318], [-45.01684125, -23.22754638], [-45.01676307, -23.22843266], [-45.01957179, -23.22994263], [-45.01500521, -23.23245209], [-45.01439448, -23.23159083], [-45.01358298, -23.23116238], [-45.01207584, -23.22962697], [-45.0097961, -23.23041275], [-45.00894599, -23.23019854], [-45.00832773, -23.23002002], [-45.00767079, -23.22919873], [-45.00728435, -23.22859167], [-45.00670474, -23.22830602], [-45.00648292, -23.22810104], [-45.00627477, -23.22819724], [-45.00552233, -23.22859987], [-45.00507568, -23.22897959], [-45.00450409, -23.22933978], [-45.00390652, -23.22994008], [-45.00328296, -23.2301562], [-45.00247751, -23.23008418], [-45.00167207, -23.22974803], [-45.00047689, -23.22950793], [-44.99951556, -23.2298681], [-44.99912583, -23.2298681], [-44.998798, -23.22969397], [-44.99799563, -23.22925579], [-44.99756692, -23.22921977], [-44.99745001, -23.22921977], [-44.99690437, -23.22981404], [-44.9964367, -23.22990408], [-44.9958326, -23.23030025], [-44.99550132, -23.23058838], [-44.99542334, -23.2316869], [-44.99511153, -23.23219114], [-44.99380587, -23.23309152], [-44.99357201, -23.23341567], [-44.99290948, -23.23283936], [-44.9924613, -23.23256921], [-44.9918962, -23.23233507], [-44.99105831, -23.23159667], [-44.98928518, -23.22947154], [-44.98949958, -23.22887727], [-44.98872012, -23.22902129], [-44.98766786, -23.22893117], [-44.98702484, -23.22862497], [-44.98643802, -23.22797708], [-44.98647848, -23.22792736], [-44.98383629, -23.22434739], [-44.98191764, -23.2249661], [-44.97511159, -23.22780888], [-44.97515145, -23.22835953], [-44.97395581, -23.22894705], [-44.97202582, -23.22971109], [-44.9700959, -23.23005045], [-44.96972812, -23.23089968], [-44.96641937, -23.2325976], [-44.96825719, -23.23327742], [-44.96992734, -23.23516536], [-44.97013124, -23.23497839], [-44.9697096, -23.23624381], [-44.96898546, -23.23794358], [-44.96829162, -23.23897454], [-44.96711532, -23.23981033], [-44.96642148, -23.24072981], [-44.96621009, -23.2419002], [-44.96654156, -23.24293136], [-44.96675237, -23.24412971], [-44.96654113, -23.24465915], [-44.96617924, -23.24465907], [-44.96578726, -23.24435244], [-44.96518425, -23.24379496], [-44.9644907, -23.24351613], [-44.96376686, -23.24373891], [-44.96319368, -23.24443546], [-44.96256026, -23.24482545], [-44.96195713, -23.24471384], [-44.96108264, -23.24440708], [-44.96011778, -23.24379376], [-44.95873093, -23.24248363], [-44.95710272, -23.2416193], [-44.95640934, -23.24089455], [-44.95631922, -23.2398077], [-44.95641005, -23.23869302], [-44.9570637, -23.23691224], [-44.95728401, -23.236215], [-44.95722145, -23.23519807], [-44.95671863, -23.23450063], [-44.95586983, -23.23426795], [-44.95492669, -23.23409336], [-44.95388931, -23.23371535], [-44.95297412, -23.23325787], [-44.95125551, -23.23261639], [-44.94977815, -23.23197497], [-44.94884362, -23.23125011], [-44.94769814, -23.23021864], [-44.94718559, -23.2300234], [-44.94655232, -23.23010678], [-44.94561746, -23.23027367], [-44.94483357, -23.22996685], [-44.94335622, -23.22943684], [-44.94272331, -23.22865632], [-44.94236185, -23.22776443], [-44.94221172, -23.22625953], [-44.94163926, -23.22520035], [-44.94085561, -23.22444763], [-44.93989093, -23.22394565], [-44.93946916, -23.22310946], [-44.93886664, -23.22193879], [-44.93868655, -23.22012733], [-44.93871781, -23.21770287], [-44.93844673, -23.21706181], [-44.9377837, -23.21642059], [-44.93703008, -23.21605801], [-44.93579393, -23.21594604], [-44.93507047, -23.21558347], [-44.93434728, -23.2146914], [-44.93344313, -23.21391073], [-44.93296133, -23.21268435], [-44.93257024, -23.2109564], [-44.93163644, -23.20928394], [-44.93067212, -23.20836388], [-44.92973775, -23.20783399], [-44.92865256, -23.20747122], [-44.92684372, -23.20724745], [-44.92548725, -23.20680093], [-44.92397991, -23.20657727], [-44.92265349, -23.20632581], [-44.92147806, -23.20565641], [-44.92054394, -23.20481991], [-44.91897662, -23.20412242], [-44.91801219, -23.20359244], [-44.91740944, -23.20322984], [-44.9173494, -23.2028118], [-44.91753073, -23.20208733], [-44.91762172, -23.20119562], [-44.91735097, -23.20024798], [-44.91698965, -23.19952323], [-44.91653788, -23.19879843], [-44.9161162, -23.19818512], [-44.91554349, -23.19804547], [-44.91512134, -23.19818459], [-44.91451822, -23.19846293], [-44.91373412, -23.19888052], [-44.91255795, -23.19952083], [-44.91201489, -23.20013361], [-44.91174305, -23.20091375], [-44.91141074, -23.20194467], [-44.91104856, -23.20255755], [-44.91062633, -23.20278025], [-44.91023448, -23.20266856], [-44.90966198, -23.20219448], [-44.90881821, -23.20163664], [-44.90782349, -23.20138526], [-44.90670819, -23.20113379], [-44.9056229, -23.20107741], [-44.90480883, -23.20118839], [-44.90366308, -23.2013549], [-44.90278859, -23.20163303], [-44.9018838, -23.20210622], [-44.90137081, -23.20274686], [-44.90013338, -23.20455747], [-44.89934904, -23.20519792], [-44.89883623, -23.20555987], [-44.89829338, -23.20578246], [-44.89732849, -23.20594904], [-44.89672531, -23.20619946], [-44.89624265, -23.20656142], [-44.89557893, -23.20711833], [-44.89491515, -23.20775884], [-44.89467345, -23.20839964], [-44.89461239, -23.20937496], [-44.89431049, -23.20987637], [-44.89388802, -23.21034984], [-44.89322441, -23.21073953], [-44.89265138, -23.21096209], [-44.89219906, -23.21104538], [-44.89162634, -23.21087778], [-44.89111401, -23.21059875], [-44.89069228, -23.21015258], [-44.88984874, -23.20934383], [-44.88912567, -23.20870237], [-44.88831221, -23.2080051], [-44.88761943, -23.20722432], [-44.88689678, -23.20610909], [-44.88602335, -23.2050495], [-44.88502916, -23.20421274], [-44.88415526, -23.20395422], [-44.88418353, -23.20457661], [-44.88403628, -23.20533529], [-44.88371301, -23.20622843], [-44.88344773, -23.20785331], [-44.88335895, -23.21013548], [-44.88346543, -23.21193299], [-44.88330246, -23.21298138], [-44.88238335, -23.21387941], [-44.88136201, -23.21471608], [-44.88128832, -23.21514962], [-44.88133198, -23.21551459], [-44.88149282, -23.21598896], [-44.88176995, -23.21649051], [-44.88213615, -23.21684218], [-44.88266363, -23.21716777], [-44.88345407, -23.2174529], [-44.88376183, -23.21757507], [-44.88455205, -23.21811675], [-44.88515278, -23.21852368], [-44.88563518, -23.21901182], [-44.88635277, -23.21993283], [-44.88683607, -23.22052846], [-44.88705458, -23.22102996], [-44.8870246, -23.22181492], [-44.88717084, -23.22224862], [-44.88736118, -23.22254685], [-44.88771283, -23.22280365], [-44.88831253, -23.22331897], [-44.88862363, -23.22371775], [-44.88921876, -23.22377583], [-44.88986788, -23.22406726], [-44.89038331, -23.22421763], [-44.89109445, -23.22484314], [-44.89166671, -23.22539173], [-44.89242358, -23.22600255], [-44.89304765, -23.22652449], [-44.89356768, -23.22692418], [-44.89391438, -23.22720405], [-44.89410433, -23.22766787], [-44.8944503, -23.22773206], [-44.8947964, -23.22764435], [-44.89533291, -23.22742086], [-44.89582935, -23.22744759], [-44.8965123, -23.2278902], [-44.89703945, -23.22814746], [-44.89787486, -23.22856815], [-44.89890831, -23.2286592], [-44.89988654, -23.22879973], [-44.90047941, -23.22919707], [-44.90109297, -23.22929198], [-44.90219736, -23.2294817], [-44.90332206, -23.22987936], [-44.90423977, -23.23041471], [-44.90475313, -23.2309199], [-44.90550976, -23.231185], [-44.90638888, -23.23179042], [-44.90745165, -23.23305756], [-44.90826901, -23.23426783], [-44.9094343, -23.23523257], [-44.91039544, -23.23561118], [-44.91178608, -23.23608454], [-44.91313596, -23.23634994], [-44.91408041, -23.23665441], [-44.91526941, -23.23699233], [-44.91640819, -23.23701361], [-44.91728806, -23.23688146], [-44.91871093, -23.23667926], [-44.92015199, -23.2365994], [-44.92144057, -23.23678908], [-44.92297442, -23.23731912], [-44.92424837, -23.23790853], [-44.92487694, -23.23839228], [-44.92553046, -23.23892711], [-44.92620903, -23.23939305], [-44.9276571, -23.24032693], [-44.92925212, -23.24134842], [-44.93031338, -23.2422561], [-44.93131731, -23.24306952], [-44.9331988, -23.24405329], [-44.93509329, -23.24498864], [-44.93677037, -23.24618169], [-44.93827044, -23.24747681], [-44.93959936, -23.24888867], [-44.94041133, -23.25041669], [-44.94069705, -23.25149047], [-44.94101278, -23.25278617], [-44.94154468, -23.25402925], [-44.9419788, -23.25459907], [-44.94246184, -23.2543924], [-44.9425556, -23.25406795], [-44.94256795, -23.25307158], [-44.94335774, -23.25243443], [-44.94406754, -23.25223058], [-44.94574886, -23.25239948], [-44.94692506, -23.25246754], [-44.94769794, -23.25259744], [-44.95069509, -23.25199976], [-44.95098926, -23.25221995], [-44.95108702, -23.25310035], [-44.951367, -23.25378662], [-44.95234856, -23.25545532], [-44.95285114, -23.25690723], [-44.95339435, -23.25755352], [-44.95373112, -23.25845841], [-44.95421985, -23.2589627], [-44.95578664, -23.25938892], [-44.95707308, -23.25961133], [-44.95758088, -23.25956052], [-44.95752677, -23.25931855], [-44.95738015, -23.25922047], [-44.95726778, -23.25907344], [-44.95723465, -23.25888748], [-44.95747752, -23.25871207], [-44.95771485, -23.25868112], [-44.95808038, -23.25841803], [-44.95835729, -23.25846475], [-44.95871303, -23.25887011], [-44.95896901, -23.25897058], [-44.95924869, -23.25890892], [-44.95939872, -23.25866696], [-44.95943381, -23.2578377], [-44.9596147, -23.2575525], [-44.95988177, -23.25738666], [-44.96101767, -23.25634947], [-44.96149779, -23.25597327], [-44.96254486, -23.25478933], [-44.96314813, -23.25432729], [-44.96403769, -23.25406332], [-44.96477161, -23.25432185], [-44.96474646, -23.25449298], [-44.96480181, -23.25474268], [-44.96486658, -23.25483897], [-44.96500244, -23.25492778], [-44.96535336, -23.25504386], [-44.96552723, -23.25505669], [-44.96577883, -23.255017], [-44.96596037, -23.25484928], [-44.96621256, -23.2543804], [-44.96636418, -23.2543069], [-44.96648153, -23.25435464], [-44.96666021, -23.25456185], [-44.96684309, -23.25496342], [-44.96692421, -23.25504199], [-44.96703352, -23.25502179], [-44.96719531, -23.25488526], [-44.9674436, -23.25459249], [-44.96765751, -23.25442547], [-44.9677738, -23.25441897], [-44.96790899, -23.25446258], [-44.9679627, -23.25451345], [-44.96803025, -23.25466853], [-44.96869597, -23.25492702], [-44.96950916, -23.25486794], [-44.9700218, -23.2548023], [-44.97036348, -23.25470584], [-44.97067548, -23.25468339], [-44.970912, -23.2546952], [-44.97114259, -23.25480865], [-44.97128875, -23.25499707], [-44.97139879, -23.25545127], [-44.97153365, -23.25584275], [-44.97168496, -23.25611712], [-44.97183967, -23.25630572], [-44.97214564, -23.25657895], [-44.97268619, -23.25685728], [-44.97314919, -23.25715651], [-44.9733593, -23.25737794], [-44.97373618, -23.25791475], [-44.9739135, -23.25810384], [-44.97408117, -23.25821592], [-44.97454825, -23.2583797], [-44.97508226, -23.25845909], [-44.97544776, -23.25843542], [-44.97608799, -23.25823248], [-44.97619879, -23.25822586], [-44.97633421, -23.25826043], [-44.97645581, -23.25835795], [-44.97671199, -23.25873851], [-44.97685447, -23.25883197], [-44.97694045, -23.25881577], [-44.97703122, -23.2587319], [-44.97701188, -23.25855528], [-44.97690252, -23.25831345], [-44.97687486, -23.25812762], [-44.97690832, -23.2579657], [-44.97836604, -23.25671882], [-44.9785213, -23.25503134], [-44.97951331, -23.25378903], [-44.98060091, -23.25348971], [-44.9808197, -23.25298611], [-44.98105137, -23.25144619], [-44.98146299, -23.25067771], [-44.98190306, -23.25020343], [-44.98239812, -23.2497461], [-44.98214679, -23.24882229], [-44.98260959, -23.24809591], [-44.98263009, -23.24748192], [-44.98373676, -23.24771262], [-44.98457902, -23.24767784], [-44.98547556, -23.24789609], [-44.98625316, -23.24791296], [-44.98663027, -23.24755767], [-44.98683843, -23.24664707], [-44.98701153, -23.24642493], [-44.98720791, -23.24653762], [-44.98766949, -23.24750839], [-44.98916902, -23.24803492], [-44.99019072, -23.24821067], [-44.99034583, -23.24855288], [-44.99112384, -23.24896279], [-44.99211481, -23.24940808], [-44.99286039, -23.24971592], [-44.99375364, -23.25007812], [-44.9943412, -23.25037203], [-44.99433481, -23.25037543], [-44.99440332, -23.25043498], [-44.99454678, -23.25056755], [-44.99453995, -23.25059928], [-44.99453252, -23.25069942], [-44.994544, -23.25082527], [-44.99460578, -23.25093413], [-44.99472034, -23.25104414], [-44.99557504, -23.25169966], [-44.99676818, -23.25235165], [-44.99731915, -23.25260573], [-44.99803971, -23.25303696], [-44.99856918, -23.25325171], [-44.99906673, -23.25349198], [-44.99956452, -23.25376116], [-44.99979431, -23.25395497], [-45.00001663, -23.25409622], [-45.00026242, -23.25419912], [-45.00073042, -23.25425441], [-45.00083293, -23.25426114], [-45.00124289, -23.25425283], [-45.00140552, -23.25424098], [-45.00156866, -23.25420926], [-45.00172764, -23.25414854], [-45.00196207, -23.25400451], [-45.00258639, -23.25367915], [-45.00274321, -23.25362651], [-45.00297646, -23.25360625], [-45.00309525, -23.25362689], [-45.00324423, -23.25369064], [-45.00336505, -23.25378542], [-45.00347684, -23.25392788], [-45.00399351, -23.2551914], [-45.00426616, -23.2557792], [-45.00450873, -23.25608713], [-45.0049346, -23.25633938], [-45.00521727, -23.25641506], [-45.00538047, -23.25661285], [-45.00539801, -23.25669274], [-45.00539366, -23.25678753], [-45.00535028, -23.25687876], [-45.00526903, -23.25699808], [-45.0051044, -23.25735958], [-45.00510164, -23.25746885], [-45.00513541, -23.25756446], [-45.00527551, -23.25786386], [-45.00569786, -23.25837175], [-45.00651367, -23.25902185], [-45.00686887, -23.25916866], [-45.00699325, -23.25920026], [-45.00709495, -23.25920064], [-45.00723363, -23.25920815], [-45.00787627, -23.25916418], [-45.00802245, -23.2591845], [-45.00817197, -23.25922748], [-45.00827089, -23.25929919], [-45.00838333, -23.25941636], [-45.01051102, -23.26187116], [-45.01083387, -23.262254], [-45.01100807, -23.2625207], [-45.01112273, -23.26282135], [-45.01129688, -23.2631287], [-45.0114388, -23.26327904], [-45.01153248, -23.26332624], [-45.01161902, -23.26334617], [-45.01170542, -23.26337153], [-45.01197883, -23.26338826], [-45.01224706, -23.26337777], [-45.01246706, -23.26330209], [-45.01266444, -23.26327019], [-45.01287213, -23.26321684], [-45.01310397, -23.26317574], [-45.01325562, -23.26317359], [-45.01336141, -23.26320568], [-45.01390387, -23.26364475], [-45.01440126, -23.26412622], [-45.0146791, -23.26451079], [-45.01488335, -23.26486578], [-45.01516637, -23.26547184], [-45.01536255, -23.26606971], [-45.01564065, -23.26687085], [-45.01571741, -23.26708484], [-45.01590824, -23.26739074], [-45.01619772, -23.26770147], [-45.01633632, -23.26782914], [-45.01652227, -23.26797952], [-45.01671867, -23.26806416], [-45.01713648, -23.2682891], [-45.01730713, -23.26846445], [-45.01737364, -23.26861949], [-45.01743818, -23.26881424], [-45.01751133, -23.26909411], [-45.01749995, -23.26954566], [-45.01750789, -23.26969673], [-45.01747015, -23.26987482], [-45.01751878, -23.27085625], [-45.01751821, -23.27099539], [-45.01748832, -23.2711339], [-45.01742798, -23.27131603], [-45.01736249, -23.27147003], [-45.01722356, -23.27170469], [-45.01715966, -23.27187319], [-45.01704838, -23.27198103], [-45.01688052, -23.2721997], [-45.01662326, -23.27258903], [-45.01633348, -23.27314392], [-45.01623499, -23.27348155], [-45.01615117, -23.27370293], [-45.01593956, -23.27402728], [-45.01570022, -23.27436549], [-45.01550327, -23.2746513], [-45.01537077, -23.27490236], [-45.01525483, -23.27507877], [-45.01498265, -23.27543887], [-45.01490861, -23.27558275], [-45.01491242, -23.27574186], [-45.01495491, -23.27584126], [-45.0152159, -23.27619656], [-45.01537537, -23.27642769], [-45.01541031, -23.27655495], [-45.01540528, -23.27663797], [-45.01539762, -23.27670918], [-45.01506039, -23.27724408], [-45.01486544, -23.27811003], [-45.01475687, -23.27880886], [-45.01470535, -23.27899028], [-45.01462445, -23.27917287], [-45.01454663, -23.27931125], [-45.01443664, -23.27944532], [-45.01401252, -23.28028375], [-45.01370239, -23.28083006], [-45.01349108, -23.28106406], [-45.01289993, -23.28142813], [-45.01171834, -23.28166201], [-45.01139457, -23.28177883], [-45.01118327, -23.28197397], [-45.0106631, -23.28274165], [-45.01021096, -23.28337164], [-45.01005534, -23.2837243], [-45.01004375, -23.28406741], [-45.01013965, -23.28429808], [-45.0107847, -23.28509356], [-45.01129788, -23.28568832], [-45.01153774, -23.28641634], [-45.01152521, -23.28691304], [-45.01134638, -23.28725526], [-45.01099973, -23.28738694], [-45.01066602, -23.28735446], [-45.00932743, -23.28609496], [-45.0088143, -23.28580831], [-45.00839552, -23.28577489], [-45.0079541, -23.28601838], [-45.00794254, -23.28643738], [-45.00827687, -23.28741322], [-45.00848231, -23.28764444], [-45.0096375, -23.28830364], [-45.01036965, -23.28890402], [-45.01113372, -23.28936413], [-45.01219914, -23.2898994], [-45.01306521, -23.29031019], [-45.01316834, -23.29037114], [-45.01333435, -23.29045965], [-45.01356402, -23.29062271], [-45.01364491, -23.29086751], [-45.01363142, -23.29097565], [-45.01355932, -23.29111958], [-45.01328553, -23.29169739], [-45.01296289, -23.29254432], [-45.0128934, -23.29281751], [-45.01283731, -23.29314069], [-45.01301944, -23.29433551], [-45.01299583, -23.29457355], [-45.01290735, -23.29486259], [-45.01280853, -23.29505744], [-45.01255839, -23.29527885], [-45.01192444, -23.29582452], [-45.01131447, -23.29638877], [-45.01112315, -23.29664397], [-45.0109969, -23.2969566], [-45.01097615, -23.29708085], [-45.01098953, -23.29728715], [-45.01098936, -23.2976043], [-45.01104116, -23.29826502], [-45.01104378, -23.29847109], [-45.01101492, -23.29864576], [-45.0109625, -23.29882354], [-45.01086633, -23.29902929], [-45.01061192, -23.29941957], [-45.00961604, -23.30046704], [-45.00892868, -23.30115069], [-45.0088218, -23.3012767], [-45.00874033, -23.30140415], [-45.00866771, -23.30164565], [-45.00862116, -23.30197806], [-45.00859049, -23.30249514], [-45.00864584, -23.30301498], [-45.00871859, -23.30350448], [-45.00874556, -23.30375354], [-45.00881407, -23.30398452], [-45.00906706, -23.30454205], [-45.00933613, -23.30500505], [-45.00961638, -23.30537432], [-45.00972656, -23.305505], [-45.00990589, -23.30564802], [-45.01003037, -23.30575461], [-45.0102806, -23.30587927], [-45.01156917, -23.30649252], [-45.01230292, -23.30691763], [-45.01250886, -23.30709193], [-45.01276047, -23.30739462], [-45.01322827, -23.30800827], [-45.01351276, -23.30824842], [-45.01370133, -23.3083356], [-45.01393959, -23.30839223], [-45.01435311, -23.30844269], [-45.01554731, -23.30857138], [-45.01574661, -23.30862084], [-45.01617126, -23.30873478], [-45.01655295, -23.30880624], [-45.01709927, -23.30882792], [-45.01743303, -23.30882154], [-45.0191448, -23.30739455], [-45.01932661, -23.30732255], [-45.01953078, -23.30725646], [-45.01971392, -23.30720979], [-45.01994367, -23.30717678], [-45.02009618, -23.30718096], [-45.02028955, -23.307233], [-45.02059632, -23.30732723], [-45.02087791, -23.30744984], [-45.02102612, -23.30754699], [-45.02118734, -23.30763267], [-45.02150337, -23.30782559], [-45.02209317, -23.30829636], [-45.02306968, -23.30887301], [-45.02332753, -23.3090457], [-45.02355128, -23.30921224], [-45.02385924, -23.30945377], [-45.0241436, -23.30973907], [-45.02521621, -23.31085267], [-45.02543788, -23.31102459], [-45.0259195, -23.3112852], [-45.02637312, -23.3114928], [-45.02670237, -23.31162726], [-45.02742413, -23.31183157], [-45.02754398, -23.31181155], [-45.02769793, -23.31183654], [-45.02809644, -23.31186224], [-45.02837684, -23.31191614], [-45.02881338, -23.31202488], [-45.02899632, -23.31210289], [-45.02929952, -23.31230094], [-45.02976782, -23.31262541], [-45.0307345, -23.31316746], [-45.0312516, -23.31341888], [-45.03151156, -23.31350757], [-45.03215442, -23.31362072], [-45.03299541, -23.31371371], [-45.03311614, -23.31373708], [-45.03320633, -23.31380768], [-45.03324343, -23.31388889], [-45.03328168, -23.31415806], [-45.03344585, -23.31443897], [-45.03370369, -23.31461254], [-45.03398502, -23.31478572], [-45.03473424, -23.31487132], [-45.03531267, -23.314862], [-45.03601157, -23.31473056], [-45.03633689, -23.3146318], [-45.03648308, -23.31457619], [-45.03682234, -23.31439008], [-45.03706205, -23.31415486], [-45.03728639, -23.31390846], [-45.03762456, -23.31360938], [-45.03777915, -23.31345275], [-45.037967, -23.31329593], [-45.03841484, -23.31299287], [-45.03853351, -23.31294209], [-45.03867929, -23.31290274], [-45.03906239, -23.31284044], [-45.03988225, -23.31283988], [-45.0400987, -23.31283004], [-45.04042028, -23.31280258], [-45.04062506, -23.31275093], [-45.04094075, -23.31268538], [-45.04131566, -23.31259851], [-45.04185385, -23.31255488], [-45.04222976, -23.31266319], [-45.04255678, -23.31296563], [-45.04284785, -23.31329713], [-45.04300446, -23.31356792], [-45.043143, -23.31389616], [-45.04336521, -23.31451712], [-45.0434784, -23.31495957], [-45.04357556, -23.31522096], [-45.04364835, -23.31532281], [-45.04387271, -23.31562306], [-45.04422429, -23.3158438], [-45.04455349, -23.31594208], [-45.04470037, -23.31597593], [-45.04490478, -23.31597848], [-45.04500415, -23.3159562], [-45.04511189, -23.31591242], [-45.0453339, -23.31579788], [-45.04556141, -23.31565907], [-45.04587213, -23.31551841], [-45.04612486, -23.31530965], [-45.04627038, -23.31496759], [-45.04629836, -23.31478748], [-45.04629108, -23.31453071], [-45.04619531, -23.31342995], [-45.04613997, -23.31302126], [-45.04607521, -23.3124416], [-45.04608214, -23.31192943], [-45.04612354, -23.31164298], [-45.04636225, -23.31125141], [-45.04715, -23.31034205], [-45.0474467, -23.31009627], [-45.04775519, -23.30980919], [-45.04811152, -23.3096433], [-45.04828633, -23.3096163], [-45.04849316, -23.30959992], [-45.04865145, -23.30960781], [-45.04898552, -23.30966733], [-45.05030339, -23.31001616], [-45.05137337, -23.31038048], [-45.0519927, -23.31057437], [-45.05296674, -23.31070623], [-45.05322302, -23.31074692], [-45.05351295, -23.31085067], [-45.05374274, -23.31101187], [-45.05394329, -23.31124745], [-45.05435134, -23.3119112], [-45.05448994, -23.31204155], [-45.05478485, -23.3122204], [-45.05513713, -23.31237427], [-45.0553632, -23.31244955], [-45.05628554, -23.31265438], [-45.05652511, -23.31265947], [-45.05675506, -23.31261828], [-45.05702683, -23.3125084], [-45.05712765, -23.31244275], [-45.0573897, -23.31259398], [-45.05796742, -23.31299865], [-45.05828737, -23.31345705], [-45.05848958, -23.3140476], [-45.05842245, -23.31448282], [-45.05816182, -23.31498029], [-45.05814519, -23.31545435], [-45.05851564, -23.31591272], [-45.05890215, -23.31631436], [-45.05957387, -23.31682352], [-45.06029371, -23.31766489], [-45.06151731, -23.31879399], [-45.06247686, -23.31934732], [-45.06386823, -23.32016625], [-45.06492384, -23.32096316], [-45.06626708, -23.32138342]]]]}}]}