{"type": "FeatureCollection", "features": [{"type": "Feature", "properties": {"name": "Parque Estadual Campina do Encantado"}, "geometry": {"type": "MultiPolygon", "coordinates": [[[[-47.76364, -24.67247215], [-47.76368835, -24.67247443], [-47.76374065, -24.67247133], [-47.76378649, -24.67247272], [-47.76385067, -24.67247907], [-47.76391925, -24.67245182], [-47.76398741, -24.67245111], [-47.76404344, -24.67247177], [-47.7641181, -24.67246855], [-47.76418567, -24.67246171], [-47.76425247, -24.67244531], [-47.76432369, -24.67242336], [-47.76440278, -24.67240686], [-47.76447379, -24.6724242], [-47.76455668, -24.67243469], [-47.76462702, -24.67245238], [-47.76469747, -24.67247087], [-47.76476811, -24.67248763], [-47.76483536, -24.67250916], [-47.76490366, -24.67252781], [-47.76496789, -24.6725525], [-47.76503689, -24.67256258], [-47.76510975, -24.67257988], [-47.76518657, -24.672602], [-47.76526232, -24.67261151], [-47.76534064, -24.67262313], [-47.76542175, -24.67262235], [-47.76549934, -24.67262297], [-47.76554367, -24.67263418], [-47.76561239, -24.67264505], [-47.76569787, -24.67264443], [-47.76578337, -24.67263764], [-47.76585565, -24.67264193], [-47.76591422, -24.67264574], [-47.76599134, -24.67264338], [-47.76606445, -24.67264517], [-47.76613505, -24.6726466], [-47.76621202, -24.672649], [-47.76628757, -24.67265481], [-47.76636016, -24.67265977], [-47.76643026, -24.67266206], [-47.7665267, -24.6726659], [-47.76659988, -24.67266811], [-47.76663797, -24.67263744], [-47.76671462, -24.67260658], [-47.76677944, -24.67258882], [-47.76683915, -24.67255136], [-47.76687496, -24.67250082], [-47.76692702, -24.67248144], [-47.76699575, -24.67246258], [-47.76707179, -24.67245467], [-47.76714304, -24.67245283], [-47.76720484, -24.67244062], [-47.76726193, -24.67240992], [-47.76727009, -24.6723772], [-47.76734924, -24.67236428], [-47.76740724, -24.67233038], [-47.76748088, -24.67231648], [-47.7675547, -24.67229557], [-47.76760684, -24.67227386], [-47.76766252, -24.67228645], [-47.7676989, -24.67229484], [-47.76775717, -24.67231694], [-47.76780447, -24.67231904], [-47.76785705, -24.67229095], [-47.76789572, -24.67226769], [-47.76797858, -24.6722429], [-47.76805478, -24.67224736], [-47.76811999, -24.67223794], [-47.76827462, -24.67221165], [-47.7683154, -24.67220022], [-47.76835934, -24.6721581], [-47.76840696, -24.67211257], [-47.76843932, -24.67207072], [-47.7684487, -24.67203854], [-47.76849093, -24.67202071], [-47.76854425, -24.67197281], [-47.76860568, -24.67193891], [-47.7686478, -24.67188701], [-47.76867778, -24.67183733], [-47.76869176, -24.67177576], [-47.76870777, -24.67170826], [-47.76868402, -24.67164085], [-47.76864902, -24.67158251], [-47.76860444, -24.67154242], [-47.76860441, -24.67146175], [-47.76864448, -24.67141115], [-47.76870264, -24.67137267], [-47.76874825, -24.67132379], [-47.76879283, -24.67127255], [-47.76884922, -24.67122475], [-47.76890403, -24.67117687], [-47.76895017, -24.67112646], [-47.76900954, -24.67107324], [-47.76907109, -24.6710303], [-47.76913215, -24.67099945], [-47.76920625, -24.67096904], [-47.76925354, -24.6709244], [-47.76930979, -24.67087564], [-47.7693662, -24.67082819], [-47.76942783, -24.67078014], [-47.76949002, -24.67075267], [-47.76954815, -24.67071146], [-47.76960471, -24.67066133], [-47.76967284, -24.67062405], [-47.76973444, -24.67059017], [-47.76980681, -24.67056755], [-47.7698629, -24.67055006], [-47.76993128, -24.67052656], [-47.77000292, -24.67050588], [-47.77004652, -24.67054652], [-47.77009349, -24.67058969], [-47.77014475, -24.6706302], [-47.77015658, -24.67067817], [-47.77022209, -24.67069074], [-47.77029584, -24.67070265], [-47.77037041, -24.67069075], [-47.77043675, -24.67068022], [-47.77051405, -24.67066741], [-47.77059933, -24.67066436], [-47.77064704, -24.67061451], [-47.77066397, -24.67054765], [-47.77069861, -24.67048469], [-47.77073163, -24.6704288], [-47.77075965, -24.67038457], [-47.77077348, -24.67039771], [-47.77081294, -24.67034674], [-47.77085439, -24.67029725], [-47.77089328, -24.67024409], [-47.77091059, -24.67020769], [-47.77090419, -24.67020916], [-47.77091162, -24.67018457], [-47.77095893, -24.67018207], [-47.7710276, -24.67018129], [-47.77109749, -24.67016669], [-47.77117012, -24.67015329], [-47.77124427, -24.67013765], [-47.77132053, -24.6701436], [-47.77139056, -24.67015712], [-47.77145154, -24.67018889], [-47.77151325, -24.67021761], [-47.77157791, -24.67025522], [-47.77164407, -24.67028566], [-47.77170886, -24.6703164], [-47.77177627, -24.67034259], [-47.77183507, -24.67037442], [-47.77187185, -24.67039612], [-47.77208421, -24.67026465], [-47.77204644, -24.67020812], [-47.77203922, -24.67011704], [-47.77207344, -24.67006657], [-47.77211199, -24.67003195], [-47.77215642, -24.66998483], [-47.77220624, -24.66994933], [-47.77228765, -24.66985011], [-47.77232552, -24.66980725], [-47.7723871, -24.66978353], [-47.77243477, -24.66974179], [-47.77249356, -24.6697147], [-47.77255339, -24.66969264], [-47.772599, -24.66965212], [-47.77265784, -24.66962556], [-47.77271463, -24.66961493], [-47.77276753, -24.66961569], [-47.77283363, -24.66961601], [-47.77290818, -24.66963386], [-47.77297461, -24.66962789], [-47.77305193, -24.66963604], [-47.77311544, -24.66964539], [-47.77315694, -24.66966106], [-47.77342519, -24.6696179], [-47.77345394, -24.6695549], [-47.7734675, -24.66948591], [-47.77347544, -24.66942196], [-47.77347111, -24.66935435], [-47.7734493, -24.6693221], [-47.77349497, -24.6693198], [-47.77355906, -24.66931537], [-47.7736196, -24.66929275], [-47.77368722, -24.66929073], [-47.77375517, -24.66929178], [-47.77382707, -24.66929586], [-47.77390057, -24.66932155], [-47.77396552, -24.66933893], [-47.7740332, -24.66935299], [-47.77409173, -24.66938989], [-47.77415155, -24.66942312], [-47.7742097, -24.66945054], [-47.7742718, -24.66947906], [-47.77432687, -24.6695192], [-47.77439374, -24.66953946], [-47.77446132, -24.66955794], [-47.77453242, -24.66957247], [-47.7746236, -24.66959463], [-47.77469424, -24.66961459], [-47.77475336, -24.66964737], [-47.7748167, -24.66968571], [-47.77486829, -24.66972334], [-47.77489837, -24.66980737], [-47.77490271, -24.66987453], [-47.77489681, -24.66993401], [-47.7748982, -24.66999573], [-47.77490958, -24.67005817], [-47.77492792, -24.67014096], [-47.7749676, -24.67019188], [-47.77498733, -24.67023808], [-47.77501919, -24.67028541], [-47.7750778, -24.67036006], [-47.77511283, -24.67041662], [-47.77514786, -24.67046268], [-47.77517099, -24.67049216], [-47.77563105, -24.6704271], [-47.79863951, -24.66854844], [-47.79866291, -24.6686655], [-47.79870633, -24.66876766], [-47.79874665, -24.66883265], [-47.79880403, -24.66889391], [-47.79888342, -24.66893097], [-47.79913033, -24.66892413], [-47.79918658, -24.66893986], [-47.7992298, -24.66895838], [-47.79926704, -24.66899829], [-47.79932641, -24.66905676], [-47.79940979, -24.66907895], [-47.79951415, -24.66906858], [-47.79958434, -24.66904154], [-47.79965456, -24.66902286], [-47.79972381, -24.66901905], [-47.79979714, -24.66904125], [-47.7998344, -24.66908673], [-47.7998838, -24.66916751], [-47.79997431, -24.66923523], [-47.8000678, -24.66928714], [-47.80018135, -24.66933345], [-47.80030086, -24.66935838], [-47.80049961, -24.6693609], [-47.80060598, -24.66934867], [-47.80068516, -24.6693021], [-47.80076228, -24.66923973], [-47.80081846, -24.66922479], [-47.80086863, -24.66921821], [-47.8009911, -24.66922455], [-47.80107442, -24.66922723], [-47.8011547, -24.66921782], [-47.8012449, -24.66916566], [-47.80131405, -24.66912189], [-47.80138124, -24.66910043], [-47.80145853, -24.66910032], [-47.8015449, -24.669116], [-47.80161824, -24.66914378], [-47.80170159, -24.66915574], [-47.8017648, -24.66914636], [-47.80181489, -24.66910912], [-47.80189799, -24.66902909], [-47.80197423, -24.6690104], [-47.80213379, -24.66899717], [-47.80224015, -24.66898216], [-47.80240363, -24.66892897], [-47.80249102, -24.66888721], [-47.80253784, -24.6688182], [-47.80263702, -24.66874744], [-47.80275033, -24.6687036], [-47.8028607, -24.66868765], [-47.80311368, -24.6686966], [-47.80328633, -24.66870008], [-47.80340684, -24.66872129], [-47.80353041, -24.66876014], [-47.80363788, -24.66878787], [-47.80390685, -24.6687717], [-47.80396718, -24.66881251], [-47.8040566, -24.66884584], [-47.80416001, -24.6688522], [-47.80422723, -24.66884003], [-47.80427334, -24.66881487], [-47.80433645, -24.66876832], [-47.80438957, -24.66873758], [-47.80447991, -24.66874024], [-47.80451917, -24.66878387], [-47.80455348, -24.66884887], [-47.80456382, -24.66896594], [-47.80457706, -24.66903655], [-47.80460732, -24.66908948], [-47.80466463, -24.66912657], [-47.8047409, -24.66911996], [-47.80480406, -24.66909199], [-47.80485722, -24.66907612], [-47.80494758, -24.66908529], [-47.80503404, -24.66913535], [-47.80509447, -24.66921239], [-47.80516079, -24.66924018], [-47.80539773, -24.6692575], [-47.8054841, -24.66927597], [-47.80559063, -24.669326], [-47.80568112, -24.6693807], [-47.80569297, -24.66939678], [-47.80571738, -24.6694299], [-47.80572459, -24.66949866], [-47.80572933, -24.66950927], [-47.80998791, -24.65852711], [-47.81499057, -24.64562605], [-47.79669968, -24.63993628], [-47.79489138, -24.63937377], [-47.79404821, -24.61371176], [-47.79404556, -24.61363112], [-47.79372622, -24.61357322], [-47.79359838, -24.6135272], [-47.7934365, -24.61345773], [-47.79331507, -24.61341097], [-47.79314824, -24.61339673], [-47.79298799, -24.61338826], [-47.79282202, -24.61342971], [-47.79267, -24.61348859], [-47.7925249, -24.61354138], [-47.79237881, -24.61355744], [-47.79213879, -24.61356991], [-47.79194564, -24.61358063], [-47.79184739, -24.61360736], [-47.79175576, -24.61366533], [-47.79165573, -24.61367374], [-47.79148876, -24.61367788], [-47.79136798, -24.61363169], [-47.79126599, -24.61356666], [-47.79117766, -24.6134604], [-47.79110707, -24.61332052], [-47.79107712, -24.61318615], [-47.79104025, -24.61305728], [-47.79101097, -24.61297208], [-47.79101562, -24.61288189], [-47.79099059, -24.61269169], [-47.79102447, -24.61246922], [-47.7910256, -24.61227185], [-47.79101312, -24.61204638], [-47.79108828, -24.6118537], [-47.79110374, -24.61168739], [-47.79105306, -24.61154701], [-47.79103858, -24.61151003], [-47.79101752, -24.61120418], [-47.7909856, -24.61102067], [-47.79094331, -24.61092927], [-47.79082716, -24.61083971], [-47.79070591, -24.61079945], [-47.7905529, -24.61079732], [-47.79032603, -24.61079642], [-47.79001972, -24.6108289], [-47.78975287, -24.61082306], [-47.78962315, -24.61080257], [-47.78938855, -24.61075327], [-47.7892339, -24.61071384], [-47.78904816, -24.61073681], [-47.78898154, -24.61074498], [-47.7889228, -24.61078318], [-47.78883775, -24.61084692], [-47.78868065, -24.6109557], [-47.78851054, -24.61108258], [-47.78835987, -24.6111912], [-47.78821509, -24.61125642], [-47.78806968, -24.61132165], [-47.78796689, -24.61139472], [-47.78789548, -24.61146404], [-47.78785734, -24.61155151], [-47.78782823, -24.61171223], [-47.78784285, -24.61199395], [-47.78781292, -24.61212388], [-47.78773166, -24.61232915], [-47.78768791, -24.61244698], [-47.78759776, -24.61256003], [-47.78746221, -24.61272991], [-47.78733142, -24.61281315], [-47.78713368, -24.61291641], [-47.78698052, -24.61293265], [-47.78681403, -24.61293085], [-47.78665568, -24.61292114], [-47.78646682, -24.61285233], [-47.78625869, -24.6128077], [-47.78608446, -24.6127569], [-47.78593064, -24.61274826], [-47.7857591, -24.61270214], [-47.78562481, -24.61263079], [-47.78546672, -24.61241225], [-47.78539558, -24.6122923], [-47.78539695, -24.61215789], [-47.78535765, -24.61207193], [-47.78528773, -24.61199542], [-47.78519066, -24.61192987], [-47.785111, -24.6119034], [-47.78503089, -24.61186113], [-47.78492413, -24.61178634], [-47.78480623, -24.61171181], [-47.78473683, -24.6116843], [-47.78464158, -24.61165269], [-47.78415196, -24.61166015], [-47.78400015, -24.61163073], [-47.78371463, -24.61157462], [-47.78352409, -24.61154064], [-47.7833303, -24.61148223], [-47.78309585, -24.61138137], [-47.78290977, -24.61132277], [-47.7827187, -24.61126984], [-47.78254403, -24.61122044], [-47.7824005, -24.61118054], [-47.78233628, -24.61112365], [-47.78229264, -24.61106625], [-47.78227631, -24.61100421], [-47.78227928, -24.61092668], [-47.78231925, -24.61085297], [-47.78236436, -24.61077913], [-47.78247674, -24.61065697], [-47.78253144, -24.61055839], [-47.78253412, -24.61047059], [-47.78248425, -24.61037461], [-47.78237791, -24.61031482], [-47.78227123, -24.61027321], [-47.78214455, -24.61025266], [-47.78183928, -24.61022627], [-47.78155567, -24.61023808], [-47.78144076, -24.61027019], [-47.78133127, -24.61031164], [-47.78120162, -24.61036862], [-47.78110854, -24.61041441], [-47.78103007, -24.61043059], [-47.78094052, -24.6104186], [-47.7809069, -24.61035146], [-47.78089847, -24.61023469], [-47.78091048, -24.61008184], [-47.78088686, -24.61000418], [-47.78084228, -24.6099136], [-47.78076751, -24.60984749], [-47.78065598, -24.60981628], [-47.78059199, -24.60979811], [-47.78012592, -24.6098192], [-47.77976901, -24.60984784], [-47.77952822, -24.60988783], [-47.77928374, -24.60991841], [-47.77909597, -24.60995233], [-47.77888644, -24.61000576], [-47.77874054, -24.6100339], [-47.77858808, -24.61004243], [-47.77850058, -24.61007307], [-47.77836131, -24.61015399], [-47.7782949, -24.6102331], [-47.77825454, -24.6102926], [-47.77821539, -24.61039554], [-47.77817694, -24.61049292], [-47.77815363, -24.61060969], [-47.77813059, -24.61073673], [-47.77810299, -24.61085361], [-47.77805761, -24.61091797], [-47.77799054, -24.61097339], [-47.77790748, -24.61100944], [-47.77780218, -24.6110168], [-47.77774434, -24.61100401], [-47.77765865, -24.6109769], [-47.77760053, -24.61095384], [-47.77756272, -24.6109208], [-47.77726855, -24.61092337], [-47.77717786, -24.61090113], [-47.77706718, -24.61086989], [-47.77695263, -24.61085377], [-47.77679995, -24.61082358], [-47.77664612, -24.61078315], [-47.77657727, -24.61077537], [-47.77649881, -24.61079155], [-47.77644802, -24.61084656], [-47.77638095, -24.61090198], [-47.77630634, -24.61099473], [-47.77628751, -24.61105764], [-47.77629037, -24.61115954], [-47.77631799, -24.61122682], [-47.77635243, -24.61132319], [-47.77636518, -24.61141061], [-47.77636276, -24.61150789], [-47.77632698, -24.61154751], [-47.77626549, -24.61158777], [-47.77617574, -24.61159948], [-47.77598757, -24.61161918], [-47.7758878, -24.61164063], [-47.77581436, -24.61165273], [-47.77573658, -24.6116934], [-47.77560637, -24.61173062], [-47.77552152, -24.61179439], [-47.77543827, -24.61185416], [-47.77537178, -24.61190007], [-47.77530442, -24.61194522], [-47.7752158, -24.61196639], [-47.77490062, -24.6119845], [-47.77479599, -24.61201635], [-47.77451887, -24.6120762], [-47.77436683, -24.61209974], [-47.77406346, -24.61214127], [-47.77371152, -24.61216424], [-47.77362115, -24.61212302], [-47.77355595, -24.6120614], [-47.77351259, -24.61201427], [-47.77349985, -24.61192685], [-47.77351852, -24.61185841], [-47.77354807, -24.61178021], [-47.77361406, -24.61168609], [-47.77367962, -24.61160701], [-47.7737563, -24.61152685], [-47.77428401, -24.61101103], [-47.77447817, -24.61080702], [-47.77450215, -24.61071395], [-47.77446882, -24.61065708], [-47.77439887, -24.61060981], [-47.77430918, -24.61059307], [-47.774041, -24.61060448], [-47.7738838, -24.61062735], [-47.77342247, -24.61063408], [-47.77319536, -24.61061127], [-47.77292783, -24.61058472], [-47.77274284, -24.61056481], [-47.77262128, -24.61054333], [-47.77217953, -24.61054482], [-47.77192842, -24.6105226], [-47.77167544, -24.6104949], [-47.77148029, -24.61047999], [-47.77124804, -24.6104573], [-47.77114291, -24.61044015], [-47.77059612, -24.61045847], [-47.77043004, -24.61050133], [-47.77032627, -24.61053315], [-47.77027381, -24.61055896], [-47.7702077, -24.6106183], [-47.77012588, -24.61069858], [-47.77003338, -24.61093043], [-47.77002601, -24.61094504], [-47.77001613, -24.61095834], [-47.77000399, -24.61096998], [-47.76998992, -24.61097964], [-47.76997432, -24.61098706], [-47.77940735, -24.62149948], [-47.75225512, -24.62199906], [-47.75220448, -24.62204957], [-47.75200307, -24.62226234], [-47.75180772, -24.62243348], [-47.75169071, -24.62253597], [-47.7514971, -24.62273021], [-47.75132193, -24.62291237], [-47.7510485, -24.62319556], [-47.75085103, -24.62340051], [-47.7506298, -24.62361381], [-47.7504366, -24.62382154], [-47.75039444, -24.6238706], [-47.7501848, -24.62411454], [-47.75002602, -24.62428746], [-47.74990719, -24.62442394], [-47.74980133, -24.6245404], [-47.74965563, -24.62468148], [-47.74951645, -24.62480842], [-47.7493966, -24.62491773], [-47.7492741, -24.62503647], [-47.74915435, -24.62513515], [-47.74895354, -24.62529488], [-47.74882735, -24.62539825], [-47.74881301, -24.6254289], [-47.7485511, -24.62552408], [-47.74841874, -24.62563557], [-47.74826028, -24.62578244], [-47.74802445, -24.62598552], [-47.747866, -24.62613238], [-47.74773829, -24.62622406], [-47.74764973, -24.62629409], [-47.74748662, -24.62646076], [-47.74728155, -24.62663963], [-47.74715291, -24.62672357], [-47.74688721, -24.62684675], [-47.74674177, -24.62690666], [-47.74652735, -24.62700641], [-47.7463148, -24.62712079], [-47.74621225, -24.62716505], [-47.74601088, -24.62726475], [-47.74594868, -24.62729086], [-47.74583094, -24.62734028], [-47.74568551, -24.6274045], [-47.74549718, -24.62747232], [-47.74538344, -24.62751146], [-47.74524638, -24.62754381], [-47.74508788, -24.62757538], [-47.74490421, -24.62762769], [-47.74464315, -24.62768804], [-47.74435132, -24.62776055], [-47.74413315, -24.62780094], [-47.74399143, -24.62783331], [-47.74392337, -24.62785766], [-47.74380963, -24.62791229], [-47.74369403, -24.62797553], [-47.74358681, -24.62802325], [-47.74337704, -24.62809545], [-47.74311132, -24.62818765], [-47.74291833, -24.62825548], [-47.74282976, -24.62829108], [-47.74268059, -24.62835531], [-47.74254354, -24.62839884], [-47.74236733, -24.62846747], [-47.7422396, -24.62852732], [-47.7420634, -24.62859939], [-47.74188346, -24.62867922], [-47.74170259, -24.62875302], [-47.74153944, -24.62882849], [-47.74140239, -24.62889697], [-47.74118796, -24.62900446], [-47.74099964, -24.62909636], [-47.74087098, -24.62915965], [-47.74071715, -24.62923938], [-47.74047568, -24.62935299], [-47.74037686, -24.62940928], [-47.74025286, -24.62948116], [-47.74014566, -24.62956415], [-47.73998718, -24.62968778], [-47.73987997, -24.62975185], [-47.73972613, -24.62982297], [-47.73960213, -24.62987936], [-47.73948186, -24.62992713], [-47.7393644, -24.63000414], [-47.73927024, -24.63008795], [-47.73913787, -24.63019857], [-47.73896633, -24.63032999], [-47.73881624, -24.63044928], [-47.73872675, -24.63053651], [-47.73855523, -24.63068771], [-47.73837997, -24.63085872], [-47.73825785, -24.63097447], [-47.73811243, -24.63110234], [-47.73798005, -24.63123361], [-47.73786447, -24.63136052], [-47.73772277, -24.63151161], [-47.73750836, -24.63171374], [-47.73735921, -24.63185282], [-47.73716624, -24.63202389], [-47.73702454, -24.63216293], [-47.73689403, -24.6322985], [-47.73679615, -24.63239781], [-47.73668055, -24.63250922], [-47.73656869, -24.63264472], [-47.73649599, -24.63274393], [-47.73649603, -24.63289794], [-47.73653896, -24.63301652], [-47.73659493, -24.63311956], [-47.73663318, -24.63319427], [-47.73667142, -24.63321822], [-47.73671898, -24.6332103], [-47.73676187, -24.63320153], [-47.7367917, -24.63318164], [-47.73685137, -24.63313065], [-47.7369073, -24.63307108], [-47.73695017, -24.63299951], [-47.73702755, -24.63293555], [-47.73706018, -24.63289671], [-47.73713756, -24.63287233], [-47.73720191, -24.6328807], [-47.73729143, -24.63288381], [-47.73736509, -24.63289558], [-47.73742011, -24.63290742], [-47.73746768, -24.63293908], [-47.73750499, -24.63298024], [-47.73751806, -24.63301977], [-47.73753112, -24.6330679], [-47.73753114, -24.63312297], [-47.73751811, -24.63320217], [-47.7374715, -24.6332772], [-47.73741931, -24.6333488], [-47.73740254, -24.63342028], [-47.73738112, -24.633515], [-47.73738115, -24.6336148], [-47.73738491, -24.63372406], [-47.73742783, -24.6338108], [-47.73745395, -24.63387351], [-47.73747915, -24.63393278], [-47.73747546, -24.63406358], [-47.73751371, -24.6341314], [-47.737565, -24.6341467], [-47.73762561, -24.63415852], [-47.73767689, -24.63414198], [-47.73772351, -24.63412202], [-47.73776454, -24.63411068], [-47.73785871, -24.6340828], [-47.7379361, -24.63406703], [-47.73799578, -24.63404702], [-47.7380685, -24.63401491], [-47.73814216, -24.63398281], [-47.73824005, -24.63392738], [-47.73831744, -24.63389525], [-47.73840694, -24.6338433], [-47.73850111, -24.63379133], [-47.73857476, -24.63374803], [-47.73862604, -24.63372375], [-47.73871929, -24.63371996], [-47.73877896, -24.63370339], [-47.7388433, -24.63369111], [-47.73890763, -24.63367108], [-47.73899714, -24.63363547], [-47.73905308, -24.63360343], [-47.73912581, -24.63358337], [-47.73933561, -24.63357915], [-47.73942141, -24.63359862], [-47.73948109, -24.63362937], [-47.73955012, -24.63370052], [-47.73959303, -24.63376403], [-47.73965274, -24.63386706], [-47.73970314, -24.63400281], [-47.73971995, -24.63409395], [-47.73972838, -24.63423244], [-47.73974615, -24.63440273], [-47.73975924, -24.63450937], [-47.73978443, -24.63455659], [-47.73981056, -24.63462791], [-47.73981898, -24.63471908], [-47.73982739, -24.63479218], [-47.7398442, -24.63486353], [-47.73989551, -24.63495884], [-47.73994683, -24.6350378], [-47.7400112, -24.63513995], [-47.74008395, -24.63521109], [-47.74015671, -24.63527449], [-47.74023411, -24.63529743], [-47.74031525, -24.63532896], [-47.74037586, -24.63534078], [-47.74043928, -24.63536463], [-47.74051668, -24.63537553], [-47.74058568, -24.63537527], [-47.74061085, -24.63534764], [-47.74064814, -24.63531997], [-47.74069942, -24.6352802], [-47.74073763, -24.63520865], [-47.74079354, -24.63509401], [-47.74084479, -24.63497078], [-47.74089138, -24.63486392], [-47.74095196, -24.63474496], [-47.74097338, -24.63467777], [-47.74102465, -24.63462166], [-47.74113187, -24.63455845], [-47.74121764, -24.63450995], [-47.74128571, -24.63450195], [-47.74140135, -24.63453335], [-47.74147409, -24.63454856], [-47.74153843, -24.63456037], [-47.74159812, -24.63458424], [-47.7416802, -24.63464674], [-47.74184065, -24.63484661], [-47.74190502, -24.63494531], [-47.74195634, -24.63504062], [-47.74200764, -24.63510324], [-47.74205056, -24.63516244], [-47.74213169, -24.63518623], [-47.74221751, -24.63527281], [-47.74230799, -24.63536711], [-47.74235929, -24.6354065], [-47.74240592, -24.63543041], [-47.74247027, -24.63544222], [-47.7426549, -24.63543722], [-47.74270618, -24.63542154], [-47.74277518, -24.63540838], [-47.74286096, -24.63538397], [-47.74291691, -24.63537601], [-47.74297658, -24.635356], [-47.74309221, -24.63536761], [-47.7431519, -24.63538288], [-47.74323769, -24.63540234], [-47.74328899, -24.63544173], [-47.74334495, -24.63547679], [-47.7433832, -24.63554032], [-47.74342612, -24.63559952], [-47.74347743, -24.63567505], [-47.74351196, -24.63574547], [-47.74354648, -24.63582105], [-47.7435978, -24.63591464], [-47.74362767, -24.63600229], [-47.74364915, -24.63610459], [-47.74367529, -24.6362], [-47.74371356, -24.63631859], [-47.74372665, -24.63642092], [-47.74377799, -24.63656613], [-47.74382931, -24.63666833], [-47.74387224, -24.63677485], [-47.74394967, -24.63687781], [-47.74406909, -24.63703997], [-47.74415119, -24.63714979], [-47.74422769, -24.63726738], [-47.74428368, -24.63738934], [-47.74432196, -24.63753546], [-47.74434812, -24.63766184], [-47.74438267, -24.63780797], [-47.7444256, -24.63792655], [-47.74445919, -24.63797804], [-47.74448068, -24.638101], [-47.74450681, -24.63816026], [-47.74453668, -24.638235], [-47.74459265, -24.63829072], [-47.74465701, -24.6383335], [-47.74472509, -24.63835733], [-47.74478944, -24.63838118], [-47.74501886, -24.63845689], [-47.74512611, -24.63849606], [-47.74522032, -24.63854647], [-47.74530146, -24.63858574], [-47.74536581, -24.63862164], [-47.74541712, -24.63867307], [-47.74544698, -24.63874006], [-47.74547685, -24.63881394], [-47.74550206, -24.63890505], [-47.74552821, -24.63901164], [-47.74556648, -24.63912592], [-47.74560476, -24.63924795], [-47.74564302, -24.63934245], [-47.74566917, -24.63943786], [-47.74569437, -24.63952466], [-47.74572425, -24.63962693], [-47.74575507, -24.63976534], [-47.74580641, -24.63990022], [-47.74582788, -24.63997155], [-47.74587919, -24.64003417], [-47.74595196, -24.64011305], [-47.74599021, -24.64015678], [-47.74604152, -24.640228], [-47.74608444, -24.6402829], [-47.74614413, -24.64032742], [-47.74619077, -24.64035908], [-47.74624301, -24.64039415], [-47.74629804, -24.64044987], [-47.74635868, -24.64051245], [-47.74640533, -24.64057594], [-47.74645291, -24.64063513], [-47.74650422, -24.64070635], [-47.74656021, -24.64080508], [-47.74659847, -24.64087979], [-47.74663674, -24.64096654], [-47.74668807, -24.64107734], [-47.74673099, -24.64115289], [-47.74673568, -24.64123547], [-47.74676089, -24.64131109], [-47.74677024, -24.64137816], [-47.74675257, -24.64152965], [-47.74673583, -24.64165275], [-47.74669112, -24.64178972], [-47.74662219, -24.64200766], [-47.74658401, -24.64215579], [-47.74659528, -24.64236912], [-47.74666528, -24.64254179], [-47.74676605, -24.64267649], [-47.74683044, -24.6428096], [-47.7469051, -24.64296333], [-47.74695925, -24.64315069], [-47.746991, -24.64325984], [-47.74698546, -24.64340354], [-47.74698557, -24.643715], [-47.74701827, -24.64387318], [-47.74706587, -24.64398227], [-47.74710881, -24.64410084], [-47.74714153, -24.64431581], [-47.74715746, -24.6445188], [-47.74715288, -24.64475198], [-47.74715768, -24.64513311], [-47.7471578, -24.64544199], [-47.74713172, -24.64553071], [-47.74710471, -24.64562975], [-47.74710475, -24.64573386], [-47.74712062, -24.64579833], [-47.74716356, -24.64591173], [-47.74722234, -24.64598636], [-47.7472979, -24.64604028], [-47.74741544, -24.64613878], [-47.74749661, -24.64622279], [-47.7475442, -24.64630177], [-47.74758712, -24.64637646], [-47.74760861, -24.64648048], [-47.7476301, -24.64660429], [-47.74763572, -24.64665934], [-47.74763018, -24.64679272], [-47.74761434, -24.64685214], [-47.74760318, -24.64692618], [-47.7475771, -24.64700543], [-47.74752863, -24.64708047], [-47.74747457, -24.64715983], [-47.74740558, -24.6471945], [-47.74734125, -24.64726444], [-47.74729279, -24.64735152], [-47.74726671, -24.64743077], [-47.7472341, -24.64751952], [-47.74718564, -24.64760402], [-47.74710547, -24.6476938], [-47.74703089, -24.64775861], [-47.74691806, -24.64778829], [-47.74678376, -24.64777417], [-47.74663547, -24.64775408], [-47.74653663, -24.64777511], [-47.74648162, -24.64780543], [-47.74642754, -24.64782628], [-47.74638185, -24.64785399], [-47.74633337, -24.64790321], [-47.74631287, -24.64795147], [-47.74630357, -24.64800227], [-47.74631944, -24.64805039], [-47.7463493, -24.64810104], [-47.74639782, -24.64816452], [-47.74643421, -24.64821343], [-47.7464622, -24.6482572], [-47.74648926, -24.6483113], [-47.74650047, -24.64835772], [-47.74652571, -24.64851507], [-47.7465304, -24.64858733], [-47.74654908, -24.64866555], [-47.74655843, -24.64874123], [-47.74657151, -24.64879624], [-47.74659951, -24.64885723], [-47.74664243, -24.64891213], [-47.74669747, -24.64897215], [-47.74673852, -24.64901243], [-47.7467889, -24.64906042], [-47.7468393, -24.64916606], [-47.74686451, -24.64924425], [-47.74692608, -24.64930167], [-47.74698578, -24.64934618], [-47.74705668, -24.64940528], [-47.74711825, -24.64946183], [-47.74717982, -24.64950978], [-47.74724139, -24.64957149], [-47.74729177, -24.64962551], [-47.74734216, -24.64968554], [-47.74737202, -24.64974049], [-47.74739442, -24.64979547], [-47.74741309, -24.64984616], [-47.74744483, -24.64992004], [-47.74746072, -24.65001032], [-47.74747288, -24.65011782], [-47.74745705, -24.65018585], [-47.74743189, -24.65024531], [-47.74740673, -24.65028412], [-47.74737691, -24.6503393], [-47.74735641, -24.65038411], [-47.74732139, -24.65045479], [-47.74733527, -24.65060685], [-47.74736291, -24.65069235], [-47.74739853, -24.65077853], [-47.74743508, -24.65086284], [-47.74742561, -24.65096968], [-47.74741949, -24.65105713], [-47.74739798, -24.65113036], [-47.74740099, -24.65122304], [-47.74742379, -24.65128205], [-47.74743448, -24.65142778], [-47.74741315, -24.65150651], [-47.74738165, -24.6515782], [-47.7473025, -24.65165319], [-47.74723821, -24.65169558], [-47.74705679, -24.65180768], [-47.74690991, -24.65188014], [-47.74682298, -24.65189934], [-47.74672919, -24.65192149], [-47.74651839, -24.65192518], [-47.74642964, -24.65191871], [-47.74623324, -24.65193666], [-47.74610638, -24.65195156], [-47.74600372, -24.65197674], [-47.74590453, -24.65201652], [-47.74582458, -24.65206673], [-47.74578637, -24.65211566], [-47.74575176, -24.65218377], [-47.74575849, -24.65229931], [-47.74578795, -24.65234893], [-47.74583956, -24.65243737], [-47.7459287, -24.65251732], [-47.74605242, -24.65258978], [-47.74618408, -24.65263077], [-47.7463852, -24.65263564], [-47.74652697, -24.65262028], [-47.7466794, -24.65262664], [-47.7467864, -24.65264358], [-47.74690314, -24.65268502], [-47.74700859, -24.6527461], [-47.74711247, -24.65288163], [-47.74715006, -24.65299806], [-47.74716373, -24.65314369], [-47.74718497, -24.6533387], [-47.74722072, -24.65349009], [-47.74723753, -24.65367145], [-47.74725809, -24.65378381], [-47.74729294, -24.65396921], [-47.74731636, -24.65407781], [-47.74733839, -24.65454285], [-47.74734227, -24.65475492], [-47.74732694, -24.65483439], [-47.74730462, -24.6549747], [-47.74728681, -24.65506985], [-47.74725706, -24.65519569], [-47.74723598, -24.65531299], [-47.74716515, -24.65552184], [-47.74711736, -24.65564363], [-47.74706264, -24.65576656], [-47.74703056, -24.65585113], [-47.7470056, -24.65597131], [-47.74697165, -24.65612116], [-47.74694719, -24.65619539], [-47.74688872, -24.65629455], [-47.74681054, -24.65639982], [-47.74677947, -24.65645405], [-47.74675459, -24.65651543], [-47.74671222, -24.65665084], [-47.74668604, -24.65673339], [-47.74670194, -24.65694785], [-47.74675068, -24.65707037], [-47.74679948, -24.65713318], [-47.7468657, -24.65721199], [-47.74694954, -24.65731231], [-47.74700231, -24.65737499], [-47.74702867, -24.65742103], [-47.74705698, -24.65749641], [-47.74708175, -24.65755444], [-47.74710207, -24.65805904], [-47.74709042, -24.6581292], [-47.7470784, -24.65818836], [-47.74709937, -24.65825202], [-47.74713783, -24.65833352], [-47.74720632, -24.65839021], [-47.74728016, -24.65842745], [-47.7473407, -24.65848439], [-47.7474143, -24.65857583], [-47.7474715, -24.65865216], [-47.74750682, -24.65872916], [-47.74755912, -24.65883871], [-47.7476211, -24.65893969], [-47.74770023, -24.65904842], [-47.74780696, -24.65914895], [-47.74794249, -24.65924769], [-47.7480792, -24.65932159], [-47.74814964, -24.65934607], [-47.74827784, -24.65937246], [-47.74838386, -24.65938943], [-47.74846855, -24.65939327], [-47.74855658, -24.65940803], [-47.74862885, -24.65945818], [-47.74869739, -24.65954702], [-47.74873585, -24.65962851], [-47.74878801, -24.65970316], [-47.74883068, -24.65973033], [-47.74888562, -24.65973692], [-47.74893662, -24.65971423], [-47.74897692, -24.65969922], [-47.7490178, -24.65970164], [-47.74904634, -24.65972281], [-47.74906594, -24.65974426], [-47.74907906, -24.6597806], [-47.74908324, -24.65984845], [-47.74905901, -24.65989879], [-47.74903679, -24.65994999], [-47.74904509, -24.66005262], [-47.74906525, -24.6600915], [-47.74910635, -24.66013158], [-47.7491747, -24.66018368], [-47.74922998, -24.6602316], [-47.74929047, -24.6602867], [-47.7493325, -24.66032491], [-47.74934498, -24.66037229], [-47.74935516, -24.66044088], [-47.74937729, -24.66054032], [-47.74940714, -24.66060187], [-47.74945647, -24.6606812], [-47.74950692, -24.66076416], [-47.74951449, -24.66102848], [-47.74949978, -24.66106567], [-47.74945681, -24.66112118], [-47.74937778, -24.66116953], [-47.74929975, -24.66121785], [-47.74919311, -24.66127347], [-47.74905044, -24.66132284], [-47.74891706, -24.66135173], [-47.74886855, -24.66138995], [-47.74884384, -24.66142562], [-47.74881438, -24.66149908], [-47.74882395, -24.66157963], [-47.74886526, -24.66162613], [-47.74893723, -24.6616671], [-47.74906311, -24.66171377], [-47.7491965, -24.66174643], [-47.74935298, -24.66178573], [-47.74946989, -24.66183176], [-47.7495783, -24.66189183], [-47.74965583, -24.661951], [-47.74973596, -24.66199815], [-47.74981533, -24.66205267], [-47.74991883, -24.66211472], [-47.74996831, -24.66213709], [-47.75008376, -24.66213815], [-47.75019757, -24.66208874], [-47.75027041, -24.66206446], [-47.75040994, -24.66203392], [-47.75049067, -24.66201607], [-47.75055233, -24.66199487], [-47.7506691, -24.66200491], [-47.75074488, -24.66202682], [-47.75083042, -24.66203808], [-47.7509338, -24.66200844], [-47.75103018, -24.66197255], [-47.75116233, -24.66196964], [-47.75125303, -24.66198707], [-47.75133038, -24.66203031], [-47.75135679, -24.66211645], [-47.75135898, -24.66219307], [-47.75131621, -24.66228734], [-47.751256, -24.66238173], [-47.75121899, -24.66243798], [-47.75121281, -24.66254996], [-47.75125805, -24.66261054], [-47.75133499, -24.66266141], [-47.75142327, -24.66267279], [-47.75155983, -24.66268962], [-47.75167983, -24.66270744], [-47.75180183, -24.66273896], [-47.75198339, -24.66282061], [-47.75209661, -24.66289511], [-47.75221577, -24.66296137], [-47.7523046, -24.66301274], [-47.75242147, -24.66305424], [-47.75250754, -24.66303917], [-47.75255745, -24.66301492], [-47.7525834, -24.6629599], [-47.75258996, -24.66290746], [-47.75262874, -24.66286913], [-47.75265488, -24.66284388], [-47.75273807, -24.66283124], [-47.75281645, -24.66285581], [-47.75290095, -24.66293591], [-47.75299403, -24.66305973], [-47.75313546, -24.6632043], [-47.7532361, -24.66327402], [-47.75333682, -24.66332589], [-47.75342474, -24.66332706], [-47.75349492, -24.66330111], [-47.75359144, -24.66326268], [-47.75366629, -24.66326839], [-47.75375739, -24.66332836], [-47.75390934, -24.66339855], [-47.75404822, -24.66342312], [-47.75423027, -24.66344612], [-47.75444463, -24.66348153], [-47.75455563, -24.66349642], [-47.75468174, -24.66353661], [-47.75484635, -24.66360989], [-47.75502932, -24.66369924], [-47.75516127, -24.66374988], [-47.75613889, -24.66422226], [-47.75529835, -24.66379053], [-47.75546042, -24.66381013], [-47.7555494, -24.66380879], [-47.75562547, -24.6638256], [-47.75570344, -24.66385781], [-47.75576694, -24.663903], [-47.75584405, -24.66396748], [-47.75595856, -24.6640684], [-47.75604579, -24.66414861], [-47.75613889, -24.66422226], [-47.75621178, -24.66429676], [-47.75630375, -24.66439078], [-47.75638361, -24.66448853], [-47.75649337, -24.66462581], [-47.75657409, -24.66472445], [-47.75660395, -24.66479798], [-47.75661156, -24.66485952], [-47.75661712, -24.66502471], [-47.75666101, -24.66502656], [-47.7567331, -24.66508232], [-47.75677283, -24.66515968], [-47.75683852, -24.6652094], [-47.75693629, -24.66520727], [-47.75702631, -24.66520532], [-47.75712213, -24.66520324], [-47.75720595, -24.66522634], [-47.75730471, -24.66526692], [-47.75738026, -24.66530889], [-47.75744707, -24.66535016], [-47.75755559, -24.66543591], [-47.75765009, -24.6655015], [-47.75776158, -24.66558986], [-47.75782427, -24.66562053], [-47.75791323, -24.66565598], [-47.7580271, -24.66568021], [-47.75810308, -24.66574086], [-47.75828456, -24.66592381], [-47.75838543, -24.66601329], [-47.75848336, -24.66606012], [-47.75855044, -24.66607112], [-47.75860065, -24.66606469], [-47.75864045, -24.66602734], [-47.75864648, -24.66595334], [-47.75863996, -24.66588139], [-47.75867828, -24.66582182], [-47.75876401, -24.66580216], [-47.75883706, -24.66582015], [-47.75889988, -24.66585617], [-47.75897345, -24.6658964], [-47.7590674, -24.66589703], [-47.75923838, -24.66587819], [-47.75930881, -24.6659087], [-47.75937425, -24.66597402], [-47.75938291, -24.666013], [-47.75934966, -24.66608225], [-47.75929876, -24.66614209], [-47.7592414, -24.66617448], [-47.75918864, -24.6661961], [-47.75913572, -24.66625243], [-47.75910906, -24.66631352], [-47.75909047, -24.66638869], [-47.75903568, -24.66644772], [-47.75896735, -24.66650795], [-47.75890906, -24.66658308], [-47.75887705, -24.66666387], [-47.75885867, -24.66674793], [-47.75888536, -24.66677138], [-47.75892626, -24.66678117], [-47.7589836, -24.66678972], [-47.75908758, -24.66676343], [-47.75921841, -24.66672588], [-47.75928561, -24.66670039], [-47.75942773, -24.66669018], [-47.75946629, -24.66672406], [-47.75947526, -24.66677637], [-47.7595063, -24.66682019], [-47.75956687, -24.66684291], [-47.75958955, -24.66686022], [-47.75959518, -24.66693574], [-47.75961187, -24.666987], [-47.75963472, -24.66701142], [-47.75969955, -24.66705095], [-47.75974736, -24.6670772], [-47.75975529, -24.66707738], [-47.76006451, -24.66707781], [-47.76007126, -24.66708053], [-47.76007583, -24.66708468], [-47.76008391, -24.66709152], [-47.76013697, -24.66714732], [-47.76019743, -24.66723005], [-47.76021845, -24.66728137], [-47.76024119, -24.66731894], [-47.76029175, -24.6673451], [-47.76034134, -24.66736697], [-47.76034846, -24.66742529], [-47.76031353, -24.66747025], [-47.76030717, -24.66748662], [-47.7603034, -24.66757251], [-47.76032317, -24.66759293], [-47.76036622, -24.66761315], [-47.76044347, -24.66760815], [-47.7604902, -24.66762318], [-47.760524, -24.66764949], [-47.76058892, -24.66771329], [-47.76062751, -24.66775244], [-47.76066218, -24.66777273], [-47.76070528, -24.66779809], [-47.76074916, -24.667808], [-47.76080703, -24.66781949], [-47.76083504, -24.66782611], [-47.76086711, -24.66786617], [-47.76088904, -24.6679149], [-47.7608904, -24.66795696], [-47.76087867, -24.66799398], [-47.76085119, -24.66803888], [-47.76084036, -24.66807246], [-47.76082323, -24.66812756], [-47.76083218, -24.66818242], [-47.76085801, -24.66824916], [-47.76089782, -24.66831662], [-47.76092892, -24.66835154], [-47.76095914, -24.66839247], [-47.76098563, -24.66843258], [-47.76100553, -24.66846503], [-47.76100573, -24.66848477], [-47.76101305, -24.66856283], [-47.76099857, -24.66860331], [-47.76096544, -24.66864225], [-47.76094971, -24.6687437], [-47.76097426, -24.6687761], [-47.76101825, -24.66879631], [-47.76110316, -24.66881185], [-47.76122237, -24.66881077], [-47.76128676, -24.6688222], [-47.76132788, -24.66883642], [-47.76138513, -24.66887883], [-47.76144712, -24.66892892], [-47.76152147, -24.6690038], [-47.76160258, -24.6691018], [-47.76171841, -24.66922523], [-47.76176551, -24.66927632], [-47.76182846, -24.66932983], [-47.76188214, -24.66938687], [-47.76191524, -24.6694355], [-47.76191398, -24.6694939], [-47.76187428, -24.6695286], [-47.76179931, -24.66957478], [-47.76170571, -24.66962027], [-47.76163075, -24.66966731], [-47.76163179, -24.66976861], [-47.76168904, -24.66981102], [-47.76176848, -24.66983691], [-47.76184604, -24.66986196], [-47.76191792, -24.66987762], [-47.76197488, -24.6698917], [-47.76201798, -24.66991621], [-47.76205835, -24.66994675], [-47.7620878, -24.67000315], [-47.76210624, -24.67007509], [-47.76213111, -24.67013926], [-47.76212911, -24.67021655], [-47.76214783, -24.67031596], [-47.76215729, -24.67041976], [-47.76217393, -24.6704986], [-47.76218406, -24.67057749], [-47.76222454, -24.67071019], [-47.76226282, -24.67080944], [-47.76230659, -24.67089918], [-47.7623362, -24.67097103], [-47.76239203, -24.67105638], [-47.7624432, -24.67114091], [-47.76249316, -24.67119884], [-47.76257738, -24.67130241], [-47.76260542, -24.6713369], [-47.76274025, -24.67149622], [-47.76291747, -24.67170152], [-47.76311249, -24.6719161], [-47.76327453, -24.67209492], [-47.76335924, -24.67218], [-47.76344581, -24.67226507], [-47.76355024, -24.67236628], [-47.76363318, -24.67246169], [-47.76364, -24.67247215]]]]}}]}