{"type": "FeatureCollection", "features": [{"type": "Feature", "properties": {"name": "Parque Estadual Itinguçu"}, "geometry": {"type": "MultiPolygon", "coordinates": [[[[-47.02978232, -24.42627141], [-47.03011829, -24.42632372], [-47.03072637, -24.42631556], [-47.03113489, -24.42624757], [-47.03206261, -24.4260476], [-47.03245899, -24.42599681], [-47.03284296, -24.42594619], [-47.03316561, -24.42594186], [-47.03352604, -24.42597111], [-47.03396147, -24.42603344], [-47.03540071, -24.42599703], [-47.03564882, -24.42598801], [-47.03589792, -24.42604148], [-47.03604848, -24.42614174], [-47.03636036, -24.42623982], [-47.03655873, -24.42622578], [-47.03666951, -24.42616747], [-47.03696442, -24.42598167], [-47.03712319, -24.42582043], [-47.03720951, -24.42578517], [-47.03750752, -24.42579252], [-47.03765417, -24.4258351], [-47.03789523, -24.42597481], [-47.03817244, -24.42623246], [-47.03870607, -24.42699806], [-47.03904606, -24.42730031], [-47.0392083, -24.42735495], [-47.03949409, -24.42737383], [-47.0404876, -24.42740589], [-47.04151981, -24.42752833], [-47.04205617, -24.42769156], [-47.04253049, -24.42785562], [-47.04348077, -24.428286], [-47.04401805, -24.42850603], [-47.044897, -24.42913056], [-47.04556224, -24.42958751], [-47.04574931, -24.4296418], [-47.04580546, -24.42964355], [-47.04580623, -24.42963837], [-47.04679332, -24.42789228], [-47.04681152, -24.4279116], [-47.04735766, -24.42784874], [-47.04760526, -24.42779392], [-47.04804052, -24.42775824], [-47.04858075, -24.42781141], [-47.04944669, -24.42806691], [-47.05009856, -24.42837767], [-47.0503818, -24.42863654], [-47.05045356, -24.42874481], [-47.05047096, -24.42884478], [-47.05042164, -24.42927067], [-47.05050852, -24.42945998], [-47.05057065, -24.42952144], [-47.05063867, -24.42952051], [-47.05075473, -24.4294413], [-47.05104253, -24.42894537], [-47.05131659, -24.42833226], [-47.05147684, -24.42811974], [-47.05180441, -24.4278273], [-47.05262346, -24.42743972], [-47.05280977, -24.42725393], [-47.05286274, -24.4269932], [-47.05278686, -24.42675228], [-47.052624, -24.42661997], [-47.05236288, -24.42650977], [-47.05159922, -24.42629804], [-47.05132496, -24.42616724], [-47.05093325, -24.42590803], [-47.0505893, -24.42555338], [-47.05039904, -24.42525081], [-47.05027304, -24.42495911], [-47.05011125, -24.42437633], [-47.0501072, -24.42436174], [-47.05002909, -24.42408038], [-47.04987947, -24.42366892], [-47.04970212, -24.4233725], [-47.04933167, -24.42290264], [-47.04928167, -24.42286192], [-47.04928456, -24.4228544], [-47.04935686, -24.42285342], [-47.04950531, -24.42288752], [-47.04952503, -24.42288725], [-47.04961404, -24.4229041], [-47.04986414, -24.42312641], [-47.04994533, -24.42326976], [-47.04995548, -24.42328768], [-47.05001551, -24.42334103], [-47.05009452, -24.42334899], [-47.05021121, -24.4232481], [-47.05021077, -24.42322102], [-47.05021019, -24.42318492], [-47.05020975, -24.42315784], [-47.05020858, -24.42308563], [-47.05022596, -24.42294095], [-47.05022523, -24.42289582], [-47.05029234, -24.42277755], [-47.05039004, -24.42272206], [-47.05049819, -24.42270253], [-47.05053777, -24.42271103], [-47.0505975, -24.42274633], [-47.05063766, -24.42279092], [-47.05072828, -24.42290706], [-47.05091025, -24.42318446], [-47.05097056, -24.42325587], [-47.05107104, -24.42337187], [-47.05114092, -24.42342509], [-47.05125126, -24.42354095], [-47.05145988, -24.42363743], [-47.0514896, -24.42364606], [-47.05169706, -24.42367033], [-47.05170677, -24.42366117], [-47.05173517, -24.42358856], [-47.05174372, -24.42350719], [-47.05183894, -24.42329826], [-47.05256234, -24.42332226], [-47.0525709, -24.42335222], [-47.05257338, -24.42334371], [-47.05289228, -24.42293812], [-47.05291857, -24.42290468], [-47.05299689, -24.42280507], [-47.05330289, -24.42240908], [-47.05349583, -24.42216744], [-47.0543347, -24.42138022], [-47.05458095, -24.42125932], [-47.05503188, -24.42109255], [-47.05543605, -24.42094599], [-47.05563888, -24.4207865], [-47.05578916, -24.42055328], [-47.05587251, -24.42041501], [-47.05597553, -24.42017067], [-47.05611164, -24.41985535], [-47.05632434, -24.41924903], [-47.05639314, -24.41916385], [-47.0564011, -24.419154], [-47.05651312, -24.41901528], [-47.05672643, -24.41871067], [-47.05702724, -24.41825989], [-47.05720268, -24.41799497], [-47.05768273, -24.41751433], [-47.05786396, -24.41734337], [-47.05842875, -24.41681063], [-47.05863227, -24.41669423], [-47.05878911, -24.41660197], [-47.05903968, -24.41648493], [-47.05931581, -24.4163597], [-47.05937526, -24.41633147], [-47.0595685, -24.41610941], [-47.05960209, -24.41606977], [-47.05974175, -24.41597383], [-47.05992796, -24.4158459], [-47.06028748, -24.41558632], [-47.06041636, -24.41535338], [-47.06052263, -24.4150463], [-47.06060125, -24.41488066], [-47.06079021, -24.41465866], [-47.06126053, -24.4141076], [-47.06138646, -24.41395699], [-47.06149119, -24.41381842], [-47.06163276, -24.41357747], [-47.06169018, -24.41342388], [-47.06166414, -24.41313819], [-47.06153236, -24.4129284], [-47.0614166, -24.41265177], [-47.06138207, -24.41237012], [-47.06139556, -24.41214659], [-47.06139856, -24.41206818], [-47.06146817, -24.41187523], [-47.06150987, -24.41180805], [-47.06161064, -24.41168913], [-47.06181504, -24.41162757], [-47.06209185, -24.41154543], [-47.06244023, -24.41165432], [-47.06271831, -24.41165053], [-47.0628547, -24.41161732], [-47.06316247, -24.41159745], [-47.06338985, -24.41163354], [-47.06359604, -24.41168166], [-47.06384493, -24.41172529], [-47.06409326, -24.41173366], [-47.0642732, -24.41174688], [-47.0643375, -24.41175384], [-47.06438494, -24.4117767], [-47.06454368, -24.41180196], [-47.06466838, -24.41183944], [-47.06503279, -24.41188149], [-47.06510993, -24.41188828], [-47.06554861, -24.41176082], [-47.06603549, -24.41144071], [-47.06617418, -24.411286], [-47.06656057, -24.41083795], [-47.06658151, -24.41081023], [-47.06672314, -24.4105732], [-47.06680213, -24.41043106], [-47.06683507, -24.41035224], [-47.06685544, -24.41028927], [-47.06695608, -24.41016251], [-47.067004, -24.41009586], [-47.06702721, -24.41006358], [-47.06710754, -24.41000371], [-47.06733192, -24.40985567], [-47.06734261, -24.40984832], [-47.06790051, -24.40981683], [-47.06790765, -24.40981906], [-47.06813526, -24.40993151], [-47.06825657, -24.41011582], [-47.06831865, -24.41035602], [-47.0681926, -24.41084886], [-47.06819044, -24.41120008], [-47.06823316, -24.41134123], [-47.06827669, -24.41135057], [-47.06833038, -24.41143831], [-47.06844182, -24.41162186], [-47.06848863, -24.41177198], [-47.06846198, -24.41189061], [-47.0683651, -24.41205625], [-47.06864926, -24.41206951], [-47.06956383, -24.412135], [-47.06959212, -24.41213703], [-47.06972912, -24.41214683], [-47.07084446, -24.41222366], [-47.07183758, -24.41230215], [-47.07230294, -24.412303], [-47.07323234, -24.41228305], [-47.07405771, -24.41223202], [-47.07477013, -24.41226829], [-47.07574299, -24.41237412], [-47.07667826, -24.41247233], [-47.07713999, -24.41255176], [-47.07782426, -24.41261459], [-47.07878191, -24.41269442], [-47.07935053, -24.41273897], [-47.08034925, -24.41273789], [-47.08178771, -24.41273797], [-47.08247792, -24.41274201], [-47.08295969, -24.41278142], [-47.08302397, -24.41279318], [-47.08327018, -24.41283673], [-47.08357999, -24.41291101], [-47.0838484, -24.41304544], [-47.08411066, -24.413226], [-47.08433722, -24.41345399], [-47.08461621, -24.41381216], [-47.08489843, -24.4143671], [-47.08503901, -24.41464232], [-47.08524691, -24.41505383], [-47.08534466, -24.41530256], [-47.08552149, -24.41556373], [-47.0856911, -24.41580515], [-47.08601885, -24.41607056], [-47.08631628, -24.41623077], [-47.08664899, -24.41637785], [-47.08699659, -24.41653104], [-47.0871856, -24.41663316], [-47.08748402, -24.41685293], [-47.08784167, -24.41719737], [-47.08814257, -24.41756788], [-47.08847055, -24.41784682], [-47.08874577, -24.41797483], [-47.08942621, -24.41822183], [-47.08995257, -24.41833282], [-47.09040785, -24.41843848], [-47.09093949, -24.41845099], [-47.09124134, -24.41846036], [-47.09160738, -24.41841558], [-47.09202951, -24.41830412], [-47.0925741, -24.41814582], [-47.09356623, -24.417743], [-47.09403108, -24.41759212], [-47.09431772, -24.41751593], [-47.09465506, -24.41746522], [-47.09503585, -24.41738448], [-47.09515614, -24.41735898], [-47.09553587, -24.41730768], [-47.0958604, -24.41731672], [-47.09619773, -24.41732469], [-47.09642126, -24.41736763], [-47.09662366, -24.41744427], [-47.09669505, -24.41749476], [-47.09680366, -24.41748757], [-47.09785298, -24.41783137], [-47.09921586, -24.41872826], [-47.100144, -24.41963116], [-47.10134422, -24.42120716], [-47.10240018, -24.42194901], [-47.10309778, -24.42205876], [-47.10462144, -24.42215702], [-47.10696651, -24.42196511], [-47.10849016, -24.42206333], [-47.10997365, -24.42236118], [-47.11092946, -24.42230803], [-47.11182125, -24.42102146], [-47.11284278, -24.41969325], [-47.11540018, -24.41659165], [-47.11578813, -24.41638715], [-47.11761603, -24.41648102], [-47.11874303, -24.41626616], [-47.12017234, -24.41592761], [-47.12060841, -24.41600113], [-47.12122636, -24.4165499], [-47.12105979, -24.41699022], [-47.12002506, -24.41752233], [-47.11942839, -24.41824738], [-47.1184096, -24.41973486], [-47.11808307, -24.42101355], [-47.11875648, -24.42227825], [-47.11946008, -24.42274619], [-47.12072221, -24.42280813], [-47.12280173, -24.42234099], [-47.12415282, -24.4225211], [-47.12586172, -24.42329342], [-47.12808034, -24.42334186], [-47.12911641, -24.4228893], [-47.13049293, -24.42199397], [-47.13103121, -24.42197048], [-47.13103107, -24.4219622], [-47.1310141, -24.42189112], [-47.13097025, -24.42180508], [-47.13093703, -24.42170534], [-47.1309355, -24.42161418], [-47.13092427, -24.42153309], [-47.13093859, -24.42144622], [-47.13095824, -24.42138365], [-47.13100435, -24.42131078], [-47.13108718, -24.42125274], [-47.13120654, -24.4211978], [-47.13129009, -24.42118218], [-47.13142612, -24.42118026], [-47.13160987, -24.42120204], [-47.13189866, -24.42125485], [-47.13213343, -24.42132015], [-47.13226006, -24.42134545], [-47.1323778, -24.42136997], [-47.13248042, -24.42140238], [-47.13263136, -24.42151422], [-47.13317849, -24.42125757], [-47.13349911, -24.42120972], [-47.13380704, -24.42122795], [-47.13459286, -24.42140463], [-47.13502906, -24.42144401], [-47.13503157, -24.42144424], [-47.13512906, -24.42145304], [-47.13531971, -24.42141604], [-47.1354854, -24.42130176], [-47.1356553, -24.42108631], [-47.13568117, -24.42092435], [-47.13578103, -24.42088232], [-47.13600221, -24.42043323], [-47.13629594, -24.41995964], [-47.13655925, -24.41967065], [-47.13670831, -24.41956473], [-47.13671934, -24.41951673], [-47.13829414, -24.41871268], [-47.13884743, -24.41843042], [-47.13962075, -24.41792477], [-47.14016584, -24.41750811], [-47.14071764, -24.41719698], [-47.14127671, -24.41708254], [-47.14186134, -24.41708149], [-47.14315492, -24.41720039], [-47.14373612, -24.41728785], [-47.14502796, -24.41736252], [-47.14541782, -24.41732901], [-47.14616998, -24.41714772], [-47.14671705, -24.41684927], [-47.14696605, -24.41659026], [-47.14716255, -24.41625886], [-47.14728102, -24.41591865], [-47.14738728, -24.4153818], [-47.14739769, -24.41518124], [-47.14749961, -24.4148539], [-47.14766868, -24.41464928], [-47.14853549, -24.41390393], [-47.14856755, -24.41381771], [-47.1487856, -24.41365302], [-47.14962522, -24.41345693], [-47.1502882, -24.41319294], [-47.15092772, -24.41317392], [-47.15124507, -24.41305114], [-47.15138452, -24.41284424], [-47.15151832, -24.41242074], [-47.15164401, -24.41221674], [-47.15202462, -24.41181321], [-47.1522361, -24.41149424], [-47.15225243, -24.41142744], [-47.15228856, -24.41127964], [-47.15228875, -24.41127888], [-47.15231539, -24.41116992], [-47.15228993, -24.41059883], [-47.15232507, -24.41028779], [-47.15266419, -24.40935673], [-47.15279552, -24.40913639], [-47.15288146, -24.408914], [-47.15291728, -24.40870134], [-47.15289226, -24.40815643], [-47.15254724, -24.40740211], [-47.15250788, -24.40705782], [-47.15257052, -24.40685651], [-47.15288423, -24.40657852], [-47.15365788, -24.40609988], [-47.15436416, -24.40548588], [-47.15480087, -24.40496238], [-47.15483444, -24.40487999], [-47.15475164, -24.40479156], [-47.15454169, -24.40479365], [-47.15406541, -24.40492067], [-47.15398402, -24.40494238], [-47.15371929, -24.40501299], [-47.15336622, -24.40500447], [-47.15324888, -24.40494475], [-47.15282407, -24.40457287], [-47.15281558, -24.40456543], [-47.15267764, -24.40450954], [-47.15258528, -24.40447211], [-47.15254046, -24.40447129], [-47.15236341, -24.40446805], [-47.15213921, -24.40461839], [-47.15183714, -24.40465247], [-47.15166993, -24.40455825], [-47.15135865, -24.40428192], [-47.15072925, -24.40402274], [-47.15012935, -24.40387599], [-47.14989013, -24.40377918], [-47.14953686, -24.40358379], [-47.14921024, -24.40327426], [-47.14837557, -24.40218655], [-47.14809386, -24.40161729], [-47.14806845, -24.40151383], [-47.14790273, -24.4013916], [-47.14766867, -24.40142472], [-47.14737004, -24.40166187], [-47.14702638, -24.4022093], [-47.14684713, -24.40233552], [-47.14653332, -24.40249164], [-47.14637013, -24.40263478], [-47.14599313, -24.40313484], [-47.14558994, -24.40319382], [-47.14461847, -24.40299273], [-47.14437171, -24.40297456], [-47.14413776, -24.40301489], [-47.14398656, -24.40328425], [-47.14389721, -24.403773], [-47.14372381, -24.40395421], [-47.14355862, -24.4040378], [-47.14297758, -24.40413179], [-47.14275994, -24.40420348], [-47.14258317, -24.40436035], [-47.14246197, -24.40459769], [-47.14240349, -24.40481247], [-47.14233098, -24.40536418], [-47.1422427, -24.40560254], [-47.14211789, -24.40593955], [-47.14201645, -24.40600418], [-47.14190325, -24.40601391], [-47.14178242, -24.40598131], [-47.14150749, -24.4056444], [-47.14148747, -24.40561987], [-47.1412911, -24.40531661], [-47.14114729, -24.40497288], [-47.14108612, -24.40467764], [-47.14109275, -24.40407721], [-47.14119745, -24.40362164], [-47.14142897, -24.40297018], [-47.14142882, -24.4028447], [-47.14150317, -24.40251865], [-47.14151224, -24.40206262], [-47.14145725, -24.40172486], [-47.14134493, -24.40132875], [-47.14134405, -24.40132564], [-47.14096933, -24.40073421], [-47.14083554, -24.40063409], [-47.14069256, -24.40057405], [-47.14068574, -24.40057118], [-47.13962926, -24.40012754], [-47.13838483, -24.39917014], [-47.13758147, -24.39864704], [-47.13698597, -24.39840719], [-47.13636593, -24.39823268], [-47.13589365, -24.39816893], [-47.13516162, -24.39813412], [-47.13468795, -24.39816336], [-47.13407531, -24.39825325], [-47.13308344, -24.39853625], [-47.13258907, -24.39874183], [-47.13234092, -24.39887532], [-47.13183399, -24.39927246], [-47.13151377, -24.39963446], [-47.13107584, -24.40003153], [-47.13067819, -24.40030254], [-47.13033205, -24.40047172], [-47.12974011, -24.40062088], [-47.12925608, -24.40062046], [-47.12897974, -24.4005431], [-47.12877819, -24.40039878], [-47.12877736, -24.40029046], [-47.12915802, -24.39994657], [-47.12962792, -24.3996917], [-47.12994382, -24.39948323], [-47.13017014, -24.39928234], [-47.13037758, -24.39895532], [-47.13046875, -24.39863085], [-47.13048064, -24.39828221], [-47.1302955, -24.3978235], [-47.13023759, -24.39760314], [-47.13017571, -24.39749929], [-47.13013622, -24.39714325], [-47.13015656, -24.3968279], [-47.13032428, -24.39624867], [-47.13048539, -24.39598008], [-47.13115755, -24.39520869], [-47.13115635, -24.3950787], [-47.13098842, -24.39494024], [-47.13079725, -24.39488515], [-47.1302176, -24.39488428], [-47.12946804, -24.39503746], [-47.1281128, -24.39546005], [-47.12764822, -24.39550179], [-47.12680115, -24.39542522], [-47.12630045, -24.39548822], [-47.1262532, -24.39552088], [-47.12625053, -24.39552273], [-47.12604318, -24.39566607], [-47.12558352, -24.39629634], [-47.12526401, -24.39646603], [-47.12475337, -24.39658334], [-47.12380554, -24.39661199], [-47.12336824, -24.39657659], [-47.12313381, -24.39652842], [-47.12289484, -24.39638552], [-47.12291912, -24.39630484], [-47.12308514, -24.39615265], [-47.12358223, -24.39593262], [-47.12379789, -24.3958014], [-47.12402454, -24.39550211], [-47.12443131, -24.39465593], [-47.1244552, -24.39443441], [-47.12433257, -24.39435127], [-47.12419114, -24.39432346], [-47.12353329, -24.3943029], [-47.12332611, -24.3941749], [-47.1232048, -24.39405292], [-47.1230765, -24.39380827], [-47.12283835, -24.39347848], [-47.12232914, -24.39244201], [-47.1220096, -24.39213774], [-47.12193877, -24.39214596], [-47.12187458, -24.39219832], [-47.12168031, -24.3925477], [-47.12142681, -24.39271466], [-47.12128605, -24.39272656], [-47.12091422, -24.39259635], [-47.12076857, -24.39261103], [-47.12070128, -24.39265441], [-47.12065663, -24.39281392], [-47.12071027, -24.39313365], [-47.12098324, -24.39377802], [-47.12107063, -24.39422999], [-47.12106533, -24.39438444], [-47.12097604, -24.39470437], [-47.12079972, -24.39500746], [-47.12048096, -24.39510401], [-47.12030955, -24.39511092], [-47.1194779, -24.39489507], [-47.11916537, -24.39489222], [-47.11898356, -24.39492546], [-47.11806383, -24.39527958], [-47.11759299, -24.39536019], [-47.1170928, -24.39533559], [-47.1165115, -24.3951767], [-47.11591927, -24.39495297], [-47.11545477, -24.39470397], [-47.11434124, -24.39425172], [-47.11425784, -24.39421784], [-47.11425357, -24.39421688], [-47.11375618, -24.39410478], [-47.11262873, -24.39406093], [-47.11243123, -24.39408002], [-47.11242931, -24.39408021], [-47.11102451, -24.39421601], [-47.11032478, -24.39422577], [-47.10981356, -24.39418956], [-47.10940727, -24.39406161], [-47.10897946, -24.3938843], [-47.10873431, -24.39372432], [-47.10820466, -24.39323155], [-47.10787796, -24.39302846], [-47.1075517, -24.39297071], [-47.10679481, -24.39292166], [-47.10650266, -24.39278038], [-47.10598019, -24.39230375], [-47.10582875, -24.39220656], [-47.1056691, -24.39215009], [-47.10525024, -24.39209543], [-47.10490913, -24.39209295], [-47.10403114, -24.39217106], [-47.10359601, -24.39214641], [-47.10335156, -24.39208751], [-47.10294505, -24.39182684], [-47.10269194, -24.39154237], [-47.10244479, -24.3909635], [-47.10231845, -24.39047685], [-47.10228326, -24.3904234], [-47.10227683, -24.39041362], [-47.10213947, -24.39020489], [-47.10144097, -24.38969188], [-47.10118272, -24.3891565], [-47.10107727, -24.38868129], [-47.10105362, -24.3883837], [-47.10094304, -24.38825343], [-47.10085146, -24.38819963], [-47.10065088, -24.38817082], [-47.09994809, -24.38829161], [-47.09957965, -24.38830484], [-47.09942061, -24.38828448], [-47.09924354, -24.38818672], [-47.09905972, -24.38797892], [-47.09891499, -24.38751238], [-47.09874049, -24.38727195], [-47.09846225, -24.38707629], [-47.09801299, -24.3868514], [-47.0978237, -24.38655069], [-47.09782924, -24.38640888], [-47.09792796, -24.38605994], [-47.0979257, -24.38592275], [-47.09786512, -24.38577643], [-47.09770782, -24.3857416], [-47.09731412, -24.38577684], [-47.09709115, -24.38576458], [-47.09693213, -24.38568553], [-47.09672141, -24.38551963], [-47.0965823, -24.38551162], [-47.09646847, -24.38566216], [-47.09643052, -24.38581164], [-47.09642022, -24.38620269], [-47.09644937, -24.38647583], [-47.09641501, -24.38684284], [-47.09630807, -24.38693279], [-47.09603673, -24.38697627], [-47.09584346, -24.38691214], [-47.09535359, -24.38667516], [-47.09496876, -24.3866507], [-47.09471863, -24.38654582], [-47.09449619, -24.38632681], [-47.09424033, -24.38593403], [-47.09398165, -24.38560899], [-47.0937863, -24.3854185], [-47.09354669, -24.38529361], [-47.09303621, -24.38512102], [-47.0920776, -24.38509002], [-47.09156963, -24.38501037], [-47.09141789, -24.38495379], [-47.09111794, -24.38469612], [-47.09077179, -24.38414659], [-47.09049774, -24.38384523], [-47.09022735, -24.38364674], [-47.08987697, -24.383499], [-47.08958468, -24.38346692], [-47.08902377, -24.3835839], [-47.08868552, -24.38357412], [-47.08765651, -24.38339691], [-47.08739533, -24.38339871], [-47.08645579, -24.38356783], [-47.0859309, -24.38359763], [-47.08532342, -24.38351933], [-47.08498564, -24.38341835], [-47.0848083, -24.38330343], [-47.08465262, -24.38312682], [-47.08453889, -24.38292346], [-47.08454495, -24.38281233], [-47.08467819, -24.38246202], [-47.08501003, -24.3820214], [-47.08515749, -24.38174219], [-47.08515753, -24.38174211], [-47.08531021, -24.38145303], [-47.08529656, -24.38135022], [-47.08508606, -24.38148861], [-47.08444186, -24.38181526], [-47.08416233, -24.38190036], [-47.08336529, -24.38204313], [-47.08256366, -24.38226721], [-47.08226267, -24.38230566], [-47.0817887, -24.3822544], [-47.08147601, -24.38218015], [-47.07984674, -24.38149306], [-47.07977183, -24.38146146], [-47.07930676, -24.38135139], [-47.07882883, -24.38129837], [-47.07818091, -24.38127837], [-47.07681721, -24.38140287], [-47.07679613, -24.38140479], [-47.07656251, -24.38153436], [-47.07620556, -24.38157629], [-47.07593539, -24.38157097], [-47.07518379, -24.3817203], [-47.07370394, -24.38182001], [-47.07327053, -24.38189817], [-47.07294777, -24.38199196], [-47.07163416, -24.38261571], [-47.07109904, -24.3827431], [-47.07068735, -24.38300512], [-47.07052963, -24.38306505], [-47.07011184, -24.38313486], [-47.0698948, -24.38324436], [-47.06953844, -24.38351465], [-47.06940136, -24.38375215], [-47.06926427, -24.38398965], [-47.06913667, -24.38414397], [-47.06883134, -24.38440092], [-47.06846736, -24.38452371], [-47.06843529, -24.38453453], [-47.06817861, -24.38457053], [-47.06781723, -24.38483547], [-47.06758749, -24.38489188], [-47.06736542, -24.38487414], [-47.06700424, -24.38472831], [-47.06658807, -24.38471593], [-47.0664355, -24.38478933], [-47.06611732, -24.3852866], [-47.06601859, -24.3853376], [-47.06592172, -24.38532086], [-47.06581158, -24.38521584], [-47.06577508, -24.38509265], [-47.06558175, -24.38490299], [-47.0652097, -24.38481508], [-47.06510459, -24.38483728], [-47.06480855, -24.38505979], [-47.06471569, -24.385108], [-47.06456224, -24.38518863], [-47.06416212, -24.38531506], [-47.06362435, -24.38534135], [-47.06297392, -24.38522833], [-47.06270839, -24.38508389], [-47.06255164, -24.38496144], [-47.0624899, -24.38486207], [-47.06248451, -24.38471228], [-47.06253778, -24.38459329], [-47.06300912, -24.38393595], [-47.06327506, -24.3834385], [-47.06326452, -24.38333572], [-47.06322681, -24.38331999], [-47.06320072, -24.38329145], [-47.06317745, -24.38325476], [-47.06314308, -24.38320196], [-47.06311861, -24.38315174], [-47.0630992, -24.38310957], [-47.06307781, -24.38306743], [-47.06305761, -24.38303701], [-47.06303225, -24.38299312], [-47.06299811, -24.38295476], [-47.06294901, -24.38290487], [-47.06293392, -24.38288612], [-47.06283968, -24.382789], [-47.06274477, -24.38271084], [-47.0626064, -24.38262696], [-47.06244681, -24.38251087], [-47.06225787, -24.38240872], [-47.06196958, -24.38231965], [-47.06173856, -24.38229662], [-47.06143583, -24.38222851], [-47.06105361, -24.38218135], [-47.06048426, -24.38208347], [-47.06002979, -24.38195785], [-47.0594016, -24.38175604], [-47.0585617, -24.38138557], [-47.05840954, -24.38130187], [-47.05822006, -24.38116632], [-47.05783403, -24.38082308], [-47.05761362, -24.3805426], [-47.05738145, -24.38038776], [-47.05712758, -24.3802928], [-47.05698457, -24.38028752], [-47.05685449, -24.38028929], [-47.05674082, -24.38033056], [-47.05659897, -24.38045797], [-47.05646562, -24.38068368], [-47.05641176, -24.38088844], [-47.05639296, -24.38106655], [-47.0564104, -24.38123062], [-47.05645608, -24.38143403], [-47.056568, -24.38165009], [-47.0567294, -24.38187811], [-47.05705924, -24.3822817], [-47.0574485, -24.38276302], [-47.0576688, -24.38303718], [-47.05782373, -24.38329147], [-47.05795731, -24.38356592], [-47.05801226, -24.38385497], [-47.0580161, -24.38409235], [-47.05803504, -24.38434849], [-47.05805926, -24.38456573], [-47.05810709, -24.38484134], [-47.05839755, -24.38542963], [-47.05852292, -24.38568432], [-47.0586426, -24.38595263], [-47.05871839, -24.38618904], [-47.0587438, -24.3864189], [-47.05872468, -24.38657715], [-47.05859793, -24.38672423], [-47.05847042, -24.38682437], [-47.05834508, -24.38687572], [-47.05830592, -24.38689251], [-47.058012, -24.38694254], [-47.05778216, -24.38693212], [-47.0574998, -24.38684387], [-47.05722383, -24.38666345], [-47.05702596, -24.38643593], [-47.0568267, -24.38612265], [-47.05669427, -24.38585813], [-47.05658218, -24.38563214], [-47.05635826, -24.38513503], [-47.05620311, -24.3848672], [-47.05609109, -24.38464483], [-47.05600376, -24.38454761], [-47.05588632, -24.38441739], [-47.05573415, -24.38433369], [-47.05561909, -24.38428921], [-47.05548858, -24.3842648], [-47.05538105, -24.38425904], [-47.05530233, -24.38426733], [-47.05520903, -24.38428846], [-47.05505121, -24.38434296], [-47.0548015, -24.38444475], [-47.05427448, -24.3847092], [-47.05395379, -24.38487154], [-47.05346711, -24.38500995], [-47.05305245, -24.38507822], [-47.05303157, -24.38508165], [-47.05285759, -24.3851103], [-47.0523474, -24.38513617], [-47.05190207, -24.38514943], [-47.05151315, -24.38511497], [-47.05105921, -24.38502271], [-47.05080805, -24.38492635], [-47.05065143, -24.38464976], [-47.05060947, -24.38434496], [-47.05071538, -24.3840212], [-47.05080684, -24.38390392], [-47.05080743, -24.38390298], [-47.05091315, -24.38373345], [-47.05091799, -24.38372369], [-47.05095937, -24.38365158], [-47.05097901, -24.38355415], [-47.05103459, -24.38332539], [-47.05098735, -24.38314343], [-47.05096582, -24.38311988], [-47.05088026, -24.38306929], [-47.05087083, -24.38306537], [-47.05076175, -24.3830337], [-47.05073339, -24.38302546], [-47.05060818, -24.38303599], [-47.05060058, -24.38303663], [-47.05057949, -24.38303841], [-47.0504615, -24.38307257], [-47.05017863, -24.38317412], [-47.05016224, -24.38317973], [-47.05013652, -24.38318627], [-47.05006983, -24.38320703], [-47.04999321, -24.38322342], [-47.04993079, -24.38322095], [-47.04992052, -24.38321975], [-47.04985295, -24.38320545], [-47.04981279, -24.38318328], [-47.04978432, -24.38316756], [-47.04973233, -24.38312222], [-47.04962513, -24.38301443], [-47.04961808, -24.38300573], [-47.04954646, -24.38293296], [-47.04942446, -24.38273672], [-47.0493904, -24.38268116], [-47.04931023, -24.3825504], [-47.04925431, -24.38245918], [-47.04915632, -24.38224786], [-47.04912803, -24.38218687], [-47.04905576, -24.38193697], [-47.04903447, -24.38186362], [-47.04893461, -24.38150506], [-47.04890531, -24.38139987], [-47.04885663, -24.38126428], [-47.04881805, -24.38119357], [-47.04876985, -24.38107776], [-47.04872947, -24.38095733], [-47.04865541, -24.38082652], [-47.04858127, -24.3806912], [-47.04849736, -24.38059398], [-47.04844095, -24.38053756], [-47.04828668, -24.38034192], [-47.04826082, -24.38031816], [-47.0482403, -24.38029891], [-47.0481035, -24.38019468], [-47.04799544, -24.38010929], [-47.04777445, -24.37992213], [-47.04766997, -24.37985096], [-47.04755151, -24.37977871], [-47.04732458, -24.3796732], [-47.0470957, -24.37960674], [-47.04703372, -24.37960528], [-47.0469068, -24.37961994], [-47.04683659, -24.37964948], [-47.04673491, -24.37970141], [-47.04664979, -24.37974048], [-47.04657085, -24.37979329], [-47.04633377, -24.37997974], [-47.04593589, -24.38029998], [-47.04581842, -24.38036671], [-47.04554688, -24.38043552], [-47.04519238, -24.38050545], [-47.04505034, -24.38051823], [-47.04473139, -24.38058768], [-47.04437864, -24.38076616], [-47.0443642, -24.38077078], [-47.04430364, -24.3808237], [-47.04426125, -24.38084868], [-47.04422649, -24.38088764], [-47.04390876, -24.38103308], [-47.04362484, -24.38106948], [-47.04316263, -24.38107572], [-47.04297353, -24.38111084], [-47.04276177, -24.38121141], [-47.04245763, -24.38146524], [-47.04211707, -24.38166526], [-47.04201111, -24.38171012], [-47.04165695, -24.38180175], [-47.04115848, -24.38176504], [-47.04076484, -24.38161291], [-47.04019055, -24.38128407], [-47.03953209, -24.38088035], [-47.0390392, -24.38045269], [-47.03852244, -24.38001448], [-47.03807784, -24.37964045], [-47.03775402, -24.37935245], [-47.03769302, -24.37929819], [-47.03715082, -24.37875175], [-47.03690996, -24.37851613], [-47.03680191, -24.37843072], [-47.03656401, -24.37837963], [-47.03631495, -24.37837212], [-47.03591444, -24.37852951], [-47.03570355, -24.37868435], [-47.0352957, -24.37912413], [-47.03487564, -24.37954236], [-47.03477054, -24.37964148], [-47.03452357, -24.37976423], [-47.03422937, -24.37989848], [-47.03412357, -24.37995418], [-47.03378109, -24.38003479], [-47.03320175, -24.38012942], [-47.03283495, -24.38017235], [-47.0308674, -24.38018788], [-47.03034714, -24.38027086], [-47.02996944, -24.38037364], [-47.02979288, -24.380452], [-47.02963008, -24.38064962], [-47.02962135, -24.38084517], [-47.02967066, -24.38096395], [-47.02985624, -24.38145005], [-47.02991932, -24.38168807], [-47.02985271, -24.38197126], [-47.02965574, -24.38225619], [-47.02942321, -24.3825416], [-47.02909994, -24.38308338], [-47.02893782, -24.38332442], [-47.02875027, -24.38345722], [-47.02860839, -24.38348084], [-47.0282511, -24.38337704], [-47.02734411, -24.38299832], [-47.02671163, -24.38273534], [-47.02628097, -24.38249138], [-47.02579314, -24.38237847], [-47.02549563, -24.38230645], [-47.02513731, -24.38213752], [-47.02464619, -24.38181836], [-47.02450189, -24.38169], [-47.02389555, -24.38104476], [-47.0238901, -24.38103896], [-47.0237663, -24.38090722], [-47.02358654, -24.38078476], [-47.02319197, -24.38057288], [-47.02264282, -24.38033049], [-47.02239134, -24.38017099], [-47.02225907, -24.38005332], [-47.022089, -24.37979501], [-47.02164323, -24.37934494], [-47.02132336, -24.37915264], [-47.02082477, -24.37906172], [-47.01808008, -24.3798491], [-47.01770865, -24.3799223], [-47.01754603, -24.38036589], [-47.01761615, -24.38104898], [-47.01769502, -24.38153652], [-47.01782362, -24.38216998], [-47.01785353, -24.38256045], [-47.01792848, -24.38354749], [-47.01785361, -24.3840588], [-47.01780099, -24.38447751], [-47.01775634, -24.38465183], [-47.01763217, -24.38504436], [-47.01742504, -24.38543799], [-47.01731082, -24.38571095], [-47.01713838, -24.38604983], [-47.01701162, -24.38627953], [-47.01676686, -24.38654337], [-47.0166145, -24.38665397], [-47.01639189, -24.3868198], [-47.01607412, -24.38696518], [-47.01582573, -24.38700106], [-47.01481827, -24.38701446], [-47.0145333, -24.38698568], [-47.01445033, -24.38698679], [-47.01420212, -24.38703352], [-47.01402528, -24.38709559], [-47.0138621, -24.38727148], [-47.01378274, -24.38750054], [-47.0136668, -24.38766495], [-47.01344367, -24.38779821], [-47.01318377, -24.38785595], [-47.01276893, -24.38786146], [-47.01232987, -24.38783472], [-47.01177074, -24.38771186], [-47.01096202, -24.38754888], [-47.01077152, -24.38749712], [-47.0105355, -24.3875654], [-47.01021634, -24.38762392], [-47.00974481, -24.38779305], [-47.00939044, -24.38787375], [-47.00898745, -24.3878791], [-47.00884522, -24.38788099], [-47.0086448, -24.38794783], [-47.0085884, -24.38796664], [-47.00857398, -24.38797144], [-47.00846765, -24.38799457], [-47.00836441, -24.38821309], [-47.00835428, -24.3883218], [-47.0084046, -24.38850571], [-47.00843257, -24.38853944], [-47.00846473, -24.3885592], [-47.00868202, -24.38880605], [-47.0088258, -24.38890186], [-47.0091599, -24.38903857], [-47.00932739, -24.38913407], [-47.00973158, -24.38920471], [-47.00989752, -24.38920251], [-47.01006294, -24.38916774], [-47.01035702, -24.38902269], [-47.01047401, -24.38892342], [-47.01063943, -24.38888865], [-47.01076963, -24.38887606], [-47.01096134, -24.38900381], [-47.0110699, -24.3891218], [-47.01120527, -24.38943487], [-47.011238, -24.38958899], [-47.01131921, -24.38983151], [-47.01133187, -24.3899435], [-47.01136331, -24.39043167], [-47.01135868, -24.39088775], [-47.01130492, -24.39123591], [-47.0111407, -24.39209584], [-47.01092925, -24.39296725], [-47.01074785, -24.39349083], [-47.01054308, -24.39403643], [-47.01030336, -24.39462049], [-47.01013089, -24.39495937], [-47.00992234, -24.39526615], [-47.0096413, -24.39548703], [-47.00925495, -24.39579617], [-47.00894934, -24.39596309], [-47.00863119, -24.39608674], [-47.0082177, -24.39617909], [-47.00666491, -24.39619968], [-47.00632202, -24.39625851], [-47.00608564, -24.39630507], [-47.00580373, -24.39647167], [-47.00559328, -24.39665904], [-47.00542922, -24.39678064], [-47.0050408, -24.39695951], [-47.00469679, -24.39694778], [-47.00431577, -24.39684425], [-47.00402974, -24.39675031], [-47.00387479, -24.39669808], [-47.00358997, -24.39668013], [-47.00336595, -24.3967591], [-47.00316598, -24.39685946], [-47.0026939, -24.396996], [-47.00237283, -24.3969351], [-47.00202822, -24.39688537], [-47.00180318, -24.3968992], [-47.00166213, -24.39697707], [-47.00144085, -24.39722972], [-47.00130254, -24.39748127], [-47.00121234, -24.39777562], [-47.00114618, -24.39809137], [-47.00110492, -24.39848279], [-47.0011329, -24.39875386], [-47.00122242, -24.39902921], [-47.00126911, -24.39912122], [-47.00141615, -24.39942329], [-47.00148915, -24.39954176], [-47.00170577, -24.39974519], [-47.00189783, -24.39989465], [-47.00219139, -24.3999918], [-47.00221534, -24.39999973], [-47.00243416, -24.40007214], [-47.00275558, -24.40015475], [-47.00344429, -24.40022164], [-47.00393115, -24.40026949], [-47.00414555, -24.40033179], [-47.00456455, -24.40058683], [-47.0049241, -24.40083179], [-47.00513953, -24.40095923], [-47.00543673, -24.40100958], [-47.00567364, -24.40099559], [-47.00592051, -24.40086202], [-47.00613405, -24.40087005], [-47.00621737, -24.40089066], [-47.00633831, -24.40104107], [-47.00637567, -24.40122225], [-47.00639867, -24.4012579], [-47.00639035, -24.40133353], [-47.00633966, -24.40187708], [-47.00616287, -24.40269375], [-47.00600617, -24.40328213], [-47.00587147, -24.40376165], [-47.00576993, -24.40408873], [-47.0054861, -24.40488509], [-47.00519058, -24.40569247], [-47.00505502, -24.40611771], [-47.00489583, -24.40654869], [-47.00472419, -24.40694184], [-47.00460959, -24.40719308], [-47.00443451, -24.40736912], [-47.00418728, -24.40748097], [-47.00400161, -24.40749239], [-47.00396222, -24.40749481], [-47.00386439, -24.40753711], [-47.00383268, -24.40755082], [-47.00372474, -24.40772325], [-47.00370519, -24.40773708], [-47.00363681, -24.40791171], [-47.00363489, -24.40793107], [-47.00363296, -24.40795057], [-47.00361636, -24.40811827], [-47.00360913, -24.40841153], [-47.0036586, -24.40854116], [-47.00373333, -24.40876818], [-47.00380737, -24.40895178], [-47.00396354, -24.40908], [-47.004213, -24.40910927], [-47.00466279, -24.40905989], [-47.00506619, -24.40907626], [-47.00551837, -24.40917884], [-47.00574498, -24.4092627], [-47.00604169, -24.40928048], [-47.00628978, -24.40922291], [-47.00664301, -24.40906622], [-47.00687925, -24.4090088], [-47.00735395, -24.40903508], [-47.00767419, -24.40904169], [-47.0080166, -24.40895028], [-47.00839371, -24.40880413], [-47.00860666, -24.40877416], [-47.00876146, -24.40881554], [-47.00931467, -24.40930764], [-47.0096887, -24.40971526], [-47.0099794, -24.41010228], [-47.0099818, -24.41025425], [-47.00989447, -24.41040486], [-47.00982128, -24.41048539], [-47.00968515, -24.41050992], [-47.00946108, -24.41046744], [-47.0092879, -24.41050383], [-47.00920248, -24.41059589], [-47.00914332, -24.4107785], [-47.00907282, -24.41102946], [-47.00901618, -24.41137115], [-47.00887195, -24.41166855], [-47.00870165, -24.41188674], [-47.00852937, -24.41197994], [-47.0083686, -24.41201617], [-47.00811989, -24.41198538], [-47.00793305, -24.4119424], [-47.00780788, -24.41187587], [-47.00754713, -24.41186796], [-47.00742412, -24.41193778], [-47.00740038, -24.41200629], [-47.00739085, -24.41218825], [-47.00757194, -24.4126518], [-47.00776382, -24.41301292], [-47.00794114, -24.41323786], [-47.00814273, -24.41342838], [-47.0083686, -24.41358449], [-47.00870472, -24.41364822], [-47.00908992, -24.4136772], [-47.00979614, -24.41359963], [-47.01084781, -24.41339246], [-47.01119891, -24.41330603], [-47.01138784, -24.41325952], [-47.01177503, -24.41316421], [-47.01229385, -24.41300957], [-47.01272562, -24.41284473], [-47.01302162, -24.41272714], [-47.01333039, -24.41263212], [-47.01359959, -24.41238988], [-47.01369652, -24.41224085], [-47.01382904, -24.41198906], [-47.01398602, -24.41171422], [-47.01415596, -24.41147331], [-47.01427679, -24.41126713], [-47.01444798, -24.41110575], [-47.01448763, -24.41108139], [-47.01449726, -24.41108237], [-47.01473265, -24.4110565], [-47.01499431, -24.41112121], [-47.01535704, -24.41129821], [-47.01566978, -24.41145315], [-47.01601992, -24.41161896], [-47.01695759, -24.41204968], [-47.01772046, -24.41241455], [-47.01847166, -24.41282502], [-47.0192743, -24.41334845], [-47.01968966, -24.41371225], [-47.02041967, -24.41435029], [-47.02121553, -24.4152261], [-47.02165635, -24.41562934], [-47.02221166, -24.41620719], [-47.02238973, -24.41647756], [-47.02244281, -24.41669278], [-47.0224342, -24.41693155], [-47.02238067, -24.4174664], [-47.02220985, -24.41765052], [-47.02203739, -24.41773237], [-47.02181421, -24.41774672], [-47.0213549, -24.41774149], [-47.02094576, -24.41776969], [-47.02063554, -24.41777383], [-47.02050049, -24.41786655], [-47.02032894, -24.41800522], [-47.02024533, -24.4182109], [-47.02023618, -24.41841558], [-47.02036497, -24.41870934], [-47.02043028, -24.41891303], [-47.02043245, -24.41904938], [-47.02035002, -24.41932891], [-47.02034177, -24.41959041], [-47.02038117, -24.41972625], [-47.02049683, -24.41997473], [-47.02068587, -24.42015404], [-47.02091231, -24.42034421], [-47.02110026, -24.42045535], [-47.02132634, -24.4206228], [-47.02152887, -24.42087011], [-47.02158104, -24.42102852], [-47.02160033, -24.42146011], [-47.02162751, -24.42160749], [-47.02167968, -24.4217659], [-47.02185758, -24.42202491], [-47.02203402, -24.42219302], [-47.02222107, -24.42224734], [-47.02248203, -24.42226658], [-47.02280395, -24.42221682], [-47.02313809, -24.42215553], [-47.02342351, -24.42215171], [-47.02365965, -24.42217128], [-47.02390911, -24.42224749], [-47.02411019, -24.42240391], [-47.02415121, -24.42245128], [-47.0243631, -24.422696], [-47.02448392, -24.42288695], [-47.02454136, -24.42297773], [-47.02474626, -24.42337275], [-47.02502671, -24.42383494], [-47.02525462, -24.42411601], [-47.02558271, -24.42445255], [-47.02595808, -24.42464072], [-47.02605566, -24.42466369], [-47.02605808, -24.42468484], [-47.02619477, -24.42469437], [-47.02653019, -24.42471261], [-47.02705194, -24.42473971], [-47.02728899, -24.42481609], [-47.02753918, -24.42493774], [-47.02779028, -24.42511621], [-47.02862004, -24.42577559], [-47.02948267, -24.42616178], [-47.02978232, -24.42627141]]]]}}]}