{"type": "FeatureCollection", "features": [{"type": "Feature", "properties": {"name": "Parque Estadual Intervales"}, "geometry": {"type": "MultiPolygon", "coordinates": [[[[-48.45614698, -24.51786628], [-48.45670162, -24.5179973], [-48.45720914, -24.51802902], [-48.45819584, -24.51795708], [-48.45884671, -24.51802043], [-48.45938752, -24.51801605], [-48.45990097, -24.51797399], [-48.46048648, -24.51792607], [-48.46115713, -24.51777728], [-48.46156849, -24.51762171], [-48.46171774, -24.51756525], [-48.46193608, -24.51741186], [-48.46205811, -24.51729123], [-48.4622923, -24.51705988], [-48.46249336, -24.51692453], [-48.46260238, -24.51688048], [-48.46269441, -24.51684332], [-48.46294845, -24.51678486], [-48.46312549, -24.51674412], [-48.46356427, -24.51664492], [-48.464671, -24.51616221], [-48.46500646, -24.51611713], [-48.4655149, -24.51610372], [-48.4659934, -24.51618958], [-48.46538587, -24.51544472], [-48.46527147, -24.51525107], [-48.46517785, -24.5150926], [-48.46514087, -24.51500066], [-48.46504165, -24.51475405], [-48.46498809, -24.51447421], [-48.46487777, -24.51422594], [-48.46480634, -24.51380616], [-48.4648599, -24.51346493], [-48.46487861, -24.51334579], [-48.46496313, -24.51311336], [-48.46504766, -24.51288095], [-48.46517887, -24.51229871], [-48.46521416, -24.51172098], [-48.46519636, -24.51136894], [-48.46525549, -24.51043914], [-48.46530889, -24.51014577], [-48.46545207, -24.50974408], [-48.46517278, -24.50950481], [-48.46511085, -24.50949139], [-48.46496439, -24.50945963], [-48.46480528, -24.50948217], [-48.46445086, -24.50966559], [-48.46419504, -24.509798], [-48.46400296, -24.50984308], [-48.463526, -24.50985652], [-48.46326301, -24.50983069], [-48.46269633, -24.50977508], [-48.46236846, -24.50969571], [-48.46209917, -24.50963052], [-48.46195819, -24.50956567], [-48.4619028, -24.50954019], [-48.46166761, -24.50936863], [-48.46149924, -24.50917983], [-48.46089858, -24.50850634], [-48.46062125, -24.50808652], [-48.46043537, -24.50790141], [-48.46037345, -24.50777276], [-48.46031151, -24.50764412], [-48.45984769, -24.50701209], [-48.45842829, -24.5048407], [-48.45811116, -24.5044299], [-48.4577564, -24.50411836], [-48.45767596, -24.50404612], [-48.45653485, -24.50335524], [-48.4560629, -24.50312944], [-48.45574663, -24.50300748], [-48.45556608, -24.50296159], [-48.45531997, -24.50289905], [-48.45465313, -24.50284922], [-48.45417807, -24.50277688], [-48.45273813, -24.50241987], [-48.45237687, -24.50223923], [-48.45222373, -24.50214093], [-48.45196877, -24.50197731], [-48.45160911, -24.50167481], [-48.45137455, -24.50151676], [-48.45128208, -24.50147403], [-48.45120838, -24.50143998], [-48.4503394, -24.50118695], [-48.44975998, -24.50091885], [-48.44966344, -24.50086569], [-48.44927117, -24.50064968], [-48.44924757, -24.50040576], [-48.44955723, -24.50013269], [-48.44973308, -24.49993351], [-48.44982959, -24.49982421], [-48.4498336, -24.49972267], [-48.44984118, -24.49953031], [-48.44929512, -24.49893434], [-48.44917883, -24.49877252], [-48.44897065, -24.49848287], [-48.44884526, -24.49824588], [-48.44871987, -24.49800888], [-48.44865308, -24.49779821], [-48.44862258, -24.49770192], [-48.44862402, -24.49762862], [-48.44862855, -24.4973995], [-48.44869343, -24.4971065], [-48.44876751, -24.49677214], [-48.44876643, -24.49638849], [-48.44865747, -24.49587392], [-48.4486614, -24.49578834], [-48.44867301, -24.49553539], [-48.44875095, -24.49526726], [-48.44877272, -24.49519239], [-48.44880868, -24.49513135], [-48.44898003, -24.49484039], [-48.44908492, -24.49463281], [-48.44949122, -24.4943531], [-48.44930115, -24.49435302], [-48.44911121, -24.49435297], [-48.44893643, -24.49432131], [-48.44886909, -24.49428495], [-48.44871884, -24.49420389], [-48.44839659, -24.49388891], [-48.44830774, -24.49380205], [-48.44790379, -24.49324223], [-48.44761057, -24.49278696], [-48.44748509, -24.49259213], [-48.44722101, -24.49227609], [-48.44678249, -24.49191036], [-48.44662196, -24.49182147], [-48.44635839, -24.49167551], [-48.44594505, -24.49153544], [-48.44548731, -24.49143599], [-48.44432794, -24.4913047], [-48.44398213, -24.4911466], [-48.44362955, -24.49092534], [-48.44319527, -24.49074914], [-48.44287037, -24.49072196], [-48.44272429, -24.49073244], [-48.44230713, -24.49076238], [-48.442199, -24.49075772], [-48.44209534, -24.49075326], [-48.44184729, -24.49070039], [-48.44177724, -24.49068545], [-48.44165118, -24.49062222], [-48.44127811, -24.49036293], [-48.44079352, -24.49002611], [-48.4406436, -24.48994913], [-48.44054726, -24.48989964], [-48.44033674, -24.48983186], [-48.44019236, -24.48981301], [-48.43995514, -24.48978207], [-48.43954174, -24.4897819], [-48.43932687, -24.48980214], [-48.43911198, -24.48982238], [-48.43889837, -24.48979971], [-48.43854145, -24.4897048], [-48.43798544, -24.48944281], [-48.43750167, -24.48919568], [-48.43739553, -24.48916334], [-48.43707708, -24.4890663], [-48.43684996, -24.48906245], [-48.43654324, -24.48905724], [-48.43652772, -24.4890584], [-48.43652125, -24.48905888], [-48.43640683, -24.4890674], [-48.43626255, -24.48874516], [-48.43601044, -24.4882896], [-48.43575865, -24.48805968], [-48.4353816, -24.48783665], [-48.43512571, -24.48726367], [-48.43487393, -24.48703375], [-48.4346221, -24.48668651], [-48.43436566, -24.48623086], [-48.43411355, -24.48577529], [-48.43386178, -24.48554535], [-48.43373258, -24.48520017], [-48.43348044, -24.48474462], [-48.43322869, -24.48451472], [-48.43297253, -24.48416736], [-48.43334631, -24.48382171], [-48.4335972, -24.48336567], [-48.43365385, -24.48315304], [-48.43367363, -24.48310395], [-48.43370043, -24.48298307], [-48.43370674, -24.4829546], [-48.43371931, -24.48290742], [-48.43371921, -24.48289832], [-48.43374965, -24.48276095], [-48.43374988, -24.48267232], [-48.43375079, -24.48231861], [-48.43371111, -24.48207922], [-48.43365429, -24.48173631], [-48.43367937, -24.48150288], [-48.43370633, -24.48125217], [-48.4337125, -24.48119468], [-48.43374389, -24.48103957], [-48.4338267, -24.48063038], [-48.43392076, -24.48016564], [-48.43395093, -24.47979473], [-48.43396261, -24.47965111], [-48.43391332, -24.47942633], [-48.43387154, -24.4792358], [-48.43382319, -24.47913145], [-48.43369572, -24.4788566], [-48.43355728, -24.47835553], [-48.43354237, -24.47796733], [-48.43359193, -24.47767913], [-48.43364407, -24.47737611], [-48.43363842, -24.47725544], [-48.43363033, -24.47708271], [-48.43351888, -24.47679377], [-48.43320385, -24.47622041], [-48.43318237, -24.47614208], [-48.43314322, -24.47599921], [-48.43317863, -24.47576729], [-48.43325485, -24.47526804], [-48.43396798, -24.4749298], [-48.43339479, -24.47464519], [-48.43303336, -24.47436973], [-48.43285586, -24.47047361], [-48.43280555, -24.46936918], [-48.43307641, -24.46887456], [-48.43349045, -24.4681936], [-48.43377593, -24.46755095], [-48.43387849, -24.46705272], [-48.43402713, -24.46633053], [-48.43407659, -24.4651213], [-48.43390627, -24.46368004], [-48.43373615, -24.46304595], [-48.43360478, -24.46255617], [-48.43335734, -24.46191158], [-48.43319015, -24.46147604], [-48.42717607, -24.46199514], [-48.42736768, -24.45831762], [-48.42512255, -24.45526564], [-48.42128064, -24.4545718], [-48.41469775, -24.45154879], [-48.41352097, -24.4438345], [-48.4101662, -24.44019257], [-48.40421926, -24.43709968], [-48.40488717, -24.43565041], [-48.40573292, -24.43381516], [-48.40370763, -24.42677122], [-48.40288915, -24.42660742], [-48.40199971, -24.4264614], [-48.40137738, -24.42634479], [-48.40103957, -24.42628148], [-48.39983299, -24.42593392], [-48.39909066, -24.42557797], [-48.39894845, -24.42548063], [-48.39852743, -24.42519242], [-48.39786976, -24.42462548], [-48.39716813, -24.4240251], [-48.3965591, -24.42326291], [-48.39619649, -24.42266836], [-48.3957514, -24.42174555], [-48.39542821, -24.42097192], [-48.39530634, -24.42061502], [-48.39517565, -24.42023219], [-48.39476258, -24.41948969], [-48.39428939, -24.41863177], [-48.39398461, -24.41817631], [-48.39389113, -24.41803661], [-48.39333131, -24.4174877], [-48.3929812, -24.41715482], [-48.39317337, -24.41644033], [-48.39321308, -24.41629269], [-48.39354898, -24.41557945], [-48.39389971, -24.41501353], [-48.39435646, -24.41449847], [-48.39515554, -24.41382587], [-48.39608807, -24.41317192], [-48.3968162, -24.41264782], [-48.39737418, -24.41224622], [-48.39801216, -24.41172831], [-48.39851754, -24.41131805], [-48.39893405, -24.41093782], [-48.3995542, -24.41037172], [-48.4000073, -24.40987686], [-48.4003939, -24.40945466], [-48.40067156, -24.40896917], [-48.40088152, -24.40830276], [-48.4010971, -24.40775995], [-48.40122961, -24.40742627], [-48.40167951, -24.40637179], [-48.40195813, -24.40583728], [-48.40228594, -24.40551605], [-48.4025067, -24.40519303], [-48.40260183, -24.4049696], [-48.40276915, -24.40457655], [-48.4029966, -24.40392676], [-48.40327623, -24.40334327], [-48.40357034, -24.40292341], [-48.40386016, -24.40275356], [-48.40422055, -24.40254236], [-48.40436293, -24.40247663], [-48.40486912, -24.402243], [-48.40548856, -24.4020575], [-48.40722394, -24.40184212], [-48.40892365, -24.40162612], [-48.41056529, -24.40147358], [-48.41085459, -24.4014467], [-48.41181817, -24.40136817], [-48.41267782, -24.40129814], [-48.41291619, -24.40127083], [-48.41379575, -24.40117015], [-48.41465667, -24.40095607], [-48.41531678, -24.40080751], [-48.41580403, -24.40069788], [-48.41703823, -24.4005555], [-48.41807389, -24.40052415], [-48.41825307, -24.40052721], [-48.41900151, -24.40053998], [-48.4193748, -24.4006117], [-48.42008437, -24.40081992], [-48.42046854, -24.40099213], [-48.4206149, -24.40105775], [-48.4211411, -24.40150795], [-48.42144013, -24.40176279], [-48.42164982, -24.40194151], [-48.42182561, -24.40210617], [-48.42225399, -24.40250741], [-48.42270752, -24.40302177], [-48.42291891, -24.40334038], [-48.42303651, -24.40351762], [-48.423313, -24.40396356], [-48.42365752, -24.40457408], [-48.42393001, -24.40521606], [-48.42406516, -24.40547554], [-48.42423918, -24.40580963], [-48.42435358, -24.40612255], [-48.42450969, -24.40654964], [-48.42478387, -24.40710994], [-48.42503853, -24.40775159], [-48.42547757, -24.40810223], [-48.42586018, -24.40826944], [-48.42606133, -24.40835732], [-48.42690894, -24.40860869], [-48.42717071, -24.40864045], [-48.42813287, -24.40875718], [-48.4291637, -24.4101791], [-48.43495099, -24.4121924], [-48.43713886, -24.41639163], [-48.43950636, -24.41653386], [-48.44325814, -24.41994235], [-48.44362107, -24.41992294], [-48.44424313, -24.41949937], [-48.44503555, -24.41892543], [-48.44585841, -24.41822439], [-48.44596565, -24.41818827], [-48.44636381, -24.41805417], [-48.44703285, -24.41806546], [-48.44759299, -24.41794726], [-48.44821453, -24.41754919], [-48.44903736, -24.41684809], [-48.45009507, -24.41625307], [-48.45077028, -24.41595804], [-48.45103976, -24.41590408], [-48.45135827, -24.41584027], [-48.45163346, -24.41584491], [-48.45191583, -24.41584967], [-48.45234785, -24.4159533], [-48.45283167, -24.41606937], [-48.45329809, -24.41615375], [-48.45360969, -24.41621014], [-48.453888, -24.41621482], [-48.45430662, -24.41622187], [-48.45469398, -24.41616942], [-48.45497775, -24.41613103], [-48.45514856, -24.41605636], [-48.45554041, -24.41588515], [-48.45598625, -24.4158417], [-48.456211, -24.4158198], [-48.4564736, -24.4158681], [-48.45682227, -24.41593223], [-48.45718875, -24.41608551], [-48.45745834, -24.41619827], [-48.45805988, -24.41679565], [-48.45841892, -24.41729043], [-48.46451512, -24.41197786], [-48.46793094, -24.41195636], [-48.47117476, -24.41561136], [-48.47590029, -24.41828945], [-48.49021846, -24.41594964], [-48.49315733, -24.4145897], [-48.49594645, -24.41329899], [-48.49644763, -24.4132256], [-48.49701083, -24.41314234], [-48.49734261, -24.4130933], [-48.49787402, -24.41303147], [-48.4983265, -24.41297882], [-48.49923447, -24.41283303], [-48.49952605, -24.4127862], [-48.49968311, -24.41276192], [-48.5006019, -24.41261984], [-48.50064202, -24.41261363], [-48.5006718, -24.41260902], [-48.5210533, -24.40827054], [-48.5208417, -24.40787572], [-48.52080654, -24.40770873], [-48.52080497, -24.4076365], [-48.52079692, -24.40725283], [-48.52090806, -24.40664795], [-48.52087539, -24.40655316], [-48.52058825, -24.40658027], [-48.52016896, -24.4067022], [-48.51884029, -24.40734785], [-48.51864466, -24.4074201], [-48.51846103, -24.40742914], [-48.51829036, -24.40739305], [-48.51798997, -24.40727573], [-48.5178353, -24.40718095], [-48.51780572, -24.40707715], [-48.51783743, -24.40701842], [-48.51827269, -24.40673402], [-48.51830722, -24.40667986], [-48.51840857, -24.40663471], [-48.51867104, -24.40643155], [-48.51916944, -24.40593044], [-48.51930926, -24.40564606], [-48.51932955, -24.40531202], [-48.51928546, -24.40509535], [-48.51914433, -24.4049058], [-48.51891666, -24.404802], [-48.51818987, -24.40461247], [-48.51770584, -24.40427399], [-48.51740449, -24.40394905], [-48.51732684, -24.40378654], [-48.51738904, -24.40354277], [-48.51752581, -24.4033938], [-48.51789114, -24.40316355], [-48.51810678, -24.40296493], [-48.51816221, -24.40276177], [-48.51804572, -24.40256319], [-48.51758324, -24.40207574], [-48.51723786, -24.40183202], [-48.51709307, -24.40178237], [-48.51693933, -24.4017824], [-48.51662234, -24.40185917], [-48.51600992, -24.40218875], [-48.51585805, -24.40222939], [-48.51555829, -24.40223844], [-48.51451359, -24.40188646], [-48.51422059, -24.40185037], [-48.51363589, -24.40186396], [-48.513025, -24.40200845], [-48.51240579, -24.40220712], [-48.5119323, -24.40243285], [-48.51156415, -24.40246447], [-48.51134078, -24.40243289], [-48.51120798, -24.40237423], [-48.51070457, -24.40190932], [-48.51063957, -24.40185065], [-48.51056439, -24.40167008], [-48.51033731, -24.40133607], [-48.51022822, -24.4011149], [-48.51023315, -24.40082149], [-48.5102661, -24.40079439], [-48.51028767, -24.40069509], [-48.51052547, -24.4004423], [-48.51103687, -24.40040165], [-48.51119922, -24.40035649], [-48.51128516, -24.40030232], [-48.51129841, -24.40017142], [-48.51079252, -24.39974263], [-48.51029834, -24.39925064], [-48.5101748, -24.39906558], [-48.50991845, -24.39852391], [-48.50957921, -24.39792809], [-48.50951237, -24.39791004], [-48.50934569, -24.39767081], [-48.50932074, -24.3976347], [-48.50903052, -24.39760763], [-48.50890484, -24.39764376], [-48.50888637, -24.39767987], [-48.50881797, -24.39769793], [-48.50870923, -24.39780626], [-48.50860697, -24.39785142], [-48.5084064, -24.39781982], [-48.50829858, -24.39763929], [-48.5081137, -24.39697123], [-48.5079874, -24.39682226], [-48.50757642, -24.39651534], [-48.50743254, -24.39631673], [-48.50745348, -24.39611361], [-48.50752834, -24.39596013], [-48.50769129, -24.39584726], [-48.50841244, -24.39546354], [-48.5087026, -24.3952288], [-48.50888465, -24.39499858], [-48.5089136, -24.39478191], [-48.5088335, -24.39465101], [-48.50836369, -24.39422223], [-48.50797924, -24.393983], [-48.50768287, -24.39391529], [-48.50740439, -24.39394239], [-48.50710035, -24.39411396], [-48.50683912, -24.39441187], [-48.50654835, -24.39482266], [-48.50643282, -24.39507994], [-48.50613127, -24.39597823], [-48.50592582, -24.39621298], [-48.50568954, -24.39624458], [-48.50536207, -24.39620397], [-48.50486546, -24.39599183], [-48.50460701, -24.39591058], [-48.50447176, -24.39582932], [-48.50437348, -24.3956578], [-48.50436084, -24.39549982], [-48.50439658, -24.3953328], [-48.50454721, -24.39499425], [-48.50504931, -24.39406887], [-48.50513679, -24.39378449], [-48.50514663, -24.3935588], [-48.50516695, -24.39309385], [-48.50501258, -24.39211885], [-48.50502674, -24.39174869], [-48.50512745, -24.39123862], [-48.50504087, -24.39057958], [-48.50488375, -24.39039904], [-48.50461236, -24.39016431], [-48.50344022, -24.38929315], [-48.5031525, -24.38898621], [-48.50291898, -24.38862508], [-48.50286323, -24.38845807], [-48.50285861, -24.38828654], [-48.50304957, -24.38745597], [-48.50305234, -24.38726187], [-48.50298489, -24.38692783], [-48.50291892, -24.38682853], [-48.50285396, -24.38677888], [-48.50280065, -24.38673374], [-48.50253297, -24.38661185], [-48.50219691, -24.38650353], [-48.50170435, -24.38644487], [-48.50138644, -24.38646742], [-48.50117422, -24.38654417], [-48.50091885, -24.38669765], [-48.5008018, -24.38683307], [-48.5004722, -24.3873296], [-48.5002421, -24.38760495], [-48.49987338, -24.38835878], [-48.49971227, -24.38853935], [-48.49920429, -24.38895914], [-48.49895416, -24.38909911], [-48.4983387, -24.38927512], [-48.49767671, -24.38955047], [-48.49733201, -24.38959561], [-48.49682558, -24.3895369], [-48.49618299, -24.38924348], [-48.49595013, -24.38904485], [-48.49583892, -24.38888688], [-48.49549303, -24.3880879], [-48.49537197, -24.3879344], [-48.49524382, -24.38783511], [-48.4951166, -24.38778995], [-48.49481473, -24.38774933], [-48.49404556, -24.3877809], [-48.49373536, -24.38775831], [-48.49332502, -24.38762739], [-48.49311467, -24.38746488], [-48.49304383, -24.38719855], [-48.49308664, -24.38712182], [-48.49324375, -24.38700447], [-48.49353333, -24.38686905], [-48.49429756, -24.38668853], [-48.49454555, -24.38657118], [-48.49473838, -24.38643124], [-48.4948841, -24.38618297], [-48.49494325, -24.3859302], [-48.49494137, -24.38572256], [-48.49474458, -24.38526663], [-48.49449971, -24.38498224], [-48.49401488, -24.38479262], [-48.49343699, -24.38476102], [-48.49321522, -24.38470685], [-48.49316656, -24.38467525], [-48.49312096, -24.38464364], [-48.49299376, -24.38444954], [-48.49298548, -24.38431411], [-48.49313147, -24.38411099], [-48.49364435, -24.38383567], [-48.49372383, -24.38370476], [-48.49365424, -24.38323079], [-48.49341307, -24.38282904], [-48.49332594, -24.38254917], [-48.49325477, -24.38211131], [-48.493232, -24.38170956], [-48.49311066, -24.38141615], [-48.49262063, -24.38068485], [-48.49251283, -24.38040499], [-48.49243461, -24.38007546], [-48.49229478, -24.37976398], [-48.49207424, -24.37960146], [-48.49167415, -24.37930803], [-48.49123092, -24.37889725], [-48.49003467, -24.37759715], [-48.48982956, -24.37725406], [-48.48978306, -24.37711413], [-48.48982373, -24.37694259], [-48.49002641, -24.37681171], [-48.49012559, -24.37678012], [-48.49039941, -24.37679367], [-48.49056942, -24.37686139], [-48.49083093, -24.37704648], [-48.49094366, -24.37716837], [-48.49121991, -24.37764686], [-48.4914232, -24.37779132], [-48.49158336, -24.3778139], [-48.49173707, -24.37776879], [-48.49186613, -24.37766044], [-48.49194903, -24.37735801], [-48.49194442, -24.37678925], [-48.49184834, -24.3764236], [-48.49155607, -24.3758503], [-48.49145414, -24.37557044], [-48.49139566, -24.37524542], [-48.4914098, -24.37492944], [-48.49150565, -24.37456833], [-48.49152906, -24.37448255], [-48.49162024, -24.37429749], [-48.49186081, -24.37399957], [-48.49203299, -24.37385966], [-48.49221256, -24.37354819], [-48.49229915, -24.37327735], [-48.4922964, -24.37304262], [-48.49203646, -24.37243321], [-48.49191512, -24.37224363], [-48.49172389, -24.372045], [-48.49094525, -24.37164772], [-48.49064837, -24.37121436], [-48.49047038, -24.37075392], [-48.49043868, -24.37040635], [-48.4904824, -24.37018064], [-48.49057944, -24.36996848], [-48.49087977, -24.36972926], [-48.49119546, -24.36962094], [-48.4914465, -24.36962546], [-48.49157186, -24.3696029], [-48.49199503, -24.36967967], [-48.49220295, -24.36968418], [-48.49256147, -24.36960296], [-48.49283282, -24.36948108], [-48.49297728, -24.36934566], [-48.49307215, -24.36913348], [-48.49317599, -24.36811785], [-48.49325393, -24.36785604], [-48.49349788, -24.36763036], [-48.49413205, -24.36730086], [-48.49435567, -24.36711128], [-48.49445423, -24.36695779], [-48.49449119, -24.36672758], [-48.49439449, -24.36649286], [-48.49437018, -24.36607306], [-48.4945091, -24.36577513], [-48.49462861, -24.36564872], [-48.49487254, -24.36548622], [-48.49574354, -24.36512516], [-48.49601458, -24.36497166], [-48.49617844, -24.36481368], [-48.49630933, -24.36462409], [-48.49641898, -24.36430359], [-48.49651541, -24.36366262], [-48.49649664, -24.3628591], [-48.49681695, -24.36235805], [-48.49711634, -24.36212331], [-48.49746372, -24.36199243], [-48.49795681, -24.36191568], [-48.49862142, -24.36193826], [-48.49885736, -24.36191571], [-48.49908864, -24.36183445], [-48.49926266, -24.36170354], [-48.49995624, -24.36058406], [-48.50009298, -24.36050729], [-48.50019645, -24.36040801], [-48.50029254, -24.36034029], [-48.50031072, -24.36031773], [-48.50047212, -24.36012361], [-48.50057988, -24.36007396], [-48.50069969, -24.36004237], [-48.50086661, -24.36000624], [-48.5010434, -24.36000626], [-48.50142375, -24.36001528], [-48.50179886, -24.35997915], [-48.50214443, -24.35979859], [-48.50244315, -24.35958642], [-48.50286569, -24.35934266], [-48.50301322, -24.35920272], [-48.50318167, -24.35910341], [-48.50329162, -24.35895444], [-48.50354414, -24.35861137], [-48.50367903, -24.35837213], [-48.50374215, -24.35776272], [-48.50378742, -24.35760473], [-48.50392385, -24.3573384], [-48.50514737, -24.35579906], [-48.5053386, -24.35548307], [-48.50540665, -24.35529347], [-48.50548763, -24.35506777], [-48.50542265, -24.35456219], [-48.50533148, -24.35429586], [-48.50512604, -24.35386702], [-48.50470441, -24.3532125], [-48.50395204, -24.35227811], [-48.50341893, -24.35169129], [-48.50279039, -24.35109093], [-48.50237463, -24.35078398], [-48.50210208, -24.35050411], [-48.50197951, -24.35038223], [-48.50191977, -24.35028743], [-48.5015496, -24.35018813], [-48.50127243, -24.35015653], [-48.50106672, -24.35012042], [-48.50083298, -24.35005272], [-48.50047238, -24.35001209], [-48.49965382, -24.34987215], [-48.49929197, -24.34969159], [-48.49887747, -24.34941621], [-48.49849777, -24.3490867], [-48.49816086, -24.3487346], [-48.49742919, -24.34777308], [-48.49697189, -24.34747061], [-48.49694018, -24.3474345], [-48.49681299, -24.34728554], [-48.49677697, -24.34717268], [-48.49675326, -24.34672128], [-48.49674772, -24.34660841], [-48.49664766, -24.34613445], [-48.4961802, -24.34535801], [-48.49606472, -24.34506007], [-48.49603889, -24.34472604], [-48.49606291, -24.34430624], [-48.49600163, -24.34385481], [-48.4957168, -24.34327248], [-48.49548834, -24.34291133], [-48.49536301, -24.34257278], [-48.49536456, -24.34224776], [-48.49545665, -24.34186857], [-48.49580001, -24.34164288], [-48.4962339, -24.34141718], [-48.49640111, -24.34128627], [-48.49654708, -24.34112377], [-48.49665648, -24.34093279], [-48.49665825, -24.34092968], [-48.49669922, -24.34035187], [-48.49687382, -24.34004491], [-48.49704812, -24.3398463], [-48.4977958, -24.33924591], [-48.49795531, -24.33905182], [-48.49830604, -24.33848755], [-48.49841998, -24.33836116], [-48.49861521, -24.33820768], [-48.49893946, -24.33809032], [-48.49948541, -24.33813095], [-48.49980721, -24.33825734], [-48.50021367, -24.33853271], [-48.50029927, -24.33856881], [-48.50037994, -24.3385643], [-48.50047203, -24.33854173], [-48.5005724, -24.33851011], [-48.50079196, -24.33846048], [-48.50108847, -24.33836116], [-48.50124831, -24.33813997], [-48.50122367, -24.33784655], [-48.50097363, -24.33733646], [-48.50081228, -24.33708818], [-48.50075715, -24.33698887], [-48.50070851, -24.33688505], [-48.50064844, -24.33658713], [-48.50063861, -24.33653746], [-48.50065925, -24.33643363], [-48.50070697, -24.33631626], [-48.5007279, -24.33619438], [-48.50074515, -24.33595512], [-48.50073745, -24.3357204], [-48.50076946, -24.33553984], [-48.50077255, -24.33533219], [-48.50077531, -24.33523738], [-48.50108384, -24.33463701], [-48.50123657, -24.33442483], [-48.50144442, -24.33427586], [-48.50196541, -24.3340366], [-48.50229027, -24.33385153], [-48.50263051, -24.33358067], [-48.50278539, -24.333364], [-48.50283898, -24.33314279], [-48.5027986, -24.33188786], [-48.50290174, -24.33124685], [-48.50282568, -24.33095343], [-48.50262615, -24.33062842], [-48.50245864, -24.33043431], [-48.50212578, -24.33013186], [-48.50185451, -24.32979783], [-48.5016485, -24.32969401], [-48.50096371, -24.32950441], [-48.50088981, -24.32945926], [-48.500831, -24.32917037], [-48.5007876, -24.32903494], [-48.50075558, -24.32895821], [-48.50067243, -24.32884535], [-48.50047229, -24.3287641], [-48.5003556, -24.32869639], [-48.49980566, -24.32814566], [-48.49971361, -24.32801474], [-48.49954827, -24.32756784], [-48.49946143, -24.3271706], [-48.49944577, -24.32705466], [-48.49897609, -24.32700771], [-48.49833047, -24.3270115], [-48.49777818, -24.32707452], [-48.49728968, -24.3270953], [-48.49620307, -24.32710624], [-48.49533653, -24.32713523], [-48.49478426, -24.32719822], [-48.49435873, -24.32722005], [-48.49414063, -24.32710104], [-48.49384612, -24.32686535], [-48.49353701, -24.3265717], [-48.49313602, -24.32614669], [-48.49269736, -24.32563449], [-48.49214269, -24.3250194], [-48.49182554, -24.3248095], [-48.49145585, -24.3247195], [-48.4909848, -24.32465402], [-48.49016691, -24.32461161], [-48.48938139, -24.32452649], [-48.48829766, -24.32439314], [-48.4873556, -24.32426212], [-48.48659286, -24.32410042], [-48.48621234, -24.32395464], [-48.48556959, -24.32381414], [-48.48502802, -24.32373304], [-48.48419387, -24.32371921], [-48.48338974, -24.323778], [-48.48274017, -24.32398363], [-48.48202565, -24.32428917], [-48.48137236, -24.32468227], [-48.48062635, -24.3249873], [-48.47973896, -24.3252755], [-48.47916807, -24.32548242], [-48.47797658, -24.32446061], [-48.47791944, -24.32188013], [-48.47805444, -24.32157833], [-48.47833241, -24.32116934], [-48.47871899, -24.32072852], [-48.47931329, -24.32013247], [-48.47993964, -24.31950808], [-48.48058287, -24.31882628], [-48.48105041, -24.3182714], [-48.48150162, -24.3177451], [-48.4821932, -24.31700638], [-48.48301378, -24.3161111], [-48.48385768, -24.31511817], [-48.48438042, -24.31460189], [-48.4846122, -24.31431562], [-48.48460122, -24.31410821], [-48.48435104, -24.31380013], [-48.48384683, -24.3133773], [-48.48325246, -24.31293923], [-48.48274744, -24.31255782], [-48.48195963, -24.31199216], [-48.48143295, -24.31164976], [-48.4813664, -24.31149879], [-48.48113509, -24.31099762], [-48.4808024, -24.31028752], [-48.48032476, -24.30928491], [-48.47981398, -24.30843373], [-48.4792665, -24.30791348], [-48.47852231, -24.30743142], [-48.47758224, -24.30694611], [-48.47665587, -24.30653005], [-48.47571141, -24.30626569], [-48.47469236, -24.30604484], [-48.47391163, -24.30592933], [-48.47313003, -24.30585774], [-48.47249017, -24.30589103], [-48.47208847, -24.3060015], [-48.47144398, -24.30626901], [-48.47076809, -24.30650672], [-48.46996523, -24.30677271], [-48.46903034, -24.30710748], [-48.46830593, -24.30737366], [-48.46788216, -24.30753135], [-48.46750506, -24.30767747], [-48.46693776, -24.30746799], [-48.46645693, -24.30706937], [-48.46578212, -24.3065056], [-48.46491428, -24.30555965], [-48.46425267, -24.30501308], [-48.46369914, -24.30462279], [-48.46314248, -24.30445099], [-48.46241982, -24.30414418], [-48.46188178, -24.30402087], [-48.4611352, -24.30393219], [-48.46037793, -24.30385824], [-48.45943576, -24.30382782], [-48.45885153, -24.30387662], [-48.45796975, -24.30402295], [-48.4570897, -24.30408143], [-48.45666731, -24.30394139], [-48.45637297, -24.30383538], [-48.45642811, -24.30360173], [-48.45656197, -24.30302187], [-48.45673134, -24.30218516], [-48.45686922, -24.30151489], [-48.45699191, -24.30086558], [-48.45710734, -24.30025459], [-48.45767461, -24.29987583], [-48.45837437, -24.29941288], [-48.45897944, -24.29897709], [-48.4562285, -24.29583653], [-48.45622805, -24.2958361], [-48.45621814, -24.29582822], [-48.45581459, -24.29550745], [-48.45537348, -24.29519252], [-48.45498175, -24.29480518], [-48.45453051, -24.29419717], [-48.45419966, -24.29356189], [-48.45394067, -24.29292783], [-48.45380569, -24.29248621], [-48.45376974, -24.29188517], [-48.45381604, -24.29116835], [-48.45387446, -24.29064211], [-48.4460238, -24.2892016], [-48.44585622, -24.28950401], [-48.44555116, -24.29028485], [-48.44507374, -24.29102053], [-48.44468556, -24.29186005], [-48.44443575, -24.29223917], [-48.44413029, -24.29249637], [-48.4439065, -24.29246469], [-48.44342538, -24.29248259], [-48.4432308, -24.29251863], [-48.44265723, -24.29273061], [-48.44227551, -24.29275756], [-48.44173502, -24.29266257], [-48.4409305, -24.29230564], [-48.44057867, -24.29226941], [-48.44028436, -24.29232347], [-48.4397462, -24.29253996], [-48.43936722, -24.29263011], [-48.43892362, -24.29265251], [-48.43861428, -24.29261176], [-48.43824709, -24.29249878], [-48.43779746, -24.29228643], [-48.43742664, -24.29202898], [-48.43670446, -24.29140122], [-48.43637089, -24.29120245], [-48.43597786, -24.29105785], [-48.43551892, -24.29099899], [-48.43522957, -24.29100338], [-48.43495156, -24.29106647], [-48.43447494, -24.29130101], [-48.43373684, -24.29182437], [-48.43297953, -24.2917075], [-48.43225907, -24.29163777], [-48.43155486, -24.29153956], [-48.43091659, -24.29128424], [-48.43027948, -24.29097142], [-48.42948694, -24.29058401], [-48.42887903, -24.29027654], [-48.42797003, -24.28979889], [-48.4270067, -24.28933679], [-48.42631046, -24.28902784], [-48.42565057, -24.28870297], [-48.42511606, -24.28841325], [-48.42467158, -24.28812505], [-48.42412374, -24.28760397], [-48.42355887, -24.28703305], [-48.42326712, -24.28665253], [-48.42247298, -24.27675755], [-48.43730479, -24.26875581], [-48.43866946, -24.26806808], [-48.43964105, -24.26775425], [-48.44037924, -24.26758178], [-48.44111511, -24.26752814], [-48.44187739, -24.26759381], [-48.44273888, -24.26774039], [-48.44342729, -24.26789726], [-48.44405705, -24.26810596], [-48.44457105, -24.26833915], [-48.44481148, -24.26846628], [-48.44501453, -24.26902678], [-48.44516276, -24.26930674], [-48.44562362, -24.26979444], [-48.44584785, -24.27014209], [-48.44589669, -24.27040847], [-48.44583218, -24.2708328], [-48.44582963, -24.27106754], [-48.44588803, -24.27129328], [-48.44616815, -24.27195699], [-48.44619147, -24.27211048], [-48.4461637, -24.27232265], [-48.446043, -24.272449], [-48.44564215, -24.27276035], [-48.44585358, -24.2732238], [-48.44599832, -24.2738261], [-48.44627224, -24.27450545], [-48.44667096, -24.27527123], [-48.44707263, -24.27588945], [-48.44747724, -24.27636014], [-48.44792957, -24.27674729], [-48.4485152, -24.27736858], [-48.44925465, -24.27835094], [-48.4499941, -24.27933329], [-48.45059853, -24.28016577], [-48.45124983, -24.28095686], [-48.4520813, -24.28194075], [-48.45263979, -24.28277245], [-48.45306365, -24.28343321], [-48.45357574, -24.28290974], [-48.45429349, -24.28232845], [-48.45512922, -24.28173112], [-48.45587583, -24.28141394], [-48.45665054, -24.28118125], [-48.45761349, -24.28108949], [-48.4584577, -24.28104969], [-48.45912798, -24.2808811], [-48.45962607, -24.28049388], [-48.46007282, -24.2797282], [-48.46036164, -24.27901384], [-48.46076309, -24.27855305], [-48.4614344, -24.27833056], [-48.46192926, -24.27810508], [-48.4623325, -24.27755445], [-48.46236854, -24.27672798], [-48.46248194, -24.27595674], [-48.46293171, -24.27535386], [-48.46370351, -24.27471309], [-48.46423919, -24.27438585], [-48.46460103, -24.2739424], [-48.464749, -24.27340546], [-48.46468303, -24.27277506], [-48.46444173, -24.2720878], [-48.46439183, -24.27163748], [-48.46444353, -24.27100904], [-48.46443354, -24.27052341], [-48.46442181, -24.27012766], [-48.46433521, -24.26955086], [-48.46420955, -24.26892296], [-48.46395809, -24.26826512], [-48.46356012, -24.26745721], [-48.46311618, -24.26664855], [-48.46271778, -24.26586172], [-48.46254599, -24.26524737], [-48.4625176, -24.2643613], [-48.46246202, -24.26368564], [-48.46235418, -24.26332537], [-48.46186091, -24.26268456], [-48.46148218, -24.26206676], [-48.46136579, -24.26155876], [-48.46135871, -24.26075737], [-48.46128684, -24.25974406], [-48.46109248, -24.25910824], [-48.46076099, -24.25842797], [-48.46038567, -24.25764152], [-48.46003456, -24.25679224], [-48.45964, -24.2558157], [-48.45944565, -24.25517987], [-48.4592994, -24.25443943], [-48.45924635, -24.25363729], [-48.4591235, -24.25287616], [-48.45888442, -24.25217632], [-48.45848736, -24.25132626], [-48.45799794, -24.25049574], [-48.45750308, -24.24986649], [-48.45712664, -24.24941856], [-48.45678525, -24.248824], [-48.45644325, -24.24825887], [-48.4559431, -24.24757331], [-48.45525211, -24.24679624], [-48.45474612, -24.24640501], [-48.45417067, -24.24627761], [-48.45373178, -24.24641866], [-48.45346411, -24.24667378], [-48.45322509, -24.24699784], [-48.45289411, -24.24749282], [-48.45233314, -24.24824894], [-48.45167353, -24.24912117], [-48.45101918, -24.2497285], [-48.45022941, -24.25048795], [-48.45020599, -24.25055565], [-48.4501096, -24.25073619], [-48.45017006, -24.25121474], [-48.45013489, -24.25144948], [-48.45003329, -24.25159843], [-48.44972784, -24.25204075], [-48.44965118, -24.25215357], [-48.44955503, -24.25252825], [-48.4494183, -24.25277648], [-48.44930453, -24.25334076], [-48.44929486, -24.2537335], [-48.44917287, -24.25402691], [-48.44892746, -24.25443311], [-48.44887954, -24.25500642], [-48.44886779, -24.2551554], [-48.44873991, -24.25563389], [-48.44853455, -24.25586857], [-48.44821167, -24.25601294], [-48.44793931, -24.25604896], [-48.44760664, -24.25603531], [-48.44686133, -24.25589061], [-48.44652438, -24.25585438], [-48.44620119, -24.25591747], [-48.44594482, -24.2560438], [-48.44575423, -24.25626043], [-48.44554449, -24.25666665], [-48.44541996, -24.25718125], [-48.44507619, -24.25797566], [-48.44466603, -24.25859851], [-48.44407115, -24.25929802], [-48.4433332, -24.25996591], [-48.44275477, -24.26038102], [-48.44248698, -24.26048928], [-48.44215581, -24.26055236], [-48.44179974, -24.26052966], [-48.44150651, -24.26038057], [-48.44090748, -24.25996956], [-48.44068625, -24.25988822], [-48.44034957, -24.25989261], [-48.43969768, -24.26004587], [-48.43948163, -24.26006835], [-48.43907786, -24.26002757], [-48.43859047, -24.25983327], [-48.43773547, -24.25927318], [-48.43740315, -24.25915116], [-48.43706988, -24.25911942], [-48.43673962, -24.25919152], [-48.43652939, -24.25927271], [-48.43621076, -24.25949378], [-48.4356756, -24.26012558], [-48.43533068, -24.26062655], [-48.43489205, -24.26075729], [-48.43464833, -24.26072108], [-48.43425076, -24.26061256], [-48.43402333, -24.260617], [-48.43376449, -24.26066655], [-48.43344803, -24.26082441], [-48.43279072, -24.26135232], [-48.4323105, -24.26158688], [-48.4320206, -24.26156871], [-48.43136768, -24.26132466], [-48.4308876, -24.26125223], [-48.43081516, -24.26126326], [-48.43068314, -24.26131081], [-48.43042753, -24.26141136], [-48.43013627, -24.26157195], [-48.42993104, -24.26180601], [-48.42972637, -24.26204641], [-48.42962188, -24.26220511], [-48.42947095, -24.26237691], [-48.42935096, -24.26246594], [-48.42866347, -24.26298026], [-48.42826299, -24.26311552], [-48.42779794, -24.263174], [-48.42744772, -24.26316933], [-48.42718861, -24.26312407], [-48.42667811, -24.2629523], [-48.42620787, -24.26293404], [-48.42587824, -24.26297901], [-48.42534938, -24.26318644], [-48.42479475, -24.26329454], [-48.42425374, -24.26322206], [-48.42364086, -24.26291029], [-48.42315829, -24.26259884], [-48.42312727, -24.26255514], [-48.42310299, -24.26235732], [-48.4231189, -24.26227267], [-48.42312988, -24.26217602], [-48.42314861, -24.26201422], [-48.42311991, -24.26189053], [-48.42308434, -24.2618246], [-48.4229557, -24.26173977], [-48.42289832, -24.26176346], [-48.42279972, -24.26181081], [-48.42268477, -24.26186273], [-48.42261568, -24.26189026], [-48.4224596, -24.26195152], [-48.42227065, -24.26203551], [-48.42198312, -24.2621745], [-48.42186678, -24.26227172], [-48.42173257, -24.26242351], [-48.42156248, -24.26262226], [-48.42155284, -24.26264321], [-48.4215477, -24.262641], [-48.42154199, -24.26263853], [-48.42152807, -24.26264955], [-48.42147377, -24.26266653], [-48.42142441, -24.26267887], [-48.42136679, -24.2626897], [-48.42132568, -24.26269749], [-48.42127955, -24.26270528], [-48.42123513, -24.26271608], [-48.42118096, -24.26274199], [-48.42114977, -24.2627648], [-48.42112197, -24.26279062], [-48.42108915, -24.26281803], [-48.42105801, -24.26284839], [-48.42102031, -24.26287725], [-48.42097601, -24.2629062], [-48.42093493, -24.2629275], [-48.4208939, -24.26295038], [-48.42084464, -24.26297636], [-48.4208101, -24.26299463], [-48.42076421, -24.26302056], [-48.42072644, -24.26305251], [-48.42069864, -24.26307831], [-48.42066748, -24.26310565], [-48.42064464, -24.26314048], [-48.42062022, -24.26318447], [-48.42060724, -24.26322223], [-48.42060415, -24.26325856], [-48.42059295, -24.26330992], [-48.42058826, -24.26335225], [-48.42059183, -24.26339006], [-48.4205986, -24.26342627], [-48.42059716, -24.26346251], [-48.42058919, -24.26350183], [-48.42058953, -24.26351411], [-48.42057131, -24.26350964], [-48.42055805, -24.26350817], [-48.4205416, -24.26350832], [-48.42053163, -24.26350989], [-48.42052172, -24.26351296], [-48.42049535, -24.26352218], [-48.42048211, -24.26352981], [-48.42047065, -24.26353592], [-48.42045583, -24.26355271], [-48.42044929, -24.26356029], [-48.42043439, -24.26357105], [-48.42042122, -24.26358022], [-48.42041139, -24.26358473], [-48.42039154, -24.26359243], [-48.42038003, -24.26359702], [-48.42036354, -24.26360018], [-48.42034531, -24.2636003], [-48.42033538, -24.26360484], [-48.42031728, -24.26360949], [-48.4203024, -24.2636141], [-48.4202875, -24.26362026], [-48.42027931, -24.26362635], [-48.42026455, -24.26364163], [-48.42025143, -24.26365684], [-48.42023499, -24.2636812], [-48.42021865, -24.26370556], [-48.42020553, -24.26372529], [-48.42019238, -24.26374357], [-48.42017592, -24.26375882], [-48.4201677, -24.26376644], [-48.42015618, -24.26377101], [-48.4201446, -24.26377416], [-48.42013135, -24.26377728], [-48.42011484, -24.26378035], [-48.42009993, -24.26377738], [-48.42008998, -24.26377288], [-48.42007506, -24.26376089], [-48.4200567, -24.26373975], [-48.42004507, -24.2637307], [-48.42003182, -24.26371864], [-48.42002347, -24.26371264], [-48.42001191, -24.26370512], [-48.42000193, -24.26370207], [-48.41998537, -24.26369312], [-48.41997375, -24.2636886], [-48.41995721, -24.26368416], [-48.41993728, -24.26368121], [-48.41992737, -24.26367977], [-48.4199158, -24.26367676], [-48.41990096, -24.26367688], [-48.41988928, -24.26367389], [-48.41987609, -24.26367393], [-48.41985456, -24.26366798], [-48.41983794, -24.26366202], [-48.41982798, -24.26366202], [-48.41981643, -24.2636591], [-48.4197933, -24.26365917], [-48.41978008, -24.26366074], [-48.4197635, -24.26366238], [-48.41974863, -24.26366248], [-48.41973545, -24.26366252], [-48.41971558, -24.26366571], [-48.41968917, -24.26366733], [-48.41967592, -24.26367045], [-48.4196528, -24.26367808], [-48.41963798, -24.26368127], [-48.41961978, -24.26368584], [-48.41959666, -24.26369049], [-48.41958342, -24.26369206], [-48.41956033, -24.26369529], [-48.41954542, -24.26369683], [-48.41952062, -24.26369695], [-48.41950413, -24.26369857], [-48.41948096, -24.26370171], [-48.41946608, -24.26370181], [-48.41944135, -24.26370348], [-48.41942478, -24.2637051], [-48.41940325, -24.26370671], [-48.41938679, -24.26370832], [-48.4193636, -24.26371144], [-48.41935372, -24.26371301], [-48.41932894, -24.26371619], [-48.4193091, -24.26371929], [-48.41928095, -24.26371942], [-48.41926114, -24.26371955], [-48.4192281, -24.26371818], [-48.41920656, -24.26371681], [-48.41917341, -24.26371092], [-48.41915024, -24.26370802], [-48.4191188, -24.26369909], [-48.41909727, -24.26369312], [-48.41906578, -24.26367806], [-48.41904585, -24.26366914], [-48.41902756, -24.26365854], [-48.41901095, -24.26364805], [-48.41899108, -24.26363751], [-48.41898108, -24.26363455], [-48.41897888, -24.26363366], [-48.41889074, -24.26362318], [-48.41845758, -24.26361583], [-48.41813272, -24.26361031], [-48.41775021, -24.2637776], [-48.41731354, -24.26394396], [-48.41690442, -24.264086], [-48.41671142, -24.26425651], [-48.41640962, -24.26445], [-48.41610729, -24.26466833], [-48.41564154, -24.26493351], [-48.41528609, -24.26510126], [-48.41506549, -24.26529613], [-48.41484389, -24.26554065], [-48.41459822, -24.26563579], [-48.41432851, -24.26558153], [-48.41413418, -24.26528627], [-48.4140906, -24.26518336], [-48.41405861, -24.26510015], [-48.41402513, -24.26502302], [-48.41396022, -24.26497029], [-48.41388566, -24.26494331], [-48.41383579, -24.26490266], [-48.41382557, -24.26484354], [-48.41381858, -24.26478449], [-48.41377853, -24.26473009], [-48.4136842, -24.26472146], [-48.41361133, -24.26469756], [-48.41357107, -24.26460986], [-48.41352615, -24.26456154], [-48.41345485, -24.26453921], [-48.41341382, -24.26458184], [-48.41336283, -24.26463521], [-48.41327846, -24.26462952], [-48.41322528, -24.26457825], [-48.4131242, -24.26454242], [-48.41301478, -24.26450048], [-48.41295333, -24.2644675], [-48.41290359, -24.26444036], [-48.4128522, -24.26442807], [-48.41273658, -24.26444124], [-48.41264076, -24.2644675], [-48.41252157, -24.26444687], [-48.4124355, -24.26442763], [-48.41230812, -24.26442671], [-48.4121528, -24.26445487], [-48.4120405, -24.26447209], [-48.41189344, -24.26449555], [-48.41182101, -24.26451504], [-48.4116403, -24.26454106], [-48.41163693, -24.264532], [-48.41162861, -24.26451995], [-48.41162195, -24.26450936], [-48.41160526, -24.2644958], [-48.41159537, -24.26448977], [-48.41157874, -24.26447919], [-48.41156715, -24.26447323], [-48.41154718, -24.26446269], [-48.41153559, -24.26445672], [-48.41152059, -24.2644477], [-48.41150904, -24.26444019], [-48.41149075, -24.26442967], [-48.41146744, -24.26440852], [-48.41145748, -24.26439491], [-48.4114425, -24.26437676], [-48.41143416, -24.26436471], [-48.41142582, -24.26434509], [-48.4114191, -24.26433144], [-48.41141071, -24.26430873], [-48.41140564, -24.26429509], [-48.41140057, -24.2642739], [-48.41139548, -24.26426333], [-48.41139211, -24.26424974], [-48.41138877, -24.26423911], [-48.41138536, -24.2642285], [-48.41138035, -24.26421795], [-48.41137699, -24.26420887], [-48.41137027, -24.26419523], [-48.41136354, -24.26418166], [-48.41136023, -24.26417103], [-48.41135191, -24.26415898], [-48.41134183, -24.26414075], [-48.41133684, -24.2641302], [-48.41132346, -24.26411509], [-48.41131351, -24.26410453], [-48.41130346, -24.26409102], [-48.41129517, -24.26407731], [-48.41128851, -24.26406673], [-48.41128839, -24.26405771], [-48.41128997, -24.26404249], [-48.41129489, -24.26403336], [-48.41130142, -24.26402274], [-48.41131118, -24.26400152], [-48.41131275, -24.26398176], [-48.41131275, -24.26397265], [-48.41131085, -24.26393624], [-48.41130742, -24.26391056], [-48.41130392, -24.26388928], [-48.4113005, -24.26386811], [-48.41129881, -24.26385897], [-48.41129048, -24.26384693], [-48.4112788, -24.26383634], [-48.41126884, -24.26382731], [-48.41125229, -24.26381829], [-48.41123902, -24.26381228], [-48.41121409, -24.26380788], [-48.41119928, -24.26380646], [-48.41117614, -24.26381111], [-48.41116287, -24.26381421], [-48.41113812, -24.26382039], [-48.41111835, -24.26382503], [-48.41107868, -24.26383435], [-48.41106714, -24.26383589], [-48.41104897, -24.263839], [-48.41103405, -24.26384063], [-48.41100922, -24.2638423], [-48.41098942, -24.26384241], [-48.41095969, -24.26384253], [-48.41094316, -24.2638426], [-48.4109183, -24.26383966], [-48.41090671, -24.2638383], [-48.41088849, -24.26383383], [-48.41087527, -24.26383081], [-48.41085373, -24.26382485], [-48.41083058, -24.26382499], [-48.41081573, -24.26382961], [-48.41080572, -24.26382303], [-48.41079907, -24.26381092], [-48.41078741, -24.26379429], [-48.41078401, -24.26378214], [-48.41077561, -24.26376854], [-48.41077057, -24.26375953], [-48.41076067, -24.2637489], [-48.41075235, -24.26374134], [-48.41074401, -24.26373534], [-48.41072909, -24.26372786], [-48.41071752, -24.26372487], [-48.41070257, -24.26372038], [-48.41068769, -24.26372048], [-48.4106678, -24.26371607], [-48.41065122, -24.26371309], [-48.41063964, -24.26371162], [-48.41062315, -24.26371324], [-48.41060833, -24.26371634], [-48.41058684, -24.26371795], [-48.41057525, -24.26372108], [-48.41055868, -24.2637227], [-48.41054878, -24.26372578], [-48.41053561, -24.26372879], [-48.41051575, -24.263732], [-48.41050089, -24.26373661], [-48.4104844, -24.26373975], [-48.41046627, -24.26374586], [-48.41044814, -24.26375204], [-48.41042829, -24.26375822], [-48.41040842, -24.26376284], [-48.41038533, -24.26376596], [-48.41037539, -24.26376607], [-48.41036546, -24.26376913], [-48.41034398, -24.26377074], [-48.41033081, -24.26377388], [-48.41031427, -24.26377395], [-48.41030105, -24.26377554], [-48.41028121, -24.26377864], [-48.41026299, -24.26378328], [-48.41025149, -24.26378787], [-48.41024319, -24.26379132], [-48.41011184, -24.26384625], [-48.40996664, -24.26398874], [-48.40997043, -24.26399982], [-48.4097791, -24.26430219], [-48.40969353, -24.26455859], [-48.40961553, -24.26467512], [-48.40962133, -24.26477493], [-48.40958376, -24.26500103], [-48.40953695, -24.2652829], [-48.40945461, -24.26568901], [-48.40938111, -24.26584438], [-48.4093296, -24.26585717], [-48.40934391, -24.26592303], [-48.4091837, -24.26626171], [-48.40896876, -24.26663427], [-48.40896049, -24.26664336], [-48.4089556, -24.26665553], [-48.40894908, -24.26667076], [-48.40894255, -24.26668294], [-48.40893798, -24.26669429], [-48.40886451, -24.26685219], [-48.40884459, -24.2668432], [-48.40883471, -24.26684022], [-48.40881979, -24.26683725], [-48.40880986, -24.26683736], [-48.40879001, -24.26683593], [-48.40876359, -24.26684206], [-48.40874375, -24.26684527], [-48.40871734, -24.266856], [-48.40870081, -24.26686058], [-48.4086744, -24.26687133], [-48.40865625, -24.26687751], [-48.40863156, -24.26688676], [-48.40861664, -24.26689292], [-48.40859686, -24.2669036], [-48.40858531, -24.2669097], [-48.40857218, -24.2669204], [-48.40854906, -24.26693417], [-48.40839464, -24.2669069], [-48.40830372, -24.26689083], [-48.40820088, -24.26683067], [-48.40806516, -24.26681473], [-48.40791802, -24.26682601], [-48.40767212, -24.26691677], [-48.40759293, -24.26694295], [-48.40748392, -24.26696772], [-48.40724768, -24.26700981], [-48.40709893, -24.26702885], [-48.40692847, -24.26702052], [-48.4068142, -24.26698626], [-48.40669821, -24.26694286], [-48.40655885, -24.2668829], [-48.40642622, -24.26681989], [-48.4062788, -24.26678732], [-48.40611496, -24.26676537], [-48.40595599, -24.26673432], [-48.4058594, -24.26670798], [-48.40484646, -24.26654835], [-48.40469881, -24.26643507], [-48.40450436, -24.26636724], [-48.40424924, -24.26632646], [-48.40394361, -24.26634886], [-48.40322015, -24.26662832], [-48.40299452, -24.26667785], [-48.40266711, -24.26660541], [-48.40217613, -24.26631169], [-48.40162108, -24.26577553], [-48.40244869, -24.26976125], [-48.40544482, -24.28418873], [-48.40477195, -24.2840433], [-48.40396801, -24.28411609], [-48.40318458, -24.28434067], [-48.40253919, -24.28474068], [-48.40210923, -24.28499292], [-48.40146779, -24.2851983], [-48.40054854, -24.28513929], [-48.39988658, -24.28519286], [-48.39969405, -24.28527308], [-48.3995038, -24.28544591], [-48.3994006, -24.28587683], [-48.39936159, -24.28663334], [-48.3995056, -24.28767422], [-48.39965815, -24.28819537], [-48.3996809, -24.28842584], [-48.399647, -24.28874229], [-48.39947342, -24.28925293], [-48.39903637, -24.28985119], [-48.39824011, -24.2907029], [-48.39740019, -24.29138078], [-48.39668572, -24.29169305], [-48.39583501, -24.29174336], [-48.39499219, -24.29170999], [-48.39444806, -24.29176998], [-48.39414209, -24.29180683], [-48.39397161, -24.29185759], [-48.39380239, -24.29204112], [-48.3936717, -24.29222456], [-48.39346379, -24.29253798], [-48.39345829, -24.2925463], [-48.39340953, -24.29264908], [-48.39345077, -24.29296509], [-48.39358831, -24.29331718], [-48.39378041, -24.29357371], [-48.393841, -24.29382799], [-48.39377526, -24.29417327], [-48.39376539, -24.29430907], [-48.39372701, -24.29489931], [-48.39375712, -24.29535808], [-48.39392121, -24.29569856], [-48.39407264, -24.2960147], [-48.39415534, -24.29647437], [-48.39410702, -24.29690769], [-48.39395471, -24.29727891], [-48.39363163, -24.29763515], [-48.393283, -24.29795475], [-48.39280288, -24.29867308], [-48.3922744, -24.29958352], [-48.39174343, -24.30061452], [-48.39156792, -24.30115417], [-48.3914892, -24.30178592], [-48.39142386, -24.30256866], [-48.39124525, -24.30325902], [-48.39093696, -24.30385665], [-48.39042889, -24.30457148], [-48.3897823, -24.30522363], [-48.3892103, -24.30584689], [-48.38877601, -24.30617105], [-48.38826167, -24.30638832], [-48.38773427, -24.30643954], [-48.38673283, -24.30634693], [-48.38603169, -24.30604845], [-48.38526725, -24.30562827], [-48.38447271, -24.30507193], [-48.38372626, -24.30457669], [-48.38309276, -24.30418893], [-48.3825616, -24.30390737], [-48.38207937, -24.30347804], [-48.38154637, -24.30300156], [-48.38096531, -24.30246393], [-48.3805167, -24.30188339], [-48.38005136, -24.30131763], [-48.37980036, -24.30072538], [-48.3795323, -24.30016304], [-48.37913366, -24.29955319], [-48.37856844, -24.29904599], [-48.37787324, -24.29846117], [-48.37709458, -24.29793524], [-48.37624771, -24.29752866], [-48.37570888, -24.29733846], [-48.37520418, -24.29708855], [-48.37479781, -24.29685542], [-48.37449132, -24.2965637], [-48.3742196, -24.29618216], [-48.37401517, -24.2957264], [-48.37389233, -24.29530224], [-48.3737031, -24.29490702], [-48.37347883, -24.29461672], [-48.37315529, -24.29435488], [-48.37281439, -24.29413794], [-48.37227494, -24.29397787], [-48.37178484, -24.29381864], [-48.37121251, -24.29365799], [-48.37070504, -24.2935437], [-48.37024687, -24.29343024], [-48.36992086, -24.29328893], [-48.36969537, -24.29305892], [-48.36952135, -24.2927243], [-48.36933339, -24.2922688], [-48.36908184, -24.29170671], [-48.36881043, -24.29131009], [-48.3685403, -24.29085318], [-48.36822299, -24.29028993], [-48.36804929, -24.28994025], [-48.36779309, -24.28960418], [-48.36719338, -24.28877978], [-48.36665093, -24.28797146], [-48.36613914, -24.2872692], [-48.36546363, -24.28653393], [-48.36485045, -24.28596556], [-48.36392897, -24.28519587], [-48.36325192, -24.28453594], [-48.36247558, -24.28390444], [-48.36169263, -24.28319743], [-48.36105992, -24.28277945], [-48.36054012, -24.28246892], [-48.36016357, -24.28238702], [-48.35955532, -24.28237644], [-48.35884377, -24.28259019], [-48.3580956, -24.28298417], [-48.3572438, -24.28361752], [-48.35655857, -24.28414826], [-48.35599089, -24.28456045], [-48.35547629, -24.28479268], [-48.35491548, -24.28487334], [-48.35427373, -24.28489231], [-48.35382768, -24.28499004], [-48.3533396, -24.2851323], [-48.35272041, -24.28564908], [-48.35184995, -24.28638761], [-48.35114854, -24.28690295], [-48.35064973, -24.28716558], [-48.35015216, -24.28736792], [-48.34960779, -24.28744888], [-48.34903398, -24.2873635], [-48.34857649, -24.28721984], [-48.34791094, -24.28680124], [-48.34727795, -24.28639826], [-48.34656151, -24.28605412], [-48.34584226, -24.2858456], [-48.3450535, -24.28581673], [-48.34425463, -24.28587814], [-48.3433951, -24.28608921], [-48.34251661, -24.28642053], [-48.34176775, -24.28684457], [-48.34109885, -24.2873755], [-48.34067407, -24.28803131], [-48.34032832, -24.28883925], [-48.3401501, -24.28949936], [-48.34014925, -24.29032839], [-48.34012438, -24.29112686], [-48.34019245, -24.29180638], [-48.34013526, -24.29218222], [-48.33976637, -24.29252244], [-48.33905504, -24.29272101], [-48.33809904, -24.29282485], [-48.33652048, -24.29281223], [-48.33551859, -24.29274944], [-48.33492927, -24.29261851], [-48.3344612, -24.29237689], [-48.33383819, -24.29210195], [-48.33317235, -24.29169832], [-48.33260545, -24.29128138], [-48.33213627, -24.29091137], [-48.33164844, -24.29064655], [-48.33125674, -24.29050399], [-48.33072434, -24.29040419], [-48.33000002, -24.29043669], [-48.32909366, -24.29052626], [-48.32802131, -24.29068828], [-48.32739378, -24.29081289], [-48.32699609, -24.2909201], [-48.32644883, -24.2911731], [-48.32586522, -24.29155475], [-48.32523042, -24.29202592], [-48.3245744, -24.2927228], [-48.32426837, -24.29319977], [-48.32404012, -24.29388913], [-48.32402526, -24.29459731], [-48.32411062, -24.29523193], [-48.32425006, -24.29564137], [-48.32467117, -24.29595026], [-48.32543943, -24.29617483], [-48.32604268, -24.29642663], [-48.3264246, -24.29664437], [-48.3267964, -24.29695239], [-48.32694303, -24.29713168], [-48.3272147, -24.2973969], [-48.3274534, -24.29777794], [-48.32776927, -24.29840151], [-48.32803012, -24.29890353], [-48.32815344, -24.29929762], [-48.32822332, -24.29988669], [-48.32826034, -24.30047525], [-48.32831382, -24.30080774], [-48.32847568, -24.30118749], [-48.32879596, -24.30160011], [-48.32929459, -24.30213645], [-48.32957192, -24.30263876], [-48.32980872, -24.30311022], [-48.32991625, -24.30347388], [-48.32994187, -24.30382102], [-48.32991816, -24.30416728], [-48.32980878, -24.30467787], [-48.32979584, -24.30529565], [-48.32981736, -24.30583869], [-48.32987366, -24.30629189], [-48.32998024, -24.30670074], [-48.33003907, -24.3070334], [-48.33002897, -24.30751555], [-48.3299082, -24.30817668], [-48.3296344, -24.30868437], [-48.32942701, -24.30916308], [-48.32932076, -24.30952296], [-48.32930561, -24.31024623], [-48.32934044, -24.31094024], [-48.32929745, -24.31142184], [-48.32922408, -24.3117823], [-48.32910077, -24.31217205], [-48.32874917, -24.31246735], [-48.32803678, -24.31271103], [-48.32742397, -24.31291127], [-48.3264991, -24.31309095], [-48.32569153, -24.31316716], [-48.32512995, -24.31327785], [-48.32451748, -24.313463], [-48.32395875, -24.31382998], [-48.32350877, -24.31410845], [-48.32292949, -24.31427912], [-48.32225377, -24.31434256], [-48.32174754, -24.31416782], [-48.32114361, -24.31394613], [-48.32049002, -24.31373862], [-48.31999865, -24.3136395], [-48.31924261, -24.31361108], [-48.3184366, -24.31361191], [-48.31800977, -24.31357422], [-48.3175693, -24.31340063], [-48.31703591, -24.31295408], [-48.31640672, -24.31237015], [-48.31582749, -24.31175696], [-48.31584395, -24.31175725], [-48.31513192, -24.31120201], [-48.31450243, -24.31063316], [-48.31377523, -24.31001736], [-48.3134265, -24.30981084], [-48.31277016, -24.30932125], [-48.31203853, -24.3089164], [-48.3110954, -24.30840225], [-48.31023449, -24.30788958], [-48.30934134, -24.30734618], [-48.30870776, -24.3069732], [-48.30802835, -24.30643357], [-48.30733346, -24.30584845], [-48.30676886, -24.30532593], [-48.30620266, -24.30487876], [-48.30545369, -24.30451878], [-48.30497059, -24.30441975], [-48.30444384, -24.30444054], [-48.30394806, -24.30455234], [-48.30321925, -24.30479564], [-48.3026422, -24.30486076], [-48.30185209, -24.30489193], [-48.30091496, -24.30487526], [-48.3003898, -24.30482071], [-48.30009641, -24.30469491], [-48.29969401, -24.30428076], [-48.29935831, -24.3038226], [-48.2989775, -24.30316765], [-48.29869367, -24.30258983], [-48.29848631, -24.30228467], [-48.29819487, -24.30206845], [-48.29764259, -24.30174207], [-48.2970552, -24.3015206], [-48.29635904, -24.30138762], [-48.29562144, -24.30126895], [-48.29512984, -24.30118484], [-48.29491898, -24.30104541], [-48.29480934, -24.30078722], [-48.29483249, -24.3004711], [-48.29498781, -24.30012717], [-48.29537648, -24.29963668], [-48.29577936, -24.29925192], [-48.29599946, -24.29895441], [-48.29607193, -24.29863915], [-48.29608184, -24.29817206], [-48.29599246, -24.29773335], [-48.29585281, -24.29733895], [-48.29554909, -24.29692657], [-48.29514735, -24.29648227], [-48.29454428, -24.29583846], [-48.29407648, -24.29540806], [-48.29334597, -24.29495792], [-48.29255099, -24.29444632], [-48.29181729, -24.29414685], [-48.29088342, -24.29397947], [-48.29021037, -24.29392221], [-48.28930396, -24.29401154], [-48.28829507, -24.29427992], [-48.28748441, -24.29450662], [-48.28673823, -24.29479475], [-48.28618013, -24.29513146], [-48.28558969, -24.29552972], [-48.2848535, -24.29641913], [-48.28411731, -24.29700888], [-48.28326637, -24.2975815], [-48.28233775, -24.29794171], [-48.28176007, -24.29803689], [-48.2811202, -24.29796514], [-48.28038524, -24.29772586], [-48.279883, -24.29737019], [-48.27941397, -24.29700002], [-48.27881276, -24.29665765], [-48.27804203, -24.2965534], [-48.27731741, -24.2966007], [-48.27672397, -24.29666541], [-48.27604963, -24.29666838], [-48.27560735, -24.29658508], [-48.2751203, -24.29628996], [-48.27481566, -24.29592273], [-48.27458035, -24.29539095], [-48.2745107, -24.29480184], [-48.27452245, -24.29472946], [-48.27464193, -24.29399369], [-48.27485493, -24.29331579], [-48.27534325, -24.29278191], [-48.27599498, -24.2922962], [-48.27648008, -24.29191299], [-48.27694938, -24.29149936], [-48.27728781, -24.29105323], [-48.27738594, -24.29069325], [-48.27749422, -24.29024299], [-48.27759912, -24.28989878], [-48.27781523, -24.28984177], [-48.27845668, -24.28983819], [-48.27928117, -24.28973238], [-48.27982622, -24.28962155], [-48.28071841, -24.28942651], [-48.28128215, -24.28921051], [-48.28178495, -24.28876729], [-48.2821717, -24.28836726], [-48.28259645, -24.28772672], [-48.28270441, -24.28729151], [-48.2829999, -24.28654315], [-48.28340951, -24.28584204], [-48.28364925, -24.28539412], [-48.28377491, -24.28489896], [-48.28381207, -24.28431175], [-48.28370728, -24.28382755], [-48.28324243, -24.28326151], [-48.28240211, -24.28256819], [-48.28178645, -24.28213511], [-48.28088777, -24.28167818], [-48.28019546, -24.2811721], [-48.2795463, -24.28076857], [-48.27882946, -24.28045426], [-48.27793183, -24.28013671], [-48.27708577, -24.27971458], [-48.27628805, -24.27933852], [-48.27542717, -24.27884073], [-48.27484411, -24.27842332], [-48.27353894, -24.2775558], [-48.27273092, -24.27689313], [-48.27233335, -24.27664482], [-48.27193581, -24.27639653], [-48.27125029, -24.27615811], [-48.27056285, -24.27601011], [-48.26949671, -24.27588541], [-48.26870741, -24.27588632], [-48.26788653, -24.27582631], [-48.26732995, -24.27571083], [-48.26695802, -24.27541774], [-48.26667248, -24.27493026], [-48.26646978, -24.27441412], [-48.26631447, -24.27398928], [-48.2661053, -24.27377449], [-48.26573773, -24.27366237], [-48.26496554, -24.2736334], [-48.26427714, -24.27353057], [-48.26383594, -24.27340204], [-48.26341312, -24.2731834], [-48.26315756, -24.2728321], [-48.26292459, -24.27219485], [-48.26277056, -24.27170973], [-48.26261589, -24.27125475], [-48.26244124, -24.27096522], [-48.26216569, -24.27077937], [-48.26175673, -24.27068157], [-48.26123239, -24.27059676], [-48.26082341, -24.27049893], [-48.26045026, -24.27026611], [-48.26011253, -24.26991335], [-48.25981028, -24.26944064], [-48.25952478, -24.26895314], [-48.25930308, -24.26855724], [-48.25897586, -24.26809915], [-48.25859078, -24.26765508], [-48.25810452, -24.26732978], [-48.25758665, -24.2669436], [-48.25731437, -24.26660707], [-48.25727379, -24.26619938], [-48.25727581, -24.26534027], [-48.2571882, -24.26482618], [-48.25698618, -24.26427992], [-48.25677803, -24.26401991], [-48.25656988, -24.26375992], [-48.2562164, -24.26337671], [-48.25607624, -24.26301243], [-48.25593177, -24.26246718], [-48.25574199, -24.26211708], [-48.25538787, -24.261764], [-48.25482042, -24.26139201], [-48.25427105, -24.26094495], [-48.25383604, -24.26053013], [-48.25356703, -24.26004293], [-48.25335087, -24.25939088], [-48.25318597, -24.25864933], [-48.25303297, -24.25811901], [-48.25280967, -24.25779843], [-48.25256575, -24.25767346], [-48.25222427, -24.25768989], [-48.2518539, -24.25790174], [-48.25158479, -24.25818327], [-48.25111913, -24.25843108], [-48.25075239, -24.25866562], [-48.25015426, -24.25895626], [-48.24928708, -24.25957571], [-48.24822692, -24.25987852], [-48.24682259, -24.25985309], [-48.24592875, -24.25942289], [-48.24473102, -24.25912519], [-48.24430521, -24.25909448], [-48.2438794, -24.25906376], [-48.24312015, -24.25937197], [-48.24261765, -24.25976067], [-48.24232299, -24.26032054], [-48.24222663, -24.26121375], [-48.24226428, -24.26185033], [-48.24207232, -24.26241208], [-48.24160248, -24.26275682], [-48.240827, -24.26297824], [-48.24012909, -24.26317755], [-48.23971108, -24.26349968], [-48.23934854, -24.2636344], [-48.23857661, -24.26369104], [-48.23770657, -24.2635339], [-48.23686526, -24.263236], [-48.23630389, -24.26306094], [-48.23550886, -24.26299937], [-48.23463577, -24.26298348], [-48.23383613, -24.2631338], [-48.23316491, -24.26328643], [-48.23265184, -24.26325354], [-48.23226869, -24.26315236], [-48.23183112, -24.26319148], [-48.23102793, -24.26350657], [-48.23044503, -24.26373146], [-48.2300049, -24.26388832], [-48.22946411, -24.26394909], [-48.2289002, -24.26389171], [-48.22844257, -24.2636714], [-48.22773376, -24.26318745], [-48.22735676, -24.26280376], [-48.22684829, -24.26255897], [-48.22638606, -24.26255054], [-48.22579238, -24.262681], [-48.22496401, -24.26297205], [-48.22387526, -24.26342319], [-48.22291489, -24.26387666], [-48.22221747, -24.26405233], [-48.22150436, -24.26417252], [-48.22108298, -24.26424353], [-48.22039066, -24.26418378], [-48.21972762, -24.26395968], [-48.21924843, -24.26355056], [-48.21879697, -24.26304771], [-48.21836811, -24.2626866], [-48.21779445, -24.26248768], [-48.21664097, -24.26237237], [-48.21492203, -24.26227022], [-48.21281485, -24.26230225], [-48.21137889, -24.2621817], [-48.2103266, -24.26213884], [-48.20942578, -24.26221649], [-48.20875043, -24.26255737], [-48.20809715, -24.26306348], [-48.20739815, -24.26330969], [-48.20647013, -24.26345752], [-48.20575061, -24.26346782], [-48.20502288, -24.26326602], [-48.20423871, -24.26270994], [-48.20360242, -24.26243916], [-48.20270417, -24.26239908], [-48.20162621, -24.26235569], [-48.20091083, -24.26217765], [-48.20032899, -24.26176657], [-48.19987504, -24.2613814], [-48.19967788, -24.26100094], [-48.19956033, -24.26050422], [-48.19955218, -24.25970334], [-48.19943567, -24.25915951], [-48.19919179, -24.25856625], [-48.19876765, -24.25799321], [-48.1982167, -24.25734718], [-48.19784239, -24.25684571], [-48.19762317, -24.2563], [-48.1975313, -24.25580373], [-48.19745856, -24.25560613], [-48.19731315, -24.25521095], [-48.19706463, -24.25482956], [-48.19660657, -24.2546327], [-48.19581369, -24.25447678], [-48.19447645, -24.25454627], [-48.19339803, -24.25452636], [-48.19220354, -24.25452789], [-48.19138656, -24.25430085], [-48.19075138, -24.25398293], [-48.18999453, -24.25335663], [-48.18931526, -24.2527082], [-48.18873765, -24.25210875], [-48.18810145, -24.25183793], [-48.18740975, -24.25175447], [-48.18681979, -24.25151818], [-48.18630736, -24.25112335], [-48.18604555, -24.25071655], [-48.18565171, -24.25002532], [-48.18562514, -24.2499787], [-48.18532376, -24.24966695], [-48.18481493, -24.24944557], [-48.18407501, -24.24921989], [-48.18328168, -24.24908746], [-48.18295818, -24.24897277], [-48.18272096, -24.24888868], [-48.18221576, -24.24850249], [-48.18161152, -24.24794964], [-48.18109228, -24.24760912], [-48.18082438, -24.24752413], [-48.18055648, -24.24743913], [-48.17962236, -24.24730043], [-48.17893017, -24.24724049], [-48.17798453, -24.2473204], [-48.17744209, -24.24716576], [-48.17660052, -24.24689108], [-48.17604455, -24.24648041], [-48.17538894, -24.24592656], [-48.17488378, -24.24554037], [-48.17421938, -24.24538671], [-48.17308919, -24.24538927], [-48.1724489, -24.2453067], [-48.17181067, -24.24512997], [-48.17107341, -24.24478656], [-48.17039116, -24.24427929], [-48.16983883, -24.2437038], [-48.16928653, -24.24312831], [-48.16858278, -24.24243224], [-48.16815831, -24.24188269], [-48.1676369, -24.24107226], [-48.16726798, -24.24033531], [-48.16685272, -24.23995078], [-48.16657865, -24.23956885], [-48.16643296, -24.23918933], [-48.16623801, -24.23871469], [-48.16596603, -24.23823862], [-48.16581934, -24.23790618], [-48.16559192, -24.23773709], [-48.16513085, -24.23768139], [-48.1646179, -24.23764828], [-48.16395462, -24.2374475], [-48.16321429, -24.2372453], [-48.16247502, -24.23699601], [-48.16168804, -24.23658096], [-48.16092729, -24.23614285], [-48.16024826, -24.23549432], [-48.15969654, -24.23489526], [-48.15909765, -24.23410691], [-48.15862089, -24.23360343], [-48.15789001, -24.23297747], [-48.15729667, -24.23251893], [-48.15665908, -24.2323186], [-48.15570923, -24.23230084], [-48.15497075, -24.23219978], [-48.15448645, -24.23185408], [-48.15418836, -24.23140105], [-48.15404741, -24.23080966], [-48.15392953, -24.23033643], [-48.15370687, -24.22995546], [-48.15335324, -24.2296898], [-48.15268791, -24.22958314], [-48.15215091, -24.22947887], [-48.15164431, -24.22916326], [-48.15110943, -24.22896483], [-48.1504661, -24.22902342], [-48.1497997, -24.22896385], [-48.14939213, -24.22881491], [-48.14885253, -24.22882835], [-48.14846223, -24.22905653], [-48.14816829, -24.22956914], [-48.14810646, -24.23003898], [-48.14825051, -24.23048914], [-48.14847315, -24.23087011], [-48.14885297, -24.23111273], [-48.14912957, -24.23137696], [-48.14924724, -24.23193748], [-48.14918403, -24.23239064], [-48.14889116, -24.23285616], [-48.14834942, -24.23296375], [-48.14773594, -24.2328345], [-48.14694486, -24.23260773], [-48.1463602, -24.23233769], [-48.14578134, -24.23198765], [-48.14543229, -24.23174205], [-48.14523114, -24.2316005], [-48.14474769, -24.23116943], [-48.14431484, -24.23067899], [-48.14396653, -24.23008464], [-48.14374729, -24.22959821], [-48.14368094, -24.22888858], [-48.14369709, -24.22816541], [-48.14384029, -24.22764058], [-48.14421014, -24.22727071], [-48.14462556, -24.22706751], [-48.14512011, -24.22700142], [-48.14577962, -24.2269083], [-48.14637508, -24.2267386], [-48.14671625, -24.22654905], [-48.14691732, -24.22629714], [-48.14696867, -24.22591598], [-48.14685529, -24.22551309], [-48.14668379, -24.22505632], [-48.14643135, -24.22458433], [-48.14603274, -24.22403427], [-48.14567969, -24.22365083], [-48.14529349, -24.22328187], [-48.14484425, -24.22279112], [-48.14444599, -24.222226], [-48.14419491, -24.22169373], [-48.14391399, -24.2210253], [-48.14378807, -24.220443], [-48.14407227, -24.21994737], [-48.14446453, -24.21950388], [-48.14480164, -24.21908439], [-48.1450301, -24.21863782], [-48.14504015, -24.21818715], [-48.144941, -24.21773444], [-48.14475771, -24.21738033], [-48.14460288, -24.21697666], [-48.14463686, -24.21667672], [-48.14508427, -24.21620919], [-48.14561581, -24.21564309], [-48.1460933, -24.21505089], [-48.14629446, -24.21460381], [-48.14647164, -24.21400599], [-48.14651456, -24.21330545], [-48.1463079, -24.21277557], [-48.14585554, -24.2122411], [-48.14520984, -24.21180318], [-48.14442656, -24.21141276], [-48.14383157, -24.21115112], [-48.14298752, -24.21103509], [-48.1424967, -24.21100083], [-48.14151451, -24.21095734], [-48.14055849, -24.21096443], [-48.13998801, -24.21082848], [-48.13944821, -24.2105428], [-48.13896802, -24.21003283], [-48.13865163, -24.20952592], [-48.1385553, -24.20894802], [-48.13868128, -24.20819896], [-48.13910864, -24.20740547], [-48.13938364, -24.20670929], [-48.1396678, -24.20621371], [-48.13987175, -24.20564141], [-48.14024002, -24.2050472], [-48.1407693, -24.20458122], [-48.14133964, -24.20425404], [-48.14204147, -24.20390347], [-48.14257436, -24.2032375], [-48.14291376, -24.20257853], [-48.14326582, -24.20162237], [-48.1434725, -24.20092492], [-48.14351375, -24.2002995], [-48.14347894, -24.20002331], [-48.14344415, -24.19974714], [-48.14323177, -24.1992513], [-48.1430548, -24.19883812], [-48.1426724, -24.19822979], [-48.14254821, -24.19767641], [-48.14249424, -24.19706794], [-48.14236335, -24.19617007], [-48.14218681, -24.19551552], [-48.14173898, -24.19478074], [-48.14136467, -24.19442303], [-48.14084996, -24.19423805], [-48.14022218, -24.19422626], [-48.1395342, -24.19446381], [-48.13889915, -24.1947775], [-48.13823792, -24.19504061], [-48.13766194, -24.19515502], [-48.13694526, -24.19506477], [-48.13641305, -24.19483096], [-48.13559979, -24.1945652], [-48.1351642, -24.1945069], [-48.1340724, -24.19448635], [-48.13322567, -24.19449548], [-48.13256444, -24.19475854], [-48.13170652, -24.19526839], [-48.13080763, -24.19577746], [-48.12998445, -24.19630869], [-48.12912693, -24.1964471], [-48.12833536, -24.19643218], [-48.12732488, -24.19643816], [-48.1265004, -24.1966731], [-48.12559349, -24.19693149], [-48.12460747, -24.19706315], [-48.12378973, -24.19699762], [-48.12340563, -24.19683508], [-48.12289011, -24.19644461], [-48.12233271, -24.19597321], [-48.12186042, -24.19560361], [-48.1211907, -24.19527034], [-48.12064796, -24.1951198], [-48.12006199, -24.19494842], [-48.1192599, -24.19467278], [-48.11867168, -24.19460151], [-48.11821315, -24.19459284], [-48.1176218, -24.1946618], [-48.11717831, -24.19495396], [-48.11670804, -24.19546605], [-48.11645252, -24.19614249], [-48.11617334, -24.19689865], [-48.11591375, -24.19775536], [-48.11563594, -24.19845143], [-48.11534033, -24.1989668], [-48.11500513, -24.19930111], [-48.11451886, -24.19955238], [-48.11357808, -24.19961471], [-48.1127242, -24.19969871], [-48.11233531, -24.19972022], [-48.11191489, -24.19974346], [-48.1108986, -24.19976427], [-48.10995647, -24.19988665], [-48.10909942, -24.20011083], [-48.10821736, -24.20047479], [-48.10731166, -24.20091846], [-48.10667298, -24.20114678], [-48.10590418, -24.20133255], [-48.10502617, -24.20151623], [-48.104198, -24.2016798], [-48.10348181, -24.20182647], [-48.10286022, -24.20176601], [-48.10218425, -24.20160243], [-48.10133396, -24.20152612], [-48.10052374, -24.20161088], [-48.09924085, -24.20182689], [-48.09812183, -24.20188014], [-48.09719866, -24.20169111], [-48.09636718, -24.2013666], [-48.09595218, -24.20138349], [-48.09529842, -24.2013109], [-48.09452525, -24.2011648], [-48.09408422, -24.20090702], [-48.09393612, -24.20069378], [-48.09378804, -24.20048056], [-48.09356241, -24.19983507], [-48.09351143, -24.19919289], [-48.09348458, -24.198451], [-48.0934145, -24.19768823], [-48.09337854, -24.19734689], [-48.0931247, -24.19698137], [-48.09273893, -24.1966534], [-48.09259379, -24.19630998], [-48.0926047, -24.19582931], [-48.09285673, -24.19531314], [-48.09339077, -24.19488249], [-48.09403398, -24.19445395], [-48.09433293, -24.1941836], [-48.09443403, -24.19396896], [-48.09444594, -24.19380897], [-48.09422294, -24.19360156], [-48.09388066, -24.19350925], [-48.09329156, -24.19347798], [-48.09228307, -24.19363905], [-48.09147562, -24.19377579], [-48.09091566, -24.19376509], [-48.0905083, -24.19381917], [-48.09045435, -24.19386664], [-48.09028389, -24.19401663], [-48.09017165, -24.19435357], [-48.08957656, -24.19565227], [-48.08904678, -24.19628751], [-48.08876622, -24.1965035], [-48.08816427, -24.19679091], [-48.087881, -24.196885], [-48.08754455, -24.19706473], [-48.08732721, -24.19731701], [-48.08717738, -24.19763264], [-48.08656726, -24.19859269], [-48.08601379, -24.19912851], [-48.08584079, -24.19936737], [-48.08572108, -24.19948443], [-48.08555388, -24.19964653], [-48.08538984, -24.19977252], [-48.0850602, -24.20013285], [-48.084871, -24.20023622], [-48.08403675, -24.20044627], [-48.08369117, -24.20058082], [-48.08342782, -24.20078783], [-48.08318704, -24.2010626], [-48.08297755, -24.20116139], [-48.08278437, -24.2011609], [-48.0826135, -24.20110628], [-48.08241282, -24.20094324], [-48.08221722, -24.20072154], [-48.08202194, -24.20060365], [-48.08182967, -24.2005991], [-48.08159438, -24.20059353], [-48.08129673, -24.20075076], [-48.08103819, -24.20099841], [-48.08049514, -24.20133109], [-48.08002383, -24.20153755], [-48.07985402, -24.20154163], [-48.07959564, -24.20153192], [-48.07946226, -24.20149545], [-48.07568669, -24.20600026], [-48.07529662, -24.20659516], [-48.07506871, -24.20688351], [-48.07452122, -24.20744188], [-48.07343048, -24.20838708], [-48.07199533, -24.20947585], [-48.07078655, -24.21057872], [-48.06959928, -24.21147852], [-48.06892632, -24.21181987], [-48.06861291, -24.21188672], [-48.06812797, -24.21192157], [-48.06785305, -24.21188473], [-48.0675542, -24.21182074], [-48.06740968, -24.21179777], [-48.06732968, -24.21180207], [-48.06721378, -24.21187851], [-48.06680889, -24.2120806], [-48.06648086, -24.21229641], [-48.06625858, -24.21254413], [-48.06611821, -24.21276045], [-48.0660666, -24.21293638], [-48.06603674, -24.2142094], [-48.06597747, -24.21465617], [-48.06582036, -24.21511174], [-48.06570105, -24.21528749], [-48.06531087, -24.21570178], [-48.06465782, -24.21615148], [-48.06436943, -24.21628615], [-48.06416677, -24.21635333], [-48.06402024, -24.21638003], [-48.0639051, -24.21640681], [-48.06379511, -24.21635685], [-48.06370779, -24.21633856], [-48.06341919, -24.21634681], [-48.06322208, -24.21641401], [-48.06285343, -24.21662973], [-48.06252338, -24.21689067], [-48.06215989, -24.21742242], [-48.06203892, -24.21753946], [-48.06152598, -24.21785411], [-48.06137654, -24.21802075], [-48.06125689, -24.21810168], [-48.06120344, -24.2182731], [-48.06098746, -24.21865624], [-48.0607127, -24.21894894], [-48.06042592, -24.21915583], [-48.06004131, -24.21935345], [-48.0597057, -24.21944282], [-48.0590803, -24.21950435], [-48.05854898, -24.21959772], [-48.0574245, -24.21968042], [-48.0563636, -24.21989426], [-48.05607812, -24.21988445], [-48.05584081, -24.21982061], [-48.05563384, -24.21969816], [-48.05529993, -24.21963403], [-48.0550425, -24.21969654], [-48.05478852, -24.21984031], [-48.05469524, -24.21995743], [-48.0546672, -24.2200612], [-48.0546451, -24.22079697], [-48.05489592, -24.2220166], [-48.0549188, -24.22254938], [-48.05489078, -24.22303687], [-48.05485272, -24.22319476], [-48.05485209, -24.22319928], [-48.0548754, -24.22379525], [-48.05491832, -24.22403013], [-48.05527621, -24.22486176], [-48.05535266, -24.22520056], [-48.05533516, -24.22545105], [-48.05531201, -24.22578282], [-48.05527757, -24.22594814], [-48.05519449, -24.22634681], [-48.05503008, -24.22679759], [-48.05497407, -24.22695115], [-48.05491233, -24.22720831], [-48.05477341, -24.22754202], [-48.05453815, -24.22797024], [-48.05449985, -24.2280198], [-48.05462849, -24.22797916], [-48.05468404, -24.22796162], [-48.05487912, -24.22786283], [-48.0550742, -24.22776405], [-48.05519342, -24.22773575], [-48.05531869, -24.22770602], [-48.0561846, -24.22767676], [-48.05734357, -24.22741807], [-48.05766608, -24.22739638], [-48.0579872, -24.22742434], [-48.05856087, -24.22775544], [-48.05895073, -24.22785132], [-48.05928179, -24.2278567], [-48.05996788, -24.22806173], [-48.06049153, -24.22807216], [-48.06112313, -24.22799711], [-48.06184685, -24.22778686], [-48.06226797, -24.22772029], [-48.06269007, -24.22759549], [-48.06282787, -24.22755475], [-48.06297557, -24.22755062], [-48.0631435, -24.22757366], [-48.06332165, -24.2274748], [-48.0634406, -24.22741212], [-48.06351765, -24.22737152], [-48.06366445, -24.22726354], [-48.06401219, -24.22705228], [-48.06410513, -24.22701471], [-48.0641342, -24.22700296], [-48.06433018, -24.2269772], [-48.06463899, -24.2269366], [-48.06521618, -24.22694716], [-48.06530186, -24.22692422], [-48.06536644, -24.22690693], [-48.06571234, -24.22687311], [-48.06595063, -24.22684979], [-48.06626591, -24.2267784], [-48.06699324, -24.22678485], [-48.06722591, -24.22675838], [-48.06736387, -24.22670698], [-48.06745449, -24.2266732], [-48.06765114, -24.22656537], [-48.06784778, -24.22645757], [-48.06800835, -24.22635168], [-48.06819556, -24.22622823], [-48.06855085, -24.22605639], [-48.06864113, -24.22601271], [-48.06929943, -24.22586096], [-48.0695793, -24.22582906], [-48.06984113, -24.22579921], [-48.07004731, -24.22574587], [-48.07051489, -24.22562489], [-48.07173609, -24.22512247], [-48.0721123, -24.22498632], [-48.07234291, -24.22490286], [-48.07239716, -24.22487649], [-48.07245383, -24.22484898], [-48.07254687, -24.22484406], [-48.0726163, -24.22484037], [-48.07269118, -24.22481726], [-48.07277585, -24.22479113], [-48.0730688, -24.22457972], [-48.07332876, -24.22428693], [-48.07348801, -24.22393524], [-48.0734554, -24.22361494], [-48.07344201, -24.22348367], [-48.07345769, -24.22319026], [-48.07367678, -24.22278905], [-48.07380505, -24.22269046], [-48.07395188, -24.22257759], [-48.07427518, -24.22238947], [-48.07449252, -24.22226299], [-48.07473996, -24.22203791], [-48.08300658, -24.23617601], [-48.08335928, -24.23624103], [-48.08340392, -24.23624924], [-48.08351284, -24.23628963], [-48.08366148, -24.23634471], [-48.08415978, -24.2366033], [-48.08436669, -24.23676185], [-48.08454181, -24.23685031], [-48.08471694, -24.23693879], [-48.08497708, -24.23699364], [-48.08508797, -24.2369901], [-48.08524052, -24.23698524], [-48.08540972, -24.23693318], [-48.08542963, -24.23692706], [-48.08597456, -24.23662145], [-48.08631347, -24.2363205], [-48.08656261, -24.23609928], [-48.08673125, -24.23590596], [-48.08699489, -24.23560379], [-48.08706964, -24.23548008], [-48.08710929, -24.23541446], [-48.08711242, -24.23540995], [-48.08736224, -24.23520745], [-48.08746073, -24.23519414], [-48.08767287, -24.23525335], [-48.08795782, -24.23524506], [-48.08933455, -24.2350228], [-48.09008527, -24.23500027], [-48.09058327, -24.23498531], [-48.09090304, -24.23500416], [-48.09154255, -24.23504188], [-48.0916567, -24.23503765], [-48.09177085, -24.23503342], [-48.09261554, -24.23512131], [-48.0928732, -24.2351321], [-48.09330286, -24.23515011], [-48.09395066, -24.23522396], [-48.09398081, -24.23522403], [-48.1021663, -24.23792479], [-48.10517484, -24.2392779], [-48.10524758, -24.23948622], [-48.10538483, -24.23960808], [-48.10548208, -24.23969445], [-48.1055593, -24.23973076], [-48.10571379, -24.23980336], [-48.10579462, -24.23982604], [-48.10592471, -24.23986254], [-48.10682405, -24.24000015], [-48.1070522, -24.24006842], [-48.10738941, -24.24028592], [-48.10754727, -24.2404409], [-48.10758764, -24.24048053], [-48.10767017, -24.24053505], [-48.10779342, -24.24061644], [-48.10803015, -24.24090593], [-48.10838526, -24.24134019], [-48.1090098, -24.24224006], [-48.10954592, -24.24285982], [-48.10962315, -24.24294919], [-48.10968273, -24.24301813], [-48.1099272, -24.24318124], [-48.11014172, -24.24329414], [-48.11029773, -24.24337625], [-48.11082278, -24.24356712], [-48.11135933, -24.24360451], [-48.11147226, -24.2435922], [-48.11156188, -24.2435824], [-48.11193481, -24.24358783], [-48.11211698, -24.24358824], [-48.11322445, -24.24369922], [-48.11368943, -24.24380417], [-48.11387683, -24.24386587], [-48.11414505, -24.2439542], [-48.11436875, -24.24406309], [-48.11452394, -24.24425757], [-48.11478277, -24.24478637], [-48.11519449, -24.24611007], [-48.11561545, -24.24677017], [-48.11664339, -24.24804114], [-48.1167082, -24.24815198], [-48.11685473, -24.24840279], [-48.11695027, -24.24856554], [-48.11700091, -24.24872365], [-48.11702343, -24.24903971], [-48.11693385, -24.24916138], [-48.11683282, -24.24940945], [-48.11678603, -24.24963955], [-48.11685037, -24.25040267], [-48.11682189, -24.2504658], [-48.11680732, -24.25049186], [-48.1167866, -24.25052891], [-48.11678632, -24.25063274], [-48.11686232, -24.25079311], [-48.11689342, -24.25085873], [-48.11705529, -24.25114626], [-48.11745072, -24.25184868], [-48.11753344, -24.25195264], [-48.11758749, -24.25202055], [-48.11844092, -24.25277196], [-48.11871053, -24.25320141], [-48.11869544, -24.25332329], [-48.11877734, -24.25440694], [-48.11874204, -24.2547093], [-48.1186633, -24.25492131], [-48.11856077, -24.25505199], [-48.11832032, -24.25520039], [-48.11821448, -24.25523903], [-48.11809911, -24.25528114], [-48.11791774, -24.25530101], [-48.11781652, -24.25531206], [-48.11731536, -24.25529321], [-48.11705032, -24.25528321], [-48.11702305, -24.25528474], [-48.11697338, -24.25528753], [-48.11613861, -24.25534877], [-48.11532626, -24.25531075], [-48.1150436, -24.25536425], [-48.11484014, -24.25547664], [-48.11467979, -24.25560269], [-48.11427333, -24.25612537], [-48.11399529, -24.25637286], [-48.11371183, -24.25662514], [-48.11352725, -24.256828], [-48.11346178, -24.25689993], [-48.11324274, -24.25730571], [-48.1129664, -24.25795513], [-48.11269729, -24.25844204], [-48.11264478, -24.25850963], [-48.1118725, -24.25953256], [-48.11157059, -24.2598614], [-48.11153652, -24.25989132], [-48.11145273, -24.25996495], [-48.11141633, -24.25998064], [-48.11133812, -24.26001434], [-48.11114469, -24.26028473], [-48.11087443, -24.26055484], [-48.11078421, -24.26064504], [-48.11010867, -24.26118966], [-48.11005491, -24.26126195], [-48.10995111, -24.26140146], [-48.10980842, -24.26179838], [-48.10978897, -24.26193067], [-48.10976198, -24.26211427], [-48.10979506, -24.26237328], [-48.10980353, -24.26243942], [-48.1099003, -24.26259765], [-48.1102171, -24.26331617], [-48.11048479, -24.2637773], [-48.11052894, -24.2638406], [-48.11087982, -24.26426127], [-48.11116641, -24.26469803], [-48.11123284, -24.26479931], [-48.11151084, -24.26531011], [-48.14087832, -24.25533443], [-48.16682153, -24.32001813], [-48.11670471, -24.33706346], [-48.1154592, -24.33945868], [-48.11535286, -24.33988556], [-48.11535628, -24.34003562], [-48.11536146, -24.34026334], [-48.11552812, -24.34048676], [-48.11584999, -24.34068171], [-48.11644471, -24.34096051], [-48.11690175, -24.3412524], [-48.11716965, -24.34155644], [-48.11724831, -24.34177892], [-48.1171804, -24.34371316], [-48.11711587, -24.34555061], [-48.11731004, -24.34557354], [-48.11756268, -24.34552449], [-48.11791723, -24.34538087], [-48.1182048, -24.3451784], [-48.11853596, -24.34480903], [-48.11860918, -24.34474553], [-48.11873846, -24.34463346], [-48.11890167, -24.34440829], [-48.11927061, -24.34418794], [-48.1196203, -24.34405562], [-48.11980456, -24.3439859], [-48.12018557, -24.34396285], [-48.1202434, -24.34397918], [-48.12053076, -24.34406034], [-48.12095761, -24.34420484], [-48.12141959, -24.3442591], [-48.12174282, -24.34423112], [-48.12185055, -24.3442218], [-48.1219714, -24.34418452], [-48.12226703, -24.34409331], [-48.12230844, -24.34405641], [-48.12248695, -24.34389731], [-48.12253431, -24.34382252], [-48.12259828, -24.34372151], [-48.12268421, -24.34367001], [-48.12278583, -24.3436091], [-48.12371863, -24.34325463], [-48.12390313, -24.34312412], [-48.12397454, -24.34301887], [-48.12401321, -24.34296189], [-48.1240145, -24.34271812], [-48.12396703, -24.34260607], [-48.12389577, -24.34243798], [-48.12383802, -24.34239123], [-48.12378394, -24.34234744], [-48.12349167, -24.34224294], [-48.12337121, -24.34217445], [-48.12326846, -24.34211604], [-48.12321411, -24.34194888], [-48.12326166, -24.34189934], [-48.12330199, -24.34188033], [-48.1233474, -24.3418589], [-48.12346307, -24.34182134], [-48.12362355, -24.34176926], [-48.12370569, -24.3416882], [-48.12376111, -24.34146261], [-48.1237485, -24.3413854], [-48.12372055, -24.34121424], [-48.12373978, -24.34108187], [-48.12374939, -24.34101568], [-48.12399233, -24.34069122], [-48.12403833, -24.34060599], [-48.12409238, -24.34050585], [-48.21151686, -24.33778717], [-48.21112305, -24.32654152], [-48.21088618, -24.31977872], [-48.25093432, -24.31873846], [-48.30795254, -24.31728643], [-48.3584792, -24.3159817], [-48.36209666, -24.42206829], [-48.36130128, -24.4228414], [-48.36077102, -24.42335682], [-48.36054349, -24.42360299], [-48.35996928, -24.42422433], [-48.35987816, -24.42432293], [-48.35884203, -24.42558336], [-48.35816459, -24.42636041], [-48.35799901, -24.42655036], [-48.35788102, -24.42684802], [-48.35764747, -24.42743726], [-48.35763522, -24.42746819], [-48.35763053, -24.42747996], [-48.35756827, -24.42789186], [-48.35748591, -24.42843633], [-48.35753404, -24.42971567], [-48.35759204, -24.43005648], [-48.3577562, -24.43102091], [-48.35784078, -24.43183602], [-48.35792232, -24.43262194], [-48.3578855, -24.43319207], [-48.35784867, -24.43376219], [-48.35762441, -24.43435185], [-48.35719112, -24.43480091], [-48.35641453, -24.43496997], [-48.35548833, -24.43485753], [-48.35412773, -24.43469498], [-48.35337412, -24.43463835], [-48.35305543, -24.4346144], [-48.35243765, -24.43459179], [-48.35185934, -24.43457063], [-48.35146883, -24.43460344], [-48.35096003, -24.43464618], [-48.34995622, -24.43494824], [-48.34929854, -24.4353933], [-48.34903552, -24.4356563], [-48.34877248, -24.43591929], [-48.34849853, -24.43655102], [-48.34845398, -24.4366537], [-48.34833846, -24.43718007], [-48.34830507, -24.43762946], [-48.34826903, -24.4381149], [-48.34811034, -24.43861427], [-48.34800208, -24.43895497], [-48.34789161, -24.43917534], [-48.34755964, -24.43983758], [-48.34726787, -24.44077497], [-48.34719303, -24.44186305], [-48.34730096, -24.44266402], [-48.34759393, -24.44355955], [-48.3476713, -24.44371375], [-48.34792911, -24.44422747], [-48.34811959, -24.44453597], [-48.34824267, -24.44473528], [-48.3488324, -24.44515656], [-48.34950121, -24.44537377], [-48.35034645, -24.44550275], [-48.35091461, -24.4456816], [-48.35111452, -24.44574453], [-48.35148322, -24.44600211], [-48.35184714, -24.44648793], [-48.3520341, -24.44701404], [-48.35204707, -24.44758337], [-48.35182769, -24.44861082], [-48.35173783, -24.44887593], [-48.35153533, -24.44947326], [-48.35132002, -24.44979177], [-48.35112353, -24.45008247], [-48.35058279, -24.45089487], [-48.35024006, -24.45177926], [-48.35014903, -24.45255389], [-48.35029681, -24.45344798], [-48.35046703, -24.45404343], [-48.35062425, -24.45441023], [-48.3508713, -24.45498659], [-48.35108709, -24.45540132], [-48.35130287, -24.45581606], [-48.35140844, -24.45673111], [-48.35135295, -24.4581913], [-48.35141485, -24.45880882], [-48.35147674, -24.45942631], [-48.3517538, -24.45994263], [-48.35188486, -24.46018687], [-48.35198485, -24.46030276], [-48.35244496, -24.46083595], [-48.35302103, -24.46119249], [-48.35335603, -24.46139984], [-48.35446372, -24.46210414], [-48.35539928, -24.46269129], [-48.35572759, -24.46283205], [-48.35610269, -24.46299288], [-48.35684398, -24.46309406], [-48.3574089, -24.4632059], [-48.35775867, -24.4634629], [-48.35821947, -24.46381118], [-48.35906861, -24.46435362], [-48.3596829, -24.46479814], [-48.35976807, -24.46489626], [-48.3601457, -24.46533134], [-48.36077021, -24.46648379], [-48.36131942, -24.46765773], [-48.36173216, -24.46836693], [-48.36228198, -24.46874758], [-48.36331735, -24.46933643], [-48.36452873, -24.46985984], [-48.36587048, -24.47011156], [-48.36761072, -24.47039303], [-48.36834231, -24.47063373], [-48.36886214, -24.47112128], [-48.36916126, -24.47140178], [-48.37078472, -24.47250309], [-48.37172327, -24.47295321], [-48.37259225, -24.47315097], [-48.37358875, -24.47321397], [-48.37388833, -24.47320352], [-48.37489929, -24.47316827], [-48.37559799, -24.47315758], [-48.37641709, -24.47335446], [-48.37693555, -24.47361461], [-48.37757348, -24.47412796], [-48.3782321, -24.47484714], [-48.37935932, -24.47582561], [-48.37980186, -24.47613392], [-48.38036754, -24.47652802], [-48.38060343, -24.47675379], [-48.38120375, -24.47732838], [-48.38171401, -24.4777614], [-48.38300831, -24.47910803], [-48.38450308, -24.48041247], [-48.3854869, -24.4810916], [-48.38625621, -24.48128756], [-48.38662281, -24.48129391], [-48.38690458, -24.4812988], [-48.38734768, -24.48119296], [-48.38770683, -24.48110718], [-48.38863196, -24.48091292], [-48.38952238, -24.48077329], [-48.39034439, -24.48083318], [-48.39102084, -24.48097323], [-48.39200629, -24.48129569], [-48.39216672, -24.48139465], [-48.39284383, -24.48181243], [-48.39360516, -24.48239633], [-48.39396231, -24.4829593], [-48.3940884, -24.48315811], [-48.39430015, -24.48377818], [-48.39418441, -24.48455245], [-48.39379481, -24.48529913], [-48.39344623, -24.48568614], [-48.39320755, -24.48595109], [-48.39234974, -24.48641573], [-48.39192891, -24.48653916], [-48.39132065, -24.48671757], [-48.39081125, -24.48685265], [-48.39059319, -24.48691047], [-48.39031869, -24.48716754], [-48.39038983, -24.48742489], [-48.39042988, -24.48756976], [-48.3906572, -24.48786108], [-48.39106182, -24.48837975], [-48.39184607, -24.48899582], [-48.39219113, -24.48926685], [-48.3958185, -24.48983214], [-48.39804136, -24.48972962], [-48.40159063, -24.48956592], [-48.4021688, -24.49031024], [-48.40323202, -24.49167893], [-48.40411221, -24.49247888], [-48.40515339, -24.49303189], [-48.40582436, -24.49342428], [-48.40634756, -24.49373023], [-48.40778945, -24.493755], [-48.40950999, -24.49349916], [-48.41320309, -24.49209986], [-48.41679686, -24.49276597], [-48.42067161, -24.49348406], [-48.4276522, -24.49292319], [-48.42797346, -24.49289737], [-48.42798829, -24.49289616], [-48.4299618, -24.49004856], [-48.43000789, -24.49003779], [-48.43038576, -24.49061283], [-48.43064218, -24.49106848], [-48.43089376, -24.49164139], [-48.43098264, -24.49195631], [-48.4310243, -24.49210392], [-48.43115448, -24.49267476], [-48.43140666, -24.49324768], [-48.43166214, -24.49347766], [-48.43216155, -24.49359446], [-48.4324129, -24.49381536], [-48.43266907, -24.4941627], [-48.4330463, -24.49462041], [-48.43317243, -24.49496552], [-48.43342852, -24.49519551], [-48.43368072, -24.49576843], [-48.4340584, -24.49599145], [-48.43431335, -24.49633879], [-48.43469163, -24.49656182], [-48.43531672, -24.49656343], [-48.43569404, -24.49656082], [-48.43619367, -24.49666859], [-48.43669654, -24.49701108], [-48.43719994, -24.49723625], [-48.43757807, -24.49746831], [-48.43782932, -24.49781556], [-48.43808623, -24.49803653], [-48.43824956, -24.49818603], [-48.43843214, -24.49861894], [-48.43852317, -24.49900218], [-48.43865357, -24.49955122], [-48.43885413, -24.50096384], [-48.43970577, -24.50537668], [-48.44045448, -24.50925609], [-48.44741599, -24.51124231], [-48.44752662, -24.51131908], [-48.44780613, -24.5116938], [-48.44785425, -24.51170284], [-48.4479319, -24.51177959], [-48.44808009, -24.5118343], [-48.44817669, -24.51186994], [-48.44852142, -24.51188284], [-48.44890706, -24.51189725], [-48.44908421, -24.51193818], [-48.44920058, -24.51196505], [-48.44970917, -24.5123263], [-48.45009308, -24.51255658], [-48.45098903, -24.51309398], [-48.45158561, -24.51351028], [-48.45256789, -24.51419577], [-48.45317731, -24.51458409], [-48.45333564, -24.51473534], [-48.45348924, -24.51488208], [-48.4536919, -24.51515154], [-48.45387633, -24.51539675], [-48.45401998, -24.51569826], [-48.45431077, -24.5163086], [-48.45476625, -24.51701285], [-48.45498965, -24.51725195], [-48.45515429, -24.51742819], [-48.45526968, -24.51749742], [-48.45550048, -24.5176359], [-48.45614698, -24.51786628]]]]}}]}