{"type": "FeatureCollection", "features": [{"type": "Feature", "properties": {"name": "Parque Estadual Jaraguá"}, "geometry": {"type": "MultiPolygon", "coordinates": [[[[-46.76579566, -23.47695832], [-46.76595559, -23.47690873], [-46.76605867, -23.47686933], [-46.76615113, -23.47681094], [-46.76619181, -23.47675314], [-46.76619117, -23.47670536], [-46.7661544, -23.47666755], [-46.76603836, -23.47651118], [-46.76603254, -23.47646347], [-46.76607655, -23.47626705], [-46.76609517, -23.47610916], [-46.76610285, -23.47590838], [-46.76610752, -23.4758701], [-46.76613329, -23.47586025], [-46.76615401, -23.47586002], [-46.76626424, -23.47596867], [-46.7662856, -23.47601621], [-46.76633317, -23.47608735], [-46.76640088, -23.47611525], [-46.76650933, -23.47609013], [-46.76664406, -23.47609338], [-46.76730261, -23.47614326], [-46.76752034, -23.47615512], [-46.76763978, -23.47617766], [-46.76773883, -23.47622432], [-46.76780692, -23.47628089], [-46.76788014, -23.47633262], [-46.76792125, -23.47630826], [-46.76795182, -23.47626969], [-46.76801378, -23.47625465], [-46.76813758, -23.47621502], [-46.76819846, -23.47611876], [-46.76836062, -23.47604286], [-46.76843749, -23.47597987], [-46.76847822, -23.47592684], [-46.76847784, -23.47589818], [-46.76845674, -23.47586975], [-46.76844075, -23.47583648], [-46.76843999, -23.47577915], [-46.76848053, -23.47571179], [-46.76852133, -23.47566354], [-46.76859327, -23.47561972], [-46.76863944, -23.47558575], [-46.7686546, -23.47555691], [-46.76864347, -23.47549969], [-46.76864782, -23.47543752], [-46.76866797, -23.47539429], [-46.76874975, -23.47531213], [-46.76881632, -23.47525403], [-46.76888832, -23.47521499], [-46.76901218, -23.47518014], [-46.76909486, -23.47516486], [-46.76914608, -23.47512128], [-46.76916086, -23.47506377], [-46.76918081, -23.4750062], [-46.76926215, -23.4748906], [-46.76932846, -23.47481339], [-46.76934835, -23.47475105], [-46.76941415, -23.47463562], [-46.76948021, -23.4745393], [-46.76955688, -23.47446198], [-46.7696597, -23.47440347], [-46.76978043, -23.47432804], [-46.76982647, -23.47428451], [-46.76991375, -23.47422618], [-46.77000602, -23.47415345], [-46.77005168, -23.47408126], [-46.77011825, -23.47402316], [-46.77020093, -23.47400789], [-46.77023635, -23.47394537], [-46.77029224, -23.4738635], [-46.77037914, -23.4737765], [-46.77041962, -23.47370437], [-46.77041885, -23.47364704], [-46.77043906, -23.47360858], [-46.77045978, -23.47360835], [-46.77049124, -23.47363666], [-46.77055876, -23.47365023], [-46.77066216, -23.47363472], [-46.77074458, -23.47360033], [-46.77077022, -23.47358093], [-46.77084836, -23.47361349], [-46.77098845, -23.47363101], [-46.77110758, -23.47362966], [-46.77118488, -23.47360011], [-46.77130893, -23.47357959], [-46.77143861, -23.47359245], [-46.77152218, -23.47364406], [-46.77160089, -23.47371962], [-46.77161201, -23.47377683], [-46.77158688, -23.47383446], [-46.77159276, -23.47388695], [-46.77162422, -23.47391527], [-46.77167614, -23.47392423], [-46.77184089, -23.47392051], [-46.77227223, -23.47370996], [-46.77645907, -23.47206753], [-46.77787592, -23.4714959], [-46.77817116, -23.47130139], [-46.77847807, -23.47101119], [-46.77872008, -23.47070978], [-46.77893475, -23.47030118], [-46.77900795, -23.46996586], [-46.7790284, -23.46955946], [-46.77898459, -23.46918964], [-46.7788635, -23.46885057], [-46.7780623, -23.46704393], [-46.77784028, -23.46645845], [-46.77781414, -23.46635474], [-46.7777862, -23.46620215], [-46.77776196, -23.46593962], [-46.77776624, -23.46567915], [-46.77778913, -23.4654543], [-46.7778636, -23.46515931], [-46.77798162, -23.46488862], [-46.77814164, -23.46461306], [-46.77820407, -23.46451765], [-46.77817321, -23.46451019], [-46.77728984, -23.46414564], [-46.77693046, -23.46392037], [-46.77667891, -23.46370152], [-46.77635257, -23.46346824], [-46.77615922, -23.46326401], [-46.77599769, -23.46296004], [-46.77600731, -23.46274968], [-46.77571914, -23.4622713], [-46.7754371, -23.4616323], [-46.77530537, -23.45828895], [-46.77526579, -23.45687883], [-46.77515616, -23.45425772], [-46.7750369, -23.45423784], [-46.77506228, -23.45413634], [-46.77520116, -23.45399745], [-46.77520116, -23.45380301], [-46.77506227, -23.45383079], [-46.77492338, -23.45377523], [-46.77470103, -23.45374743], [-46.77434005, -23.4536919], [-46.77397894, -23.4536919], [-46.77369997, -23.45366518], [-46.77319885, -23.45352493], [-46.77281227, -23.45333079], [-46.77242342, -23.45316413], [-46.77167339, -23.4529419], [-46.77164561, -23.4529419], [-46.77147894, -23.45291412], [-46.77125671, -23.45296968], [-46.77111783, -23.45299745], [-46.77100672, -23.45299745], [-46.77084037, -23.45305425], [-46.77064561, -23.45302523], [-46.77067338, -23.45308079], [-46.77053449, -23.45308079], [-46.77028449, -23.45310856], [-46.77020116, -23.45310856], [-46.77017338, -23.4531919], [-46.76979083, -23.45211681], [-46.76971551, -23.45081795], [-46.7696223, -23.4494199], [-46.76903743, -23.44905955], [-46.76829555, -23.44873156], [-46.76779324, -23.44834734], [-46.76739056, -23.44797728], [-46.76713824, -23.44769726], [-46.76685459, -23.44911105], [-46.7662498, -23.4519783], [-46.76475332, -23.45187189], [-46.7640554, -23.45173452], [-46.76374833, -23.45169976], [-46.76349137, -23.45169502], [-46.76249842, -23.45180563], [-46.76158363, -23.45187331], [-46.76105078, -23.45199783], [-46.76029922, -23.4521898], [-46.75987214, -23.45310442], [-46.75926763, -23.45438803], [-46.75876025, -23.45518505], [-46.75700613, -23.45789601], [-46.7568403, -23.45789023], [-46.75662578, -23.45796146], [-46.7565696, -23.45809971], [-46.75643884, -23.4582388], [-46.7561077, -23.45826546], [-46.75587095, -23.45853572], [-46.75557311, -23.45873021], [-46.75491515, -23.45911033], [-46.75471975, -23.45921765], [-46.75403918, -23.45945467], [-46.75379701, -23.45952917], [-46.75375934, -23.45954938], [-46.75350411, -23.45972828], [-46.75338061, -23.45988583], [-46.75329178, -23.46012249], [-46.75327359, -23.46031383], [-46.75331918, -23.46062869], [-46.75339065, -23.46105319], [-46.75342205, -23.46117398], [-46.75351526, -23.46125406], [-46.75360132, -23.46209577], [-46.75358604, -23.46229015], [-46.75355182, -23.46253577], [-46.7538492, -23.4628978], [-46.7538146, -23.46298042], [-46.75363209, -23.46320967], [-46.75365824, -23.46329825], [-46.75374986, -23.46348155], [-46.75388452, -23.46368083], [-46.75398224, -23.46378507], [-46.75406099, -23.46380393], [-46.7543943, -23.46391539], [-46.75465213, -23.46398491], [-46.75479554, -23.46403596], [-46.75478539, -23.46390402], [-46.75484247, -23.46381379], [-46.75499634, -23.46369857], [-46.75503702, -23.4636803], [-46.75533685, -23.46357124], [-46.75567985, -23.46351845], [-46.75598205, -23.46350819], [-46.75614368, -23.46353769], [-46.7564744, -23.46351831], [-46.75669158, -23.46349727], [-46.75695998, -23.46341791], [-46.75725675, -23.46339891], [-46.75747745, -23.46340229], [-46.75766106, -23.46340903], [-46.75804144, -23.46345563], [-46.75853967, -23.46318872], [-46.75882084, -23.46311314], [-46.75906127, -23.46316523], [-46.7591885, -23.46315988], [-46.75932214, -23.46315837], [-46.75959812, -23.46317091], [-46.75926675, -23.46733087], [-46.75756796, -23.46567237], [-46.75632604, -23.46503232], [-46.75646645, -23.46683458], [-46.75657753, -23.46691098], [-46.75668261, -23.46702328], [-46.75673567, -23.46711825], [-46.75673701, -23.46721978], [-46.75664062, -23.46727462], [-46.75654485, -23.46737724], [-46.75648185, -23.46750935], [-46.75644491, -23.46765312], [-46.75642122, -23.46782063], [-46.75643086, -23.46805944], [-46.75647208, -23.46823817], [-46.75648525, -23.46839285], [-46.75647815, -23.46847622], [-46.75649606, -23.46858959], [-46.75655452, -23.46866465], [-46.75654761, -23.46876316], [-46.75659765, -23.46882317], [-46.75659896, -23.46892159], [-46.75657564, -23.46902029], [-46.75658475, -23.46908834], [-46.75662659, -23.46914844], [-46.7566443, -23.46924667], [-46.75664701, -23.46945108], [-46.75672268, -23.46958652], [-46.75673229, -23.46969242], [-46.7566285, -23.46991317], [-46.75669586, -23.47004114], [-46.75670567, -23.47016218], [-46.75674061, -23.47032079], [-46.75674221, -23.47044192], [-46.75679256, -23.47052465], [-46.75686732, -23.47059195], [-46.75696681, -23.47066655], [-46.75700054, -23.47073432], [-46.75693579, -23.47080319], [-46.75700355, -23.47096144], [-46.75851799, -23.47189084], [-46.75857803, -23.47195811], [-46.76025996, -23.47300949], [-46.76042513, -23.47296462], [-46.76052859, -23.47295389], [-46.76062207, -23.47297195], [-46.76065896, -23.47301932], [-46.76071682, -23.47308556], [-46.76078497, -23.47314691], [-46.76092034, -23.47319795], [-46.7609312, -23.47323605], [-46.7609216, -23.4732935], [-46.76092243, -23.47335561], [-46.76097517, -23.47342669], [-46.7610379, -23.47346898], [-46.76115317, -23.47356803], [-46.76127856, -23.47364784], [-46.76135758, -23.4737473], [-46.76145668, -23.47379874], [-46.76157638, -23.47384039], [-46.7616914, -23.47392032], [-46.76181641, -23.47397147], [-46.76194122, -23.47400829], [-46.76207614, -23.47402588], [-46.76215414, -23.47404889], [-46.76233088, -23.47409467], [-46.76240907, -23.47413202], [-46.76249744, -23.47415491], [-46.76261765, -23.47423478], [-46.76267039, -23.47430586], [-46.76269162, -23.47434385], [-46.76268726, -23.47440602], [-46.76263649, -23.47448304], [-46.76260662, -23.47457417], [-46.76264868, -23.47462148], [-46.76271633, -23.47464461], [-46.7627992, -23.47464367], [-46.76285125, -23.47466219], [-46.76288821, -23.47471434], [-46.7629455, -23.47473758], [-46.76299716, -23.47472744], [-46.76304839, -23.47468386], [-46.7630998, -23.4746546], [-46.76316694, -23.47463951], [-46.76327053, -23.47463834], [-46.76334828, -23.47464224], [-46.76337961, -23.474661], [-46.76343204, -23.47470819], [-46.76349521, -23.47478393], [-46.76356343, -23.47485005], [-46.7636729, -23.47490137], [-46.76372008, -23.47494385], [-46.76381465, -23.47504312], [-46.76390953, -23.47516629], [-46.76399373, -23.47526568], [-46.76408254, -23.47532201], [-46.7641711, -23.47535924], [-46.76425941, -23.47537735], [-46.76430666, -23.4754246], [-46.76438044, -23.47551933], [-46.76443306, -23.47558086], [-46.76449974, -23.47572584], [-46.76462116, -23.47589649], [-46.76478426, -23.47608578], [-46.7648732, -23.47615167], [-46.76492045, -23.47619892], [-46.76500434, -23.47627442], [-46.76514098, -23.476421], [-46.76525089, -23.47650577], [-46.76529859, -23.47658646], [-46.76530984, -23.47665323], [-46.76538324, -23.4767193], [-46.76546125, -23.4767423], [-46.76550812, -23.47676089], [-46.7655867, -23.47682689], [-46.76570704, -23.47691632], [-46.76579566, -23.47695832]]]]}}]}