{"type": "FeatureCollection", "features": [{"type": "Feature", "properties": {"name": "Parque Estadual Águas da Billings"}, "geometry": {"type": "MultiPolygon", "coordinates": [[[[-46.53215564, -23.76852926], [-46.5321674, -23.76852875], [-46.53217891, -23.76852649], [-46.53218987, -23.76852254], [-46.53219999, -23.76851699], [-46.53220899, -23.76851001], [-46.53225792, -23.76847054], [-46.53230319, -23.76842753], [-46.5323445, -23.76838125], [-46.53240849, -23.76830328], [-46.53248484, -23.76821572], [-46.53256696, -23.76813271], [-46.53265456, -23.76805457], [-46.53274727, -23.76798162], [-46.53283794, -23.76793425], [-46.5328934, -23.76785062], [-46.53284732, -23.76784222], [-46.5327731, -23.76786936], [-46.53276757, -23.76787089], [-46.53276184, -23.76787155], [-46.53275607, -23.7678713], [-46.53275044, -23.76787016], [-46.53274509, -23.76786816], [-46.53274018, -23.76786536], [-46.53273587, -23.76786183], [-46.53273226, -23.76785769], [-46.53272946, -23.76785304], [-46.53272756, -23.76784802], [-46.53272661, -23.76784278], [-46.53272663, -23.76783747], [-46.53272763, -23.76783223], [-46.53272958, -23.76782723], [-46.53278658, -23.76770506], [-46.53280247, -23.76763953], [-46.5328144, -23.76758947], [-46.53283313, -23.76754044], [-46.53293189, -23.7674362], [-46.53296559, -23.76744412], [-46.53300493, -23.76744838], [-46.53307694, -23.76746009], [-46.53317418, -23.76722876], [-46.53323882, -23.7670791], [-46.53334859, -23.76706286], [-46.53337018, -23.76698143], [-46.53339108, -23.76688985], [-46.53342371, -23.76692596], [-46.53391954, -23.76687742], [-46.53392349, -23.76699151], [-46.53404255, -23.76696228], [-46.5339549, -23.76617498], [-46.5339119, -23.76581347], [-46.53385857, -23.76560028], [-46.5336652, -23.76520203], [-46.53363754, -23.76513674], [-46.53339172, -23.76523743], [-46.53338686, -23.76522596], [-46.53292128, -23.76546277], [-46.53288201, -23.76542342], [-46.53334008, -23.76517882], [-46.53331301, -23.76515008], [-46.5335976, -23.76502227], [-46.53336, -23.7644575], [-46.53329903, -23.76439078], [-46.53319614, -23.76423371], [-46.53278256, -23.76406799], [-46.53240904, -23.76418808], [-46.53211239, -23.76422597], [-46.53204611, -23.76418337], [-46.53180985, -23.76403151], [-46.53175261, -23.76399472], [-46.53132622, -23.76333445], [-46.53068791, -23.76292845], [-46.53063804, -23.76289426], [-46.53053531, -23.76282266], [-46.53038394, -23.76271455], [-46.53028473, -23.76264215], [-46.53009004, -23.76249703], [-46.52994697, -23.76238829], [-46.52985284, -23.76231602], [-46.52975929, -23.76224376], [-46.52962128, -23.76213669], [-46.52957563, -23.76210121], [-46.52910239, -23.76173342], [-46.52902989, -23.76167708], [-46.5289925, -23.76171783], [-46.52879833, -23.76164583], [-46.52869895, -23.76159215], [-46.5286553, -23.76155928], [-46.52861374, -23.76152798], [-46.52853352, -23.76145613], [-46.52846955, -23.76137094], [-46.52841846, -23.76129548], [-46.52835699, -23.76122981], [-46.52836661, -23.76116159], [-46.52519274, -23.75869482], [-46.52518125, -23.75874828], [-46.52517549, -23.75880252], [-46.52517634, -23.75886495], [-46.52518409, -23.75892698], [-46.52520066, -23.75899085], [-46.52522448, -23.75905079], [-46.52535234, -23.75926234], [-46.52547842, -23.75947097], [-46.5254977, -23.75951018], [-46.52551031, -23.75955496], [-46.52552944, -23.75966096], [-46.52553746, -23.75971844], [-46.52553992, -23.75975059], [-46.52554737, -23.7598881], [-46.52555174, -23.7599757], [-46.52555982, -23.76013783], [-46.52557702, -23.76020391], [-46.52574701, -23.76048844], [-46.52575174, -23.760495], [-46.52575759, -23.76050075], [-46.52576438, -23.76050554], [-46.52577195, -23.76050923], [-46.52578007, -23.76051172], [-46.52578852, -23.76051294], [-46.52579708, -23.76051286], [-46.52588089, -23.76051482], [-46.52596425, -23.76052295], [-46.52604665, -23.7605372], [-46.52612753, -23.76055748], [-46.52620639, -23.76058366], [-46.52628272, -23.76061557], [-46.52635603, -23.76065301], [-46.52642584, -23.76069574], [-46.5264917, -23.76074347], [-46.5265532, -23.76079591], [-46.52658485, -23.7608091], [-46.52671459, -23.76081668], [-46.52695726, -23.76083714], [-46.52715606, -23.7608673], [-46.52715894, -23.76086797], [-46.52716167, -23.76086906], [-46.52716417, -23.76087056], [-46.52716636, -23.76087242], [-46.52716819, -23.76087458], [-46.5271696, -23.76087699], [-46.52717057, -23.76087958], [-46.52717105, -23.76088229], [-46.52717105, -23.76088503], [-46.52717055, -23.76088773], [-46.52715607, -23.7609398], [-46.52712477, -23.76098172], [-46.52697118, -23.76108203], [-46.52693264, -23.76110304], [-46.52689087, -23.76111794], [-46.52684702, -23.76112634], [-46.52643004, -23.7611736], [-46.52633339, -23.76116965], [-46.52612329, -23.76112815], [-46.52587478, -23.76106749], [-46.52564747, -23.76100165], [-46.5255847, -23.7609868], [-46.52552056, -23.76097816], [-46.52545579, -23.76097585], [-46.5254157, -23.76097638], [-46.52539454, -23.76097818], [-46.52537393, -23.76098298], [-46.52535437, -23.76099065], [-46.52533634, -23.76100102], [-46.52532028, -23.76101384], [-46.52530657, -23.76102879], [-46.52529553, -23.76104551], [-46.52528744, -23.76106361], [-46.52523903, -23.76120154], [-46.52522411, -23.76125274], [-46.52521486, -23.76130505], [-46.52521138, -23.76135796], [-46.52521371, -23.76141092], [-46.52522182, -23.7614634], [-46.52533143, -23.76198319], [-46.52534317, -23.76205365], [-46.52534881, -23.76212473], [-46.52534834, -23.762196], [-46.52534174, -23.76226702], [-46.52532906, -23.76233733], [-46.5252876, -23.76252176], [-46.52527159, -23.76260831], [-46.52526224, -23.76269568], [-46.52525958, -23.76278344], [-46.52526364, -23.76287116], [-46.52527439, -23.76295839], [-46.52529179, -23.76304471], [-46.52531574, -23.7631297], [-46.52534612, -23.76321292], [-46.52538279, -23.76329396], [-46.52542556, -23.76337244], [-46.52547422, -23.76344795], [-46.52548032, -23.76345546], [-46.52548775, -23.76346189], [-46.52549627, -23.76346703], [-46.52550564, -23.76347073], [-46.52551556, -23.76347288], [-46.52552574, -23.76347341], [-46.52553586, -23.76347231], [-46.52554562, -23.76346961], [-46.5258507, -23.76335768], [-46.52597221, -23.76330002], [-46.52608645, -23.76323222], [-46.52614245, -23.76320163], [-46.52620075, -23.76317492], [-46.52626104, -23.76315226], [-46.52637563, -23.76311366], [-46.52642133, -23.76310181], [-46.52646846, -23.7630965], [-46.52651591, -23.76309784], [-46.52656259, -23.7631058], [-46.52669106, -23.76313721], [-46.52675273, -23.76315557], [-46.52681192, -23.76317989], [-46.52686795, -23.76320987], [-46.52700924, -23.76329507], [-46.52704249, -23.76331512], [-46.52705256, -23.76332237], [-46.52706117, -23.76333107], [-46.52706808, -23.76334098], [-46.52708248, -23.76336603], [-46.52710228, -23.763407], [-46.52711584, -23.76345006], [-46.52714332, -23.76356636], [-46.52717383, -23.76380623], [-46.5271752, -23.76384221], [-46.52716227, -23.76409971], [-46.52715531, -23.76421946], [-46.52715572, -23.76423736], [-46.52715901, -23.76425501], [-46.52717278, -23.76430584], [-46.52719409, -23.76439367], [-46.52721066, -23.76448237], [-46.52722245, -23.76457171], [-46.52722943, -23.76466147], [-46.52723167, -23.76470566], [-46.52723092, -23.76473529], [-46.52722568, -23.76476452], [-46.52721604, -23.76479279], [-46.52719166, -23.76484997], [-46.52718588, -23.76486676], [-46.52718259, -23.76488411], [-46.52718186, -23.7649017], [-46.52718368, -23.76491924], [-46.52718623, -23.76493352], [-46.52719096, -23.76495059], [-46.52719883, -23.76496666], [-46.52720961, -23.76498124], [-46.52766926, -23.76549973], [-46.52767447, -23.76550474], [-46.52768047, -23.76550895], [-46.52768711, -23.76551224], [-46.52769422, -23.76551454], [-46.52770164, -23.76551579], [-46.52770918, -23.76551596], [-46.52771665, -23.76551504], [-46.52777616, -23.76550329], [-46.52778329, -23.76550134], [-46.52779, -23.76549839], [-46.52779613, -23.76549451], [-46.52780152, -23.7654898], [-46.52780605, -23.76548437], [-46.52783856, -23.76543841], [-46.5278768, -23.76539026], [-46.52792047, -23.76534619], [-46.52796905, -23.76530673], [-46.52801567, -23.7652728], [-46.52809069, -23.76521478], [-46.52816183, -23.76515277], [-46.5282288, -23.7650908], [-46.52825311, -23.7650715], [-46.52828031, -23.76505582], [-46.52830979, -23.76504412], [-46.52849081, -23.76498684], [-46.52849921, -23.76498352], [-46.52850698, -23.76497909], [-46.52851395, -23.76497365], [-46.52851997, -23.76496731], [-46.5285249, -23.76496023], [-46.52852863, -23.76495255], [-46.52859395, -23.76478592], [-46.52860801, -23.76474335], [-46.52861729, -23.76469967], [-46.52862167, -23.76465536], [-46.52862112, -23.76461086], [-46.52861422, -23.76450927], [-46.52861442, -23.76450133], [-46.5286161, -23.76449354], [-46.52861919, -23.76448613], [-46.52862362, -23.76447932], [-46.52862925, -23.7644733], [-46.52863591, -23.76446826], [-46.52864341, -23.76446434], [-46.52865153, -23.76446166], [-46.52866003, -23.76446029], [-46.52894805, -23.76443719], [-46.52896655, -23.76443445], [-46.52898442, -23.76442927], [-46.52900128, -23.76442176], [-46.52901678, -23.76441208], [-46.5290306, -23.76440044], [-46.52905221, -23.76437936], [-46.5291603, -23.76430427], [-46.52933882, -23.76421896], [-46.52936434, -23.76420426], [-46.52938699, -23.764186], [-46.52940617, -23.76416465], [-46.5294214, -23.76414075], [-46.52943229, -23.76411491], [-46.52943855, -23.76408781], [-46.52945044, -23.76400372], [-46.52945982, -23.76396058], [-46.52947548, -23.76391902], [-46.52949712, -23.76387979], [-46.52952434, -23.76384363], [-46.52964236, -23.76370766], [-46.52974715, -23.76355619], [-46.52988055, -23.76330835], [-46.52995942, -23.76318382], [-46.53015806, -23.76291401], [-46.53016027, -23.7629104], [-46.53016181, -23.76290651], [-46.53016265, -23.76290243], [-46.53016275, -23.76289829], [-46.53016212, -23.76289418], [-46.53016077, -23.76289023], [-46.53015873, -23.76288653], [-46.53015607, -23.76288318], [-46.53015286, -23.76288028], [-46.53014917, -23.7628779], [-46.5301257, -23.76286525], [-46.53012464, -23.76286457], [-46.53012372, -23.76286374], [-46.53012294, -23.76286279], [-46.53012235, -23.76286173], [-46.53012195, -23.7628606], [-46.53012174, -23.76285943], [-46.53012175, -23.76285824], [-46.53012196, -23.76285707], [-46.53012237, -23.76285594], [-46.53012297, -23.76285489], [-46.53012375, -23.76285394], [-46.53025117, -23.76272205], [-46.53025764, -23.7627164], [-46.53026507, -23.76271186], [-46.53027323, -23.76270856], [-46.53028188, -23.76270659], [-46.53029077, -23.762706], [-46.53029964, -23.76270683], [-46.53032679, -23.76271155], [-46.53034513, -23.76271609], [-46.53036251, -23.76272315], [-46.53037852, -23.76273255], [-46.53039279, -23.76274408], [-46.53064196, -23.76297859], [-46.53064403, -23.76298089], [-46.53064567, -23.76298346], [-46.53064683, -23.76298624], [-46.5306475, -23.76298916], [-46.53064764, -23.76299214], [-46.53064725, -23.7629951], [-46.53064635, -23.76299797], [-46.53064496, -23.76300066], [-46.53064311, -23.76300311], [-46.53064086, -23.76300526], [-46.53063826, -23.76300704], [-46.53063538, -23.76300841], [-46.53058368, -23.7630283], [-46.53057908, -23.76303051], [-46.53057497, -23.7630334], [-46.53057145, -23.76303691], [-46.53056863, -23.76304091], [-46.5305666, -23.7630453], [-46.53056541, -23.76304994], [-46.5305651, -23.7630547], [-46.53056567, -23.76305944], [-46.53056712, -23.76306402], [-46.53060223, -23.76314775], [-46.53060951, -23.76317058], [-46.53061259, -23.7631942], [-46.53061138, -23.76321796], [-46.53060593, -23.76324121], [-46.53059638, -23.76326332], [-46.53049285, -23.7634549], [-46.53047581, -23.76347388], [-46.53046581, -23.7634809], [-46.53045498, -23.76349974], [-46.53042951, -23.76393386], [-46.53041422, -23.76405928], [-46.53039156, -23.76418113], [-46.53035302, -23.76430157], [-46.53031873, -23.76437551], [-46.5303021, -23.76441727], [-46.53029029, -23.76446039], [-46.53028341, -23.76450441], [-46.53028155, -23.76454885], [-46.53028606, -23.76485434], [-46.53028544, -23.76486214], [-46.53028336, -23.76486973], [-46.53027989, -23.76487687], [-46.53027514, -23.76488336], [-46.53004686, -23.76514291], [-46.53000449, -23.76519109], [-46.52987506, -23.76532663], [-46.52977816, -23.76542016], [-46.5296534, -23.76555897], [-46.52951539, -23.76573661], [-46.52947441, -23.76581701], [-46.52941773, -23.76601603], [-46.5294017, -23.76608537], [-46.52939278, -23.76615578], [-46.52939105, -23.76622666], [-46.52939652, -23.76629737], [-46.52940915, -23.7663673], [-46.52957713, -23.76708764], [-46.52958236, -23.76710426], [-46.52959005, -23.76712005], [-46.52960006, -23.7671347], [-46.52961219, -23.76714791], [-46.52962621, -23.76715944], [-46.52970564, -23.76721608], [-46.52971289, -23.76722045], [-46.5297208, -23.76722371], [-46.52972917, -23.76722579], [-46.52973779, -23.76722662], [-46.52974644, -23.7672262], [-46.52975492, -23.76722452], [-46.529763, -23.76722164], [-46.52977049, -23.76721762], [-46.52979109, -23.76720328], [-46.52980955, -23.76718666], [-46.52982558, -23.76716802], [-46.52989578, -23.76707474], [-46.52990822, -23.76706137], [-46.52992273, -23.76704987], [-46.52993895, -23.76704053], [-46.53002339, -23.76700104], [-46.53010894, -23.76696362], [-46.5301963, -23.76692878], [-46.53019897, -23.76692752], [-46.53020137, -23.76692586], [-46.53020341, -23.76692384], [-46.53020506, -23.76692152], [-46.53020624, -23.76691898], [-46.53020693, -23.7669163], [-46.53020711, -23.76691354], [-46.53020677, -23.76691079], [-46.53020593, -23.76690814], [-46.5302046, -23.76690566], [-46.53020282, -23.76690343], [-46.53020066, -23.76690152], [-46.53019649, -23.76689841], [-46.53019189, -23.7668944], [-46.53018805, -23.76688977], [-46.53018504, -23.76688464], [-46.53018296, -23.76687913], [-46.53018185, -23.76687339], [-46.53018174, -23.76686756], [-46.53018263, -23.76686179], [-46.5301845, -23.76685622], [-46.53021672, -23.76678188], [-46.53023009, -23.76675664], [-46.53024734, -23.76673349], [-46.53026812, -23.76671293], [-46.53029195, -23.76669541], [-46.53031833, -23.76668131], [-46.53034668, -23.76667094], [-46.53055928, -23.76660947], [-46.53071457, -23.76655851], [-46.53092064, -23.76649777], [-46.53096078, -23.76648932], [-46.53100189, -23.76648726], [-46.53104279, -23.76649163], [-46.53108229, -23.76650233], [-46.53111925, -23.76651902], [-46.53115261, -23.76654125], [-46.53118139, -23.76656835], [-46.53120476, -23.76659955], [-46.53123629, -23.7666504], [-46.53124886, -23.76667533], [-46.53125673, -23.76670183], [-46.53125968, -23.76672918], [-46.53125762, -23.76675659], [-46.53125062, -23.76678331], [-46.53123886, -23.76680857], [-46.53120491, -23.76686736], [-46.53117228, -23.76691925], [-46.53113568, -23.76696883], [-46.53109528, -23.76701587], [-46.53098608, -23.767134], [-46.53096715, -23.76715544], [-46.53095225, -23.76717943], [-46.53094179, -23.76720533], [-46.53093603, -23.76723244], [-46.53093513, -23.76726006], [-46.53093912, -23.76728744], [-46.53094741, -23.76732242], [-46.53096069, -23.76736474], [-46.53097997, -23.76740505], [-46.53100488, -23.76744265], [-46.531035, -23.76747688], [-46.53131871, -23.76775865], [-46.53134362, -23.76778727], [-46.53136427, -23.76781864], [-46.5313803, -23.76785221], [-46.53139144, -23.76788742], [-46.53140134, -23.76791217], [-46.53141486, -23.76793542], [-46.53143175, -23.76795672], [-46.53145168, -23.76797566], [-46.53154194, -23.76805031], [-46.53168791, -23.768194], [-46.53183472, -23.76834339], [-46.53186921, -23.76837419], [-46.53190676, -23.76840181], [-46.53194701, -23.76842598], [-46.532122, -23.76852038], [-46.53213264, -23.76852502], [-46.53214395, -23.76852801], [-46.53215564, -23.76852926]]], [[[-46.50951224, -23.76686099], [-46.5095859, -23.76681369], [-46.50960225, -23.76680482], [-46.50961989, -23.76679837], [-46.50963839, -23.76679448], [-46.50965732, -23.76679324], [-46.51033749, -23.76679717], [-46.51034359, -23.76679766], [-46.51034952, -23.76679907], [-46.51035512, -23.76680134], [-46.51036025, -23.76680443], [-46.51036476, -23.76680825], [-46.51036853, -23.76681269], [-46.51037147, -23.76681764], [-46.51037349, -23.76682296], [-46.51038604, -23.76686747], [-46.51039789, -23.76689443], [-46.510414, -23.76691945], [-46.51043398, -23.76694198], [-46.51045741, -23.7669615], [-46.51048374, -23.76697758], [-46.51054178, -23.76700461], [-46.51060207, -23.76702708], [-46.51066419, -23.76704482], [-46.51077411, -23.76707161], [-46.51081098, -23.76707804], [-46.51084846, -23.76707958], [-46.51088581, -23.76707618], [-46.51092225, -23.76706791], [-46.51095703, -23.76705495], [-46.51147612, -23.76682053], [-46.51159682, -23.76678456], [-46.51162806, -23.76677255], [-46.51165672, -23.76675598], [-46.51168204, -23.76673529], [-46.51170331, -23.76671105], [-46.51171997, -23.76668392], [-46.51173155, -23.76665464], [-46.51173774, -23.76662401], [-46.51173837, -23.76659286], [-46.51173343, -23.76656203], [-46.51172304, -23.76653237], [-46.5117075, -23.76650469], [-46.5114553, -23.76613408], [-46.51143829, -23.76610384], [-46.51142684, -23.76607146], [-46.51142126, -23.76603779], [-46.5114217, -23.76600374], [-46.51142815, -23.76597021], [-46.51150941, -23.76568539], [-46.51155012, -23.76558426], [-46.51160342, -23.76548343], [-46.5116176, -23.76545127], [-46.51162695, -23.76541764], [-46.5116313, -23.76538316], [-46.51163056, -23.76534845], [-46.51162477, -23.76531415], [-46.51158359, -23.76514607], [-46.51157057, -23.76510321], [-46.51155291, -23.76506177], [-46.51153077, -23.7650222], [-46.51150439, -23.7649849], [-46.51142042, -23.7648784], [-46.51101895, -23.76417011], [-46.51087617, -23.76380751], [-46.51074538, -23.76333952], [-46.51066604, -23.76302983], [-46.51064656, -23.7629418], [-46.51063296, -23.76285284], [-46.51062529, -23.76276328], [-46.51062359, -23.76267346], [-46.51063092, -23.76216016], [-46.51063158, -23.76215405], [-46.51063336, -23.76214813], [-46.51063622, -23.76214258], [-46.51064006, -23.76213756], [-46.51064477, -23.76213321], [-46.51065022, -23.76212967], [-46.51065625, -23.76212704], [-46.51066268, -23.76212539], [-46.51066932, -23.76212478], [-46.51067598, -23.76212522], [-46.51068245, -23.76212669], [-46.51068856, -23.76212917], [-46.51069412, -23.76213256], [-46.51069897, -23.76213678], [-46.51144442, -23.76290718], [-46.51148538, -23.76294422], [-46.51153132, -23.76297594], [-46.51158142, -23.76300176], [-46.51163481, -23.76302123], [-46.51177976, -23.76306409], [-46.51180898, -23.76307036], [-46.51183893, -23.76307217], [-46.51186879, -23.76306948], [-46.51189778, -23.76306235], [-46.51192512, -23.76305097], [-46.51195009, -23.76303565], [-46.51213441, -23.76290136], [-46.51217408, -23.76286897], [-46.51220956, -23.7628327], [-46.5122404, -23.76279301], [-46.51226622, -23.76275038], [-46.51230882, -23.76266974], [-46.51232759, -23.76262879], [-46.51234152, -23.76258624], [-46.51235045, -23.76254257], [-46.51235429, -23.76249826], [-46.51235772, -23.76237791], [-46.51236091, -23.76226579], [-46.51237346, -23.7621584], [-46.51239434, -23.7620574], [-46.51241611, -23.76197007], [-46.51244493, -23.76188448], [-46.51248064, -23.76180113], [-46.51252304, -23.76172047], [-46.51262922, -23.76153644], [-46.51264683, -23.76149856], [-46.51265735, -23.76145851], [-46.51266048, -23.7614174], [-46.5126541, -23.76098821], [-46.51263621, -23.75978456], [-46.51269083, -23.75907401], [-46.51268809, -23.75905663], [-46.51267994, -23.75903793], [-46.51267422, -23.75902125], [-46.51267129, -23.75900397], [-46.51267123, -23.75898648], [-46.51267403, -23.75896919], [-46.51268129, -23.75893978], [-46.51270514, -23.75887124], [-46.51273868, -23.75879752], [-46.51280887, -23.75862264], [-46.51285215, -23.75853648], [-46.51289877, -23.75845723], [-46.51295079, -23.75838074], [-46.51298834, -23.75831745], [-46.51301063, -23.75827389], [-46.51304998, -23.7582117], [-46.51310621, -23.75813835], [-46.51315991, -23.75804305], [-46.51319598, -23.75794988], [-46.51321508, -23.75786226], [-46.51321963, -23.75778426], [-46.51322104, -23.75777474], [-46.51322412, -23.75776556], [-46.51322879, -23.75775697], [-46.51323493, -23.7577492], [-46.51324235, -23.75774245], [-46.51325088, -23.7577369], [-46.51326028, -23.75773272], [-46.51327029, -23.75773], [-46.51328553, -23.75772709], [-46.51333268, -23.75772466], [-46.51338169, -23.75772524], [-46.51340485, -23.75773], [-46.51341734, -23.75773632], [-46.51342229, -23.75774068], [-46.51342774, -23.75774892], [-46.51343527, -23.75776599], [-46.51344148, -23.75780075], [-46.51343682, -23.75787242], [-46.51342597, -23.75802598], [-46.51342544, -23.75820623], [-46.51344047, -23.75843846], [-46.51344917, -23.75852739], [-46.51346371, -23.75861567], [-46.51348403, -23.75870297], [-46.51351007, -23.75878898], [-46.51354172, -23.75887338], [-46.51357888, -23.75895586], [-46.51372189, -23.75924797], [-46.51391765, -23.7596751], [-46.5139514, -23.75972139], [-46.51400564, -23.75978104], [-46.5140662, -23.75983318], [-46.51413842, -23.75988131], [-46.51420816, -23.75991668], [-46.51427729, -23.75994293], [-46.51435668, -23.75996367], [-46.51455927, -23.76001278], [-46.51462235, -23.760022], [-46.51466876, -23.76002072], [-46.51472588, -23.7600096], [-46.51477705, -23.75998956], [-46.51482413, -23.75996031], [-46.51484483, -23.75994299], [-46.51490869, -23.75987554], [-46.51493595, -23.7598356], [-46.51494956, -23.7598073], [-46.51495742, -23.75978521], [-46.51502575, -23.75956113], [-46.51504229, -23.75951237], [-46.51507642, -23.75943377], [-46.51509745, -23.75939405], [-46.5151294, -23.75933738], [-46.51517692, -23.75925311], [-46.51518613, -23.75924228], [-46.51519653, -23.75923619], [-46.51520757, -23.75923336], [-46.5152195, -23.75923357], [-46.51532274, -23.75924962], [-46.51533799, -23.75925354], [-46.51535184, -23.75926018], [-46.51536231, -23.75926785], [-46.51537228, -23.75927855], [-46.51537904, -23.75928949], [-46.51538341, -23.75930085], [-46.515636, -23.76019841], [-46.51564998, -23.76023903], [-46.51566925, -23.76027925], [-46.51569444, -23.76031903], [-46.51572702, -23.76035865], [-46.51576143, -23.7603915], [-46.51579676, -23.76041854], [-46.51583852, -23.76044388], [-46.51587805, -23.76046255], [-46.51592048, -23.76047772], [-46.51595835, -23.76048747], [-46.51600627, -23.7604951], [-46.51607114, -23.76049752], [-46.5161147, -23.76049411], [-46.51615738, -23.76048675], [-46.51619388, -23.76047712], [-46.51621538, -23.76046992], [-46.51649958, -23.7603658], [-46.51703174, -23.76016076], [-46.51705262, -23.76015072], [-46.51707136, -23.76013759], [-46.51708742, -23.76012174], [-46.51710034, -23.76010362], [-46.51715245, -23.76001503], [-46.51716521, -23.75999639], [-46.51718052, -23.75997946], [-46.51719813, -23.75996453], [-46.51721772, -23.75995187], [-46.51733124, -23.75988836], [-46.51759118, -23.75976239], [-46.51774915, -23.75969691], [-46.51778887, -23.75967685], [-46.51782469, -23.75965131], [-46.51785572, -23.75962092], [-46.5178812, -23.75958644], [-46.51790049, -23.7595487], [-46.51791312, -23.75950865], [-46.51799215, -23.7591567], [-46.5179993, -23.7591128], [-46.51800115, -23.75906844], [-46.51799769, -23.75902416], [-46.51798896, -23.7589805], [-46.51789233, -23.75861242], [-46.51787046, -23.75829253], [-46.51784005, -23.75809952], [-46.51786807, -23.75783117], [-46.51784918, -23.75762938], [-46.51776686, -23.75737073], [-46.51761846, -23.75718798], [-46.51738155, -23.75667217], [-46.51634085, -23.75689833], [-46.51623294, -23.75692176], [-46.51612402, -23.7569453], [-46.51607439, -23.75695592], [-46.51601406, -23.75696883], [-46.51590304, -23.75699224], [-46.51584628, -23.75700397], [-46.51580345, -23.75705805], [-46.51573475, -23.75709204], [-46.51563494, -23.75714575], [-46.5155077, -23.75717412], [-46.51543962, -23.75716573], [-46.51515594, -23.75711506], [-46.51483423, -23.75716416], [-46.51451134, -23.7572062], [-46.51418745, -23.75724114], [-46.51386274, -23.75726896], [-46.51353741, -23.75728966], [-46.51321164, -23.75730322], [-46.5128856, -23.75730963], [-46.5125595, -23.75730888], [-46.51226202, -23.75730196], [-46.51180055, -23.75727942], [-46.51147853, -23.75725514], [-46.51115722, -23.75722387], [-46.51083681, -23.75718563], [-46.51051746, -23.75714044], [-46.51033598, -23.75711158], [-46.51027759, -23.7571018], [-46.51008998, -23.75706875], [-46.50995831, -23.75704405], [-46.50985839, -23.75702448], [-46.50974865, -23.75700216], [-46.50945058, -23.75693711], [-46.5092386, -23.75688167], [-46.50916598, -23.75723698], [-46.50904795, -23.7575156], [-46.50901592, -23.75759889], [-46.50898966, -23.75768388], [-46.50896928, -23.75777022], [-46.50895486, -23.75785758], [-46.50894646, -23.75794559], [-46.50894411, -23.75803392], [-46.50894783, -23.75812221], [-46.50895759, -23.75821011], [-46.50913054, -23.75939615], [-46.50913517, -23.75951608], [-46.50914633, -23.75963566], [-46.50916399, -23.75975456], [-46.50937109, -23.76092853], [-46.50938314, -23.76101812], [-46.5093878, -23.7611083], [-46.50938504, -23.76119854], [-46.50937488, -23.76128833], [-46.50935737, -23.76137716], [-46.50933263, -23.76146452], [-46.50930078, -23.7615499], [-46.50926201, -23.76163283], [-46.50890557, -23.76232222], [-46.50885856, -23.7624206], [-46.50881798, -23.76252138], [-46.50878399, -23.76262421], [-46.5087567, -23.76272871], [-46.50871551, -23.76291943], [-46.50871181, -23.76300858], [-46.50871398, -23.76309778], [-46.508722, -23.76318669], [-46.50873584, -23.76327499], [-46.50875546, -23.76336236], [-46.50878078, -23.76344849], [-46.50881171, -23.76353304], [-46.50886147, -23.76364354], [-46.50890547, -23.76375608], [-46.50894362, -23.76387043], [-46.50897584, -23.76398631], [-46.50900203, -23.76410347], [-46.50902216, -23.76422164], [-46.50903617, -23.76434055], [-46.5090428, -23.76443065], [-46.50905448, -23.76452031], [-46.50907119, -23.76460929], [-46.50909288, -23.76469736], [-46.50910815, -23.7647732], [-46.50911741, -23.76484986], [-46.50912061, -23.76492694], [-46.50911773, -23.76500402], [-46.50910879, -23.76508072], [-46.50903668, -23.76580059], [-46.50902501, -23.76591364], [-46.50901893, -23.76602707], [-46.50901845, -23.76614063], [-46.50902359, -23.7662541], [-46.50903432, -23.76636723], [-46.50905063, -23.7664798], [-46.50905805, -23.76652127], [-46.50907112, -23.76656155], [-46.50908964, -23.76659997], [-46.5091133, -23.76663591], [-46.50914741, -23.76670077], [-46.50916168, -23.76674357], [-46.50918255, -23.76678401], [-46.50920957, -23.76682123], [-46.50922385, -23.76684429], [-46.50924172, -23.76686512], [-46.50926278, -23.76688325], [-46.50928656, -23.76689827], [-46.50931252, -23.76690983], [-46.50945927, -23.76688197], [-46.50951224, -23.76686099]]], [[[-46.50714074, -23.76573779], [-46.50715199, -23.76573807], [-46.50716317, -23.76573687], [-46.50719759, -23.76573085], [-46.50722659, -23.76572786], [-46.50725574, -23.76572895], [-46.50750434, -23.76575578], [-46.50752779, -23.76575434], [-46.50755066, -23.76574932], [-46.50757229, -23.76574086], [-46.50759208, -23.76572921], [-46.50760949, -23.76571467], [-46.50762402, -23.76569767], [-46.50763526, -23.76567868], [-46.50764291, -23.76565822], [-46.50764675, -23.76563688], [-46.5076281, -23.76551896], [-46.50759373, -23.76541781], [-46.50759298, -23.76522218], [-46.5075946, -23.76520388], [-46.50759956, -23.76518611], [-46.50760772, -23.76516936], [-46.50771549, -23.76499054], [-46.50772231, -23.76497663], [-46.50772653, -23.76496187], [-46.50772805, -23.76494668], [-46.50772681, -23.76493146], [-46.50772287, -23.76491664], [-46.50771631, -23.76490262], [-46.50770734, -23.76488979], [-46.50753437, -23.76468265], [-46.50744157, -23.76453071], [-46.50741558, -23.76448361], [-46.507394, -23.76443466], [-46.50737698, -23.76438421], [-46.50736464, -23.76433262], [-46.50733622, -23.76418411], [-46.50724704, -23.7639959], [-46.50723043, -23.76395371], [-46.50721977, -23.76390992], [-46.50720873, -23.76384578], [-46.50720359, -23.76382567], [-46.50719529, -23.76380647], [-46.50718401, -23.76378862], [-46.50717, -23.76377248], [-46.50715355, -23.76375842], [-46.50691111, -23.76357997], [-46.50689277, -23.76356415], [-46.50687734, -23.76354589], [-46.50686518, -23.76352564], [-46.50685662, -23.76350389], [-46.50685184, -23.76348117], [-46.50685098, -23.76345805], [-46.50685404, -23.76343509], [-46.50687022, -23.7633619], [-46.50699694, -23.76316549], [-46.50700979, -23.76314891], [-46.50702546, -23.76313453], [-46.50704352, -23.76312277], [-46.50706346, -23.76311394], [-46.50708472, -23.7631083], [-46.50719424, -23.76308818], [-46.50722553, -23.76308065], [-46.50725566, -23.76306981], [-46.5072842, -23.76305579], [-46.50732716, -23.76303161], [-46.50735467, -23.76301355], [-46.50737914, -23.76299208], [-46.50740006, -23.76296765], [-46.50741702, -23.76294074], [-46.50742968, -23.7629119], [-46.50748923, -23.76274259], [-46.5075183, -23.7625856], [-46.50753018, -23.76234168], [-46.50756015, -23.76214941], [-46.50764133, -23.76197984], [-46.50779611, -23.76169493], [-46.50786158, -23.76159134], [-46.50827635, -23.76094577], [-46.50828263, -23.76092439], [-46.50835734, -23.76066996], [-46.50838315, -23.76028845], [-46.50836449, -23.75991123], [-46.5083451, -23.75957756], [-46.50833801, -23.75951088], [-46.50832456, -23.75944503], [-46.50830486, -23.75938053], [-46.50827905, -23.75931789], [-46.50819297, -23.75913383], [-46.50815474, -23.7590552], [-46.5079429, -23.7586195], [-46.50789249, -23.75851583], [-46.50786476, -23.75837144], [-46.50785713, -23.75834481], [-46.50784482, -23.75831972], [-46.50782818, -23.75829683], [-46.50780765, -23.7582768], [-46.50778381, -23.75826016], [-46.50775731, -23.75824738], [-46.50741017, -23.7581124], [-46.50740404, -23.75810943], [-46.50739855, -23.75810554], [-46.50739386, -23.75810086], [-46.5073901, -23.7580955], [-46.50738739, -23.75808964], [-46.50738579, -23.75808343], [-46.50738536, -23.75807707], [-46.50738612, -23.75807073], [-46.50738803, -23.75806461], [-46.50740823, -23.75801594], [-46.50741639, -23.75800025], [-46.50742722, -23.757986], [-46.50744043, -23.75797357], [-46.50745566, -23.75796328], [-46.50750288, -23.75793657], [-46.50760496, -23.75787609], [-46.50764627, -23.75785289], [-46.50768986, -23.75783355], [-46.50773532, -23.75781826], [-46.50778219, -23.75780717], [-46.50786362, -23.7577918], [-46.50792918, -23.7577669], [-46.50797213, -23.75774745], [-46.50801192, -23.75772295], [-46.50804786, -23.75769384], [-46.50807931, -23.75766062], [-46.50815256, -23.75757209], [-46.5082022, -23.75750621], [-46.50821663, -23.75748359], [-46.50822719, -23.75745922], [-46.50823366, -23.75743367], [-46.50823587, -23.75740751], [-46.50823616, -23.75728302], [-46.50823984, -23.75722016], [-46.50825054, -23.75715797], [-46.50828626, -23.75700276], [-46.508425, -23.75666256], [-46.50813957, -23.75657166], [-46.50785638, -23.75647499], [-46.50757559, -23.75637258], [-46.50729731, -23.75626449], [-46.5070217, -23.75615078], [-46.5068234, -23.75606694], [-46.50662846, -23.75597666], [-46.50652682, -23.75592935], [-46.50642289, -23.75588006], [-46.50634396, -23.75584204], [-46.50628777, -23.75585184], [-46.50607726, -23.75588375], [-46.50598392, -23.75585728], [-46.50587532, -23.75581753], [-46.50578804, -23.75575455], [-46.50568657, -23.75568933], [-46.50554067, -23.75548609], [-46.50551268, -23.75542853], [-46.50487298, -23.75510788], [-46.50379301, -23.75456655], [-46.50374724, -23.75454361], [-46.50249099, -23.7539139], [-46.50245584, -23.75394935], [-46.50237902, -23.75403513], [-46.50230048, -23.75413724], [-46.50223292, -23.75422574], [-46.50220062, -23.75430736], [-46.50226322, -23.75436695], [-46.50237812, -23.75443209], [-46.50250208, -23.75449467], [-46.50261514, -23.7545622], [-46.50277591, -23.75465905], [-46.50273271, -23.7546654], [-46.50246476, -23.7547481], [-46.5022536, -23.75498176], [-46.50213076, -23.75504652], [-46.50207488, -23.75506766], [-46.50197902, -23.75511808], [-46.5019101, -23.75516499], [-46.50186536, -23.75518839], [-46.50145422, -23.75537005], [-46.50112681, -23.75571394], [-46.5009495, -23.75593789], [-46.50082827, -23.75602095], [-46.50058763, -23.7561799], [-46.50049584, -23.75626586], [-46.50044361, -23.75632433], [-46.50043031, -23.75634431], [-46.50039633, -23.75639277], [-46.5003556, -23.75648194], [-46.50027697, -23.75665407], [-46.5002294, -23.75706287], [-46.50017982, -23.75756766], [-46.50017488, -23.75759326], [-46.50016528, -23.7576177], [-46.5001513, -23.75764029], [-46.50013335, -23.75766035], [-46.50008498, -23.75770585], [-46.50005561, -23.75772924], [-46.50002244, -23.75774783], [-46.49999262, -23.75776156], [-46.49998054, -23.75776834], [-46.49996987, -23.75777689], [-46.4999609, -23.75778695], [-46.49995388, -23.75779825], [-46.4998245, -23.75805411], [-46.49981634, -23.75807449], [-46.49981193, -23.75809583], [-46.49981139, -23.75811755], [-46.49981474, -23.75813905], [-46.49990976, -23.75852103], [-46.49992207, -23.75856128], [-46.49993865, -23.7586002], [-46.49995933, -23.75863743], [-46.50009575, -23.75885564], [-46.50011348, -23.75888055], [-46.50013422, -23.7589034], [-46.50015769, -23.7589239], [-46.5002199, -23.75897225], [-46.5003823, -23.75910084], [-46.50071277, -23.75935111], [-46.50072443, -23.75935868], [-46.50073718, -23.75936459], [-46.50075073, -23.75936869], [-46.5007648, -23.75937092], [-46.50079654, -23.75937372], [-46.50080643, -23.75937384], [-46.5008162, -23.75937243], [-46.50082558, -23.75936955], [-46.50083431, -23.75936527], [-46.50084214, -23.75935971], [-46.50084886, -23.75935303], [-46.50085427, -23.75934541], [-46.50089555, -23.75927515], [-46.50104904, -23.75907615], [-46.50124479, -23.75888714], [-46.50141733, -23.75870849], [-46.50156167, -23.7585378], [-46.50162124, -23.75845869], [-46.50172823, -23.75833091], [-46.50182742, -23.75818857], [-46.50186756, -23.75813031], [-46.50205815, -23.75785363], [-46.50225191, -23.75773788], [-46.5025866, -23.75764763], [-46.50260517, -23.75764418], [-46.5026241, -23.7576437], [-46.50264284, -23.75764621], [-46.50266084, -23.75765163], [-46.50267757, -23.75765981], [-46.50269253, -23.75767049], [-46.50270529, -23.75768338], [-46.50271547, -23.75769808], [-46.50272277, -23.75771416], [-46.50272697, -23.75773116], [-46.50272795, -23.75774857], [-46.50272569, -23.75776587], [-46.50272025, -23.75778257], [-46.50271178, -23.75779816], [-46.50254093, -23.75805512], [-46.50219864, -23.75859074], [-46.50208906, -23.7588234], [-46.50207252, -23.75902603], [-46.50207251, -23.75906978], [-46.50207958, -23.75911305], [-46.50209358, -23.75915487], [-46.50211419, -23.75919429], [-46.50215321, -23.75925654], [-46.50218008, -23.75929227], [-46.50221296, -23.75932345], [-46.50225096, -23.75934925], [-46.50229303, -23.75936896], [-46.50261074, -23.75948862], [-46.50309349, -23.75981526], [-46.50311399, -23.7598316], [-46.50313139, -23.75985073], [-46.50314527, -23.75987217], [-46.50315526, -23.75989536], [-46.50316112, -23.75991973], [-46.50316268, -23.75994464], [-46.50316184, -23.75997955], [-46.5031613, -23.75998451], [-46.50315993, -23.75998933], [-46.50315775, -23.7599939], [-46.50315483, -23.7599981], [-46.50315123, -23.76000183], [-46.50314705, -23.76000499], [-46.50314238, -23.76000752], [-46.50313734, -23.76000935], [-46.50313205, -23.76001044], [-46.50286822, -23.76004493], [-46.50248125, -23.7599883], [-46.50227747, -23.75999401], [-46.50227293, -23.75999447], [-46.50226853, -23.75999559], [-46.50226437, -23.75999735], [-46.50226057, -23.75999969], [-46.50225723, -23.76000256], [-46.50225442, -23.76000588], [-46.50225222, -23.76000957], [-46.50225069, -23.76001353], [-46.50224986, -23.76001767], [-46.50224976, -23.76002187], [-46.50226788, -23.76030851], [-46.50235174, -23.76052359], [-46.50240022, -23.76088281], [-46.50240145, -23.7609096], [-46.50239796, -23.76093623], [-46.50236953, -23.76106449], [-46.50236221, -23.76110852], [-46.50235964, -23.761153], [-46.50236186, -23.76119749], [-46.50236883, -23.76124157], [-46.50237806, -23.76128484], [-46.50237846, -23.7614209], [-46.50237892, -23.76142602], [-46.50238025, -23.76143101], [-46.50238242, -23.76143574], [-46.50238538, -23.76144009], [-46.50238905, -23.76144396], [-46.50239334, -23.76144725], [-46.50239815, -23.76144987], [-46.50240334, -23.76145176], [-46.50240879, -23.76145287], [-46.50241436, -23.76145317], [-46.50241991, -23.76145265], [-46.5024897, -23.76144098], [-46.5026345, -23.76143095], [-46.50293814, -23.76136732], [-46.50297644, -23.7613615], [-46.50301521, -23.76135971], [-46.50305395, -23.76136197], [-46.50316255, -23.76137402], [-46.50321694, -23.76138434], [-46.50326964, -23.76140046], [-46.50336825, -23.76143667], [-46.50354357, -23.76151528], [-46.50355204, -23.76151837], [-46.50356091, -23.76152022], [-46.50356999, -23.76152081], [-46.50357906, -23.76152011], [-46.50358791, -23.76151815], [-46.50359633, -23.76151497], [-46.50374399, -23.76144658], [-46.50384632, -23.76137006], [-46.50386216, -23.76136008], [-46.50387957, -23.76135261], [-46.50389806, -23.76134786], [-46.50391365, -23.76134511], [-46.50393236, -23.76134331], [-46.50395113, -23.7613445], [-46.5039694, -23.76134863], [-46.50398663, -23.76135559], [-46.50403425, -23.76137952], [-46.50406138, -23.76139636], [-46.5040661, -23.76139982], [-46.50407016, -23.76140392], [-46.50407346, -23.76140857], [-46.50407592, -23.76141363], [-46.50407748, -23.76141899], [-46.50407809, -23.76142451], [-46.50408454, -23.76168886], [-46.50408767, -23.76171628], [-46.50409566, -23.76174286], [-46.50410827, -23.76176787], [-46.50412518, -23.76179063], [-46.50414591, -23.76181054], [-46.50416991, -23.76182704], [-46.50424274, -23.76186898], [-46.50426803, -23.76188144], [-46.50429492, -23.76189065], [-46.50432291, -23.76189644], [-46.5043515, -23.7618987], [-46.50443675, -23.76190013], [-46.50454041, -23.76190917], [-46.50461835, -23.76191291], [-46.50469635, -23.76191057], [-46.50477385, -23.76190217], [-46.50492163, -23.76188028], [-46.50495288, -23.76187755], [-46.50496715, -23.76187727], [-46.50498131, -23.76187893], [-46.50499506, -23.76188248], [-46.50500808, -23.76188785], [-46.50513111, -23.76194899], [-46.50520436, -23.76197066], [-46.50522213, -23.7619746], [-46.50524034, -23.76197607], [-46.50525859, -23.76197503], [-46.50527646, -23.76197151], [-46.50529357, -23.76196559], [-46.50530954, -23.7619574], [-46.50535362, -23.76193063], [-46.50554583, -23.76181392], [-46.50593169, -23.76158158], [-46.50593803, -23.76157844], [-46.50594487, -23.76157637], [-46.50595199, -23.76157541], [-46.50595918, -23.76157561], [-46.50596623, -23.76157694], [-46.50597292, -23.76157938], [-46.50597906, -23.76158284], [-46.50598445, -23.76158723], [-46.50598893, -23.76159242], [-46.50599237, -23.76159823], [-46.50609401, -23.76181241], [-46.50607047, -23.76193185], [-46.50579577, -23.76238332], [-46.50580476, -23.76242318], [-46.50586277, -23.76268061], [-46.50587394, -23.76288082], [-46.50582902, -23.76306638], [-46.50581124, -23.76312362], [-46.50578626, -23.76317854], [-46.5057544, -23.76323035], [-46.50572761, -23.76326848], [-46.5055512, -23.76357612], [-46.5055319, -23.76360212], [-46.50531211, -23.76383592], [-46.50530333, -23.76384693], [-46.50529658, -23.76385908], [-46.50529203, -23.76387207], [-46.50528978, -23.76388556], [-46.50528991, -23.76389921], [-46.50529508, -23.76395262], [-46.50530485, -23.76401895], [-46.5053212, -23.76408418], [-46.50534398, -23.76414775], [-46.50537299, -23.76420913], [-46.50541628, -23.76429028], [-46.50544475, -23.76433649], [-46.50547898, -23.76437927], [-46.50551847, -23.76441801], [-46.50556268, -23.76445216], [-46.50559428, -23.76447376], [-46.50574357, -23.76454769], [-46.50593473, -23.76460716], [-46.50614044, -23.7646934], [-46.50633531, -23.76487795], [-46.50646647, -23.76502773], [-46.5065358, -23.76511409], [-46.50655335, -23.76513905], [-46.50656741, -23.76516582], [-46.50657775, -23.76519399], [-46.50659339, -23.76524725], [-46.50660925, -23.76529272], [-46.50662963, -23.76533664], [-46.50665436, -23.76537863], [-46.50668323, -23.76541831], [-46.50673, -23.76547655], [-46.50680819, -23.76554641], [-46.50684697, -23.76557837], [-46.50688841, -23.76560736], [-46.50693226, -23.76563319], [-46.50710884, -23.76572825], [-46.50711894, -23.76573283], [-46.50712964, -23.76573603], [-46.50714074, -23.76573779]]], [[[-46.52238842, -23.76163482], [-46.52245714, -23.76164718], [-46.52248074, -23.76165707], [-46.52274214, -23.76178548], [-46.52276125, -23.76179384], [-46.5227819, -23.76180072], [-46.5228059, -23.76180622], [-46.52283027, -23.76180926], [-46.52285324, -23.76180988], [-46.52287406, -23.76180857], [-46.52289361, -23.76180569], [-46.52291264, -23.7618013], [-46.52293008, -23.7617958], [-46.52294951, -23.76178784], [-46.52297382, -23.76177555], [-46.52367782, -23.76126613], [-46.52379175, -23.76118074], [-46.52390245, -23.76109182], [-46.52400977, -23.76099946], [-46.5241136, -23.76090378], [-46.52427582, -23.76074908], [-46.52441262, -23.76058305], [-46.52447842, -23.76051373], [-46.52450621, -23.7604808], [-46.52452967, -23.76044514], [-46.52454851, -23.76040723], [-46.52458619, -23.76031804], [-46.52458937, -23.76031193], [-46.52459351, -23.76030632], [-46.52459851, -23.76030134], [-46.52460427, -23.76029711], [-46.52461065, -23.76029372], [-46.52461751, -23.76029125], [-46.52462469, -23.76028975], [-46.5246774, -23.76027954], [-46.5247284, -23.76026361], [-46.52477697, -23.76024219], [-46.52482242, -23.76021559], [-46.5248641, -23.76018419], [-46.52490141, -23.76014844], [-46.52493382, -23.76010884], [-46.52496086, -23.76006597], [-46.52498216, -23.76002044], [-46.52499739, -23.75997289], [-46.52499958, -23.75995999], [-46.52499972, -23.75994693], [-46.52499781, -23.75993399], [-46.5249939, -23.75992144], [-46.52498806, -23.75990954], [-46.52488428, -23.75973331], [-46.52480452, -23.75960697], [-46.52479419, -23.7595873], [-46.52478722, -23.75956641], [-46.52478379, -23.75954479], [-46.52478396, -23.75952294], [-46.52479446, -23.75940746], [-46.52481014, -23.75927141], [-46.52481305, -23.75918141], [-46.5248115, -23.75915066], [-46.52481946, -23.7590614], [-46.52486336, -23.75887206], [-46.52488476, -23.75875032], [-46.524904, -23.75857094], [-46.52490787, -23.75847296], [-46.52491805, -23.7584733], [-46.52429529, -23.75798926], [-46.52418359, -23.7579025], [-46.52407321, -23.75781714], [-46.52396397, -23.7577334], [-46.5238557, -23.75765147], [-46.52374821, -23.75757156], [-46.52364137, -23.75749384], [-46.52354433, -23.75742511], [-46.52353384, -23.757425], [-46.52352484, -23.75741863], [-46.5234189, -23.75734588], [-46.52331323, -23.75727589], [-46.52319909, -23.75720327], [-46.5229869, -23.75726346], [-46.52278549, -23.75719814], [-46.52269927, -23.75713528], [-46.52263332, -23.75707753], [-46.52242602, -23.75679843], [-46.52190833, -23.75659969], [-46.52178185, -23.75675013], [-46.52163683, -23.75685389], [-46.52139607, -23.75676104], [-46.52137364, -23.75644706], [-46.52052091, -23.75630386], [-46.51933388, -23.75629596], [-46.51901101, -23.75633608], [-46.51868911, -23.75638237], [-46.51865032, -23.75638788], [-46.51849489, -23.75641775], [-46.51835976, -23.75644427], [-46.51834126, -23.75644805], [-46.5183238, -23.75646977], [-46.51830283, -23.75648868], [-46.51827888, -23.7565043], [-46.51825254, -23.75651625], [-46.51822449, -23.75652421], [-46.51819542, -23.75652799], [-46.51816607, -23.7565275], [-46.51813717, -23.75652274], [-46.51805489, -23.7565082], [-46.51785828, -23.75655022], [-46.51778384, -23.75656638], [-46.51790886, -23.7566351], [-46.51794429, -23.75665018], [-46.51820776, -23.75673264], [-46.51821378, -23.75673401], [-46.51821997, -23.75673444], [-46.51822615, -23.75673391], [-46.51823214, -23.75673244], [-46.51823778, -23.75673006], [-46.51824291, -23.75672684], [-46.51824738, -23.75672289], [-46.51825106, -23.75671829], [-46.51837929, -23.75652672], [-46.5184012, -23.75649928], [-46.51842767, -23.75647549], [-46.51845798, -23.75645597], [-46.51849135, -23.75644125], [-46.51852686, -23.75643172], [-46.51860723, -23.75641658], [-46.51861157, -23.75641617], [-46.51861593, -23.75641645], [-46.51862017, -23.75641743], [-46.51862416, -23.75641906], [-46.51862778, -23.7564213], [-46.51863093, -23.75642409], [-46.51863351, -23.75642734], [-46.51863544, -23.75643094], [-46.51863666, -23.7564348], [-46.51863714, -23.7564388], [-46.51863686, -23.75644281], [-46.51863658, -23.75653292], [-46.51863119, -23.75662289], [-46.51862072, -23.75671247], [-46.51852472, -23.75737111], [-46.51851168, -23.75742226], [-46.51848579, -23.75750274], [-46.51846694, -23.75758487], [-46.51845524, -23.75766811], [-46.51845077, -23.75775194], [-46.51845355, -23.75783584], [-46.51846357, -23.75791926], [-46.51848077, -23.75800169], [-46.51850503, -23.7580826], [-46.51853621, -23.75816148], [-46.51857409, -23.75823783], [-46.51885711, -23.75899792], [-46.51887037, -23.7590496], [-46.51888548, -23.75912363], [-46.5189072, -23.75919625], [-46.51893539, -23.75926695], [-46.51896986, -23.75933526], [-46.51901037, -23.75940071], [-46.51905664, -23.75946283], [-46.51910835, -23.7595212], [-46.51916514, -23.75957543], [-46.51922663, -23.75962513], [-46.51929238, -23.75966997], [-46.51949591, -23.75979705], [-46.51950621, -23.75980237], [-46.51951732, -23.75980603], [-46.51952895, -23.75980792], [-46.51954076, -23.75980799], [-46.51955241, -23.75980624], [-46.51956357, -23.75980272], [-46.51957394, -23.75979752], [-46.51958322, -23.75979079], [-46.51983083, -23.75957786], [-46.5200823, -23.75933774], [-46.52032361, -23.75905611], [-46.52050734, -23.75880199], [-46.52054923, -23.75873609], [-46.52060631, -23.75864629], [-46.52088404, -23.75823279], [-46.52088534, -23.75823118], [-46.52088693, -23.75822978], [-46.52088874, -23.75822866], [-46.52089074, -23.75822783], [-46.52089285, -23.75822732], [-46.52089504, -23.75822714], [-46.52089722, -23.75822731], [-46.52089934, -23.75822781], [-46.52090133, -23.75822864], [-46.52090315, -23.75822976], [-46.52090474, -23.75823115], [-46.52090605, -23.75823277], [-46.52090704, -23.75823456], [-46.5209077, -23.75823648], [-46.52090799, -23.75823848], [-46.52090791, -23.7582405], [-46.5208407, -23.75875057], [-46.52081699, -23.75887879], [-46.5208413, -23.7589435], [-46.5208592, -23.75900996], [-46.52087056, -23.75907763], [-46.52087529, -23.75914596], [-46.52087335, -23.75921441], [-46.52083807, -23.759568], [-46.52083779, -23.75958849], [-46.52084104, -23.75960876], [-46.52084773, -23.75962831], [-46.52085768, -23.75964664], [-46.52087066, -23.75966329], [-46.52088633, -23.75967784], [-46.5209043, -23.75968993], [-46.52109612, -23.75967488], [-46.52122283, -23.7596371], [-46.52123268, -23.75963496], [-46.52124278, -23.75963432], [-46.52125286, -23.7596352], [-46.52126265, -23.75963756], [-46.5212719, -23.75964136], [-46.52128035, -23.75964649], [-46.52128779, -23.75965281], [-46.52129401, -23.75966016], [-46.52129886, -23.75966834], [-46.5213022, -23.75967714], [-46.52130395, -23.75968631], [-46.52130406, -23.75969563], [-46.52128383, -23.7599579], [-46.52128327, -23.76009046], [-46.52128592, -23.76015023], [-46.52129434, -23.76020955], [-46.52130846, -23.76026794], [-46.52154206, -23.76106448], [-46.52155489, -23.7611015], [-46.52157253, -23.76113679], [-46.52159471, -23.76116985], [-46.52162111, -23.76120017], [-46.52165132, -23.7612273], [-46.52175383, -23.76130873], [-46.52206648, -23.76148267], [-46.5221439, -23.76153724], [-46.52220902, -23.76159459], [-46.52222634, -23.76160773], [-46.52224557, -23.76161836], [-46.5222663, -23.76162626], [-46.52228807, -23.76163126], [-46.52231041, -23.76163324], [-46.52238842, -23.76163482]]], [[[-46.49655147, -23.75603857], [-46.49660021, -23.75604113], [-46.49661549, -23.75604114], [-46.49664881, -23.75604332], [-46.49668148, -23.75604976], [-46.49671285, -23.75606034], [-46.4967423, -23.75607485], [-46.49683889, -23.75613077], [-46.49687289, -23.75614808], [-46.49690878, -23.75616176], [-46.49694611, -23.75617165], [-46.49721335, -23.75622771], [-46.49721763, -23.75622826], [-46.49722195, -23.75622814], [-46.49722619, -23.75622735], [-46.49723022, -23.75622591], [-46.49723393, -23.75622387], [-46.49723721, -23.75622127], [-46.49723996, -23.75621821], [-46.49724212, -23.75621476], [-46.49724361, -23.75621102], [-46.49730245, -23.75601304], [-46.49731702, -23.75593908], [-46.49741934, -23.75572472], [-46.49742812, -23.75570986], [-46.49743947, -23.75569656], [-46.49745308, -23.7556852], [-46.49746856, -23.75567609], [-46.49748548, -23.7556695], [-46.49750336, -23.7556656], [-46.4975217, -23.75566451], [-46.49753997, -23.75566626], [-46.49755767, -23.7556708], [-46.49757429, -23.755678], [-46.49758938, -23.75568766], [-46.49760249, -23.7556995], [-46.49761327, -23.7557132], [-46.49762141, -23.75572836], [-46.49762668, -23.75574456], [-46.49762892, -23.75576134], [-46.49763781, -23.75597255], [-46.49768727, -23.75624944], [-46.49768801, -23.75625216], [-46.49768923, -23.75625474], [-46.49769089, -23.75625711], [-46.49769295, -23.75625919], [-46.49769535, -23.75626093], [-46.49769802, -23.75626228], [-46.49770091, -23.75626322], [-46.49770392, -23.75626371], [-46.49778876, -23.75627093], [-46.49782716, -23.75627682], [-46.49786422, -23.7562878], [-46.49805291, -23.75635808], [-46.49811238, -23.75637752], [-46.49817346, -23.75639217], [-46.49823568, -23.75640191], [-46.49829858, -23.75640668], [-46.49841263, -23.75641077], [-46.49843787, -23.7564099], [-46.49846267, -23.75640548], [-46.49848644, -23.75639762], [-46.49850863, -23.75638652], [-46.49852871, -23.75637242], [-46.49854621, -23.75635566], [-46.49856073, -23.75633664], [-46.49861121, -23.75625835], [-46.49864039, -23.75621916], [-46.49867486, -23.75618379], [-46.49871403, -23.75615284], [-46.49880026, -23.75609323], [-46.49883664, -23.7560636], [-46.4988674, -23.756029], [-46.49891624, -23.75596406], [-46.49897825, -23.75588684], [-46.49904534, -23.7558133], [-46.49911724, -23.75574372], [-46.49942322, -23.75546542], [-46.50093354, -23.75409175], [-46.50097745, -23.75404774], [-46.50101653, -23.75400003], [-46.5010504, -23.75394906], [-46.50121898, -23.7536654], [-46.50124366, -23.75361695], [-46.5012616, -23.75356604], [-46.50127253, -23.75351349], [-46.50128415, -23.75342957], [-46.50128543, -23.75342399], [-46.50128768, -23.75341868], [-46.50129083, -23.75341378], [-46.5012948, -23.75340941], [-46.5012995, -23.7534057], [-46.50130478, -23.75340273], [-46.50131052, -23.75340059], [-46.50131656, -23.75339934], [-46.50143407, -23.7533841], [-46.49988912, -23.75260964], [-46.499768, -23.75258359], [-46.49974062, -23.75257394], [-46.49970007, -23.75256217], [-46.49964564, -23.7525465], [-46.49956589, -23.75250511], [-46.49946487, -23.75239696], [-46.49916425, -23.75224626], [-46.49889476, -23.75211116], [-46.49876426, -23.75204574], [-46.49865021, -23.75198857], [-46.49836729, -23.75184674], [-46.4982368, -23.75178132], [-46.4981063, -23.7517159], [-46.49809773, -23.75172655], [-46.49805359, -23.75168947], [-46.49754822, -23.75143612], [-46.49618811, -23.75075427], [-46.49608988, -23.75070602], [-46.49599251, -23.75065603], [-46.49589348, -23.75060596], [-46.49588064, -23.75059942], [-46.49552828, -23.75121873], [-46.49509942, -23.7519725], [-46.49505609, -23.75220441], [-46.49504661, -23.752238], [-46.49503116, -23.75226967], [-46.49501018, -23.75229851], [-46.49498426, -23.75232373], [-46.49485404, -23.75243078], [-46.49483895, -23.75244142], [-46.4948223, -23.75244986], [-46.49480446, -23.75245591], [-46.49478585, -23.75245942], [-46.49473808, -23.75246503], [-46.49472838, -23.75246693], [-46.49471915, -23.75247028], [-46.49471065, -23.75247498], [-46.49470311, -23.7524809], [-46.49469673, -23.75248789], [-46.49469169, -23.75249575], [-46.49468812, -23.75250427], [-46.49457992, -23.75284441], [-46.49431972, -23.75366237], [-46.49430464, -23.75371935], [-46.49429531, -23.75377736], [-46.4942918, -23.75383592], [-46.49429414, -23.75389453], [-46.49430231, -23.75395269], [-46.49431624, -23.75400992], [-46.49433329, -23.75406742], [-46.49440953, -23.75433857], [-46.49443925, -23.75439609], [-46.49444151, -23.75439965], [-46.49444438, -23.7544028], [-46.49444779, -23.75440546], [-46.49445164, -23.75440756], [-46.49445581, -23.75440903], [-46.4944602, -23.75440984], [-46.49447037, -23.7544109], [-46.49447733, -23.75441215], [-46.49448396, -23.75441443], [-46.49449011, -23.75441768], [-46.4944956, -23.7544218], [-46.49483907, -23.75472596], [-46.4949761, -23.75480376], [-46.49512118, -23.75492528], [-46.4953355, -23.75500837], [-46.49545124, -23.75515062], [-46.49555007, -23.75531749], [-46.49564891, -23.75554565], [-46.49565417, -23.75555533], [-46.49566113, -23.75556406], [-46.49566958, -23.75557158], [-46.49567929, -23.75557768], [-46.49568998, -23.7555822], [-46.49570134, -23.75558499], [-46.49571305, -23.75558598], [-46.49572477, -23.75558514], [-46.49573617, -23.7555825], [-46.49574693, -23.75557813], [-46.49575673, -23.75557215], [-46.49576531, -23.75556474], [-46.4957724, -23.75555611], [-46.49577781, -23.7555465], [-46.49578139, -23.75553619], [-46.49580888, -23.75542544], [-46.49591397, -23.7552945], [-46.49597926, -23.75521317], [-46.49602993, -23.75505717], [-46.49617271, -23.75494975], [-46.49627165, -23.75479691], [-46.49641278, -23.75472314], [-46.49655238, -23.75460893], [-46.49674004, -23.75430619], [-46.496761, -23.75427893], [-46.49678654, -23.75425519], [-46.49681597, -23.75423564], [-46.49684848, -23.7542208], [-46.4968832, -23.75421108], [-46.49691919, -23.75420673], [-46.49696718, -23.75420218], [-46.49701435, -23.75419285], [-46.49706014, -23.75417885], [-46.497104, -23.75416035], [-46.4972246, -23.75410194], [-46.49741146, -23.75399722], [-46.49741895, -23.7539938], [-46.49742696, -23.75399159], [-46.49743526, -23.75399067], [-46.49744361, -23.75399105], [-46.49745177, -23.75399274], [-46.4974595, -23.75399568], [-46.49746658, -23.75399979], [-46.49747279, -23.75400494], [-46.49747796, -23.75401099], [-46.49748194, -23.75401776], [-46.49748461, -23.75402506], [-46.4974859, -23.75403266], [-46.49748577, -23.75404036], [-46.49748421, -23.75404792], [-46.49748129, -23.75405514], [-46.49747707, -23.75406178], [-46.4971973, -23.75442745], [-46.49698885, -23.75455148], [-46.49692602, -23.75459266], [-46.49686747, -23.75463888], [-46.49681368, -23.75468975], [-46.49676507, -23.75474487], [-46.49672203, -23.75480378], [-46.49664941, -23.75491358], [-46.49662852, -23.75502116], [-46.49660561, -23.75518799], [-46.49652535, -23.75534269], [-46.4963817, -23.7554803], [-46.49618535, -23.75576945], [-46.49615049, -23.75591389], [-46.49614984, -23.75591827], [-46.49614996, -23.75592268], [-46.49615086, -23.75592701], [-46.49615252, -23.75593115], [-46.49615488, -23.75593499], [-46.49615789, -23.75593843], [-46.49617126, -23.75594962], [-46.49618627, -23.7559589], [-46.49620258, -23.75596606], [-46.49621985, -23.75597096], [-46.49650335, -23.75603098], [-46.49655147, -23.75603857]]]]}}]}