{"type": "FeatureCollection", "features": [{"type": "Feature", "properties": {"name": "Parque Estadual Vassununga"}, "geometry": {"type": "MultiPolygon", "coordinates": [[[[-47.61522806, -21.73114583], [-47.61462889, -21.73063444], [-47.61434472, -21.73047694], [-47.61296361, -21.72983306], [-47.61262333, -21.72983778], [-47.61238722, -21.72993333], [-47.61179083, -21.7302775], [-47.61154306, -21.73048944], [-47.61106944, -21.73110917], [-47.61067, -21.73247083], [-47.61069472, -21.73286889], [-47.6112975, -21.73349194], [-47.61231389, -21.73391806], [-47.61258944, -21.73410694], [-47.61281333, -21.73476833], [-47.61651167, -21.73225917], [-47.61522806, -21.73114583]]], [[[-47.65544889, -21.7319175], [-47.65226972, -21.73068722], [-47.64957667, -21.72975444], [-47.65011778, -21.72775417], [-47.65042944, -21.72628472], [-47.65039306, -21.72601722], [-47.64913389, -21.72548333], [-47.64716889, -21.72471806], [-47.64714806, -21.724775], [-47.64671389, -21.72509361], [-47.64644583, -21.72537889], [-47.64633389, -21.72534944], [-47.6460475, -21.72548194], [-47.64579361, -21.72536667], [-47.64564472, -21.72548556], [-47.64606472, -21.72602], [-47.64616472, -21.72657972], [-47.64565694, -21.72840333], [-47.64554889, -21.72963722], [-47.6456075, -21.73029083], [-47.64606444, -21.73194417], [-47.64708583, -21.73457972], [-47.64710389, -21.73534694], [-47.64753111, -21.73617139], [-47.64832333, -21.73669167], [-47.65051, -21.73697833], [-47.65151417, -21.73730861], [-47.65302111, -21.73820139], [-47.65402472, -21.73853889], [-47.65476389, -21.73847889], [-47.65700861, -21.73868639], [-47.65860361, -21.73868639], [-47.65957583, -21.73882083], [-47.66029944, -21.73619833], [-47.66070056, -21.73383222], [-47.65544889, -21.7319175]]], [[[-47.60065139, -21.73043222], [-47.60244333, -21.72958667], [-47.60620972, -21.72781778], [-47.60758028, -21.72725056], [-47.60840111, -21.72712472], [-47.61081139, -21.72709306], [-47.6112975, -21.72698056], [-47.61197917, -21.72668389], [-47.61281889, -21.7261025], [-47.61350861, -21.72526528], [-47.61405833, -21.72415833], [-47.61436278, -21.72376222], [-47.61508167, -21.72332056], [-47.61522889, -21.7234625], [-47.61511861, -21.72417167], [-47.61524028, -21.7244225], [-47.61536556, -21.72455556], [-47.61607444, -21.72470417], [-47.61728833, -21.72547778], [-47.6185375, -21.72469556], [-47.61827694, -21.72335611], [-47.61927, -21.723205], [-47.6195225, -21.72317389], [-47.61967306, -21.72306028], [-47.61969639, -21.72286389], [-47.61933861, -21.71858722], [-47.61924917, -21.71831167], [-47.61702861, -21.71785167], [-47.61658194, -21.71788222], [-47.61802389, -21.71536583], [-47.617915, -21.7154325], [-47.61688139, -21.71555333], [-47.61629278, -21.71599222], [-47.61543333, -21.71614028], [-47.61475778, -21.71634861], [-47.61437028, -21.71662194], [-47.61438806, -21.7188425], [-47.61274611, -21.71934472], [-47.61170972, -21.71976361], [-47.6103775, -21.72066056], [-47.60894139, -21.72093556], [-47.60583333, -21.7226175], [-47.60523306, -21.72283889], [-47.60407444, -21.72291944], [-47.60261611, -21.72267], [-47.60234306, -21.72255222], [-47.60120917, -21.72239444], [-47.59858028, -21.72185056], [-47.59783667, -21.72155889], [-47.59726306, -21.71496944], [-47.59667333, -21.7148825], [-47.59596944, -21.71499833], [-47.59559472, -21.71513528], [-47.59522583, -21.71510306], [-47.59086806, -21.7158575], [-47.58763472, -21.72472194], [-47.58703139, -21.72639111], [-47.587025, -21.72645472], [-47.58704639, -21.72652444], [-47.58837722, -21.72700444], [-47.58895833, -21.72783417], [-47.59077778, -21.72813194], [-47.59104556, -21.72836083], [-47.59099333, -21.72876333], [-47.59069306, -21.7293775], [-47.59146472, -21.72977667], [-47.5917075, -21.72980222], [-47.59310472, -21.730845], [-47.59415361, -21.73117778], [-47.594455, -21.73139806], [-47.59467528, -21.73195139], [-47.59474333, -21.73230778], [-47.59486806, -21.73238361], [-47.59602083, -21.73241472], [-47.59639611, -21.73234111], [-47.59689556, -21.73217139], [-47.60065139, -21.73043222]]], [[[-47.584745, -21.72963389], [-47.58475833, -21.72933], [-47.58479167, -21.72918333], [-47.58506528, -21.72842361], [-47.58568472, -21.72715667], [-47.58573278, -21.72708806], [-47.58594278, -21.72683111], [-47.58598556, -21.72674167], [-47.58980778, -21.71630056], [-47.58924139, -21.70813444], [-47.58888556, -21.70815944], [-47.58751917, -21.70824611], [-47.58745861, -21.70704111], [-47.58707472, -21.70696222], [-47.58688083, -21.70697611], [-47.58652611, -21.70697306], [-47.58597583, -21.70689639], [-47.58587444, -21.70678389], [-47.58579194, -21.7064], [-47.58553111, -21.70589056], [-47.58522472, -21.70539694], [-47.58485583, -21.70520722], [-47.58472667, -21.70543306], [-47.58443333, -21.7055775], [-47.58420389, -21.70594972], [-47.58378917, -21.70645083], [-47.58357139, -21.70686278], [-47.58340139, -21.70724056], [-47.583225, -21.70748111], [-47.58305806, -21.70763194], [-47.5819225, -21.70832], [-47.58173556, -21.70861528], [-47.58164083, -21.70887111], [-47.58145667, -21.70909861], [-47.58097361, -21.70929028], [-47.58086639, -21.70950278], [-47.58003778, -21.71024806], [-47.58000472, -21.71060306], [-47.58022361, -21.7108825], [-47.58018778, -21.71122028], [-47.58007861, -21.71137944], [-47.57991194, -21.71168639], [-47.5797275, -21.71213], [-47.57960833, -21.71251444], [-47.5795075, -21.71267306], [-47.57954889, -21.71280194], [-47.5794575, -21.71355], [-47.57953556, -21.71371972], [-47.57953222, -21.71404778], [-47.579395, -21.71438056], [-47.57954472, -21.7145825], [-47.57945111, -21.7148025], [-47.57927778, -21.71495944], [-47.57927861, -21.71503389], [-47.57957306, -21.71541083], [-47.57956833, -21.71593056], [-47.57948361, -21.71617528], [-47.57927583, -21.71649417], [-47.57934389, -21.71731028], [-47.57929083, -21.71758], [-47.57970472, -21.71784556], [-47.58015889, -21.71837528], [-47.58033889, -21.71877944], [-47.57943806, -21.71971944], [-47.57921778, -21.72068667], [-47.5789775, -21.72133889], [-47.57876944, -21.72192833], [-47.57946278, -21.72224528], [-47.57955333, -21.72206639], [-47.58029694, -21.72201194], [-47.58047917, -21.72224], [-47.58045278, -21.72246], [-47.57999306, -21.72250778], [-47.57983472, -21.72263028], [-47.57981417, -21.72328972], [-47.57952167, -21.72359306], [-47.57907722, -21.72361167], [-47.57932583, -21.72383778], [-47.57984028, -21.72380306], [-47.57990583, -21.72360194], [-47.58008722, -21.72339389], [-47.58054806, -21.7230275], [-47.58046861, -21.72357667], [-47.58016167, -21.72423528], [-47.5805925, -21.72446444], [-47.58049889, -21.72471833], [-47.58034306, -21.72476139], [-47.57998583, -21.72455667], [-47.57998417, -21.72475917], [-47.58032, -21.72481778], [-47.58052583, -21.725185], [-47.58029611, -21.72537556], [-47.58024639, -21.72559444], [-47.58149806, -21.72588528], [-47.58181556, -21.7257125], [-47.58231722, -21.72592306], [-47.58227389, -21.72611028], [-47.58175444, -21.72616889], [-47.58174528, -21.72635083], [-47.58229111, -21.72644778], [-47.58238806, -21.72727528], [-47.58205111, -21.72758056], [-47.582045, -21.72802056], [-47.58220167, -21.72808389], [-47.5822475, -21.72782361], [-47.58249889, -21.72767417], [-47.58273028, -21.72766389], [-47.58287889, -21.72775583], [-47.58291889, -21.72832417], [-47.58316222, -21.72837667], [-47.58348417, -21.72858444], [-47.58359583, -21.72860722], [-47.58375861, -21.72860861], [-47.58387278, -21.72870361], [-47.58398778, -21.72972944], [-47.58398083, -21.72997056], [-47.58390333, -21.73020944], [-47.58337944, -21.73045139], [-47.58364556, -21.73046778], [-47.58394556, -21.73058444], [-47.58452222, -21.73075889], [-47.58481222, -21.73004944], [-47.584745, -21.72963389]]], [[[-47.62390083, -21.69403417], [-47.62401917, -21.69397778], [-47.62441972, -21.69335583], [-47.628795, -21.69185333], [-47.6298275, -21.69118583], [-47.63019917, -21.69052917], [-47.63045, -21.69046417], [-47.63092194, -21.69081333], [-47.63120528, -21.69077472], [-47.63132639, -21.69051556], [-47.63108806, -21.69018167], [-47.63048889, -21.68989333], [-47.6304575, -21.68872306], [-47.63078694, -21.68751444], [-47.63130778, -21.68651194], [-47.63116083, -21.68550056], [-47.63084528, -21.68533083], [-47.62818583, -21.68589417], [-47.62616694, -21.68659889], [-47.62404222, -21.68719694], [-47.6231625, -21.68727361], [-47.62213083, -21.68742278], [-47.62124611, -21.68738111], [-47.61841222, -21.68757417], [-47.61693083, -21.68748611], [-47.61643028, -21.68722278], [-47.61579167, -21.68650944], [-47.61547333, -21.68549056], [-47.61477028, -21.68476361], [-47.61445139, -21.68414056], [-47.61428833, -21.68399056], [-47.61415417, -21.68399778], [-47.61408472, -21.68518917], [-47.61433333, -21.68548417], [-47.61496861, -21.68588472], [-47.61505917, -21.68650917], [-47.61564611, -21.68748972], [-47.61566694, -21.68860306], [-47.61594556, -21.68925556], [-47.61599583, -21.68957778], [-47.61591111, -21.6904], [-47.61561889, -21.69089722], [-47.61518639, -21.69091806], [-47.614875, -21.69110528], [-47.61419361, -21.69086444], [-47.61303694, -21.69098556], [-47.61081333, -21.69092611], [-47.60827028, -21.69145639], [-47.60827778, -21.69238389], [-47.60815167, -21.69265833], [-47.60897167, -21.69365417], [-47.60918694, -21.69422417], [-47.60965444, -21.69441028], [-47.61015444, -21.69474472], [-47.6104325, -21.694875], [-47.61067778, -21.6947025], [-47.61080944, -21.69449556], [-47.61119944, -21.69460611], [-47.61169833, -21.69464583], [-47.61205778, -21.69472], [-47.61266167, -21.69496389], [-47.61286361, -21.69469889], [-47.61312417, -21.69467194], [-47.61337972, -21.69492472], [-47.61408306, -21.69493778], [-47.61456111, -21.69471028], [-47.61492083, -21.69429444], [-47.61553556, -21.69415389], [-47.61561361, -21.69434889], [-47.61590583, -21.69442833], [-47.6163275, -21.69438528], [-47.61682806, -21.69428583], [-47.61683083, -21.6941425], [-47.616885, -21.694085], [-47.61692806, -21.694115], [-47.61703111, -21.69431944], [-47.61721694, -21.69440583], [-47.61759333, -21.69439417], [-47.61792694, -21.69457917], [-47.6182275, -21.694455], [-47.61874028, -21.69462139], [-47.61924833, -21.69502111], [-47.61940778, -21.69522389], [-47.61975889, -21.69526667], [-47.61996583, -21.69525833], [-47.62062222, -21.69556333], [-47.62331111, -21.69439389], [-47.62369389, -21.69396028], [-47.62390083, -21.69403417]]], [[[-47.63860944, -21.64581889], [-47.64174778, -21.6449075], [-47.64922917, -21.64280111], [-47.65375361, -21.64153083], [-47.65378083, -21.64127389], [-47.65394889, -21.63992333], [-47.65390972, -21.63975417], [-47.65379806, -21.63949417], [-47.65353083, -21.63909056], [-47.65298972, -21.63844861], [-47.65228806, -21.63748444], [-47.64823667, -21.631615], [-47.64730583, -21.63028472], [-47.64689, -21.62967111], [-47.64529278, -21.62735917], [-47.64328, -21.62449889], [-47.64199833, -21.62263472], [-47.64076861, -21.62088556], [-47.64038472, -21.62036972], [-47.63891444, -21.61827111], [-47.63841278, -21.61753667], [-47.63757167, -21.61634889], [-47.63436194, -21.61177444], [-47.63364111, -21.61074083], [-47.63339944, -21.61036361], [-47.63328889, -21.61028278], [-47.63289167, -21.61024667], [-47.63207444, -21.61022833], [-47.63080722, -21.61012806], [-47.62978861, -21.61007056], [-47.62749222, -21.60995444], [-47.62617194, -21.60987389], [-47.62478889, -21.60981333], [-47.62213333, -21.60969167], [-47.62121778, -21.60964361], [-47.6196325, -21.60953806], [-47.61907889, -21.60949056], [-47.61850361, -21.60940306], [-47.61792028, -21.61025583], [-47.61776611, -21.61070139], [-47.61762694, -21.61082361], [-47.61718917, -21.61208194], [-47.61709167, -21.61239056], [-47.6169, -21.61307222], [-47.61679639, -21.61350194], [-47.61664972, -21.61421639], [-47.61194222, -21.6428175], [-47.61582361, -21.64342361], [-47.62109722, -21.64414111], [-47.625585, -21.64479417], [-47.626345, -21.64485806], [-47.62811722, -21.64515278], [-47.62992778, -21.64543417], [-47.63287083, -21.6459575], [-47.63526806, -21.64623083], [-47.63526861, -21.64629917], [-47.635395, -21.64647861], [-47.63542944, -21.64658861], [-47.6353875, -21.64664972], [-47.6354475, -21.64677722], [-47.63551278, -21.64682667], [-47.63552833, -21.646855], [-47.63805694, -21.64613583], [-47.63806167, -21.64599556], [-47.63860944, -21.64581889]]]]}}]}