{"type": "FeatureCollection", "features": [{"type": "Feature", "properties": {"name": "Parque Estadual Assessoria de Reforma Agrária"}, "geometry": {"type": "MultiPolygon", "coordinates": [[[[-47.06261833, -23.02577194], [-47.06304278, -23.02575722], [-47.06305806, -23.02567972], [-47.0634875, -23.02510333], [-47.06365444, -23.02501], [-47.06365528, -23.02439917], [-47.0633875, -23.0238225], [-47.06351417, -23.02344333], [-47.063805, -23.02210167], [-47.06265722, -23.02157306], [-47.05984167, -23.02023667], [-47.05976861, -23.02019167], [-47.05970139, -23.0201375], [-47.0596425, -23.02007639], [-47.05959333, -23.02001], [-47.05948111, -23.01982083], [-47.05944028, -23.01976722], [-47.05939583, -23.01972583], [-47.05934528, -23.0196975], [-47.05928556, -23.01968389], [-47.05833417, -23.01963472], [-47.05763139, -23.0202525], [-47.0586875, -23.021675], [-47.05923722, -23.022775], [-47.06067611, -23.02411306], [-47.06138778, -23.02494361], [-47.062595, -23.02588222], [-47.06261833, -23.02577194]]], [[[-47.06149028, -23.01981722], [-47.06065278, -23.01976389], [-47.05961361, -23.01974889], [-47.05964556, -23.01981556], [-47.05971833, -23.01993917], [-47.05975778, -23.01999278], [-47.05980417, -23.02004083], [-47.05985778, -23.02008389], [-47.05991972, -23.02012167], [-47.06095167, -23.02061583], [-47.06156167, -23.02088167], [-47.06159583, -23.01974667], [-47.06149028, -23.01981722]]], [[[-47.07262639, -23.01418556], [-47.07291639, -23.01410806], [-47.07292778, -23.01385889], [-47.07290833, -23.01354444], [-47.07292167, -23.01341389], [-47.07283389, -23.01296111], [-47.07260139, -23.01261639], [-47.07238694, -23.01226917], [-47.07224917, -23.01201111], [-47.07211806, -23.01172417], [-47.07200333, -23.01149389], [-47.07185056, -23.01125694], [-47.07168167, -23.01102444], [-47.07139556, -23.01070361], [-47.07088639, -23.01016056], [-47.07067694, -23.00995139], [-47.07057056, -23.00986083], [-47.07044944, -23.0097875], [-47.07017611, -23.00965861], [-47.0699925, -23.00955222], [-47.06952833, -23.00924139], [-47.06940278, -23.00914], [-47.06929472, -23.0090125], [-47.06922361, -23.00887139], [-47.06906623, -23.00838893], [-47.06818646, -23.00829605], [-47.06778362, -23.00828939], [-47.06586306, -23.00847556], [-47.06466806, -23.00840389], [-47.06444806, -23.00851556], [-47.06475444, -23.00914389], [-47.06512306, -23.00939028], [-47.06549528, -23.00960694], [-47.06548611, -23.00983389], [-47.06591917, -23.01046639], [-47.06623944, -23.01068306], [-47.06640306, -23.01099], [-47.06630722, -23.01108583], [-47.06634944, -23.011385], [-47.06654444, -23.011365], [-47.06666806, -23.01144944], [-47.06665556, -23.0116375], [-47.06675, -23.01194611], [-47.06674806, -23.012055], [-47.06684417, -23.01228], [-47.06673889, -23.01245722], [-47.066795, -23.01276306], [-47.06665306, -23.012855], [-47.06656417, -23.01295], [-47.06669806, -23.01333], [-47.06701278, -23.01347333], [-47.06686222, -23.01381417], [-47.066995, -23.01438194], [-47.06706583, -23.01452667], [-47.06719167, -23.01460111], [-47.06727417, -23.01475222], [-47.06743972, -23.0148475], [-47.06745361, -23.01509472], [-47.06763056, -23.01530333], [-47.06790889, -23.01533944], [-47.06801861, -23.01533806], [-47.06811722, -23.01532472], [-47.06815278, -23.01529583], [-47.06819889, -23.0152875], [-47.06825472, -23.01530667], [-47.06830444, -23.01536833], [-47.06838083, -23.01539028], [-47.06845444, -23.01543056], [-47.06848111, -23.01525472], [-47.06891222, -23.01540333], [-47.07029861, -23.01557194], [-47.07187611, -23.01434111], [-47.07262639, -23.01418556]]]]}}]}