{"type": "FeatureCollection", "features": [{"type": "Feature", "properties": {"name": "Parque Estadual Aguapeí"}, "geometry": {"type": "MultiPolygon", "coordinates": [[[[-51.37085694, -21.29241054], [-51.38704881, -21.29123423], [-51.45382747, -21.25324733], [-51.59208673, -21.18711178], [-51.60801751, -21.15240383], [-51.64008121, -21.16665507], [-51.64173236, -21.16731535], [-51.64165189, -21.16701596], [-51.64156555, -21.16685239], [-51.64171373, -21.16668116], [-51.64184167, -21.16617299], [-51.64138974, -21.1659294], [-51.64107076, -21.16571693], [-51.64086033, -21.16554552], [-51.64157922, -21.1647497], [-51.64170495, -21.16464595], [-51.64196262, -21.16435658], [-51.64215256, -21.16341901], [-51.64181531, -21.16256277], [-51.64159773, -21.16202737], [-51.64132981, -21.16134244], [-51.64138561, -21.16081458], [-51.6416707, -21.16002845], [-51.64196326, -21.15945722], [-51.64211492, -21.15877703], [-51.64239487, -21.15823269], [-51.6426824, -21.15774605], [-51.64302799, -21.15696754], [-51.64346137, -21.15695731], [-51.64381551, -21.15668519], [-51.64335503, -21.15639718], [-51.64363691, -21.15607627], [-51.64367221, -21.15559764], [-51.64389482, -21.15511296], [-51.6441409, -21.15497957], [-51.64450336, -21.15494016], [-51.64480683, -21.15493665], [-51.64454178, -21.14662068], [-51.59827298, -21.13629832], [-51.57183227, -21.1676841], [-51.51533898, -21.20172242], [-51.49297343, -21.21518865], [-51.42650066, -21.24306171], [-51.41828567, -21.2324541], [-51.40933406, -21.23861725], [-51.41392416, -21.25037593], [-51.398013, -21.25942224], [-51.38387002, -21.23009641], [-51.35846797, -21.23861183], [-51.37085694, -21.29241054]]]]}}]}