{"type": "FeatureCollection", "features": [{"type": "Feature", "properties": {"name": "Parque Estadual Campos do Jordão"}, "geometry": {"type": "MultiPolygon", "coordinates": [[[[-45.50822134, -22.74786061], [-45.5087535, -22.74802274], [-45.509402, -22.74811238], [-45.51004097, -22.74798077], [-45.51085351, -22.74763172], [-45.51167558, -22.74692409], [-45.5122764, -22.74627177], [-45.51181481, -22.74497668], [-45.5116565, -22.74468485], [-45.51122352, -22.744229], [-45.5109069, -22.74382845], [-45.51066276, -22.74343554], [-45.51049681, -22.74308077], [-45.51028319, -22.74245706], [-45.51010008, -22.74161783], [-45.51001615, -22.74042573], [-45.5099265, -22.73980774], [-45.50963276, -22.73870148], [-45.50962323, -22.73853935], [-45.50952786, -22.73823608], [-45.50925892, -22.73759521], [-45.50898998, -22.7367884], [-45.50884692, -22.7362696], [-45.5088145, -22.73605216], [-45.50873439, -22.73591292], [-45.50871722, -22.73545707], [-45.50855891, -22.73503363], [-45.50830713, -22.73479521], [-45.50771013, -22.73443854], [-45.50743356, -22.73405707], [-45.50726571, -22.73360884], [-45.50723328, -22.73301374], [-45.50728669, -22.73263418], [-45.5076529, -22.73197423], [-45.50797333, -22.73154317], [-45.50815262, -22.73109113], [-45.50824608, -22.73073445], [-45.50828995, -22.73026333], [-45.50835289, -22.73003254], [-45.5083815, -22.72941456], [-45.50833382, -22.72900829], [-45.50813354, -22.72832164], [-45.50788177, -22.72776279], [-45.50697958, -22.72619876], [-45.50579319, -22.72378595], [-45.50564442, -22.72353418], [-45.5055109, -22.72339304], [-45.50514659, -22.72290285], [-45.50497302, -22.72259576], [-45.50476893, -22.72219522], [-45.50462397, -22.7218023], [-45.50456866, -22.721541], [-45.50436266, -22.72095353], [-45.50425966, -22.72044427], [-45.50423486, -22.71999222], [-45.50434167, -22.71940094], [-45.50482423, -22.71823364], [-45.50493104, -22.71756415], [-45.50508744, -22.71711211], [-45.50513322, -22.71687369], [-45.50513131, -22.71656088], [-45.50509126, -22.71641211], [-45.50487, -22.7159696], [-45.5046106, -22.71556906], [-45.5045858, -22.71516279], [-45.50464684, -22.71494535], [-45.50524002, -22.71394971], [-45.505364, -22.71380094], [-45.50538689, -22.71353009], [-45.50544983, -22.71331265], [-45.50546318, -22.71282437], [-45.50540787, -22.7124944], [-45.50523239, -22.71201756], [-45.50469642, -22.71111919], [-45.50373319, -22.70978595], [-45.50350431, -22.70930339], [-45.50336125, -22.70879794], [-45.50329449, -22.70780421], [-45.50318386, -22.7073884], [-45.50318196, -22.70710993], [-45.50304844, -22.70669413], [-45.50269939, -22.70607996], [-45.5022893, -22.70551729], [-45.50153208, -22.70462083], [-45.50108957, -22.70403909], [-45.50061654, -22.70352601], [-45.50044106, -22.70342683], [-45.49969528, -22.70286035], [-45.49963233, -22.70264482], [-45.49911925, -22.70190476], [-45.49893042, -22.70152711], [-45.49872061, -22.70135544], [-45.49821516, -22.70070122], [-45.49790235, -22.70027016], [-45.49765248, -22.69980858], [-45.49727864, -22.6992955], [-45.49700016, -22.69899796], [-45.49658817, -22.69865654], [-45.49525873, -22.69793365], [-45.49348679, -22.69645736], [-45.49294319, -22.69607971], [-45.49282493, -22.6959214], [-45.49204863, -22.69536827], [-45.49191702, -22.69512413], [-45.49189222, -22.69495437], [-45.49191511, -22.69479606], [-45.49198568, -22.6946511], [-45.4926113, -22.69397208], [-45.49278677, -22.69370505], [-45.4928707, -22.69342467], [-45.49280966, -22.69320723], [-45.49273146, -22.69308516], [-45.49233473, -22.69277045], [-45.4921478, -22.69265791], [-45.49146497, -22.69238516], [-45.49125516, -22.69226309], [-45.49114644, -22.69215056], [-45.49086605, -22.69161841], [-45.49063144, -22.69148489], [-45.49036823, -22.69148489], [-45.48994289, -22.69166228], [-45.48974261, -22.69167181], [-45.4895328, -22.69162795], [-45.48933062, -22.69142958], [-45.48909792, -22.6913571], [-45.48937258, -22.69040914], [-45.48949465, -22.68976636], [-45.48958048, -22.68958517], [-45.48970255, -22.68950887], [-45.48988184, -22.68949933], [-45.49022326, -22.68974157], [-45.49071346, -22.69015165], [-45.49086795, -22.69020887], [-45.49104534, -22.69023176], [-45.49120174, -22.69020887], [-45.49138103, -22.68942304], [-45.49138675, -22.688765], [-45.49111018, -22.68862958], [-45.49106059, -22.68862767], [-45.49010882, -22.68820233], [-45.48821099, -22.68797727], [-45.4869979, -22.68731732], [-45.48630553, -22.68647427], [-45.48568754, -22.68542904], [-45.48586682, -22.68405956], [-45.48648099, -22.68296283], [-45.48705129, -22.68168871], [-45.48801832, -22.68138162], [-45.48973114, -22.68173257], [-45.49254068, -22.6806797], [-45.49368128, -22.67938079], [-45.49451671, -22.67887534], [-45.49544178, -22.6781658], [-45.49526057, -22.67755735], [-45.49489245, -22.67706335], [-45.49478564, -22.67667806], [-45.49481615, -22.67632329], [-45.49513087, -22.67559277], [-45.49535593, -22.67478596], [-45.49546847, -22.67454563], [-45.49585757, -22.67415462], [-45.49618945, -22.67411075], [-45.49678455, -22.67415271], [-45.49744259, -22.67417179], [-45.49821507, -22.67416225], [-45.49893033, -22.67406688], [-45.49917257, -22.6738132], [-45.49914395, -22.67260584], [-45.499287, -22.67199739], [-45.49965894, -22.67139467], [-45.50000226, -22.67094834], [-45.50062978, -22.66939194], [-45.50100553, -22.66760093], [-45.50112569, -22.66726142], [-45.50178182, -22.66672926], [-45.50227773, -22.66650801], [-45.50313033, -22.66652517], [-45.50415077, -22.66660719], [-45.50496521, -22.66699438], [-45.50601617, -22.66762762], [-45.50701182, -22.66858892], [-45.50791591, -22.66950827], [-45.50844998, -22.66994314], [-45.50895162, -22.67005949], [-45.5095696, -22.67025976], [-45.51062438, -22.67034368], [-45.51122329, -22.67021017], [-45.51173637, -22.66972951], [-45.51190612, -22.66926984], [-45.51242111, -22.6681712], [-45.5125756, -22.6679385], [-45.51262901, -22.66738155], [-45.51271865, -22.66715839], [-45.51295326, -22.66679218], [-45.51302192, -22.6665919], [-45.5131459, -22.66584803], [-45.51299712, -22.66528918], [-45.51258322, -22.66459299], [-45.51233717, -22.66424204], [-45.51201482, -22.66348101], [-45.51167531, -22.66305757], [-45.51093907, -22.66262461], [-45.51053852, -22.66228891], [-45.51033824, -22.66182161], [-45.5101208, -22.66143632], [-45.50981944, -22.66123605], [-45.50893633, -22.66109682], [-45.50873224, -22.66104913], [-45.50849573, -22.66077638], [-45.50802842, -22.66063143], [-45.50758782, -22.66034914], [-45.50721779, -22.65999246], [-45.50700607, -22.65968347], [-45.50630988, -22.65939737], [-45.50566138, -22.65896249], [-45.50531233, -22.65862871], [-45.50517118, -22.65834451], [-45.50508535, -22.65802408], [-45.50486982, -22.65775132], [-45.5042461, -22.65709138], [-45.5037025, -22.65638184], [-45.50335155, -22.65585541], [-45.50267252, -22.65501999], [-45.50218996, -22.65456032], [-45.50166543, -22.65423989], [-45.5010875, -22.65404915], [-45.50055725, -22.65395379], [-45.50006896, -22.65347695], [-45.49980956, -22.65236496], [-45.49912672, -22.65164017], [-45.49836377, -22.65113281], [-45.49765805, -22.65079902], [-45.49701336, -22.65040802], [-45.49662235, -22.65003608], [-45.49572207, -22.64925407], [-45.49460625, -22.6481192], [-45.49382423, -22.64682792], [-45.49290488, -22.64583037], [-45.49194738, -22.64497016], [-45.49155446, -22.64444182], [-45.491255, -22.64394781], [-45.49100704, -22.643347], [-45.49060459, -22.64293692], [-45.49001139, -22.64206716], [-45.48995226, -22.64151784], [-45.48999041, -22.64075109], [-45.48994844, -22.64035817], [-45.48971384, -22.6400282], [-45.48946969, -22.63988896], [-45.48880402, -22.63962384], [-45.48737922, -22.63879796], [-45.48656668, -22.63760395], [-45.48637976, -22.63723965], [-45.48633588, -22.63690205], [-45.48577791, -22.63613366], [-45.48577675, -22.63615524], [-45.48577025, -22.63612324], [-45.48564869, -22.63615971], [-45.48551061, -22.6361556], [-45.48535659, -22.63611542], [-45.48496014, -22.6359721], [-45.48404104, -22.63586195], [-45.48341707, -22.63580514], [-45.48323715, -22.63584181], [-45.48311098, -22.63593702], [-45.48305089, -22.63605467], [-45.48304037, -22.63634829], [-45.48305232, -22.6364702], [-45.48311534, -22.63665971], [-45.48320352, -22.63682657], [-45.48361635, -22.63738539], [-45.48374448, -22.63759733], [-45.48380245, -22.63773714], [-45.48384975, -22.63794931], [-45.48385458, -22.63819772], [-45.48381594, -22.63827914], [-45.48365587, -22.63842417], [-45.48359377, -22.63850112], [-45.48357947, -22.63858697], [-45.48358964, -22.63870441], [-45.4836331, -22.63887137], [-45.48371242, -22.63903377], [-45.48381812, -22.63916892], [-45.48402904, -22.63938961], [-45.4841357, -22.63953386], [-45.48417681, -22.63964665], [-45.48415499, -22.63975061], [-45.48407833, -22.63983212], [-45.48390344, -22.63990494], [-45.48382955, -22.63991868], [-45.48362212, -22.63991028], [-45.48327546, -22.63983454], [-45.48265674, -22.63962412], [-45.48227964, -22.63953493], [-45.48214642, -22.63953534], [-45.48205594, -22.63957624], [-45.4819717, -22.63966681], [-45.48191859, -22.63978441], [-45.48178395, -22.64025005], [-45.48161801, -22.64097327], [-45.48153413, -22.64116321], [-45.48142655, -22.64128096], [-45.4813109, -22.64134003], [-45.48122627, -22.64132673], [-45.48101858, -22.64124156], [-45.48079287, -22.64122418], [-45.48066153, -22.64124261], [-45.48053898, -22.64132428], [-45.48048582, -22.64144188], [-45.48041967, -22.64199765], [-45.48029735, -22.64234129], [-45.48022564, -22.64244539], [-45.4799755, -22.64265844], [-45.47990953, -22.64275799], [-45.47990088, -22.64281223], [-45.47994617, -22.64297922], [-45.48001765, -22.64307388], [-45.48016104, -22.64319538], [-45.48050943, -22.64341113], [-45.48091854, -22.64351833], [-45.48101708, -22.64359931], [-45.48107905, -22.64375271], [-45.48115293, -22.64401897], [-45.48126446, -22.644511], [-45.48132418, -22.64463729], [-45.48137795, -22.64469582], [-45.48152719, -22.64476765], [-45.48193539, -22.6448703], [-45.48205988, -22.64489254], [-45.48278333, -22.64494455], [-45.48295374, -22.64498017], [-45.48316636, -22.64506986], [-45.4832569, -22.64513285], [-45.48334691, -22.64522288], [-45.48345948, -22.64540773], [-45.48378104, -22.64612043], [-45.48393711, -22.64649036], [-45.48401184, -22.64671146], [-45.48402496, -22.64681978], [-45.48401367, -22.64697793], [-45.48387641, -22.64773265], [-45.48383095, -22.64786377], [-45.48375741, -22.64797692], [-45.48363793, -22.6480676], [-45.48356134, -22.64809041], [-45.48340444, -22.64810443], [-45.48330043, -22.64810025], [-45.48324987, -22.64808235], [-45.48314039, -22.64799687], [-45.48305725, -22.64787967], [-45.48292472, -22.64755483], [-45.48280737, -22.64739713], [-45.48270392, -22.64729807], [-45.48261521, -22.6472396], [-45.48250104, -22.64720382], [-45.48243414, -22.647204], [-45.4822901, -22.64724059], [-45.48195969, -22.6473861], [-45.48082053, -22.647778], [-45.48068636, -22.64785064], [-45.48052928, -22.64797761], [-45.48043597, -22.64808627], [-45.48040353, -22.64820833], [-45.48043509, -22.64836182], [-45.48052989, -22.64850604], [-45.48071764, -22.64871328], [-45.4811107, -22.64900117], [-45.48126903, -22.64914523], [-45.48137847, -22.64930752], [-45.4813993, -22.64942941], [-45.48137634, -22.6494701], [-45.48127312, -22.64953366], [-45.48103502, -22.64962923], [-45.48048683, -22.64977089], [-45.48010526, -22.64981268], [-45.47997891, -22.64985371], [-45.47990698, -22.64989911], [-45.47981009, -22.65003038], [-45.4797341, -22.65022029], [-45.47969372, -22.65041467], [-45.47969029, -22.65055919], [-45.47973604, -22.6507759], [-45.47981715, -22.65092921], [-45.47995494, -22.65109592], [-45.48014518, -22.65123535], [-45.48049259, -22.65141949], [-45.48077794, -22.65153609], [-45.48184393, -22.6518581], [-45.48218105, -22.65197907], [-45.48231483, -22.65205091], [-45.48240542, -22.65212293], [-45.48248453, -22.65222202], [-45.48252612, -22.65237548], [-45.48251358, -22.65254239], [-45.48243156, -22.65296201], [-45.48243728, -22.65310697], [-45.48247162, -22.65320615], [-45.48265282, -22.65345792], [-45.4838159, -22.65467969], [-45.48384749, -22.65476089], [-45.4838331, -22.65482419], [-45.4837992, -22.65486042], [-45.48364247, -22.65493314], [-45.48342762, -22.65497448], [-45.48286299, -22.65494906], [-45.48246467, -22.65489155], [-45.48192212, -22.65473959], [-45.48161345, -22.65467731], [-45.47963084, -22.65446644], [-45.47958046, -22.65448916], [-45.47955329, -22.65456152], [-45.47959775, -22.65500403], [-45.47959035, -22.6550718], [-45.47955653, -22.65513965], [-45.47951073, -22.65517141], [-45.47936215, -22.65521251], [-45.4792065, -22.65523554], [-45.47905346, -22.65523151], [-45.47891711, -22.65520028], [-45.47881961, -22.65515542], [-45.47864205, -22.65499785], [-45.4784875, -22.65480411], [-45.47832906, -22.65455612], [-45.4781726, -22.65407783], [-45.47806407, -22.65391556], [-45.47792438, -22.65380754], [-45.47775286, -22.65373128], [-45.47758343, -22.65372725], [-45.47745125, -22.65375475], [-45.47726577, -22.65386373], [-45.47707747, -22.65403141], [-45.4766874, -22.65443454], [-45.47656334, -22.65452527], [-45.47643885, -22.65458887], [-45.4760889, -22.65471638], [-45.4756222, -22.65485329], [-45.47507064, -22.65491363], [-45.47487617, -22.65497292], [-45.47478659, -22.65501835], [-45.47449365, -22.65527218], [-45.47371317, -22.65588876], [-45.47361711, -22.65598841], [-45.47349113, -22.65615591], [-45.4734314, -22.65629159], [-45.47341318, -22.65639552], [-45.47344541, -22.65664839], [-45.47355836, -22.65695521], [-45.47377276, -22.65739267], [-45.47398208, -22.65766761], [-45.47414199, -22.65773037], [-45.4745525, -22.65770654], [-45.47469681, -22.65773322], [-45.47474158, -22.65775567], [-45.47481308, -22.65784581], [-45.47486214, -22.65796309], [-45.47488687, -22.65807593], [-45.47488951, -22.65832435], [-45.47481079, -22.65921892], [-45.47470751, -22.65995999], [-45.47466499, -22.66006853], [-45.4744955, -22.66031291], [-45.47446937, -22.6604214], [-45.47448827, -22.66052071], [-45.47463461, -22.66087713], [-45.4746682, -22.66100799], [-45.47468432, -22.66117958], [-45.47465706, -22.66122483], [-45.47462124, -22.661243], [-45.4743507, -22.66129348], [-45.47429461, -22.66133882], [-45.47426043, -22.6615738], [-45.47424806, -22.66196227], [-45.47425753, -22.66214291], [-45.47428596, -22.66227385], [-45.47433003, -22.66235954], [-45.4743957, -22.66243159], [-45.47456553, -22.66254402], [-45.47467759, -22.66257981], [-45.47502512, -22.66262847], [-45.47565454, -22.6628389], [-45.47592178, -22.66297811], [-45.47605661, -22.66308161], [-45.47615615, -22.66319424], [-45.47621409, -22.66332506], [-45.47668684, -22.66515885], [-45.47680338, -22.6656177], [-45.47685755, -22.66592032], [-45.47686719, -22.66615062], [-45.47683463, -22.66631786], [-45.47628851, -22.66743965], [-45.47625569, -22.66753459], [-45.47624642, -22.66767466], [-45.47629001, -22.66786873], [-45.47643602, -22.66813478], [-45.47659063, -22.6683376], [-45.47682106, -22.66856274], [-45.47690513, -22.66867543], [-45.47694255, -22.66877017], [-45.47696125, -22.66889658], [-45.4769269, -22.66907282], [-45.47685908, -22.66917238], [-45.47661524, -22.6692996], [-45.47566732, -22.66936115], [-45.47533471, -22.66941181], [-45.47508679, -22.6695029], [-45.47496268, -22.66967942], [-45.47497906, -22.6699323], [-45.47520529, -22.67026137], [-45.47533908, -22.67068104], [-45.47540235, -22.67129961], [-45.47577656, -22.67193087], [-45.47580799, -22.67205274], [-45.47579315, -22.67225153], [-45.47588731, -22.67246802], [-45.4761443, -22.67272023], [-45.47664882, -22.67312072], [-45.47700667, -22.67358941], [-45.47711689, -22.67388717], [-45.47714919, -22.67424843], [-45.47738946, -22.6744916], [-45.47771597, -22.6746126], [-45.47815111, -22.6748281], [-45.47853171, -22.67509796], [-45.47865578, -22.67526473], [-45.47864134, -22.67557644], [-45.47860295, -22.67573463], [-45.47845704, -22.67603318], [-45.4783338, -22.67618714], [-45.47800057, -22.67633263], [-45.47757427, -22.67638361], [-45.47746641, -22.67642458], [-45.47742785, -22.6765331], [-45.47747476, -22.67664134], [-45.47768477, -22.67684399], [-45.47766972, -22.67697952], [-45.47758468, -22.67711079], [-45.47741482, -22.67726034], [-45.4771902, -22.67739199], [-45.47701239, -22.67743317], [-45.47654788, -22.67744361], [-45.47641571, -22.67749369], [-45.47630828, -22.67766114], [-45.47630879, -22.67781016], [-45.47635613, -22.67794552], [-45.47662775, -22.67828349], [-45.47721806, -22.6786837], [-45.47848524, -22.67968719], [-45.4789668, -22.67986191], [-45.47948554, -22.67987391], [-45.47972629, -22.67991385], [-45.47995944, -22.68003511], [-45.48005234, -22.68015226], [-45.48006026, -22.68023804], [-45.47996866, -22.68049578], [-45.47982885, -22.68061364], [-45.47963568, -22.68070455], [-45.47940313, -22.68075942], [-45.47872172, -22.68076147], [-45.47828775, -22.68080344], [-45.47790014, -22.68079103], [-45.47761996, -22.68062022], [-45.47727, -22.68014703], [-45.4769673, -22.67988144], [-45.47667181, -22.67976487], [-45.4762998, -22.6796937], [-45.47589658, -22.67965425], [-45.47557153, -22.67969137], [-45.47523747, -22.67959751], [-45.47455567, -22.67949109], [-45.47430713, -22.67940604], [-45.47411299, -22.67929821], [-45.4738403, -22.67899637], [-45.47360613, -22.67858153], [-45.47343529, -22.67843298], [-45.47274444, -22.67790202], [-45.47214639, -22.67756955], [-45.47196799, -22.67752943], [-45.47169581, -22.67727729], [-45.47116059, -22.67706204], [-45.47084058, -22.67689175], [-45.47057736, -22.67669339], [-45.47042859, -22.67651219], [-45.47000134, -22.67629666], [-45.46993267, -22.67623372], [-45.46940433, -22.67606778], [-45.46892368, -22.67576642], [-45.46868335, -22.67566914], [-45.46851931, -22.67564244], [-45.46826373, -22.6755032], [-45.4674016, -22.67517514], [-45.46702203, -22.67493291], [-45.46618088, -22.67392773], [-45.46548087, -22.6729855], [-45.4652558, -22.67280048], [-45.46500594, -22.67227787], [-45.46513564, -22.67175335], [-45.46513564, -22.67154163], [-45.46462827, -22.67098277], [-45.46462064, -22.670834], [-45.46476751, -22.67058986], [-45.46473699, -22.67048114], [-45.46451192, -22.67036479], [-45.46419339, -22.67032855], [-45.46396832, -22.67021793], [-45.46388249, -22.67013591], [-45.46356968, -22.66950458], [-45.46327213, -22.66859286], [-45.46310047, -22.66827815], [-45.46294597, -22.66811984], [-45.4628754, -22.66793864], [-45.46271899, -22.66773646], [-45.46237757, -22.66746561], [-45.46203043, -22.66734545], [-45.46183588, -22.66682284], [-45.46174623, -22.66645281], [-45.46171571, -22.66607324], [-45.4617653, -22.6652588], [-45.46163369, -22.66483537], [-45.46143723, -22.66439858], [-45.46143532, -22.66381875], [-45.46105575, -22.66287461], [-45.46106911, -22.66286888], [-45.46099853, -22.66251602], [-45.46133421, -22.65798414], [-45.46143339, -22.65607869], [-45.461462, -22.65422665], [-45.4615936, -22.65337787], [-45.46167561, -22.65253291], [-45.46168705, -22.65126452], [-45.46172711, -22.65027841], [-45.46179386, -22.64933237], [-45.46595764, -22.64942009], [-45.4666729, -22.64926559], [-45.46904948, -22.64885169], [-45.47336775, -22.64866667], [-45.47342497, -22.6477168], [-45.47357564, -22.64386394], [-45.47432523, -22.64259173], [-45.47550588, -22.64182497], [-45.47707374, -22.6416266], [-45.47822197, -22.64151406], [-45.47861298, -22.64143586], [-45.47886284, -22.64142823], [-45.47888838, -22.64030081], [-45.47847233, -22.63890705], [-45.47834751, -22.63838699], [-45.47793146, -22.63747169], [-45.47724497, -22.63622354], [-45.47701614, -22.63547466], [-45.4766833, -22.63478818], [-45.47616324, -22.63401849], [-45.4758304, -22.63370646], [-45.47543515, -22.63368565], [-45.4750399, -22.63354004], [-45.47445743, -22.63329041], [-45.47404138, -22.63283276], [-45.47350051, -22.63218789], [-45.47295964, -22.6314806], [-45.47200273, -22.6305237], [-45.47131624, -22.63019086], [-45.47106661, -22.62998284], [-45.47065056, -22.62981642], [-45.47000568, -22.6296084], [-45.46961044, -22.62927556], [-45.46904877, -22.6287347], [-45.46819586, -22.62677927], [-45.46752267, -22.62593174], [-45.46673577, -22.62517567], [-45.4660532, -22.62467823], [-45.46551124, -22.62446613], [-45.46511708, -22.6243662], [-45.46459702, -22.62409577], [-45.46430578, -22.62359651], [-45.46368171, -22.62295164], [-45.46259997, -22.62272282], [-45.46185481, -22.62283535], [-45.46114146, -22.62281628], [-45.46017442, -22.62298222], [-45.45906355, -22.62340931], [-45.45818985, -22.62353412], [-45.45739935, -22.62311808], [-45.45690009, -22.62218197], [-45.4561304, -22.62164111], [-45.45548552, -22.62159951], [-45.45475743, -22.62143309], [-45.45367793, -22.6213381], [-45.45344687, -22.62124587], [-45.45301002, -22.62126667], [-45.45180348, -22.62126668], [-45.4511378, -22.6214123], [-45.45055533, -22.62159952], [-45.44995667, -22.62197898], [-45.44937492, -22.62214874], [-45.44893623, -22.62251114], [-45.4481523, -22.62321305], [-45.44785857, -22.62342286], [-45.44766402, -22.62342286], [-45.44735121, -22.62301659], [-45.44692205, -22.6225531], [-45.44661878, -22.62184738], [-45.44640897, -22.62159561], [-45.44611905, -22.62141251], [-45.44575283, -22.62130951], [-45.44534084, -22.62129997], [-45.44420787, -22.62143158], [-45.44354792, -22.62159371], [-45.44242067, -22.62194848], [-45.44177789, -22.62222696], [-45.44096344, -22.62241388], [-45.44051903, -22.6224177], [-45.43966262, -22.62253786], [-45.43939941, -22.62251307], [-45.43902365, -22.62244631], [-45.43871657, -22.62218119], [-45.43824926, -22.62168146], [-45.43798104, -22.62126391], [-45.43788661, -22.62066344], [-45.43765778, -22.62018499], [-45.43730413, -22.61972734], [-45.43672166, -22.61954012], [-45.43598331, -22.61973597], [-45.43530709, -22.61974815], [-45.43484944, -22.61995617], [-45.43422537, -22.62003938], [-45.4336637, -22.62003938], [-45.43301882, -22.61991457], [-45.43239475, -22.62008099], [-45.43166666, -22.6201226], [-45.43079295, -22.6201226], [-45.43016888, -22.62001859], [-45.42962801, -22.6201018], [-45.42917036, -22.62037223], [-45.42860869, -22.62058026], [-45.42794301, -22.6208923], [-45.42717332, -22.62105872], [-45.42629962, -22.62120434], [-45.42565474, -22.62137076], [-45.42496826, -22.62151638], [-45.42419857, -22.62162039], [-45.42357449, -22.62157879], [-45.42261758, -22.62126676], [-45.4219519, -22.62116275], [-45.42053733, -22.62097553], [-45.41922677, -22.62099633], [-45.41856109, -22.62089232], [-45.41795782, -22.62091313], [-45.41725053, -22.62116276], [-45.41681368, -22.62157881], [-45.41631442, -22.62189085], [-45.41577356, -22.62216128], [-45.41455979, -22.62253984], [-45.41409058, -22.62243875], [-45.41388053, -22.6222653], [-45.41354769, -22.6223069], [-45.41311084, -22.62249413], [-45.4127156, -22.62293098], [-45.41229955, -22.62363826], [-45.41234116, -22.62436634], [-45.412674, -22.62611375], [-45.41294444, -22.62692504], [-45.41340209, -22.62798596], [-45.41329808, -22.62869324], [-45.41296525, -22.6291717], [-45.41271562, -22.62977497], [-45.41246599, -22.63052386], [-45.41223717, -22.63181361], [-45.41194593, -22.63270811], [-45.4116339, -22.6334362], [-45.41130106, -22.63395626], [-45.4107394, -22.6343099], [-45.41019853, -22.63453873], [-45.40960641, -22.63489], [-45.40938724, -22.63532923], [-45.40924162, -22.63578688], [-45.40949388, -22.63648455], [-45.40925737, -22.63715975], [-45.40925165, -22.63782161], [-45.4094214, -22.63815539], [-45.40990731, -22.63888644], [-45.41053139, -22.63953131], [-45.41098904, -22.64011378], [-45.41157152, -22.64094587], [-45.41186275, -22.64165315], [-45.41152991, -22.64198599], [-45.41063541, -22.64254766], [-45.40992812, -22.64265168], [-45.40932485, -22.6428181], [-45.40905442, -22.64308853], [-45.40872158, -22.64352538], [-45.40845799, -22.6441711], [-45.40828473, -22.64471112], [-45.40826393, -22.64512717], [-45.40828474, -22.64562643], [-45.40861758, -22.64604247], [-45.40899202, -22.64656253], [-45.4095953, -22.64720741], [-45.41009456, -22.64754024], [-45.41065623, -22.64781067], [-45.41107228, -22.64833073], [-45.41115549, -22.64905882], [-45.41088506, -22.64987011], [-45.41071865, -22.65113906], [-45.41065624, -22.65180474], [-45.41046902, -22.65249122], [-45.40990735, -22.65278245], [-45.40936649, -22.65288647], [-45.40870081, -22.65288647], [-45.40815994, -22.65282406], [-45.40718223, -22.6530945], [-45.40597569, -22.6539682], [-45.4052892, -22.65415542], [-45.40447791, -22.65421783], [-45.40320896, -22.65417623], [-45.40194, -22.65398901], [-45.40013019, -22.65405143], [-45.39954772, -22.65440507], [-45.39954772, -22.65515396], [-45.39973495, -22.65602766], [-45.39996377, -22.65665173], [-45.40046304, -22.65748382], [-45.40069187, -22.65854475], [-45.40104551, -22.65943925], [-45.40123274, -22.66029215], [-45.40125354, -22.66095783], [-45.40137836, -22.66174832], [-45.40152398, -22.66235159], [-45.40177361, -22.66376615], [-45.40217304, -22.6649844], [-45.40274571, -22.66542681], [-45.40339622, -22.66582558], [-45.4041035, -22.66615842], [-45.40466517, -22.66651206], [-45.40533085, -22.66699051], [-45.40580931, -22.66740656], [-45.40605309, -22.66784342], [-45.40625596, -22.66871467], [-45.40632938, -22.66919557], [-45.40657901, -22.66961162], [-45.40697426, -22.6703397], [-45.40784797, -22.67148383], [-45.40826402, -22.67189988], [-45.40891066, -22.67215718], [-45.40935826, -22.6724564], [-45.41003223, -22.67333524], [-45.4105315, -22.6738345], [-45.4113636, -22.67433375], [-45.4122165, -22.6748122], [-45.41311101, -22.67518665], [-45.4138391, -22.67529066], [-45.41462959, -22.67526985], [-45.41531607, -22.67535306], [-45.41604416, -22.67560269], [-45.41687626, -22.67593552], [-45.41739633, -22.67589392], [-45.41797879, -22.67562348], [-45.41864447, -22.67558188], [-45.41935126, -22.67602214], [-45.41980331, -22.6761938], [-45.42017334, -22.67651233], [-45.42037743, -22.67688617], [-45.42054146, -22.67704066], [-45.42164201, -22.67770061], [-45.42216463, -22.6780611], [-45.42245265, -22.67844829], [-45.42275592, -22.67889842], [-45.42304775, -22.67919597], [-45.42329189, -22.67937908], [-45.42373249, -22.67960414], [-45.42413635, -22.68007518], [-45.42438598, -22.68067845], [-45.42482283, -22.68094888], [-45.42511407, -22.68134413], [-45.42540526, -22.68209515], [-45.42519728, -22.68255067], [-45.42484364, -22.68309153], [-45.42457321, -22.68356999], [-45.42449, -22.68431887], [-45.42459402, -22.68517177], [-45.42521644, -22.68565428], [-45.42560364, -22.68588507], [-45.42608429, -22.68609297], [-45.42627122, -22.68622458], [-45.4266298, -22.68661558], [-45.42693022, -22.68704276], [-45.42688777, -22.68766045], [-45.4259878, -22.68852096], [-45.42555095, -22.68916583], [-45.42542613, -22.69047639], [-45.42530132, -22.69101725], [-45.42521811, -22.69159972], [-45.42517651, -22.69214058], [-45.42528052, -22.69268144], [-45.42557176, -22.69303508], [-45.42602812, -22.69354724], [-45.42646627, -22.69367996], [-45.42671756, -22.69397989], [-45.42708759, -22.69430796], [-45.42731918, -22.6949697], [-45.42765202, -22.69621785], [-45.42811517, -22.69640925], [-45.42862974, -22.69611383], [-45.429129, -22.69605142], [-45.42977387, -22.69630105], [-45.43039795, -22.69646747], [-45.43108443, -22.69684191], [-45.43159089, -22.69716326], [-45.43212456, -22.6976324], [-45.43260302, -22.69811085], [-45.4329127, -22.6988074], [-45.43299827, -22.69929659], [-45.43347673, -22.69981665], [-45.43539037, -22.70081202], [-45.43716804, -22.70135943], [-45.43778603, -22.70157496], [-45.43824051, -22.70220891], [-45.43940545, -22.70345706], [-45.44009194, -22.70397711], [-45.44102805, -22.70416433], [-45.44177052, -22.70383898], [-45.44258949, -22.70398806], [-45.44329641, -22.70429102], [-45.44446046, -22.70464278], [-45.44539657, -22.70476759], [-45.44593744, -22.70512123], [-45.44589584, -22.70582851], [-45.4456046, -22.70645259], [-45.44566701, -22.70711826], [-45.44647831, -22.70770073], [-45.44712641, -22.70825259], [-45.44749764, -22.70882406], [-45.44810092, -22.7109667], [-45.44814253, -22.71169479], [-45.44805932, -22.71296374], [-45.44751846, -22.71394145], [-45.44756007, -22.71487756], [-45.44820484, -22.71560659], [-45.45022279, -22.71583446], [-45.45109649, -22.71579286], [-45.4519702, -22.71581366], [-45.45321835, -22.7161881], [-45.45353137, -22.7165534], [-45.4536136, -22.71747785], [-45.45371761, -22.71799791], [-45.45430009, -22.71851796], [-45.45513219, -22.71851796], [-45.45575626, -22.71845555], [-45.45658836, -22.71868438], [-45.45755689, -22.71882046], [-45.458627, -22.71816431], [-45.45966713, -22.71743622], [-45.45997916, -22.71672894], [-45.46081126, -22.715564], [-45.46166416, -22.71539758], [-45.46218422, -22.71508554], [-45.46345317, -22.71439906], [-45.46445169, -22.71412863], [-45.46490934, -22.71406622], [-45.46661515, -22.71464868], [-45.46805786, -22.71558823], [-45.46818947, -22.71572556], [-45.46854233, -22.71597542], [-45.46944429, -22.71647929], [-45.47038041, -22.71691613], [-45.47119171, -22.71718656], [-45.4719198, -22.71772742], [-45.47248146, -22.71828909], [-45.47328023, -22.71894326], [-45.4744895, -22.71918931], [-45.47488814, -22.71936287], [-45.47559387, -22.71982636], [-45.47618516, -22.72039857], [-45.47665055, -22.72058549], [-45.4774814, -22.72130344], [-45.47793612, -22.72283235], [-45.47819362, -22.72337404], [-45.47874676, -22.72389284], [-45.47969281, -22.72466913], [-45.47999609, -22.72482172], [-45.48104323, -22.72484651], [-45.4815525, -22.72514024], [-45.48179282, -22.72547403], [-45.48187675, -22.72664324], [-45.48190537, -22.7275397], [-45.48182717, -22.72805468], [-45.48182907, -22.72849338], [-45.48215142, -22.72928493], [-45.48244706, -22.72958248], [-45.48280756, -22.72952525], [-45.48316614, -22.72942035], [-45.48353743, -22.72951103], [-45.48406859, -22.73004218], [-45.48459974, -22.73045383], [-45.48522385, -22.73054678], [-45.48550271, -22.73081235], [-45.48586124, -22.73101154], [-45.4862065, -22.73143646], [-45.48643224, -22.7321004], [-45.48705635, -22.73269795], [-45.48789292, -22.73318927], [-45.48875606, -22.73383993], [-45.48961919, -22.734796], [-45.49037311, -22.735412], [-45.49097364, -22.73557945], [-45.49218202, -22.73572552], [-45.49281941, -22.73609732], [-45.49361615, -22.73672143], [-45.49381534, -22.73743849], [-45.49393485, -22.73807587], [-45.49396141, -22.73875309], [-45.4939083, -22.73985524], [-45.4939083, -22.74035984], [-45.49398797, -22.74069181], [-45.49414732, -22.74093083], [-45.49445274, -22.74111673], [-45.49479347, -22.7414176], [-45.49498421, -22.74187918], [-45.49505288, -22.74279089], [-45.49538227, -22.743082], [-45.49576736, -22.74324135], [-45.49651097, -22.74313511], [-45.49696246, -22.74340069], [-45.49741394, -22.74357331], [-45.49778575, -22.74381233], [-45.49813519, -22.74412413], [-45.49862233, -22.74435676], [-45.4991402, -22.74452939], [-45.49997678, -22.74452939], [-45.50076021, -22.74482148], [-45.50148452, -22.74456663], [-45.50198043, -22.7443282], [-45.50249161, -22.7442767], [-45.50305047, -22.74428242], [-45.50353303, -22.74430531], [-45.50388017, -22.74435109], [-45.50439134, -22.74456852], [-45.50504366, -22.74488324], [-45.50580852, -22.74527043], [-45.50610988, -22.7454459], [-45.50639027, -22.74568814], [-45.5066058, -22.74593609], [-45.50697774, -22.74664182], [-45.50728101, -22.74712056], [-45.50771017, -22.74754018], [-45.50822134, -22.74786061]], [[-45.47099189, -22.67724191], [-45.47099082, -22.67724135], [-45.47099238, -22.6772384], [-45.47099189, -22.67724191]]]]}}]}