{"type": "FeatureCollection", "features": [{"type": "Feature", "properties": {"name": "Parque Estadual Furnas do Bom Jesus"}, "geometry": {"type": "MultiPolygon", "coordinates": [[[[-47.4556714, -20.26060962], [-47.45751378, -20.25887729], [-47.4575489, -20.25884727], [-47.457665, -20.25877611], [-47.45793651, -20.2586271], [-47.45918242, -20.25807242], [-47.46100383, -20.26029352], [-47.46247592, -20.25962764], [-47.4629991, -20.25964937], [-47.46328648, -20.25973644], [-47.46321815, -20.2599236], [-47.46359068, -20.26001562], [-47.46332417, -20.25962944], [-47.46369028, -20.25507917], [-47.46443833, -20.25365139], [-47.46452611, -20.253455], [-47.46464361, -20.25312361], [-47.46503111, -20.25207806], [-47.46511056, -20.25188806], [-47.465425, -20.25118361], [-47.46556694, -20.25084694], [-47.46589333, -20.2500325], [-47.46544639, -20.24945694], [-47.46480806, -20.2486725], [-47.46467278, -20.24852944], [-47.46264917, -20.24626222], [-47.46265972, -20.24622444], [-47.46481222, -20.24569361], [-47.46509389, -20.24472389], [-47.46519917, -20.24444333], [-47.46561472, -20.24293306], [-47.46335417, -20.24032333], [-47.46035389, -20.23874972], [-47.45858667, -20.23780583], [-47.45711139, -20.2353425], [-47.45770361, -20.23492972], [-47.4603625, -20.23311278], [-47.46248861, -20.23165556], [-47.46223028, -20.2294425], [-47.46214306, -20.22948556], [-47.46206167, -20.2294825], [-47.46195833, -20.22894194], [-47.46072139, -20.22742056], [-47.457375, -20.22543778], [-47.45241028, -20.22412111], [-47.45150167, -20.22236417], [-47.45227694, -20.22155278], [-47.45231944, -20.22149917], [-47.4495, -20.21877333], [-47.44905944, -20.21817528], [-47.44819278, -20.21569944], [-47.44816083, -20.21563306], [-47.44685278, -20.21403361], [-47.44673556, -20.21356139], [-47.44615472, -20.210445], [-47.44615389, -20.21008833], [-47.44552444, -20.21017778], [-47.44521111, -20.21017694], [-47.4444875, -20.21003722], [-47.44307111, -20.20927306], [-47.44235139, -20.2085725], [-47.44168639, -20.20827944], [-47.44022611, -20.20815861], [-47.44048528, -20.20741111], [-47.43993111, -20.20647806], [-47.43927833, -20.20536306], [-47.4391775, -20.20519528], [-47.43725278, -20.20531694], [-47.43403694, -20.20774278], [-47.43326611, -20.20754639], [-47.43125333, -20.20798889], [-47.43014694, -20.21055806], [-47.42881333, -20.21140944], [-47.42457667, -20.20729722], [-47.42385139, -20.20645111], [-47.42388444, -20.20486583], [-47.42435111, -20.20257083], [-47.42445667, -20.20120583], [-47.42322917, -20.20022806], [-47.42250639, -20.19626056], [-47.42393417, -20.19684694], [-47.4257675, -20.1965], [-47.42768444, -20.19378611], [-47.42769917, -20.19145889], [-47.42618944, -20.18966417], [-47.42358639, -20.18882472], [-47.42346389, -20.18946111], [-47.42343722, -20.18983639], [-47.42366361, -20.19053639], [-47.42403361, -20.19071972], [-47.424105, -20.19105222], [-47.42339222, -20.19165222], [-47.42248222, -20.19217722], [-47.42236583, -20.19214472], [-47.42115944, -20.19158028], [-47.42044833, -20.19180861], [-47.41940583, -20.19254694], [-47.41896917, -20.19300639], [-47.41897417, -20.19327889], [-47.41914639, -20.19347472], [-47.41955972, -20.19412056], [-47.4194925, -20.19446917], [-47.41925194, -20.1945775], [-47.41861778, -20.19434361], [-47.41819806, -20.1940725], [-47.41783778, -20.19407833], [-47.41754611, -20.19438472], [-47.41733889, -20.19478389], [-47.41705444, -20.19549944], [-47.41671028, -20.19578528], [-47.41624472, -20.19577722], [-47.41489056, -20.19483722], [-47.41343611, -20.19513389], [-47.41231222, -20.19564472], [-47.40906806, -20.19459694], [-47.40729056, -20.19561417], [-47.40530056, -20.19459556], [-47.40222889, -20.19817667], [-47.40149472, -20.19885806], [-47.39982417, -20.20026222], [-47.39926056, -20.2007275], [-47.39680222, -20.20284361], [-47.39641417, -20.20434056], [-47.39660278, -20.20500861], [-47.3973925, -20.2072875], [-47.39868083, -20.20949861], [-47.40144833, -20.2110325], [-47.40157806, -20.21109472], [-47.40159194, -20.211085], [-47.40307083, -20.21190111], [-47.4036725, -20.21221639], [-47.40594528, -20.21109556], [-47.40636139, -20.20571056], [-47.41129528, -20.20293361], [-47.41306306, -20.20435056], [-47.41364722, -20.20505944], [-47.41432111, -20.205905], [-47.41432639, -20.20593028], [-47.41461833, -20.21108944], [-47.41635722, -20.21486722], [-47.41599417, -20.21616194], [-47.41620889, -20.21643917], [-47.41628833, -20.21654833], [-47.41723222, -20.21775333], [-47.42027639, -20.2189575], [-47.42064722, -20.2193125], [-47.42089361, -20.21960361], [-47.42092194, -20.21972833], [-47.42149361, -20.22245083], [-47.42211611, -20.22376028], [-47.41804472, -20.22699472], [-47.4219625, -20.23196361], [-47.42154528, -20.2321175], [-47.42115222, -20.23216444], [-47.4205275, -20.23212389], [-47.42030056, -20.2322], [-47.4203025, -20.23275778], [-47.42065972, -20.23483444], [-47.4194825, -20.23693833], [-47.41934694, -20.23752556], [-47.42502528, -20.2399125], [-47.42526861, -20.23923111], [-47.42493583, -20.23911583], [-47.42483444, -20.23861167], [-47.42616583, -20.23928667], [-47.42650722, -20.23939806], [-47.42803389, -20.23870194], [-47.43018194, -20.23816639], [-47.43422778, -20.23714361], [-47.43517, -20.24205417], [-47.43718, -20.2463225], [-47.4395125, -20.24672167], [-47.44095806, -20.24357778], [-47.44172583, -20.24033083], [-47.44255556, -20.239895], [-47.44384611, -20.24081417], [-47.44497167, -20.24407083], [-47.4475075, -20.24390944], [-47.44651083, -20.25228528], [-47.44703806, -20.25471833], [-47.44720056, -20.25551917], [-47.447775, -20.25561389], [-47.44783806, -20.25562083], [-47.44952194, -20.2548625], [-47.45002306, -20.25443722], [-47.45113611, -20.25343806], [-47.45403556, -20.25082278], [-47.45599306, -20.25407389], [-47.45497361, -20.25440472], [-47.45445139, -20.25466222], [-47.45464056, -20.25637861], [-47.45493361, -20.25785167], [-47.45516056, -20.25886667], [-47.45520528, -20.25942417], [-47.4556714, -20.26060962]]]]}}]}