{"type": "FeatureCollection", "features": [{"type": "Feature", "properties": {"name": "Parque Estadual das Fontes do Ipiranga"}, "geometry": {"type": "MultiPolygon", "coordinates": [[[[-46.63007057, -23.67234503], [-46.63020425, -23.67228413], [-46.63031664, -23.67222607], [-46.63032038, -23.67222106], [-46.63036643, -23.67219286], [-46.63037311, -23.67220353], [-46.63040091, -23.67222211], [-46.63041582, -23.67220498], [-46.63039093, -23.67218005], [-46.6304503, -23.672124], [-46.63055584, -23.67204235], [-46.63074706, -23.67191376], [-46.63094912, -23.67183787], [-46.63110653, -23.67160346], [-46.63140999, -23.67111229], [-46.63156877, -23.67079318], [-46.631628, -23.67068087], [-46.63175874, -23.67041497], [-46.6319445, -23.66995744], [-46.63213863, -23.66939988], [-46.63227935, -23.66886392], [-46.63230142, -23.66871364], [-46.63236379, -23.6684303], [-46.63240751, -23.66813615], [-46.63241754, -23.66809117], [-46.63238981, -23.66809146], [-46.63239456, -23.66804411], [-46.63241954, -23.66804384], [-46.63245324, -23.66778257], [-46.63247425, -23.66756693], [-46.63244794, -23.66746013], [-46.63221116, -23.66690097], [-46.63204653, -23.66670968], [-46.63191547, -23.66657103], [-46.63170486, -23.66638149], [-46.63140538, -23.66613005], [-46.63098822, -23.6658811], [-46.63055265, -23.66567984], [-46.63051926, -23.66566665], [-46.62997553, -23.66551708], [-46.62993376, -23.66549288], [-46.62990208, -23.66546793], [-46.62987752, -23.66544291], [-46.62984626, -23.66539981], [-46.62982802, -23.6653629], [-46.62981549, -23.66532375], [-46.62980972, -23.66528888], [-46.62980849, -23.66525494], [-46.62981102, -23.66523722], [-46.62982337, -23.6651961], [-46.62987126, -23.66508834], [-46.6298988, -23.6650142], [-46.62999517, -23.66485826], [-46.6301727, -23.66455909], [-46.6302038, -23.66450486], [-46.63021552, -23.66446528], [-46.63022688, -23.66444259], [-46.63029472, -23.66434654], [-46.63035826, -23.66423582], [-46.63037608, -23.66421188], [-46.63054353, -23.66390821], [-46.6306244, -23.66368292], [-46.6309034, -23.66316338], [-46.63113746, -23.66280691], [-46.63112375, -23.66276381], [-46.63114727, -23.66269865], [-46.63136859, -23.66241075], [-46.63180057, -23.66186098], [-46.63215263, -23.66143177], [-46.63222527, -23.66133846], [-46.63221564, -23.66133053], [-46.63234752, -23.66115733], [-46.632656, -23.66090391], [-46.63274888, -23.66086474], [-46.63278195, -23.66085443], [-46.63284947, -23.6608377], [-46.63301489, -23.66080334], [-46.63295981, -23.66080085], [-46.63286888, -23.66075685], [-46.63280164, -23.66065409], [-46.63278926, -23.66058127], [-46.63277402, -23.66052618], [-46.63276123, -23.66044009], [-46.63275702, -23.66033514], [-46.63276316, -23.66024353], [-46.63277546, -23.66017334], [-46.63279942, -23.6600977], [-46.63282504, -23.66004488], [-46.6329064, -23.65994435], [-46.63297461, -23.65990328], [-46.63305338, -23.65989306], [-46.63313145, -23.65989187], [-46.63320491, -23.65992279], [-46.63328083, -23.65997544], [-46.63329596, -23.65998313], [-46.63334096, -23.65945414], [-46.63340831, -23.65882388], [-46.63341008, -23.65876473], [-46.63341396, -23.65875846], [-46.6334427, -23.65847512], [-46.63348, -23.65816559], [-46.63362315, -23.65682419], [-46.63372853, -23.65599581], [-46.63374133, -23.65576355], [-46.63374511, -23.6557748], [-46.633828, -23.65490603], [-46.63385455, -23.65455112], [-46.63388264, -23.65376093], [-46.63381546, -23.65310898], [-46.63382071, -23.65309583], [-46.63380314, -23.65298912], [-46.63380977, -23.6529895], [-46.6338068, -23.65295848], [-46.63379411, -23.65295897], [-46.633798, -23.65294015], [-46.63378795, -23.65287264], [-46.63379119, -23.65287323], [-46.63378861, -23.65284834], [-46.63369651, -23.65236395], [-46.63361106, -23.65195298], [-46.63358086, -23.65173409], [-46.63338621, -23.65114144], [-46.63320098, -23.65066985], [-46.63316138, -23.65059895], [-46.63314936, -23.65055529], [-46.63288142, -23.65005321], [-46.63287354, -23.6500127], [-46.63277296, -23.6498155], [-46.63271822, -23.64973563], [-46.63264026, -23.64958315], [-46.63234602, -23.64905616], [-46.63226814, -23.6490996], [-46.63122585, -23.64909752], [-46.63116612, -23.64896151], [-46.62840027, -23.64902029], [-46.62839478, -23.64909758], [-46.62656946, -23.64907515], [-46.62656625, -23.64933658], [-46.62594708, -23.64933119], [-46.62596323, -23.64678303], [-46.62644136, -23.64632641], [-46.62777032, -23.64634218], [-46.62786732, -23.64531911], [-46.62830611, -23.64533233], [-46.62850925, -23.64506874], [-46.62864274, -23.64386702], [-46.62894104, -23.64243182], [-46.62894372, -23.64160583], [-46.62920478, -23.64028986], [-46.62929988, -23.63963523], [-46.62899557, -23.63902044], [-46.62876702, -23.63891704], [-46.6291485, -23.63868237], [-46.62919766, -23.63864654], [-46.62952722, -23.63859285], [-46.63019394, -23.63860987], [-46.63016775, -23.63822819], [-46.63017001, -23.63822193], [-46.63014055, -23.63769625], [-46.63011594, -23.63715174], [-46.63010841, -23.63703968], [-46.6301105, -23.63701917], [-46.63010479, -23.6370148], [-46.63010681, -23.63701451], [-46.63010882, -23.63695599], [-46.62971979, -23.63704173], [-46.62885517, -23.63722151], [-46.62880752, -23.63764874], [-46.62895144, -23.63804958], [-46.62905061, -23.63804245], [-46.62907866, -23.63817017], [-46.62898634, -23.63819553], [-46.62907746, -23.6384577], [-46.6284316, -23.63886227], [-46.62838691, -23.6388939], [-46.62828542, -23.63883535], [-46.62825026, -23.63882254], [-46.62798288, -23.63869751], [-46.62787998, -23.63866401], [-46.6278252, -23.63863948], [-46.62762202, -23.6385358], [-46.62739935, -23.63841129], [-46.6273983, -23.6384048], [-46.62725359, -23.63828498], [-46.62710849, -23.63839448], [-46.62694334, -23.63841165], [-46.62684612, -23.63840662], [-46.62670146, -23.6382874], [-46.62633745, -23.63794492], [-46.62578064, -23.6375062], [-46.62560855, -23.63737411], [-46.62548419, -23.63727159], [-46.62537432, -23.63720331], [-46.6253916, -23.63720909], [-46.62535388, -23.63718502], [-46.62524231, -23.63712263], [-46.62478467, -23.63701078], [-46.62422166, -23.63691339], [-46.62402796, -23.63688301], [-46.62386479, -23.63685186], [-46.6235411, -23.63680631], [-46.62308314, -23.63671387], [-46.62247515, -23.63660611], [-46.62198493, -23.63650588], [-46.62194525, -23.63649329], [-46.62131866, -23.63635792], [-46.62122631, -23.63634769], [-46.6209922, -23.63630472], [-46.62088314, -23.63628907], [-46.62078997, -23.63627117], [-46.62068882, -23.63624776], [-46.62064668, -23.63624541], [-46.62054633, -23.63622831], [-46.62045142, -23.63619364], [-46.62039953, -23.63616764], [-46.62024638, -23.63608256], [-46.62016719, -23.6360582], [-46.62006673, -23.63605853], [-46.61994853, -23.63610102], [-46.61929277, -23.63632176], [-46.61888604, -23.63646432], [-46.61883185, -23.63649359], [-46.61873413, -23.63659871], [-46.61856824, -23.63681243], [-46.61855379, -23.6368003], [-46.61852676, -23.63683083], [-46.61853775, -23.63684354], [-46.61853387, -23.63685649], [-46.6183664, -23.63707347], [-46.61830696, -23.63715571], [-46.61818498, -23.63722009], [-46.61812182, -23.63723068], [-46.61808358, -23.63724977], [-46.61805343, -23.63723627], [-46.61799387, -23.63723689], [-46.61794741, -23.63722438], [-46.61789766, -23.63719519], [-46.61780614, -23.63712013], [-46.61767829, -23.63703614], [-46.61751609, -23.63694502], [-46.61728219, -23.63683993], [-46.61719929, -23.6368092], [-46.61707166, -23.63674932], [-46.61701731, -23.63674618], [-46.61696749, -23.6367374], [-46.61672035, -23.63668599], [-46.61668118, -23.63668179], [-46.61661861, -23.63668127], [-46.61656482, -23.63668445], [-46.61645792, -23.63671969], [-46.61615063, -23.63686631], [-46.61611674, -23.63688901], [-46.61587655, -23.63715388], [-46.61577775, -23.63725675], [-46.61572277, -23.63728161], [-46.61551051, -23.63735903], [-46.61510734, -23.6374963], [-46.61506216, -23.63750914], [-46.61497271, -23.63751739], [-46.61455947, -23.63751925], [-46.61430656, -23.63750491], [-46.61415514, -23.63750821], [-46.61406723, -23.63750415], [-46.61403418, -23.63752445], [-46.61387794, -23.63764227], [-46.6137118, -23.63780344], [-46.61363544, -23.63789723], [-46.61358464, -23.63797992], [-46.61345259, -23.63822524], [-46.61339483, -23.63838564], [-46.61336936, -23.63856341], [-46.61337029, -23.6386786], [-46.61341557, -23.63888461], [-46.61345534, -23.63904924], [-46.61346743, -23.63915917], [-46.61347332, -23.63941542], [-46.61350079, -23.63953973], [-46.61354197, -23.63963473], [-46.61360748, -23.63974411], [-46.61370903, -23.63989148], [-46.61374874, -23.6399595], [-46.61385948, -23.64017115], [-46.61392797, -23.64038423], [-46.61394675, -23.64049192], [-46.61394919, -23.64059879], [-46.6139333, -23.64072662], [-46.61381733, -23.64118972], [-46.61378614, -23.64126895], [-46.6137177, -23.64138279], [-46.61365, -23.64146439], [-46.61352818, -23.64158917], [-46.61345235, -23.64165325], [-46.61339686, -23.64172235], [-46.61331227, -23.64185089], [-46.61326287, -23.64195523], [-46.613131, -23.64218286], [-46.61306177, -23.64227801], [-46.61291806, -23.64241024], [-46.61283328, -23.64247649], [-46.61270119, -23.64259415], [-46.61262921, -23.64269557], [-46.61254135, -23.64283452], [-46.61253549, -23.64291033], [-46.61253049, -23.64304951], [-46.61253468, -23.64312106], [-46.61258881, -23.64364659], [-46.61262347, -23.64377768], [-46.61269409, -23.64393341], [-46.61287769, -23.64426004], [-46.61302344, -23.64456432], [-46.613089, -23.64472967], [-46.61319112, -23.64490457], [-46.61330732, -23.64508583], [-46.61350251, -23.6454016], [-46.61367362, -23.64571753], [-46.61371366, -23.6458055], [-46.6137864, -23.64602196], [-46.61387473, -23.646317], [-46.61389002, -23.64638446], [-46.61390704, -23.64650662], [-46.61390233, -23.64663677], [-46.61388479, -23.64670918], [-46.613851, -23.64690635], [-46.61383891, -23.64695523], [-46.61383045, -23.64697093], [-46.61376142, -23.64720802], [-46.61373367, -23.64729119], [-46.61364944, -23.64751534], [-46.6135932, -23.64772069], [-46.61356265, -23.64793877], [-46.61354118, -23.64804724], [-46.61355852, -23.64805067], [-46.61355502, -23.64809459], [-46.613556, -23.64812139], [-46.61353415, -23.64811981], [-46.61352628, -23.6481766], [-46.61352544, -23.64820649], [-46.61351118, -23.64829638], [-46.61350486, -23.64846663], [-46.61351047, -23.64855442], [-46.61353828, -23.64865389], [-46.6136236, -23.64889488], [-46.61365593, -23.64895991], [-46.61379397, -23.64938028], [-46.61392733, -23.64982101], [-46.61392634, -23.64983212], [-46.613945, -23.64991716], [-46.61402114, -23.65015354], [-46.61409806, -23.6503622], [-46.61432844, -23.65081059], [-46.61444194, -23.65108143], [-46.61444954, -23.65108831], [-46.61452096, -23.65132194], [-46.61454406, -23.65142643], [-46.61454704, -23.65166881], [-46.61451433, -23.65188818], [-46.61446365, -23.65209311], [-46.61446384, -23.65210783], [-46.61433242, -23.65251764], [-46.61429496, -23.65264036], [-46.61429343, -23.65265338], [-46.61414118, -23.65312508], [-46.61413802, -23.65312421], [-46.61411783, -23.65318455], [-46.61408663, -23.65329068], [-46.61392109, -23.65380477], [-46.61386253, -23.65401962], [-46.6138277, -23.65421798], [-46.61379252, -23.65451267], [-46.61378592, -23.65459445], [-46.61378991, -23.65470212], [-46.61385015, -23.65484838], [-46.61394501, -23.65499672], [-46.61401792, -23.65508851], [-46.61400348, -23.65509118], [-46.61404058, -23.65514993], [-46.61427646, -23.65548586], [-46.61428256, -23.65548923], [-46.61449448, -23.65579597], [-46.61472822, -23.65614817], [-46.61495638, -23.65647398], [-46.61511753, -23.65668149], [-46.61530688, -23.65698666], [-46.61538395, -23.65709483], [-46.61535363, -23.65712061], [-46.61535776, -23.65712815], [-46.61547931, -23.6572967], [-46.61559126, -23.65746735], [-46.61565719, -23.65755685], [-46.61571749, -23.65762204], [-46.61577511, -23.65767985], [-46.61582446, -23.65771591], [-46.61590448, -23.65776753], [-46.61601632, -23.6578236], [-46.6161227, -23.65787007], [-46.61629525, -23.65791937], [-46.61640133, -23.65793415], [-46.61649639, -23.65792097], [-46.61658329, -23.65788838], [-46.61667129, -23.65783266], [-46.61688171, -23.6576294], [-46.61695348, -23.6575687], [-46.617072, -23.65749136], [-46.61724769, -23.65749377], [-46.61733457, -23.65750505], [-46.61753818, -23.65758264], [-46.61770545, -23.65762369], [-46.61782802, -23.65763216], [-46.61792507, -23.65762916], [-46.61807304, -23.65764513], [-46.61815274, -23.65767175], [-46.61818129, -23.65769258], [-46.6184329, -23.65782059], [-46.61867018, -23.65799344], [-46.61883569, -23.65809491], [-46.61909452, -23.65819874], [-46.6193084, -23.65827686], [-46.61955085, -23.6583833], [-46.61981586, -23.65849067], [-46.61996198, -23.65857275], [-46.62006448, -23.65864517], [-46.6201562, -23.65872113], [-46.62025582, -23.65883493], [-46.62050232, -23.6592835], [-46.62055612, -23.65937214], [-46.62061089, -23.65940163], [-46.62078598, -23.65947338], [-46.62111354, -23.65957179], [-46.62112229, -23.65970442], [-46.62111615, -23.65973103], [-46.62104081, -23.6598295], [-46.62102027, -23.65986177], [-46.62102472, -23.65989486], [-46.62105178, -23.65993294], [-46.62113013, -23.66007206], [-46.62125321, -23.66026561], [-46.62136017, -23.66046348], [-46.62140986, -23.66053338], [-46.62142462, -23.66058288], [-46.62146601, -23.66095026], [-46.62148782, -23.66151232], [-46.62152467, -23.66208118], [-46.62197048, -23.66200789], [-46.62203065, -23.66206216], [-46.62213036, -23.66229422], [-46.62302084, -23.66279455], [-46.62314731, -23.66274547], [-46.62329042, -23.66215143], [-46.6234674, -23.66198951], [-46.62364411, -23.66180601], [-46.6239523, -23.66176937], [-46.62478218, -23.66175525], [-46.62502199, -23.66200662], [-46.62551217, -23.66179545], [-46.62550914, -23.66154991], [-46.62600008, -23.66156345], [-46.62637505, -23.66180174], [-46.62651578, -23.66268297], [-46.62663142, -23.66391458], [-46.62671627, -23.66536219], [-46.62657712, -23.66628825], [-46.62675875, -23.66744206], [-46.62683208, -23.6679653], [-46.62670441, -23.66845968], [-46.62749185, -23.66929168], [-46.62804938, -23.67001838], [-46.62811255, -23.6702557], [-46.6281087, -23.67062979], [-46.62819721, -23.67094837], [-46.62847207, -23.67128052], [-46.62917453, -23.67154742], [-46.62959049, -23.67191356], [-46.62992354, -23.67223002], [-46.63007057, -23.67234503]]]]}}]}