{"type": "FeatureCollection", "features": [{"type": "Feature", "properties": {"name": "Parque Estadual Águas da Prata"}, "geometry": {"type": "MultiPolygon", "coordinates": [[[[-46.70774417, -21.93446306], [-46.708305, -21.93437472], [-46.70849806, -21.93433444], [-46.70863194, -21.93428639], [-46.70873611, -21.93422], [-46.70883472, -21.93412056], [-46.70894778, -21.93398389], [-46.70908278, -21.93384056], [-46.70923222, -21.93370639], [-46.70939056, -21.93358139], [-46.70957806, -21.93346444], [-46.7097625, -21.93337639], [-46.71095417, -21.93299972], [-46.71228917, -21.93264833], [-46.71250472, -21.93260611], [-46.71271972, -21.93258361], [-46.71294194, -21.93257889], [-46.71453861, -21.932685], [-46.71482361, -21.93295972], [-46.71502583, -21.93323083], [-46.71512444, -21.93335222], [-46.715195, -21.93341194], [-46.71533861, -21.93347194], [-46.71576472, -21.93370889], [-46.71601583, -21.93368056], [-46.71649361, -21.93364944], [-46.71763944, -21.93361861], [-46.71813, -21.93359917], [-46.71833306, -21.933655], [-46.71858583, -21.93377], [-46.71873194, -21.93385444], [-46.71881722, -21.93203028], [-46.71831278, -21.93153306], [-46.71707, -21.93056], [-46.7170275, -21.93051111], [-46.71687917, -21.92945611], [-46.71651556, -21.92976444], [-46.71633139, -21.92963194], [-46.71606611, -21.92932694], [-46.71620556, -21.92891139], [-46.71592389, -21.9271575], [-46.71555694, -21.92670444], [-46.71490389, -21.92712861], [-46.71431194, -21.92650472], [-46.71391361, -21.92669389], [-46.71380028, -21.92671972], [-46.7131675, -21.92663778], [-46.71273833, -21.92667], [-46.71242472, -21.92667194], [-46.71045639, -21.92972944], [-46.71130111, -21.92989306], [-46.71032417, -21.93142556], [-46.70979306, -21.93238194], [-46.70840194, -21.93330111], [-46.70770389, -21.93375194], [-46.70774417, -21.93446306]]]]}}]}