{"type": "FeatureCollection", "features": [{"type": "Feature", "properties": {"name": "Parque Estadual Juquery"}, "geometry": {"type": "MultiPolygon", "coordinates": [[[[-46.67273957, -23.36520154], [-46.67286977, -23.3651475], [-46.67297067, -23.3650767], [-46.67309566, -23.36507692], [-46.67322827, -23.36500412], [-46.67341743, -23.36493741], [-46.67376277, -23.3648655], [-46.67386187, -23.36485463], [-46.67395009, -23.3647293], [-46.6740645, -23.3646057], [-46.6741901, -23.36435345], [-46.67419813, -23.36419584], [-46.67431823, -23.36406528], [-46.67436982, -23.36398926], [-46.67437066, -23.36388149], [-46.67443398, -23.36379632], [-46.67441474, -23.3637096], [-46.67449776, -23.36366474], [-46.67460619, -23.3635835], [-46.67465245, -23.36350992], [-46.67466491, -23.36340085], [-46.67476161, -23.36325663], [-46.67471287, -23.36310301], [-46.67482566, -23.36305474], [-46.67480258, -23.36288908], [-46.67500756, -23.36279965], [-46.67511726, -23.36276532], [-46.67515915, -23.36274178], [-46.67517312, -23.36262407], [-46.67530606, -23.36254553], [-46.67541766, -23.36247189], [-46.67544393, -23.36239081], [-46.67547382, -23.36227675], [-46.67554564, -23.36226324], [-46.67562191, -23.36223863], [-46.67576859, -23.36202213], [-46.6758521, -23.36194714], [-46.67587506, -23.36187137], [-46.67595614, -23.36180113], [-46.67600676, -23.36167252], [-46.67599715, -23.36166683], [-46.675989, -23.3615153], [-46.67601445, -23.36134048], [-46.67596829, -23.36115509], [-46.67606372, -23.36106904], [-46.67637395, -23.36097315], [-46.67643584, -23.36092729], [-46.67661483, -23.36091841], [-46.67685399, -23.36080191], [-46.67701712, -23.36074202], [-46.67724917, -23.36069591], [-46.67737647, -23.36067105], [-46.67767233, -23.3606004], [-46.6778031, -23.36057158], [-46.67815469, -23.36049118], [-46.6787317, -23.36037251], [-46.67912292, -23.36031187], [-46.67940991, -23.36029071], [-46.67987737, -23.36025914], [-46.68016501, -23.36023671], [-46.68059183, -23.3602106], [-46.68107581, -23.36017384], [-46.68116611, -23.36016588], [-46.68154033, -23.3601367], [-46.68195001, -23.36011113], [-46.68213397, -23.36009974], [-46.68249603, -23.3600771], [-46.68286656, -23.36005602], [-46.68303969, -23.3600455], [-46.68349288, -23.36002645], [-46.6838087, -23.36001956], [-46.68417544, -23.36000854], [-46.68440596, -23.36006237], [-46.68444902, -23.36005026], [-46.68447938, -23.35999318], [-46.68449254, -23.35993498], [-46.68453784, -23.35980805], [-46.68455921, -23.35974613], [-46.6845565, -23.35939618], [-46.68471126, -23.35929667], [-46.68478275, -23.3590929], [-46.68485822, -23.3588627], [-46.68488277, -23.35875956], [-46.68493515, -23.35850128], [-46.68494256, -23.35846341], [-46.68485883, -23.35825886], [-46.68487852, -23.35819578], [-46.68491058, -23.35799629], [-46.68526226, -23.35768412], [-46.68542901, -23.3572234], [-46.68543867, -23.35715759], [-46.68563174, -23.35722622], [-46.68595225, -23.35746106], [-46.68603056, -23.35751616], [-46.68616346, -23.35757902], [-46.68653425, -23.35767682], [-46.68714686, -23.35781013], [-46.68734168, -23.35786781], [-46.68748793, -23.3578927], [-46.68759423, -23.35793568], [-46.68766217, -23.35796612], [-46.68768227, -23.35797332], [-46.6879108, -23.35811097], [-46.68816474, -23.3582096], [-46.68840971, -23.35825893], [-46.68876638, -23.35825114], [-46.68905233, -23.35828791], [-46.68935321, -23.35838892], [-46.6896224, -23.35847639], [-46.6897371, -23.35854787], [-46.68987955, -23.35870394], [-46.69017407, -23.35873759], [-46.69040498, -23.35855771], [-46.69063882, -23.3584924], [-46.69117171, -23.35843279], [-46.69157755, -23.35838321], [-46.69192666, -23.35836533], [-46.69240121, -23.3583456], [-46.6936488, -23.35834172], [-46.69381722, -23.35854127], [-46.69396817, -23.35869585], [-46.69424914, -23.35878767], [-46.69472164, -23.35910319], [-46.69515127, -23.35919789], [-46.69542835, -23.35923312], [-46.69583267, -23.35927895], [-46.69596394, -23.35932418], [-46.69625372, -23.35946755], [-46.69668016, -23.35963471], [-46.69708697, -23.35969261], [-46.69699158, -23.35985778], [-46.69690931, -23.35995311], [-46.69680545, -23.36028646], [-46.69682653, -23.36037993], [-46.69699674, -23.36064412], [-46.69705268, -23.36079588], [-46.69719497, -23.36101551], [-46.69725867, -23.36112904], [-46.69737566, -23.36138052], [-46.69741052, -23.36145325], [-46.69765286, -23.36187344], [-46.69788127, -23.36225547], [-46.69786614, -23.362303], [-46.69788442, -23.36264741], [-46.69790312, -23.36292544], [-46.69780963, -23.36313327], [-46.69776181, -23.36342422], [-46.69771372, -23.3634586], [-46.69774877, -23.3635249], [-46.69771867, -23.36380993], [-46.69774577, -23.36385409], [-46.69770843, -23.36402608], [-46.69776003, -23.36411078], [-46.69777403, -23.36440246], [-46.69773777, -23.36444428], [-46.69774016, -23.36478556], [-46.6978828, -23.36506213], [-46.69787079, -23.36511978], [-46.69790724, -23.36515943], [-46.69789115, -23.36525338], [-46.6979369, -23.36540565], [-46.69793662, -23.36562238], [-46.69799084, -23.3658099], [-46.69797452, -23.36589631], [-46.69800404, -23.36597353], [-46.69797521, -23.36605149], [-46.6979984, -23.36615641], [-46.69804685, -23.36621208], [-46.69806504, -23.36644313], [-46.69805493, -23.36674617], [-46.69809688, -23.36697175], [-46.69805241, -23.36711403], [-46.69826706, -23.36732295], [-46.69839361, -23.36749109], [-46.69852523, -23.36761716], [-46.69879605, -23.36777605], [-46.69879159, -23.36784383], [-46.69902409, -23.36799255], [-46.69907515, -23.36807622], [-46.69911796, -23.36822307], [-46.6992044, -23.36826551], [-46.69928282, -23.36840068], [-46.69936265, -23.36862224], [-46.69943085, -23.36875201], [-46.69954393, -23.36889905], [-46.69954072, -23.36908739], [-46.69953568, -23.36939185], [-46.69958166, -23.36967547], [-46.69964339, -23.36977847], [-46.69972765, -23.36979753], [-46.69987643, -23.36970717], [-46.70010708, -23.36966915], [-46.70035771, -23.36962231], [-46.70045421, -23.36969209], [-46.7004676, -23.36979304], [-46.70069083, -23.36982917], [-46.70079547, -23.36982809], [-46.70087487, -23.36987929], [-46.7011353, -23.36986138], [-46.70124472, -23.36985223], [-46.70128161, -23.36975333], [-46.70132027, -23.36978481], [-46.70137635, -23.3697881], [-46.70142478, -23.36982823], [-46.70150332, -23.36977754], [-46.70161379, -23.36982155], [-46.70175496, -23.36976732], [-46.70191777, -23.36979235], [-46.70188048, -23.3698536], [-46.70175328, -23.36987852], [-46.70175248, -23.36995], [-46.70200998, -23.37004445], [-46.70211375, -23.36989965], [-46.70212878, -23.36974086], [-46.70207193, -23.36964179], [-46.70209923, -23.36950824], [-46.70206765, -23.36949169], [-46.70206415, -23.36945058], [-46.70212543, -23.36942776], [-46.70219518, -23.36934331], [-46.70239059, -23.36924412], [-46.70250827, -23.36921986], [-46.70275181, -23.36918656], [-46.7028202, -23.36915955], [-46.7029667, -23.3692411], [-46.70332745, -23.36909471], [-46.70338688, -23.36916816], [-46.70338283, -23.36923852], [-46.70362556, -23.36931068], [-46.70377986, -23.36937283], [-46.70387265, -23.36942688], [-46.70412686, -23.36944856], [-46.70428003, -23.36944845], [-46.70444514, -23.36916355], [-46.70464889, -23.36919985], [-46.70473669, -23.36926945], [-46.7048495, -23.36919293], [-46.70497888, -23.36909524], [-46.7050586, -23.3690866], [-46.70516389, -23.3688268], [-46.70544883, -23.36880742], [-46.70569366, -23.36875382], [-46.70564993, -23.36866118], [-46.70573539, -23.36851552], [-46.70575664, -23.36849121], [-46.70578013, -23.36845947], [-46.70581273, -23.36845009], [-46.70601489, -23.36840453], [-46.70634938, -23.36839916], [-46.70645917, -23.36830716], [-46.7065279, -23.36819058], [-46.70650215, -23.36808526], [-46.70655315, -23.36805101], [-46.70657157, -23.36801406], [-46.70674237, -23.3681603], [-46.70678602, -23.36825045], [-46.70698403, -23.36817039], [-46.70727908, -23.36834136], [-46.70746488, -23.36843763], [-46.70753295, -23.36856297], [-46.70753162, -23.36869051], [-46.70759437, -23.36870262], [-46.70762118, -23.36870218], [-46.70770173, -23.36868004], [-46.70795627, -23.3685897], [-46.70819743, -23.36857156], [-46.70823152, -23.36841892], [-46.70831903, -23.36836802], [-46.70848924, -23.36843413], [-46.70861781, -23.36822612], [-46.7088068, -23.3682775], [-46.70885408, -23.36843074], [-46.70897923, -23.36844242], [-46.70902843, -23.36846944], [-46.7091608, -23.36846354], [-46.70926675, -23.36842058], [-46.70927692, -23.36837769], [-46.70931657, -23.368367], [-46.709364, -23.36819625], [-46.70963815, -23.36803919], [-46.70976657, -23.36810177], [-46.70989256, -23.36809245], [-46.71008508, -23.36822677], [-46.71031325, -23.36811437], [-46.71030197, -23.3680748], [-46.71045017, -23.36805252], [-46.71062563, -23.36795568], [-46.71058392, -23.36782732], [-46.71050968, -23.36785273], [-46.71048845, -23.36770912], [-46.7106118, -23.36769023], [-46.7107747, -23.36758111], [-46.71088668, -23.3674749], [-46.71087991, -23.36737281], [-46.71107375, -23.36720236], [-46.71115581, -23.36711864], [-46.71109122, -23.36701963], [-46.71123588, -23.36689382], [-46.71128527, -23.36690064], [-46.71127313, -23.36696696], [-46.71139244, -23.3669691], [-46.71155473, -23.36702464], [-46.7116717, -23.36708061], [-46.71169529, -23.36711531], [-46.71182924, -23.36718169], [-46.71208742, -23.36711242], [-46.71225391, -23.36701492], [-46.71233534, -23.36697333], [-46.7125251, -23.36680728], [-46.7126065, -23.3666886], [-46.7127872, -23.36654784], [-46.71294173, -23.36651597], [-46.71307855, -23.36642541], [-46.71316359, -23.36623458], [-46.71342009, -23.36607218], [-46.71342134, -23.36597212], [-46.71347533, -23.36573127], [-46.71361059, -23.36572011], [-46.71356177, -23.36585269], [-46.71368913, -23.36591766], [-46.71382904, -23.36580461], [-46.71387278, -23.36572461], [-46.71396767, -23.36565969], [-46.71399196, -23.36555106], [-46.71405562, -23.3655248], [-46.71400946, -23.36545485], [-46.7140473, -23.36540995], [-46.71421641, -23.36536093], [-46.71425511, -23.36531109], [-46.71434343, -23.36529341], [-46.71436096, -23.36524296], [-46.71443806, -23.36516539], [-46.71455492, -23.36517395], [-46.71462235, -23.36512312], [-46.71458089, -23.36499315], [-46.71455687, -23.3649269], [-46.71457809, -23.36487095], [-46.71463036, -23.36483719], [-46.71464386, -23.36479492], [-46.71471789, -23.36478936], [-46.71484098, -23.36484745], [-46.71488885, -23.3649368], [-46.71499307, -23.36494524], [-46.71507015, -23.36492758], [-46.71513375, -23.36480669], [-46.71520403, -23.3647542], [-46.71526028, -23.36457586], [-46.71517496, -23.36454264], [-46.71529495, -23.36448893], [-46.71533791, -23.36440297], [-46.71535463, -23.36426765], [-46.71551095, -23.36417209], [-46.71546968, -23.36396496], [-46.71559897, -23.36386048], [-46.71564548, -23.36386448], [-46.71585377, -23.36383189], [-46.71616482, -23.36377365], [-46.71628784, -23.3637606], [-46.71633895, -23.3637804], [-46.71661665, -23.36397524], [-46.71676699, -23.36408616], [-46.71687451, -23.36421612], [-46.71702834, -23.36442686], [-46.71706617, -23.36457709], [-46.71710176, -23.36478572], [-46.71723792, -23.36482558], [-46.71734785, -23.36492361], [-46.71739725, -23.36492687], [-46.71751524, -23.3650355], [-46.71754394, -23.36514457], [-46.71762809, -23.3652849], [-46.71771168, -23.36535298], [-46.71780527, -23.36552808], [-46.71792602, -23.36579075], [-46.71803873, -23.36593946], [-46.71807207, -23.3660106], [-46.71808956, -23.36603365], [-46.71830928, -23.36596549], [-46.71866762, -23.36578947], [-46.71894504, -23.3657232], [-46.71921148, -23.36566365], [-46.7196606, -23.36556503], [-46.71979429, -23.36554786], [-46.71989075, -23.36552473], [-46.71993347, -23.36550307], [-46.7200859, -23.36547111], [-46.72025637, -23.36504761], [-46.72053678, -23.36460832], [-46.72072454, -23.36432228], [-46.72095325, -23.36398098], [-46.72102163, -23.3638739], [-46.721263, -23.36347798], [-46.72150952, -23.36263874], [-46.72154552, -23.36245246], [-46.72161941, -23.36207085], [-46.72173817, -23.36165174], [-46.72185835, -23.36148446], [-46.72191408, -23.36147531], [-46.72207747, -23.36150315], [-46.72238996, -23.36143586], [-46.72249426, -23.36137058], [-46.7225673, -23.36142036], [-46.72269325, -23.3613633], [-46.72279595, -23.36132762], [-46.72287321, -23.36119297], [-46.72301937, -23.36121142], [-46.7231208, -23.36107454], [-46.72324075, -23.36101011], [-46.72323948, -23.36090843], [-46.72329786, -23.36091136], [-46.72336267, -23.36105357], [-46.72344607, -23.3612587], [-46.72352008, -23.36128111], [-46.7235897, -23.36148822], [-46.72373176, -23.36162062], [-46.72378927, -23.36166354], [-46.72385034, -23.3616464], [-46.72401915, -23.36183807], [-46.72410086, -23.36177192], [-46.72431527, -23.36194707], [-46.72439642, -23.36192101], [-46.72439842, -23.36178165], [-46.72448684, -23.36179382], [-46.72451901, -23.36160172], [-46.72476613, -23.36169306], [-46.72488018, -23.36177976], [-46.72498527, -23.36173943], [-46.72539073, -23.36167255], [-46.72549301, -23.36159074], [-46.7257293, -23.36146592], [-46.725905, -23.36145892], [-46.72603369, -23.36152299], [-46.72634141, -23.36150578], [-46.72639525, -23.36175571], [-46.72645799, -23.3618409], [-46.72671375, -23.36196321], [-46.7268656, -23.36203693], [-46.72705134, -23.36197015], [-46.72709628, -23.36205717], [-46.72727035, -23.36199904], [-46.72737134, -23.36208221], [-46.72750517, -23.36211205], [-46.72756757, -23.36216564], [-46.72773192, -23.36212991], [-46.72781598, -23.36205609], [-46.72791908, -23.36207204], [-46.72812248, -23.36205374], [-46.72835402, -23.36199043], [-46.72854379, -23.36208241], [-46.72870984, -23.36199707], [-46.72882255, -23.36183255], [-46.72892588, -23.36188794], [-46.72902905, -23.36182096], [-46.72905535, -23.36176107], [-46.72912077, -23.36172862], [-46.72926119, -23.36164579], [-46.72936635, -23.36160571], [-46.7294994, -23.36160983], [-46.72955868, -23.36168357], [-46.72976007, -23.36173379], [-46.72983636, -23.36170676], [-46.73007488, -23.36180033], [-46.73014212, -23.36186027], [-46.73032177, -23.36187517], [-46.73039802, -23.36182243], [-46.73048355, -23.3617841], [-46.73064897, -23.36178488], [-46.73070498, -23.36175956], [-46.73083109, -23.36176501], [-46.73099806, -23.36179552], [-46.7311619, -23.36176405], [-46.73126272, -23.36177417], [-46.73133524, -23.36173611], [-46.73146882, -23.36172298], [-46.73167457, -23.36168631], [-46.73176967, -23.36168183], [-46.73182442, -23.36154261], [-46.73187977, -23.36147872], [-46.73194343, -23.36139206], [-46.73203161, -23.36132177], [-46.73219502, -23.36130227], [-46.73241741, -23.36146806], [-46.73248848, -23.36145434], [-46.73260019, -23.36146104], [-46.73281873, -23.36153318], [-46.73291202, -23.36146237], [-46.73301465, -23.36145992], [-46.73331863, -23.36129418], [-46.73344659, -23.36131348], [-46.73350193, -23.36121246], [-46.73358467, -23.36135686], [-46.73365964, -23.36139777], [-46.73372702, -23.36148548], [-46.733784, -23.36159432], [-46.7339126, -23.36152781], [-46.73395424, -23.36135113], [-46.73415829, -23.36133251], [-46.73423143, -23.36142579], [-46.73427701, -23.36159817], [-46.73438788, -23.36170418], [-46.73453187, -23.36170124], [-46.73481975, -23.3617936], [-46.73510025, -23.36187959], [-46.73526421, -23.361824], [-46.73534746, -23.36150142], [-46.73542311, -23.36144685], [-46.73548598, -23.36143476], [-46.73562999, -23.36131469], [-46.73576238, -23.36115778], [-46.73589173, -23.36078444], [-46.73646999, -23.35988518], [-46.73706037, -23.35921988], [-46.73684507, -23.35901519], [-46.73479708, -23.3609794], [-46.73341024, -23.35892273], [-46.73164548, -23.35852126], [-46.73108794, -23.35838273], [-46.73059661, -23.35869975], [-46.73019153, -23.35881483], [-46.72936125, -23.35896899], [-46.72737539, -23.35976544], [-46.72723956, -23.36004494], [-46.72703051, -23.36008753], [-46.72699047, -23.35977257], [-46.72555791, -23.35995529], [-46.72467073, -23.35911657], [-46.72444686, -23.35896393], [-46.7228564, -23.35811576], [-46.72258816, -23.3585078], [-46.72203574, -23.3587027], [-46.72143724, -23.35864786], [-46.72105822, -23.35683095], [-46.72090315, -23.35655622], [-46.72140253, -23.35621091], [-46.72127139, -23.35576455], [-46.72236228, -23.35536318], [-46.72276162, -23.35560374], [-46.72261105, -23.3557976], [-46.7228429, -23.35611557], [-46.72257285, -23.35635628], [-46.7226596, -23.35642665], [-46.72240312, -23.35653785], [-46.72218899, -23.35668683], [-46.72227932, -23.35735194], [-46.72257683, -23.3576175], [-46.72382307, -23.35807005], [-46.72470688, -23.35784174], [-46.72631846, -23.35741625], [-46.72737757, -23.35694074], [-46.73007398, -23.3564629], [-46.73089152, -23.3564715], [-46.7336258, -23.3557899], [-46.73539384, -23.35566578], [-46.73680618, -23.35565264], [-46.73753448, -23.35554706], [-46.73834021, -23.35522862], [-46.73882073, -23.35502836], [-46.73996613, -23.35481374], [-46.74087216, -23.35436334], [-46.74048319, -23.3538613], [-46.73985084, -23.35419569], [-46.73881985, -23.3542172], [-46.73682387, -23.35395513], [-46.7357636, -23.35374957], [-46.73426652, -23.35366403], [-46.73339178, -23.35374803], [-46.73240366, -23.35369845], [-46.73245056, -23.35338587], [-46.73101997, -23.34924801], [-46.73132839, -23.34797062], [-46.73159914, -23.34628391], [-46.72707319, -23.34759878], [-46.72267971, -23.34212407], [-46.72345079, -23.34152409], [-46.72382924, -23.33967439], [-46.72534175, -23.33717919], [-46.72373197, -23.33651463], [-46.72184486, -23.33581427], [-46.72076308, -23.33673474], [-46.72122743, -23.33714002], [-46.72213915, -23.33816531], [-46.72057001, -23.33871036], [-46.71998059, -23.33743224], [-46.71933313, -23.33841288], [-46.71846807, -23.3394047], [-46.71756161, -23.34058163], [-46.71662705, -23.34207162], [-46.71572596, -23.34165267], [-46.71574221, -23.34087922], [-46.71514558, -23.33906011], [-46.71539735, -23.33802934], [-46.715795, -23.33720445], [-46.71609908, -23.33536905], [-46.71579893, -23.33504918], [-46.71486332, -23.33553675], [-46.71431551, -23.33618361], [-46.71369279, -23.33651473], [-46.71270762, -23.33678781], [-46.71307263, -23.33780717], [-46.70954469, -23.33712961], [-46.70886673, -23.33674793], [-46.70820278, -23.33594248], [-46.70787699, -23.33528944], [-46.70744515, -23.33499878], [-46.70769057, -23.33417661], [-46.70708405, -23.3343979], [-46.70610471, -23.33368179], [-46.70659206, -23.33325636], [-46.70670385, -23.33317976], [-46.70629743, -23.33278681], [-46.70624827, -23.33273299], [-46.70606322, -23.3325029], [-46.70581687, -23.3320466], [-46.70569646, -23.33158713], [-46.70568424, -23.33144126], [-46.70565044, -23.33092563], [-46.70556984, -23.33030672], [-46.70533039, -23.3299995], [-46.70490533, -23.32979443], [-46.70447023, -23.32973032], [-46.70415292, -23.32975743], [-46.70387387, -23.32978556], [-46.70322531, -23.32981252], [-46.70311488, -23.32984435], [-46.7031703, -23.330105], [-46.70321832, -23.33017291], [-46.70278152, -23.33033517], [-46.70225141, -23.3307096], [-46.70203037, -23.33083591], [-46.70140553, -23.33100102], [-46.70088074, -23.33094094], [-46.70068015, -23.33090136], [-46.69982311, -23.33069493], [-46.69902703, -23.33050296], [-46.69821815, -23.33030794], [-46.6976154, -23.33016312], [-46.69740124, -23.33012505], [-46.69700207, -23.33012905], [-46.69650588, -23.33029495], [-46.69608975, -23.33049436], [-46.69543653, -23.33081025], [-46.69477077, -23.33113013], [-46.69382483, -23.33132204], [-46.69349467, -23.33125548], [-46.69315884, -23.33113942], [-46.69282011, -23.33093712], [-46.69200552, -23.33029763], [-46.69154189, -23.33007017], [-46.69110393, -23.33002104], [-46.69073006, -23.33009037], [-46.69042103, -23.33022393], [-46.68966869, -23.33061038], [-46.68899347, -23.33095944], [-46.68842944, -23.33125077], [-46.68789018, -23.33153061], [-46.68708739, -23.33194394], [-46.68652769, -23.33223182], [-46.68654338, -23.33239723], [-46.68641066, -23.33257937], [-46.68491187, -23.33325958], [-46.68594043, -23.33357021], [-46.68567912, -23.33432087], [-46.6858464, -23.33463564], [-46.68612474, -23.33544546], [-46.68587492, -23.33639517], [-46.68533603, -23.33736411], [-46.6845075, -23.3374252], [-46.68369156, -23.33725115], [-46.68349507, -23.33797697], [-46.68323092, -23.33883543], [-46.68309081, -23.33881634], [-46.68148109, -23.33873368], [-46.68021866, -23.33866685], [-46.68087497, -23.33680077], [-46.68046723, -23.33664377], [-46.6805005, -23.33640482], [-46.6791465, -23.33595023], [-46.67885435, -23.33482903], [-46.67888088, -23.33378637], [-46.67918922, -23.33278262], [-46.67920607, -23.33271654], [-46.67868484, -23.33290075], [-46.67813016, -23.33309806], [-46.67757202, -23.33329461], [-46.67704208, -23.33348257], [-46.67666738, -23.33361505], [-46.67630106, -23.33374075], [-46.67580247, -23.33389326], [-46.67532789, -23.33401881], [-46.67495337, -23.33411097], [-46.6745815, -23.33418974], [-46.67419373, -23.33425844], [-46.67379449, -23.33431085], [-46.67337637, -23.33434715], [-46.67292909, -23.33436561], [-46.67251907, -23.33436638], [-46.67201975, -23.33434277], [-46.67170385, -23.33431641], [-46.67135024, -23.33428531], [-46.67078463, -23.33423546], [-46.67033716, -23.33419644], [-46.6697813, -23.33414818], [-46.66925756, -23.33410098], [-46.66883686, -23.334083], [-46.66847052, -23.33409012], [-46.6680759, -23.33412197], [-46.66778696, -23.33416279], [-46.66752442, -23.33420901], [-46.66720806, -23.33428469], [-46.66684892, -23.3343928], [-46.66650803, -23.33451869], [-46.66617898, -23.33466493], [-46.66586045, -23.33482862], [-46.6655383, -23.33501589], [-46.66521942, -23.33524634], [-46.66490325, -23.3355], [-46.66445792, -23.33589124], [-46.66410281, -23.3362029], [-46.66374854, -23.33651251], [-46.66339425, -23.33682365], [-46.66303664, -23.3371372], [-46.66273087, -23.33738211], [-46.66260924, -23.33746605], [-46.66192931, -23.33783738], [-46.66154125, -23.33796885], [-46.66164932, -23.33832924], [-46.6620311, -23.33985014], [-46.66222639, -23.34018098], [-46.66260691, -23.34071661], [-46.66280991, -23.3412914], [-46.66287388, -23.34166859], [-46.66289654, -23.34240902], [-46.66292624, -23.34318343], [-46.66296319, -23.34392843], [-46.66316724, -23.34441085], [-46.66360548, -23.34509946], [-46.66415272, -23.34590377], [-46.66467982, -23.34672957], [-46.66479415, -23.34723514], [-46.66486249, -23.34751449], [-46.66498439, -23.3478997], [-46.66524962, -23.348742], [-46.6652677, -23.3490956], [-46.66518116, -23.34956436], [-46.66509524, -23.34985437], [-46.66505367, -23.35041208], [-46.66532784, -23.35088513], [-46.66549429, -23.35111213], [-46.6654961, -23.35165734], [-46.6655251, -23.35194321], [-46.66584573, -23.35271156], [-46.66604392, -23.35308972], [-46.66659928, -23.35378339], [-46.66703958, -23.35418309], [-46.66724399, -23.35439855], [-46.66738336, -23.35475075], [-46.66751314, -23.35512457], [-46.66765111, -23.35555657], [-46.66809593, -23.35644446], [-46.6682829, -23.35686725], [-46.66831653, -23.357259], [-46.66832689, -23.35760669], [-46.66835398, -23.35796747], [-46.66895157, -23.35902175], [-46.66885132, -23.35956455], [-46.66876806, -23.35986645], [-46.66868429, -23.36019447], [-46.66864949, -23.36056847], [-46.66870173, -23.36095695], [-46.66902073, -23.36135034], [-46.66939739, -23.36174079], [-46.66976373, -23.36209724], [-46.6699455, -23.36250736], [-46.6700621, -23.36284519], [-46.67012692, -23.3631261], [-46.67095864, -23.36394024], [-46.67108873, -23.36424911], [-46.67142036, -23.36469157], [-46.67169665, -23.36477162], [-46.67206434, -23.36485493], [-46.67226824, -23.36486147], [-46.67230547, -23.36491324], [-46.67237761, -23.36481439], [-46.67244461, -23.36483034], [-46.67253246, -23.36498493], [-46.67259199, -23.36508685], [-46.67266253, -23.36508623], [-46.67273957, -23.36520154]]]]}}]}