{"type": "FeatureCollection", "features": [{"type": "Feature", "properties": {"name": "Parque Estadual Serra do Mar - Núcleo Santa Virgínia"}, "geometry": {"type": "MultiPolygon", "coordinates": [[[[-45.34999509, -23.5475936], [-45.35031547, -23.54755374], [-45.3505397, -23.54734669], [-45.35074477, -23.54694864], [-45.35097339, -23.54637759], [-45.35107519, -23.54595315], [-45.35122536, -23.5455992], [-45.35133645, -23.54532581], [-45.35148036, -23.54494555], [-45.35163753, -23.54454205], [-45.35183724, -23.54420714], [-45.35206674, -23.54394056], [-45.35233914, -23.54376967], [-45.3527603, -23.54356372], [-45.35336873, -23.54322408], [-45.35361734, -23.54302201], [-45.35385831, -23.54272493], [-45.35399833, -23.54242861], [-45.35410546, -23.54194193], [-45.35418814, -23.54145297], [-45.35432805, -23.54120452], [-45.35443264, -23.54104393], [-45.35464748, -23.54077526], [-45.35481447, -23.54062852], [-45.35533114, -23.54018682], [-45.35569528, -23.53994542], [-45.35607682, -23.5398435], [-45.35651979, -23.53979787], [-45.35627824, -23.53902371], [-45.35587542, -23.53818904], [-45.35535684, -23.53731839], [-45.35421151, -23.53487112], [-45.35473673, -23.53256004], [-45.3545804, -23.53088049], [-45.35411948, -23.52885164], [-45.35313149, -23.5284339], [-45.35184097, -23.52843683], [-45.35097658, -23.528515], [-45.3503951, -23.52711015], [-45.35099868, -23.52570886], [-45.351982, -23.52437671], [-45.35243261, -23.52255578], [-45.35256175, -23.52127205], [-45.35252193, -23.52030747], [-45.35004706, -23.51887834], [-45.34931817, -23.51753757], [-45.34293977, -23.51630454], [-45.34313861, -23.5161637], [-45.34443017, -23.51518169], [-45.34424299, -23.51453525], [-45.34376508, -23.51415693], [-45.3435282, -23.51380969], [-45.34336169, -23.5134623], [-45.34332942, -23.51305588], [-45.34338631, -23.51281637], [-45.34362125, -23.51229198], [-45.34379076, -23.51201611], [-45.34384725, -23.51185338], [-45.34378431, -23.51141993], [-45.34364912, -23.51098218], [-45.34360406, -23.51025059], [-45.34345196, -23.50979931], [-45.34329361, -23.50951966], [-45.34312256, -23.5092987], [-45.34291789, -23.50910011], [-45.34272801, -23.50895183], [-45.34263704, -23.50904233], [-45.34247209, -23.50917821], [-45.34153509, -23.50974932], [-45.34095293, -23.50999449], [-45.34031189, -23.5101991], [-45.34004567, -23.51023583], [-45.33929141, -23.51021939], [-45.33841801, -23.51004066], [-45.33755621, -23.51010124], [-45.3371821, -23.51008398], [-45.33686354, -23.50998984], [-45.33676441, -23.50988616], [-45.3367191, -23.50975983], [-45.33700767, -23.50925787], [-45.33747055, -23.50868779], [-45.33768012, -23.50828537], [-45.33769782, -23.50801889], [-45.33761389, -23.50776161], [-45.33730582, -23.50745519], [-45.33712072, -23.50713493], [-45.33709383, -23.50691369], [-45.33686104, -23.5070813], [-45.33664397, -23.50717206], [-45.33622393, -23.50725878], [-45.33566946, -23.50720128], [-45.33530985, -23.50722915], [-45.33510336, -23.50727929], [-45.33405471, -23.50776481], [-45.33357997, -23.50788324], [-45.33309378, -23.50783005], [-45.332143, -23.50755661], [-45.33203107, -23.50755221], [-45.33203503, -23.507471], [-45.33208193, -23.50736704], [-45.33219252, -23.50729455], [-45.33246918, -23.50715397], [-45.33272434, -23.50698631], [-45.33288756, -23.5067737], [-45.33294268, -23.50652516], [-45.33286455, -23.50625887], [-45.33273993, -23.50611462], [-45.33245465, -23.50598874], [-45.33201373, -23.50593098], [-45.33068098, -23.50601512], [-45.33009909, -23.50601185], [-45.32977672, -23.50597639], [-45.32957106, -23.50599487], [-45.32940076, -23.506072], [-45.32911675, -23.50646102], [-45.3289391, -23.50665111], [-45.32872278, -23.50681868], [-45.32845869, -23.50695471], [-45.32823349, -23.50699584], [-45.32792984, -23.50699196], [-45.32738815, -23.50689372], [-45.32704812, -23.50689445], [-45.32682919, -23.50698977], [-45.32661893, -23.50712569], [-45.32623096, -23.50755556], [-45.3258903, -23.50806212], [-45.32576719, -23.50817076], [-45.32564309, -23.50822974], [-45.3255233, -23.50818934], [-45.32546633, -23.50805396], [-45.32538046, -23.50698827], [-45.32529754, -23.50675359], [-45.32490554, -23.50591435], [-45.32485608, -23.50571575], [-45.32484792, -23.50549898], [-45.32497078, -23.50492515], [-45.32514798, -23.50442345], [-45.32516372, -23.50373692], [-45.32533461, -23.5035288], [-45.3256409, -23.50335656], [-45.32604174, -23.50306667], [-45.32629477, -23.50277254], [-45.32643219, -23.50252839], [-45.32654666, -23.50213973], [-45.32654997, -23.50186877], [-45.32648962, -23.50159789], [-45.32639919, -23.50142192], [-45.32628229, -23.5013093], [-45.32612439, -23.50120571], [-45.32596947, -23.50118797], [-45.3257795, -23.50122451], [-45.32554993, -23.50146435], [-45.32534721, -23.50178544], [-45.32510572, -23.50205243], [-45.32499148, -23.50213396], [-45.32484741, -23.50218396], [-45.32473289, -23.5021616], [-45.32459157, -23.50206254], [-45.32448847, -23.50196338], [-45.32388615, -23.50122396], [-45.32366343, -23.50101212], [-45.3234289, -23.50085457], [-45.32312707, -23.50071516], [-45.32273997, -23.50061661], [-45.32195899, -23.50053692], [-45.3215419, -23.50057844], [-45.32129231, -23.50065124], [-45.32109483, -23.50074648], [-45.32083864, -23.50098186], [-45.320672, -23.50120041], [-45.31753727, -23.50049424], [-45.31198112, -23.49700355], [-45.30898301, -23.49477127], [-45.30762137, -23.49274732], [-45.30393195, -23.49005668], [-45.30062667, -23.487636], [-45.30142815, -23.48585618], [-45.30003007, -23.48474106], [-45.29513312, -23.48215708], [-45.29221142, -23.48216474], [-45.28839173, -23.47982814], [-45.28622305, -23.47841347], [-45.28206856, -23.47689039], [-45.28165866, -23.47485214], [-45.27739943, -23.47415631], [-45.27632746, -23.47482476], [-45.2657162, -23.47276263], [-45.26231848, -23.47058836], [-45.25458426, -23.46534543], [-45.24720654, -23.45903446], [-45.24708543, -23.4540648], [-45.24802878, -23.45323999], [-45.24971413, -23.45310771], [-45.25118768, -23.45239259], [-45.2523793, -23.45115953], [-45.2527981, -23.44979812], [-45.25125031, -23.4483751], [-45.25103534, -23.44610757], [-45.25047142, -23.44500693], [-45.25050663, -23.44488427], [-45.25048119, -23.44490488], [-45.24976524, -23.44293457], [-45.25032303, -23.44079539], [-45.24676987, -23.44111038], [-45.2456129, -23.38613666], [-45.24504268, -23.3863044], [-45.24418462, -23.38646534], [-45.24358569, -23.38650618], [-45.2431534, -23.38649545], [-45.24278274, -23.38641622], [-45.24246136, -23.38626852], [-45.24217693, -23.38606375], [-45.24179326, -23.38561974], [-45.24157637, -23.38520396], [-45.24134081, -23.38470841], [-45.24111174, -23.38437816], [-45.24071601, -23.38409376], [-45.2399436, -23.38380424], [-45.23956044, -23.38363953], [-45.23922657, -23.38340633], [-45.2388927, -23.38317884], [-45.23848493, -23.38305976], [-45.23800942, -23.38304338], [-45.2376639, -23.38320351], [-45.23749149, -23.38348308], [-45.23750451, -23.38385927], [-45.23759789, -23.38428094], [-45.23772225, -23.38475956], [-45.23772892, -23.38503885], [-45.23751937, -23.38526718], [-45.2371305, -23.38535897], [-45.23663645, -23.38534262], [-45.23614845, -23.38525215], [-45.23578379, -23.3850703], [-45.23558571, -23.38480269], [-45.23552332, -23.38443798], [-45.23552879, -23.38403896], [-45.23561368, -23.38315531], [-45.23574798, -23.38227729], [-45.23575338, -23.38184407], [-45.23547368, -23.38081276], [-45.23540467, -23.38019725], [-45.23525474, -23.37921705], [-45.23525386, -23.37871544], [-45.23534607, -23.3784816], [-45.23555581, -23.37836728], [-45.23585221, -23.37836683], [-45.23664892, -23.37845113], [-45.23709355, -23.37847326], [-45.237501, -23.37842134], [-45.23783414, -23.37824983], [-45.23823478, -23.37784451], [-45.23851792, -23.37734246], [-45.2386281, -23.37680078], [-45.23859598, -23.37610541], [-45.2384901, -23.37559256], [-45.23821173, -23.37531368], [-45.23782252, -23.37520027], [-45.2371124, -23.37518425], [-45.23605665, -23.37525995], [-45.23534044, -23.37529523], [-45.23488951, -23.3751933], [-45.23441359, -23.37493181], [-45.23385705, -23.37446523], [-45.23306564, -23.37386789], [-45.23250314, -23.37352102], [-45.23191617, -23.37330529], [-45.23131706, -23.37320927], [-45.23079841, -23.37322144], [-45.23045291, -23.37338155], [-45.23023735, -23.37370108], [-45.23025659, -23.37411716], [-45.23038779, -23.37500049], [-45.23038226, -23.37537671], [-45.2302962, -23.37559914], [-45.23014821, -23.37571906], [-45.22975312, -23.37577094], [-45.22905532, -23.37574347], [-45.22846854, -23.37564172], [-45.22800504, -23.37540869], [-45.22763392, -23.37503872], [-45.22718825, -23.37440095], [-45.22683514, -23.37372315], [-45.22643903, -23.37317651], [-45.22585155, -23.37264724], [-45.22507272, -23.37215815], [-45.22434339, -23.37172599], [-45.2238058, -23.37148735], [-45.22337346, -23.37141957], [-45.22295375, -23.37151137], [-45.22260834, -23.37173417], [-45.22221376, -23.37208814], [-45.22181947, -23.37261881], [-45.22154245, -23.37312652], [-45.22137062, -23.37376518], [-45.22129766, -23.3744493], [-45.22112567, -23.37499106], [-45.22087921, -23.37531061], [-45.22060776, -23.3754535], [-45.22005202, -23.37544858], [-45.219181, -23.3752161], [-45.21793298, -23.37477893], [-45.21632669, -23.37424535], [-45.21557292, -23.37396138], [-45.21521443, -23.37373957], [-45.2150473, -23.37348899], [-45.21497881, -23.37313567], [-45.21499685, -23.37283354], [-45.21513836, -23.37251984], [-45.21547756, -23.37226856], [-45.21581701, -23.37217689], [-45.21628011, -23.37217625], [-45.216799, -23.37231234], [-45.21731167, -23.37242563], [-45.21758339, -23.37244805], [-45.21774383, -23.37238513], [-45.21780538, -23.37226534], [-45.21780504, -23.37205444], [-45.21771797, -23.37167265], [-45.21748838, -23.37097755], [-45.21719095, -23.37033384], [-45.21696197, -23.37001495], [-45.21663428, -23.3697418], [-45.21610897, -23.36944612], [-45.2154416, -23.36912213], [-45.21458276, -23.3687528], [-45.21397101, -23.36845723], [-45.21342707, -23.36808746], [-45.2130931, -23.36774021], [-45.21285793, -23.36740422], [-45.21277105, -23.36712503], [-45.21279529, -23.36683999], [-45.2129123, -23.36665172], [-45.21310327, -23.36637786], [-45.21319542, -23.36608702], [-45.21328118, -23.36565939], [-45.21329265, -23.36511216], [-45.21321758, -23.36450235], [-45.21311772, -23.36382987], [-45.21309207, -23.36323138], [-45.21321501, -23.36289491], [-45.21343059, -23.3625697], [-45.21367706, -23.36226156], [-45.21375701, -23.36206194], [-45.21374435, -23.36186816], [-45.21362059, -23.36169732], [-45.21337966, -23.36160645], [-45.21305232, -23.36153849], [-45.21250885, -23.36144803], [-45.21207657, -23.36138591], [-45.21168739, -23.36125533], [-45.21131039, -23.36101644], [-45.21098882, -23.36068626], [-45.21072885, -23.3602705], [-45.21040071, -23.35968953], [-45.21011612, -23.3593194], [-45.20968963, -23.35901216], [-45.20917059, -23.35874495], [-45.20877509, -23.35851177], [-45.20854009, -23.35826127], [-45.20843476, -23.35802201], [-45.20843435, -23.3577598], [-45.20848966, -23.35759442], [-45.20862524, -23.35744034], [-45.20892139, -23.35731454], [-45.20936576, -23.35721704], [-45.2098224, -23.35706823], [-45.2101369, -23.3568341], [-45.21035251, -23.3565317], [-45.21038298, -23.35628085], [-45.21034558, -23.35605289], [-45.21022191, -23.35592766], [-45.2099933, -23.35581966], [-45.20970916, -23.35572314], [-45.20947431, -23.35556955], [-45.20918991, -23.35531342], [-45.20895489, -23.35504583], [-45.20872624, -23.35490933], [-45.20849156, -23.35485834], [-45.20817063, -23.35492717], [-45.20786834, -23.35507578], [-45.20760942, -23.35532123], [-45.20735684, -23.35566927], [-45.20706739, -23.35613707], [-45.20677779, -23.35650226], [-45.20632151, -23.35688477], [-45.20579705, -23.35709067], [-45.20511213, -23.35734238], [-45.20463089, -23.35755391], [-45.20432869, -23.35776521], [-45.2041192, -23.3580448], [-45.20407022, -23.35831277], [-45.20408953, -23.35883146], [-45.20415229, -23.35949259], [-45.20417756, -23.35986877], [-45.20417196, -23.36024499], [-45.20408003, -23.36068972], [-45.20388929, -23.36111748], [-45.20367362, -23.36139707], [-45.2033405, -23.36158561], [-45.2028221, -23.36173449], [-45.2022357, -23.36182645], [-45.20172344, -23.36195251], [-45.20126688, -23.36216971], [-45.20064394, -23.36259802], [-45.19995321, -23.36311762], [-45.19952769, -23.36345447], [-45.19908976, -23.36374574], [-45.19809036, -23.36429992], [-45.19772037, -23.3646139], [-45.19747389, -23.36494482], [-45.19724619, -23.36545242], [-45.19692625, -23.36621094], [-45.19667412, -23.36690098], [-45.19647723, -23.36737434], [-45.19615092, -23.36800747], [-45.19602196, -23.36848644], [-45.19597321, -23.36892542], [-45.19599858, -23.3693814], [-45.19596823, -23.36973485], [-45.19586364, -23.36999148], [-45.1955553, -23.37025408], [-45.19500633, -23.37063667], [-45.19434618, -23.3710023], [-45.19373533, -23.37129947], [-45.19303173, -23.37150555], [-45.19253201, -23.37179687], [-45.19211259, -23.37211089], [-45.19177977, -23.37253311], [-45.19128662, -23.37310373], [-45.1908614, -23.37368567], [-45.1906213, -23.37418758], [-45.19037541, -23.3749574], [-45.19018502, -23.37567585], [-45.19002555, -23.37642846], [-45.18986579, -23.37697587], [-45.18961345, -23.37756329], [-45.18933605, -23.37789424], [-45.18903375, -23.37808271], [-45.18864485, -23.37816298], [-45.18811997, -23.37815221], [-45.18752089, -23.37807313], [-45.18705773, -23.37803948], [-45.18669962, -23.37806271], [-45.18643424, -23.37816563], [-45.18621222, -23.3783654], [-45.18586697, -23.37875342], [-45.18540472, -23.37938099], [-45.18494263, -23.38012255], [-45.18452981, -23.38077286], [-45.18411694, -23.38139466], [-45.1837102, -23.38198226], [-45.18341426, -23.38231891], [-45.18316741, -23.38243321], [-45.18281546, -23.38245642], [-45.18229057, -23.38244563], [-45.18193246, -23.38248025], [-45.18147573, -23.38265178], [-45.1810314, -23.3828518], [-45.18068567, -23.3829092], [-45.18038923, -23.38288105], [-45.18018028, -23.38276538], [-45.1799602, -23.38250345], [-45.17972918, -23.38206839], [-45.17955707, -23.38160853], [-45.17941166, -23.38107443], [-45.17930922, -23.38061449], [-45.17920108, -23.37989732], [-45.17897435, -23.37866581], [-45.17881842, -23.37828013], [-45.17858218, -23.37794401], [-45.17824939, -23.3775437], [-45.1779755, -23.37709879], [-45.17780886, -23.37671312], [-45.17775474, -23.37631249], [-45.1777703, -23.37592661], [-45.17787702, -23.37558516], [-45.17811236, -23.37525345], [-45.17857796, -23.37479286], [-45.17874901, -23.37447606], [-45.17879685, -23.37418414], [-45.17870529, -23.37383797], [-45.1784905, -23.37350677], [-45.17809878, -23.37310652], [-45.17751385, -23.37247893], [-45.17711132, -23.37200943], [-45.17677863, -23.37166353], [-45.17642994, -23.37137206], [-45.17597951, -23.37114006], [-45.17542723, -23.3708785], [-45.17512154, -23.37068591], [-45.17499268, -23.37049807], [-45.17492806, -23.37025575], [-45.17494381, -23.37000344], [-45.1750612, -23.3696224], [-45.17529107, -23.36921155], [-45.17541907, -23.36875135], [-45.17550401, -23.36814773], [-45.17556259, -23.36787064], [-45.17572832, -23.36757859], [-45.17597445, -23.36730623], [-45.17607596, -23.36707856], [-45.17605403, -23.36670263], [-45.17590889, -23.36635651], [-45.1756404, -23.36592148], [-45.17520023, -23.36532835], [-45.17480309, -23.36484895], [-45.17448653, -23.36452775], [-45.17414333, -23.36432531], [-45.17369839, -23.36417245], [-45.17333911, -23.36396014], [-45.17315132, -23.36376742], [-45.17303312, -23.36352515], [-45.17299528, -23.3632729], [-45.17295735, -23.3629415], [-45.17287129, -23.36268931], [-45.17265114, -23.36233832], [-45.17255969, -23.36205645], [-45.17254321, -23.36173987], [-45.17256426, -23.36144798], [-45.17255317, -23.36115612], [-45.17246696, -23.36079015], [-45.17230568, -23.36037479], [-45.17216593, -23.36003361], [-45.1721066, -23.35973191], [-45.1721491, -23.35944989], [-45.17229342, -23.3591826], [-45.17246994, -23.35894496], [-45.17278563, -23.35860822], [-45.17306932, -23.35839024], [-45.17343871, -23.35814249], [-45.17373306, -23.35787998], [-45.17387205, -23.35763248], [-45.17390381, -23.35733563], [-45.17382316, -23.35711806], [-45.17357091, -23.35679679], [-45.17315795, -23.35649549], [-45.17264323, -23.35621903], [-45.17221979, -23.35609582], [-45.17178043, -23.35609631], [-45.17128221, -23.35615127], [-45.1705698, -23.35631035], [-45.16997518, -23.35640004], [-45.16913396, -23.356396], [-45.16852839, -23.35630266], [-45.16786902, -23.35603624], [-45.16731666, -23.35564108], [-45.16710343, -23.35541005], [-45.16692046, -23.35502792], [-45.16687091, -23.354691], [-45.1668352, -23.35419855], [-45.16677162, -23.35386165], [-45.16659576, -23.35355079], [-45.16630768, -23.35329189], [-45.16599162, -23.3531043], [-45.16560546, -23.35299455], [-45.16502284, -23.35292388], [-45.16439107, -23.35284031], [-45.16388565, -23.35276307], [-45.16350661, -23.35273107], [-45.16314873, -23.3527768], [-45.16268561, -23.35286153], [-45.16225753, -23.35290085], [-45.16192765, -23.35289471], [-45.16146437, -23.35284335], [-45.16097993, -23.35270777], [-45.16046037, -23.3525463], [-45.15996185, -23.35237184], [-45.1594351, -23.35206781], [-45.15906968, -23.35167938], [-45.15876038, -23.35127144], [-45.15845111, -23.35087647], [-45.15821905, -23.35049437], [-45.15807125, -23.35015108], [-45.15803583, -23.34986599], [-45.15805647, -23.34952252], [-45.15815423, -23.34910121], [-45.15837084, -23.34829745], [-45.1586014, -23.34741592], [-45.15873407, -23.34684553], [-45.15888099, -23.34645657], [-45.15897183, -23.34613247], [-45.15896454, -23.3458992], [-45.158852, -23.34569195], [-45.15843059, -23.34541373], [-45.1578617, -23.34505789], [-45.15733482, -23.34461129], [-45.15702557, -23.34422279], [-45.1568004, -23.34372405], [-45.15662419, -23.34307621], [-45.15650392, -23.34224687], [-45.15638388, -23.3416249], [-45.15617248, -23.34088637], [-45.15595414, -23.34021265], [-45.15559536, -23.33946131], [-45.15519461, -23.33883313], [-45.15456907, -23.33799781], [-45.1541331, -23.33724655], [-45.15379572, -23.33678031], [-45.15363286, -23.33665187], [-45.15345247, -23.33657213], [-45.15321446, -23.33657236], [-45.15299097, -23.33664584], [-45.152782, -23.33680588], [-45.15242895, -23.33711257], [-45.15206868, -23.33741262], [-45.15178765, -23.33763266], [-45.15147768, -23.33777282], [-45.15108827, -23.33781316], [-45.15061226, -23.33781361], [-45.15012909, -23.3378607], [-45.14971081, -23.33788774], [-45.14929983, -23.33799469], [-45.14890332, -23.33814824], [-45.14857884, -23.33821515], [-45.14826149, -23.33820213], [-45.14792956, -23.33805592], [-45.14766234, -23.33772318], [-45.14740219, -23.3372639], [-45.14709138, -23.33664483], [-45.14680218, -23.3359991], [-45.14635439, -23.33542011], [-45.14566115, -23.33461492], [-45.14499682, -23.33386297], [-45.14464271, -23.33319732], [-45.14445456, -23.33261142], [-45.14437462, -23.33204541], [-45.14440277, -23.33139938], [-45.14433004, -23.33083336], [-45.14414932, -23.3304406], [-45.1438172, -23.33009459], [-45.14313152, -23.32958241], [-45.14253966, -23.32912342], [-45.14194051, -23.32858452], [-45.141558, -23.32831847], [-45.14126946, -23.32824548], [-45.1408873, -23.32830576], [-45.14051971, -23.32850588], [-45.14026029, -23.32870591], [-45.14002256, -23.32894588], [-45.13983518, -23.32907258], [-45.13960445, -23.32911941], [-45.13935201, -23.32909299], [-45.1390778, -23.3289334], [-45.13842097, -23.3284012], [-45.13787966, -23.3279821], [-45.13739526, -23.32754555], [-45.13731559, -23.30337889], [-45.13873359, -23.30393873], [-45.13986466, -23.30412763], [-45.14058551, -23.30526647], [-45.1429509, -23.30602398], [-45.14510987, -23.306022], [-45.14603432, -23.30526149], [-45.14644451, -23.30431154], [-45.14685522, -23.30383637], [-45.14788223, -23.30288584], [-45.14880675, -23.30222027], [-45.14932067, -23.30212483], [-45.15014236, -23.30145935], [-45.15034701, -23.30060454], [-45.15065446, -23.29974964], [-45.15106482, -23.29898959], [-45.15178423, -23.29879898], [-45.15301742, -23.29841796], [-45.1530159, -23.29708857], [-45.15342667, -23.29670834], [-45.15507061, -23.29594707], [-45.15558395, -23.29537682], [-45.15527467, -23.29461748], [-45.15517077, -23.29366801], [-45.15516967, -23.29271845], [-45.15568278, -23.29195829], [-45.15568101, -23.29043898], [-45.15475387, -23.28873068], [-45.15423858, -23.28759171], [-45.15444329, -23.28683185], [-45.15495616, -23.28588178], [-45.15495363, -23.28369778], [-45.15443858, -23.28274872], [-45.15382129, -23.28227454], [-45.15299821, -23.28161065], [-45.15217525, -23.28104171], [-45.15166044, -23.28028255], [-45.15093996, -23.27942863], [-45.15052774, -23.27847946], [-45.15042304, -23.27677034], [-45.15011351, -23.27572611], [-45.1491876, -23.27496734], [-45.14774694, -23.27344939], [-45.14671786, -23.27231087], [-45.14496922, -23.27107806], [-45.14445418, -23.27003401], [-45.14435028, -23.26898957], [-45.1436298, -23.26804067], [-45.14280666, -23.2671868], [-45.1420862, -23.26623789], [-45.14208529, -23.26538328], [-45.14300968, -23.26481269], [-45.14352235, -23.26367274], [-45.14372698, -23.26281794], [-45.14372593, -23.2618408], [-45.14733003, -23.25755048], [-45.14658995, -23.2557099], [-45.14511301, -23.25496112], [-45.1436369, -23.25496248], [-45.14116779, -23.25762939], [-45.14084339, -23.25721809], [-45.1401227, -23.25598429], [-45.13929916, -23.25465562], [-45.13857821, -23.25313695], [-45.13821555, -23.25286331], [-45.13745421, -23.25228088], [-45.13714726, -23.25226996], [-45.13709782, -23.23724488], [-45.12487628, -23.2327022], [-45.12476349, -23.23276257], [-45.12455379, -23.23264652], [-45.12449517, -23.23263075], [-45.12443373, -23.23262405], [-45.12433188, -23.23263096], [-45.12426012, -23.23264664], [-45.12421315, -23.23268813], [-45.12417813, -23.23272083], [-45.1241387, -23.23277422], [-45.12410455, -23.23285122], [-45.1240759, -23.23294369], [-45.12406585, -23.23303474], [-45.124062, -23.23311237], [-45.12414324, -23.23342941], [-45.12418991, -23.23356049], [-45.12421185, -23.23370281], [-45.12421171, -23.23386907], [-45.12419068, -23.23400959], [-45.1241444, -23.23418301], [-45.12373694, -23.2348531], [-45.12365634, -23.23507099], [-45.12363982, -23.23526672], [-45.12416259, -23.23668267], [-45.12426903, -23.23720897], [-45.12427749, -23.23762388], [-45.12419625, -23.23794747], [-45.12414008, -23.2380457], [-45.12369124, -23.23852788], [-45.12347159, -23.23863354], [-45.12316933, -23.23867874], [-45.12263935, -23.23867944], [-45.1219237, -23.23887595], [-45.12137675, -23.23889075], [-45.12077356, -23.23884654], [-45.12039084, -23.23898312], [-45.11990249, -23.23908046], [-45.11947903, -23.23904361], [-45.11922548, -23.23897597], [-45.11881808, -23.23880211], [-45.11868784, -23.23869006], [-45.11829654, -23.2381777], [-45.11752559, -23.23759686], [-45.11733314, -23.23722961], [-45.11718693, -23.23689133], [-45.11717014, -23.23677803], [-45.11701535, -23.23671064], [-45.11693329, -23.23662761], [-45.11674204, -23.23633176], [-45.11668853, -23.23616077], [-45.1164025, -23.23582228], [-45.11619908, -23.23566442], [-45.11594586, -23.23554347], [-45.11566919, -23.23558197], [-45.11520512, -23.23556685], [-45.11441375, -23.23534158], [-45.11385971, -23.23532729], [-45.11343068, -23.2352388], [-45.11326415, -23.23525158], [-45.11305358, -23.23530591], [-45.11267859, -23.23548601], [-45.1125319, -23.23560674], [-45.11218186, -23.23600602], [-45.11192101, -23.23615688], [-45.1116438, -23.23621705], [-45.11061705, -23.23618111], [-45.11052231, -23.23613665], [-45.11046125, -23.23607484], [-45.10978491, -23.23602363], [-45.10927998, -23.23615944], [-45.10894362, -23.23615963], [-45.10871767, -23.23608352], [-45.1082451, -23.23561732], [-45.10776444, -23.23548165], [-45.10732432, -23.2352872], [-45.10698103, -23.23521134], [-45.10645144, -23.23519663], [-45.10596308, -23.23529482], [-45.10566178, -23.23546019], [-45.10527873, -23.23576931], [-45.10477424, -23.23636504], [-45.10413066, -23.23732921], [-45.10393482, -23.23754016], [-45.10268064, -23.23864152], [-45.10236362, -23.23916798], [-45.10209536, -23.23950029], [-45.10139536, -23.24069007], [-45.10117556, -23.2412782], [-45.10107869, -23.2419177], [-45.10111055, -23.24261051], [-45.10126643, -23.24346947], [-45.10129207, -23.2438983], [-45.10126634, -23.2443884], [-45.10114465, -23.24492347], [-45.10115423, -23.24505108], [-45.10045391, -23.2457746], [-45.10051871, -23.2462413], [-45.10062498, -23.24657243], [-45.10076372, -23.24677594], [-45.10139259, -23.24740808], [-45.10183272, -23.24804078], [-45.10200419, -23.24842478], [-45.10224889, -23.24929102], [-45.10246972, -23.24985496], [-45.10276979, -23.2503781], [-45.10372914, -23.25137136], [-45.1039606, -23.25178192], [-45.10432076, -23.25228734], [-45.10448402, -23.25268743], [-45.10471634, -23.25290373], [-45.10578287, -23.25335618], [-45.10591771, -23.25344033], [-45.10605889, -23.25358515], [-45.1059852, -23.25395768], [-45.10589642, -23.25410853], [-45.10511964, -23.25463981], [-45.10503771, -23.25502934], [-45.10500689, -23.25580667], [-45.10502777, -23.25698807], [-45.10494437, -23.2574372], [-45.10459139, -23.25831169], [-45.10421317, -23.25850074], [-45.10346363, -23.25863863], [-45.1032021, -23.25873525], [-45.10304007, -23.25884209], [-45.10298317, -23.25904871], [-45.10296451, -23.25909169], [-45.10299343, -23.25914832], [-45.10325186, -23.25941668], [-45.10359062, -23.25959998], [-45.10411224, -23.2597835], [-45.10443318, -23.25997546], [-45.10536454, -23.26075759], [-45.10558855, -23.26103426], [-45.10585526, -23.26152325], [-45.10604194, -23.26212533], [-45.10592328, -23.26233789], [-45.10583201, -23.26258988], [-45.1058483, -23.26268329], [-45.10595023, -23.26287337], [-45.1069486, -23.26427403], [-45.10873492, -23.26632548], [-45.10944793, -23.26706601], [-45.07412322, -23.30399234], [-45.07425283, -23.30403126], [-45.07434529, -23.3042085], [-45.0744354, -23.30455918], [-45.07454922, -23.3050983], [-45.07460059, -23.30590717], [-45.0745287, -23.30639989], [-45.07443098, -23.30686948], [-45.07437605, -23.30723065], [-45.07434063, -23.30775216], [-45.07434098, -23.3080142], [-45.07442303, -23.30865113], [-45.07445686, -23.30937831], [-45.07448245, -23.30964811], [-45.07430266, -23.31046835], [-45.0740389, -23.31112418], [-45.07380662, -23.31165417], [-45.0736342, -23.31209778], [-45.07312743, -23.31284786], [-45.07285011, -23.31322149], [-45.07212218, -23.31409158], [-45.07187016, -23.31435189], [-45.07179271, -23.31451651], [-45.07152415, -23.31504934], [-45.07147458, -23.31519377], [-45.07133641, -23.31547908], [-45.07058019, -23.31713375], [-45.07027126, -23.31799191], [-45.06988329, -23.31880232], [-45.06965209, -23.31932691], [-45.06937699, -23.32012254], [-45.06944598, -23.32053602], [-45.06968795, -23.32099653], [-45.07027413, -23.32134596], [-45.0707206, -23.32164816], [-45.07092776, -23.32209258], [-45.07089891, -23.32242718], [-45.07081379, -23.32266392], [-45.07064731, -23.32318265], [-45.07060493, -23.32351065], [-45.07064842, -23.32372932], [-45.07076059, -23.32398017], [-45.07090169, -23.32420814], [-45.07107369, -23.32441328], [-45.07120366, -23.324538], [-45.07150291, -23.32470155], [-45.07193941, -23.3248933], [-45.07236173, -23.32502602], [-45.07330054, -23.32524195], [-45.07454925, -23.32534966], [-45.07572084, -23.32552983], [-45.07622795, -23.32563632], [-45.07677618, -23.32578163], [-45.07699886, -23.32583693], [-45.07744014, -23.32603419], [-45.07753191, -23.32612106], [-45.077644, -23.32625715], [-45.07772822, -23.32645139], [-45.07775265, -23.32661093], [-45.07781941, -23.32687798], [-45.07784119, -23.32706547], [-45.07785009, -23.32741714], [-45.07744093, -23.32900508], [-45.07742015, -23.32940943], [-45.0773839, -23.3300041], [-45.07730571, -23.33086986], [-45.07729407, -23.33185357], [-45.07726612, -23.33207345], [-45.07720962, -23.3322611], [-45.07706378, -23.33250017], [-45.07692202, -23.33265349], [-45.0765761, -23.33287207], [-45.07602018, -23.33350998], [-45.07578117, -23.3335998], [-45.0755499, -23.33361389], [-45.07428679, -23.33341281], [-45.07408065, -23.33340032], [-45.07397465, -23.33341344], [-45.07382821, -23.33343926], [-45.07373999, -23.33348528], [-45.07359752, -23.33362774], [-45.07353366, -23.3337565], [-45.07329158, -23.33408841], [-45.07310915, -23.33450018], [-45.07296723, -23.33517304], [-45.07284603, -23.33599632], [-45.07272577, -23.33642657], [-45.07260383, -23.33668783], [-45.07219977, -23.33711931], [-45.07194901, -23.337367], [-45.07117099, -23.33808152], [-45.07088019, -23.33832565], [-45.07051287, -23.33873531], [-45.06990902, -23.33960711], [-45.06904999, -23.34050964], [-45.06797684, -23.34235003], [-45.06783116, -23.34254211], [-45.06768405, -23.3428706], [-45.06762936, -23.34322092], [-45.06760692, -23.3437698], [-45.06756927, -23.34426144], [-45.06750415, -23.34503169], [-45.06746479, -23.3459859], [-45.06740418, -23.3467716], [-45.06750506, -23.34720112], [-45.06776154, -23.34778843], [-45.0680939, -23.34811803], [-45.06834113, -23.34828952], [-45.06860069, -23.34851638], [-45.06904312, -23.34878777], [-45.06954642, -23.34913003], [-45.07032521, -23.34953051], [-45.07068991, -23.3495825], [-45.07105816, -23.34957041], [-45.07161329, -23.34963817], [-45.07235373, -23.3494153], [-45.07298496, -23.34905819], [-45.07352997, -23.34882395], [-45.07414325, -23.34848001], [-45.07469383, -23.34825763], [-45.07517737, -23.34801576], [-45.07596693, -23.34762675], [-45.07613662, -23.34749209], [-45.07648134, -23.3470467], [-45.07661962, -23.34679753], [-45.07671745, -23.34636409], [-45.07693695, -23.34579859], [-45.07717128, -23.34510871], [-45.07727692, -23.34471519], [-45.07755847, -23.34441031], [-45.07790199, -23.34421065], [-45.07802107, -23.34418335], [-45.07818171, -23.3441768], [-45.07831514, -23.34420221], [-45.07846542, -23.34425869], [-45.07855351, -23.34441596], [-45.07856007, -23.34450645], [-45.07854342, -23.34454676], [-45.07847619, -23.34477213], [-45.07838695, -23.34501691], [-45.07832997, -23.34526328], [-45.07830997, -23.34555742], [-45.0783018, -23.34572892], [-45.07834916, -23.34599014], [-45.07846606, -23.34624831], [-45.07861926, -23.34642412], [-45.07882558, -23.34674652], [-45.07914305, -23.34708572], [-45.07951463, -23.34749203], [-45.07993872, -23.34791209], [-45.08028156, -23.34833314], [-45.08057405, -23.34861399], [-45.08116331, -23.34920107], [-45.08159313, -23.34970618], [-45.08177098, -23.34995389], [-45.08202393, -23.35021131], [-45.08219349, -23.35027994], [-45.08253227, -23.35039099], [-45.08288611, -23.35036773], [-45.0834691, -23.3502987], [-45.08432818, -23.35006562], [-45.08474298, -23.34999123], [-45.08490266, -23.34998466], [-45.08506339, -23.35001425], [-45.08527511, -23.35015875], [-45.08547056, -23.35048634], [-45.08571132, -23.35080223], [-45.08587684, -23.3509548], [-45.08606716, -23.35109434], [-45.0862847, -23.35120102], [-45.08727249, -23.35162118], [-45.08801999, -23.35190437], [-45.08851619, -23.35202143], [-45.08902094, -23.35210885], [-45.0899964, -23.35215648], [-45.09071941, -23.35220331], [-45.09114848, -23.35214547], [-45.09239525, -23.35186629], [-45.09251762, -23.35186434], [-45.09264435, -23.35188418], [-45.09277717, -23.35193485], [-45.09290345, -23.35197275], [-45.09298777, -23.35200614], [-45.09312725, -23.35210395], [-45.09319827, -23.35220031], [-45.09325466, -23.35233432], [-45.0932939, -23.35276703], [-45.09329443, -23.35338055], [-45.09333174, -23.35381232], [-45.09338795, -23.3539933], [-45.0935688, -23.35431876], [-45.09403812, -23.35493128], [-45.09430022, -23.35517623], [-45.09462439, -23.35536465], [-45.09558703, -23.35561618], [-45.09581199, -23.35570041], [-45.09608969, -23.35586888], [-45.09628324, -23.35603648], [-45.09645825, -23.35632116], [-45.09663711, -23.3568074], [-45.09718447, -23.35770888], [-45.09761447, -23.35825008], [-45.0978, -23.35858467], [-45.0979164, -23.35898467], [-45.09788961, -23.35947654], [-45.09792333, -23.35961729], [-45.09802515, -23.35973508], [-45.09816458, -23.35987534], [-45.09829176, -23.35995662], [-45.09848183, -23.36002747], [-45.09888809, -23.3600622], [-45.09942056, -23.3599794], [-45.09986515, -23.35976917], [-45.10043504, -23.35935826], [-45.10168668, -23.35840507], [-45.10239509, -23.35801243], [-45.10283246, -23.35773698], [-45.10319223, -23.35755297], [-45.10346821, -23.3573934], [-45.10389856, -23.3572443], [-45.1043496, -23.35720857], [-45.10478562, -23.35718699], [-45.10525104, -23.35724372], [-45.10575038, -23.35743307], [-45.10591931, -23.35744836], [-45.10612234, -23.35743002], [-45.10638549, -23.35735421], [-45.10677077, -23.35716711], [-45.10723556, -23.35681091], [-45.10754404, -23.35664298], [-45.10763122, -23.35663938], [-45.10777878, -23.35656838], [-45.10800579, -23.35652976], [-45.10830761, -23.35651349], [-45.10845493, -23.35653193], [-45.10858802, -23.356532], [-45.10931371, -23.35647038], [-45.10983396, -23.35644603], [-45.11046852, -23.35646924], [-45.11082253, -23.35643959], [-45.11107106, -23.35640142], [-45.11135666, -23.35632788], [-45.111813, -23.35611605], [-45.11311504, -23.35537796], [-45.11353412, -23.35520872], [-45.11390554, -23.35502764], [-45.11417231, -23.35492389], [-45.11442872, -23.35488316], [-45.1148821, -23.35487185], [-45.11561665, -23.3549676], [-45.1159179, -23.35497389], [-45.11630485, -23.35491782], [-45.11705046, -23.35476171], [-45.11735452, -23.35477347], [-45.11786996, -23.35474538], [-45.11815386, -23.35482087], [-45.11860025, -23.35489524], [-45.11914153, -23.3551306], [-45.11956714, -23.3553744], [-45.11995745, -23.35566083], [-45.12040369, -23.35622129], [-45.12082906, -23.35659518], [-45.12115415, -23.35698777], [-45.12159875, -23.35765571], [-45.12191269, -23.35794415], [-45.12209186, -23.35806083], [-45.12227394, -23.35813871], [-45.12273278, -23.35830458], [-45.12346761, -23.35830995], [-45.12403177, -23.35833073], [-45.12433579, -23.35842471], [-45.12452288, -23.35853793], [-45.12459425, -23.35862074], [-45.12486948, -23.35881169], [-45.1255522, -23.35950807], [-45.12593729, -23.35988924], [-45.1265001, -23.36032652], [-45.12752253, -23.36117904], [-45.12772636, -23.36124834], [-45.12809324, -23.36129301], [-45.12821952, -23.36133178], [-45.12928123, -23.36109635], [-45.12994287, -23.36093302], [-45.13031403, -23.36088291], [-45.13045381, -23.36088942], [-45.13064654, -23.36093228], [-45.13093637, -23.36104673], [-45.13126606, -23.36129211], [-45.13143165, -23.36144464], [-45.13160879, -23.3617257], [-45.13181971, -23.36226678], [-45.13199196, -23.36282874], [-45.13208298, -23.36302941], [-45.13225008, -23.36324069], [-45.13260478, -23.36354442], [-45.13317247, -23.36386341], [-45.13382084, -23.36412444], [-45.13457021, -23.3642168], [-45.13552177, -23.36408475], [-45.13615591, -23.36384493], [-45.1363361, -23.3636797], [-45.13642132, -23.36331464], [-45.13634914, -23.36310352], [-45.13619753, -23.36277872], [-45.13608363, -23.36259294], [-45.13595404, -23.36240864], [-45.13585299, -23.36205688], [-45.13580469, -23.36183], [-45.13578387, -23.36168048], [-45.1357806, -23.36153314], [-45.13581215, -23.36136302], [-45.1358586, -23.36118328], [-45.13599892, -23.3610073], [-45.13618955, -23.36085494], [-45.13648043, -23.36072545], [-45.13684839, -23.36072585], [-45.13790135, -23.36096996], [-45.13839666, -23.36100553], [-45.13873936, -23.36095843], [-45.13891694, -23.36089976], [-45.13920851, -23.36078203], [-45.13951267, -23.36062931], [-45.13992836, -23.36055842], [-45.14040998, -23.36067411], [-45.14063021, -23.36087384], [-45.14077334, -23.36110539], [-45.14076163, -23.36150632], [-45.1405561, -23.36198997], [-45.14043077, -23.36267676], [-45.14033564, -23.36324853], [-45.14032043, -23.36367287], [-45.14041574, -23.36397934], [-45.14073309, -23.36433106], [-45.14169981, -23.3649438], [-45.14212775, -23.36513428], [-45.14269861, -23.3653241], [-45.14309332, -23.36543256], [-45.14344454, -23.36547778], [-45.1438711, -23.3654839], [-45.1441517, -23.36553579], [-45.14442301, -23.36564802], [-45.14461849, -23.36585988], [-45.14471959, -23.36617007], [-45.14474112, -23.36633135], [-45.14473572, -23.36651375], [-45.14468601, -23.36686781], [-45.14449122, -23.36747366], [-45.14442098, -23.3676258], [-45.14423065, -23.36857147], [-45.14411331, -23.36917169], [-45.14408128, -23.3695234], [-45.14403548, -23.3699182], [-45.14394082, -23.37026952], [-45.14379774, -23.37051864], [-45.1434298, -23.37099983], [-45.14328773, -23.37144955], [-45.14335067, -23.37188003], [-45.1435466, -23.3721949], [-45.14376831, -23.37249585], [-45.14481572, -23.37357736], [-45.14579142, -23.37467003], [-45.14699084, -23.37578088], [-45.14736518, -23.37616539], [-45.14758928, -23.37644921], [-45.1477989, -23.37676526], [-45.14798888, -23.37720469], [-45.14810033, -23.37793613], [-45.14819674, -23.37836007], [-45.1488139, -23.37979045], [-45.14919369, -23.38047594], [-45.14989153, -23.3815267], [-45.15054723, -23.38245913], [-45.15102018, -23.38277429], [-45.15166786, -23.38286718], [-45.15276216, -23.38286718], [-45.15515464, -23.38281536], [-45.15551929, -23.38283372], [-45.15598783, -23.3828461], [-45.15625406, -23.38292748], [-45.15657109, -23.38301263], [-45.15697692, -23.38331103], [-45.15717933, -23.38364318], [-45.15723718, -23.38436718], [-45.15736529, -23.38493814], [-45.15753941, -23.38534741], [-45.15777768, -23.38581582], [-45.15830092, -23.38640034], [-45.15923548, -23.38717856], [-45.15954829, -23.38735757], [-45.16012213, -23.38771183], [-45.1607606, -23.38818667], [-45.1611381, -23.38840316], [-45.1612793, -23.38847383], [-45.1615428, -23.38854702], [-45.16186768, -23.388551], [-45.16216721, -23.38851018], [-45.16263032, -23.38834353], [-45.16284562, -23.38830459], [-45.16305891, -23.38822766], [-45.16324882, -23.38822705], [-45.16348721, -23.38828617], [-45.16375027, -23.38845873], [-45.16384171, -23.38852296], [-45.16389273, -23.388599], [-45.16390455, -23.3887176], [-45.16388708, -23.38883289], [-45.16377928, -23.38920292], [-45.16364837, -23.38959778], [-45.16348831, -23.39018629], [-45.16347689, -23.39049686], [-45.16342882, -23.390785], [-45.16359396, -23.39124286], [-45.163692, -23.39143914], [-45.16395584, -23.39170116], [-45.16440297, -23.39207448], [-45.1649065, -23.39226102], [-45.16602814, -23.39230758], [-45.16647166, -23.39226339], [-45.16676218, -23.3921501], [-45.1669771, -23.39200544], [-45.1674472, -23.39175218], [-45.16816953, -23.39122762], [-45.16861774, -23.39102902], [-45.16919634, -23.3907816], [-45.16952668, -23.39076218], [-45.16965246, -23.39074218], [-45.16986787, -23.39073937], [-45.17006587, -23.39076874], [-45.17068872, -23.39091886], [-45.17082472, -23.39096231], [-45.17100143, -23.39106262], [-45.17121085, -23.39122774], [-45.17151966, -23.39149249], [-45.1719005, -23.39185538], [-45.17215875, -23.39222841], [-45.17229305, -23.39250493], [-45.1731837, -23.39393269], [-45.17405369, -23.39463359], [-45.17497443, -23.39525964], [-45.17421936, -23.39563989], [-45.17379658, -23.39583903], [-45.17306421, -23.39617095], [-45.17258461, -23.39633097], [-45.17236094, -23.39639144], [-45.17184597, -23.39647574], [-45.17106045, -23.39661592], [-45.1693934, -23.39685907], [-45.16921528, -23.39689787], [-45.16896856, -23.39698045], [-45.16881528, -23.39704506], [-45.16848933, -23.39720642], [-45.16826685, -23.39733918], [-45.16797514, -23.3975419], [-45.16782304, -23.39767882], [-45.16762639, -23.39787716], [-45.16756427, -23.39797708], [-45.16753837, -23.39807684], [-45.16751808, -23.39818755], [-45.16747714, -23.39850475], [-45.16751827, -23.39915341], [-45.16754164, -23.39928038], [-45.16759084, -23.39947294], [-45.16771724, -23.3996707], [-45.16796092, -23.40012023], [-45.16827011, -23.40045094], [-45.16852579, -23.40088988], [-45.16865324, -23.40124758], [-45.16871666, -23.40190574], [-45.16885891, -23.40250226], [-45.1688507, -23.4027614], [-45.16894086, -23.40312285], [-45.16904315, -23.4035496], [-45.1691475, -23.40389056], [-45.16926045, -23.40432205], [-45.16923428, -23.40463593], [-45.16915492, -23.4050445], [-45.16909557, -23.40527277], [-45.16897886, -23.40556582], [-45.16881199, -23.40582803], [-45.16859675, -23.40622838], [-45.16837966, -23.40670549], [-45.16817211, -23.40727405], [-45.16809443, -23.40753176], [-45.16798745, -23.40798945], [-45.16771971, -23.40849624], [-45.16764577, -23.40859862], [-45.16743963, -23.40882478], [-45.1673959, -23.40885189], [-45.16724274, -23.4089915], [-45.16692146, -23.40920173], [-45.16628036, -23.40964212], [-45.16619692, -23.40973256], [-45.16606342, -23.40990962], [-45.16597839, -23.41006598], [-45.16591797, -23.41025719], [-45.16590881, -23.41035277], [-45.16590922, -23.41045759], [-45.16594821, -23.41074841], [-45.1659733, -23.4108447], [-45.1660474, -23.41097904], [-45.16612285, -23.41105739], [-45.16618449, -23.41109931], [-45.16625414, -23.41113418], [-45.16709524, -23.41137192], [-45.16752741, -23.41159764], [-45.16781931, -23.41171296], [-45.16799431, -23.41176354], [-45.16822402, -23.41181886], [-45.16888526, -23.4119237], [-45.16949451, -23.41207354], [-45.1700963, -23.41220787], [-45.17066788, -23.41241747], [-45.17104352, -23.41259233], [-45.17130827, -23.41273781], [-45.17154139, -23.41289529], [-45.17177587, -23.41307809], [-45.17224571, -23.41340667], [-45.17268722, -23.41381418], [-45.17280667, -23.41393589], [-45.17286447, -23.41401568], [-45.17291631, -23.41409896], [-45.17295123, -23.41419364], [-45.17298978, -23.4143408], [-45.17303127, -23.41461], [-45.17312891, -23.41490564], [-45.17315291, -23.41504708], [-45.17325003, -23.41532373], [-45.17413962, -23.41720862], [-45.17426324, -23.41752287], [-45.17448096, -23.41799535], [-45.17480807, -23.41843844], [-45.17513333, -23.41879567], [-45.17595669, -23.41961034], [-45.17695153, -23.42066343], [-45.17718133, -23.42091932], [-45.17731177, -23.42103222], [-45.1774615, -23.42119791], [-45.17752252, -23.42130668], [-45.17755682, -23.42142755], [-45.17755691, -23.42154591], [-45.17752284, -23.42170061], [-45.17721581, -23.42225359], [-45.17719533, -23.42233178], [-45.17718811, -23.4224283], [-45.17718531, -23.42250414], [-45.17719125, -23.42262352], [-45.17720221, -23.42273759], [-45.17725819, -23.42293389], [-45.17734847, -23.42321041], [-45.17743483, -23.42340553], [-45.177534, -23.42355664], [-45.17779536, -23.42388454], [-45.17800318, -23.42407763], [-45.17813421, -23.42416614], [-45.17828315, -23.42424238], [-45.17898778, -23.42449985], [-45.17906129, -23.4245375], [-45.17925014, -23.42462358], [-45.17933783, -23.4246823], [-45.17944859, -23.42479931], [-45.179493, -23.42490683], [-45.17951352, -23.42503103], [-45.179505, -23.42518174], [-45.17947958, -23.42530229], [-45.17944044, -23.4253828], [-45.17938838, -23.42547118], [-45.1793181, -23.42554383], [-45.17923818, -23.42560996], [-45.17905716, -23.42568666], [-45.17842073, -23.42589047], [-45.17742283, -23.42614289], [-45.17731302, -23.42614877], [-45.17721133, -23.42614308], [-45.17658793, -23.42609055], [-45.17646573, -23.42608262], [-45.17639412, -23.42608838], [-45.17631637, -23.42610486], [-45.17623725, -23.42613757], [-45.17618689, -23.42619617], [-45.17615192, -23.42626593], [-45.17614026, -23.42634339], [-45.17613722, -23.42646982], [-45.17615504, -23.42682797], [-45.17620384, -23.42707834], [-45.17630504, -23.42743007], [-45.17639732, -23.4276235], [-45.17679042, -23.42829563], [-45.17690038, -23.42856803], [-45.17706406, -23.42904933], [-45.1770902, -23.42914293], [-45.17709923, -23.42925605], [-45.17709084, -23.42936068], [-45.17703371, -23.42949684], [-45.17693633, -23.4296376], [-45.17686928, -23.42969767], [-45.17676181, -23.42976955], [-45.17656938, -23.42987222], [-45.17633884, -23.4299723], [-45.17596045, -23.43011272], [-45.17554059, -23.43038962], [-45.17535501, -23.43053309], [-45.1747044, -23.43099951], [-45.17448734, -23.43127153], [-45.17434885, -23.43161473], [-45.17434909, -23.43193006], [-45.17467512, -23.43298842], [-45.17483134, -23.43333224], [-45.17498267, -23.4336353], [-45.1750273, -23.43377445], [-45.17510811, -23.43391525], [-45.17531447, -23.4342104], [-45.17575506, -23.43486273], [-45.17604484, -23.43523097], [-45.17612633, -23.43534377], [-45.1762132, -23.43551812], [-45.1762435, -23.43560186], [-45.17633017, -23.43590631], [-45.17644841, -23.43648606], [-45.17633328, -23.43691648], [-45.17628184, -23.43705998], [-45.1761848, -23.43730827], [-45.17591756, -23.43803733], [-45.17566689, -23.43860682], [-45.175617, -23.43884884], [-45.17559997, -23.43894607], [-45.17559345, -23.43905435], [-45.17560813, -23.43913597], [-45.17565541, -23.43924626], [-45.17592724, -23.43966924], [-45.17604889, -23.43982262], [-45.17618585, -23.43995011], [-45.17635182, -23.44009265], [-45.17650398, -23.44019877], [-45.17672776, -23.44029912], [-45.17741181, -23.44056069], [-45.17801952, -23.44073938], [-45.17853275, -23.44097848], [-45.17910675, -23.44129651], [-45.17957607, -23.44148863], [-45.18021292, -23.44175916], [-45.18064215, -23.44186732], [-45.18088967, -23.44191756], [-45.18104483, -23.44193971], [-45.18118159, -23.44195335], [-45.18126348, -23.44196858], [-45.18136225, -23.44197421], [-45.18175768, -23.4419814], [-45.1821243, -23.44204672], [-45.18224671, -23.44208717], [-45.18245414, -23.44217544], [-45.18276691, -23.44232188], [-45.1831547, -23.44256562], [-45.18348919, -23.44290856], [-45.18368313, -23.44315105], [-45.18395497, -23.44328942], [-45.18415597, -23.44331973], [-45.18440659, -23.44332214], [-45.18464456, -23.44336224], [-45.184869, -23.44339483], [-45.18510939, -23.44345667], [-45.1856257, -23.44360907], [-45.18599335, -23.44371325], [-45.18629853, -23.44380893], [-45.18654205, -23.44390335], [-45.18683771, -23.44402865], [-45.18729259, -23.44425207], [-45.18799548, -23.44462782], [-45.18814026, -23.4447157], [-45.18836483, -23.44486575], [-45.18900535, -23.44531069], [-45.19122251, -23.44677532], [-45.19164706, -23.44708032], [-45.1917071, -23.44714931], [-45.19192424, -23.44736425], [-45.1921568, -23.44754879], [-45.19245116, -23.44760629], [-45.19358337, -23.44747577], [-45.19412348, -23.44749401], [-45.19442029, -23.44753078], [-45.1948613, -23.44759849], [-45.19542303, -23.44773642], [-45.19635758, -23.44809065], [-45.19764229, -23.44866704], [-45.1978193, -23.44875918], [-45.19798908, -23.44886654], [-45.19820483, -23.44901729], [-45.19838167, -23.44915732], [-45.19900751, -23.44968595], [-45.19931388, -23.44993793], [-45.19956613, -23.45020056], [-45.1996364, -23.45029234], [-45.19980078, -23.45046192], [-45.19992625, -23.45058012], [-45.20011192, -23.45071942], [-45.20074756, -23.45120759], [-45.20163542, -23.45208305], [-45.20186969, -23.45223779], [-45.20218909, -23.45235451], [-45.20234379, -23.45239651], [-45.20253584, -23.45243293], [-45.20265489, -23.45245071], [-45.20278312, -23.45245332], [-45.20291154, -23.4524478], [-45.20308035, -23.45243226], [-45.20400502, -23.4522586], [-45.20452529, -23.45224749], [-45.20478474, -23.45225005], [-45.20503399, -23.45226957], [-45.20559725, -23.45238581], [-45.20598178, -23.4524406], [-45.20696318, -23.45251654], [-45.20719673, -23.45253754], [-45.20738129, -23.45255936], [-45.20771303, -23.45265192], [-45.20780539, -23.45268], [-45.20794883, -23.45274254], [-45.20836371, -23.45296237], [-45.20876273, -23.45319002], [-45.20890828, -23.45332849], [-45.20910027, -23.45353206], [-45.2091648, -23.45357764], [-45.20926158, -23.45362568], [-45.21024531, -23.45401516], [-45.21195566, -23.45448802], [-45.21319674, -23.45468122], [-45.21341087, -23.45469549], [-45.21362079, -23.45468077], [-45.21374341, -23.45463086], [-45.2138864, -23.45454792], [-45.21401948, -23.45438799], [-45.2141655, -23.45417772], [-45.21423993, -23.45409521], [-45.21476885, -23.45339126], [-45.21490108, -23.45322589], [-45.21503065, -23.45308938], [-45.215147, -23.45301494], [-45.21520054, -23.45298711], [-45.21529829, -23.45295385], [-45.21539234, -23.45295214], [-45.21550322, -23.4529842], [-45.21620779, -23.4534999], [-45.21669181, -23.45386025], [-45.21701911, -23.45413973], [-45.21766257, -23.45450782], [-45.21805321, -23.4547181], [-45.21817849, -23.45480375], [-45.21840377, -23.45492576], [-45.21858946, -23.45498283], [-45.21880499, -23.45502061], [-45.22010879, -23.45517076], [-45.22128398, -23.45517012], [-45.22163475, -23.45524497], [-45.22174927, -23.45528884], [-45.22185429, -23.45536144], [-45.221939, -23.4555059], [-45.2221776, -23.45613954], [-45.22230394, -23.45634538], [-45.22252339, -23.45658924], [-45.22275886, -23.4567774], [-45.22286382, -23.4568527], [-45.22302706, -23.45694816], [-45.22355202, -23.45719366], [-45.22442013, -23.45750573], [-45.22514689, -23.4578321], [-45.22582433, -23.45817284], [-45.22616227, -23.45837662], [-45.22703461, -23.45892366], [-45.22725274, -23.4590175], [-45.22762942, -23.45915701], [-45.22826302, -23.45932338], [-45.22852888, -23.45942812], [-45.22888369, -23.4596223], [-45.22914741, -23.45981735], [-45.22958269, -23.46021191], [-45.23019489, -23.46078621], [-45.23024783, -23.46082523], [-45.23037388, -23.46087836], [-45.23047719, -23.46089942], [-45.23061928, -23.46089596], [-45.2308031, -23.46086714], [-45.23107339, -23.46078494], [-45.23195794, -23.46056967], [-45.23222653, -23.46055881], [-45.23246708, -23.4605745], [-45.23264634, -23.46061425], [-45.23277078, -23.46065289], [-45.23289622, -23.46073222], [-45.23312048, -23.4608569], [-45.23338444, -23.461042], [-45.23354872, -23.46125944], [-45.233617, -23.46139543], [-45.2337089, -23.46198183], [-45.23383015, -23.46223815], [-45.23398233, -23.46242914], [-45.23422535, -23.46263008], [-45.23454667, -23.46283351], [-45.23479881, -23.46293887], [-45.23554756, -23.46320691], [-45.23638959, -23.46342352], [-45.23664665, -23.46348651], [-45.23684707, -23.46350139], [-45.23776167, -23.46338245], [-45.23803554, -23.46339699], [-45.23846339, -23.46344444], [-45.23919164, -23.46346089], [-45.2396454, -23.4635721], [-45.24070485, -23.46395478], [-45.24137107, -23.46423469], [-45.24176542, -23.46445673], [-45.24190997, -23.46455631], [-45.24216182, -23.46479898], [-45.24235689, -23.46499895], [-45.24255482, -23.46524415], [-45.24313148, -23.46612397], [-45.24338844, -23.46652395], [-45.2440556, -23.46747063], [-45.24433445, -23.46773191], [-45.24473466, -23.46799653], [-45.24620205, -23.46877494], [-45.2464128, -23.46893366], [-45.24661866, -23.46913385], [-45.24708717, -23.46961756], [-45.24743808, -23.46985499], [-45.24766796, -23.4699915], [-45.24789674, -23.47009186], [-45.24845144, -23.47024301], [-45.24883021, -23.47033734], [-45.25027274, -23.47067613], [-45.25041346, -23.47077291], [-45.2505589, -23.47096013], [-45.25085694, -23.47182169], [-45.2509405, -23.47214138], [-45.25101355, -23.47232535], [-45.2510688, -23.47243306], [-45.25114084, -23.47261791], [-45.25129008, -23.47281063], [-45.25147586, -23.47299053], [-45.25164173, -23.47314202], [-45.25226574, -23.47355384], [-45.25260654, -23.47376394], [-45.2525861, -23.47375812], [-45.25276307, -23.47389627], [-45.25310794, -23.47426637], [-45.25330249, -23.47448981], [-45.25359052, -23.47469524], [-45.25489057, -23.47518111], [-45.25511921, -23.47528778], [-45.25632449, -23.47597231], [-45.2566965, -23.47610533], [-45.25725389, -23.4762267], [-45.25775042, -23.47627095], [-45.25811211, -23.47625921], [-45.25929289, -23.47615269], [-45.25960173, -23.47622301], [-45.25999568, -23.47638085], [-45.26061548, -23.47672299], [-45.261165, -23.47701314], [-45.2618214, -23.4773822], [-45.26216086, -23.47765008], [-45.26255901, -23.47813054], [-45.26293323, -23.47900534], [-45.26300352, -23.47918201], [-45.26312288, -23.47935515], [-45.26329201, -23.4795356], [-45.26337677, -23.47959692], [-45.26356205, -23.47971536], [-45.26429015, -23.47995123], [-45.26487636, -23.48022312], [-45.2654971, -23.48052641], [-45.26569228, -23.48064052], [-45.26598266, -23.48083062], [-45.26629029, -23.48103642], [-45.26657477, -23.48126886], [-45.26747287, -23.48215137], [-45.26764275, -23.48230021], [-45.26806501, -23.48254714], [-45.26855556, -23.48263822], [-45.26896306, -23.4826373], [-45.26932353, -23.48259479], [-45.27049719, -23.482292], [-45.27070969, -23.48225196], [-45.27091478, -23.48223616], [-45.27134711, -23.48226193], [-45.27167397, -23.48231632], [-45.27227462, -23.48251619], [-45.27257458, -23.48267394], [-45.27338056, -23.48301521], [-45.27376741, -23.48301748], [-45.27400964, -23.48304669], [-45.27483603, -23.48331157], [-45.27515547, -23.4833902], [-45.27547807, -23.48341739], [-45.27578642, -23.48342532], [-45.27661297, -23.48334778], [-45.27708777, -23.48335902], [-45.27736418, -23.48335096], [-45.27760322, -23.48330692], [-45.27812288, -23.48320069], [-45.27839143, -23.48319337], [-45.27852969, -23.48322864], [-45.27869079, -23.48333484], [-45.27886772, -23.48351814], [-45.27900597, -23.48372236], [-45.27920502, -23.48404885], [-45.27952183, -23.48440839], [-45.27958806, -23.48446662], [-45.27995095, -23.48474034], [-45.28025025, -23.48488451], [-45.28103443, -23.48511239], [-45.28160905, -23.48521142], [-45.28203008, -23.48526043], [-45.28223278, -23.48526264], [-45.28239954, -23.48525239], [-45.2832227, -23.48506814], [-45.28366865, -23.48493062], [-45.28399288, -23.48476178], [-45.2842084, -23.4846766], [-45.28433823, -23.48461142], [-45.28450076, -23.48457218], [-45.28467936, -23.48451609], [-45.28487231, -23.48447474], [-45.2857059, -23.48447318], [-45.28645007, -23.48456833], [-45.28677729, -23.4846498], [-45.28708546, -23.48479232], [-45.28727167, -23.4848719], [-45.28758232, -23.48499188], [-45.28794282, -23.48511647], [-45.28809324, -23.48513481], [-45.28825947, -23.48514713], [-45.28842422, -23.48513865], [-45.28863575, -23.48509856], [-45.28889613, -23.4850215], [-45.28908811, -23.48502169], [-45.28921038, -23.48507109], [-45.28934064, -23.48515588], [-45.28950224, -23.48532531], [-45.2897926, -23.48589663], [-45.28990258, -23.48617978], [-45.29004833, -23.48644105], [-45.29087067, -23.48751437], [-45.29132675, -23.48799409], [-45.29169262, -23.48830941], [-45.29223035, -23.48869046], [-45.29283237, -23.48900231], [-45.2939036, -23.48939841], [-45.29424243, -23.48957134], [-45.29471257, -23.48965742], [-45.29506041, -23.48969501], [-45.29539037, -23.48965906], [-45.29570809, -23.4896021], [-45.29608785, -23.48957255], [-45.29637862, -23.4895792], [-45.29657512, -23.48963819], [-45.29667136, -23.4896699], [-45.2969332, -23.48982595], [-45.29739403, -23.49018649], [-45.2976919, -23.4904363], [-45.29817028, -23.49092729], [-45.29847, -23.49118165], [-45.29885446, -23.49149912], [-45.29906114, -23.49162607], [-45.29932267, -23.4917532], [-45.29999825, -23.49202039], [-45.30043579, -23.49220339], [-45.30075311, -23.49237498], [-45.30111134, -23.49259887], [-45.30101066, -23.49303379], [-45.30037626, -23.49350285], [-45.30006316, -23.49400406], [-45.29963566, -23.4944528], [-45.299029, -23.49474902], [-45.29908756, -23.49509305], [-45.29907309, -23.49562421], [-45.29898575, -23.49597846], [-45.29883464, -23.49628858], [-45.2987706, -23.49655427], [-45.29850093, -23.49727741], [-45.29846944, -23.497646], [-45.2985016, -23.49800816], [-45.29836152, -23.49820599], [-45.298071, -23.49843883], [-45.29747808, -23.49859999], [-45.29713692, -23.49871936], [-45.29699735, -23.49887965], [-45.29698806, -23.49929715], [-45.29721379, -23.49952331], [-45.2975624, -23.49976812], [-45.29782878, -23.49986202], [-45.29821869, -23.50025782], [-45.29848284, -23.5007019], [-45.29856641, -23.5012354], [-45.29824115, -23.50163229], [-45.29785195, -23.50194693], [-45.2978323, -23.50222445], [-45.29774183, -23.50267699], [-45.29788676, -23.50323087], [-45.29793493, -23.50339427], [-45.29849237, -23.50391502], [-45.29883701, -23.50413256], [-45.29915987, -23.50423112], [-45.29949351, -23.50433958], [-45.29991292, -23.50432886], [-45.3005581, -23.50428794], [-45.3009452, -23.50425744], [-45.30136499, -23.50441532], [-45.30173087, -23.50451379], [-45.30209632, -23.50442382], [-45.30238643, -23.50430424], [-45.30285929, -23.50415455], [-45.30301988, -23.50383685], [-45.3030405, -23.50345], [-45.30293137, -23.50275594], [-45.30311318, -23.50230926], [-45.30339293, -23.50236823], [-45.30360892, -23.50260496], [-45.30401537, -23.50272684], [-45.30433929, -23.50298743], [-45.30482194, -23.5032777], [-45.3050026, -23.50342684], [-45.30509991, -23.50353685], [-45.30565369, -23.50366087], [-45.30638052, -23.50399519], [-45.30696891, -23.5039654], [-45.30715208, -23.50392837], [-45.30829737, -23.50410568], [-45.3090646, -23.5044825], [-45.30909683, -23.5046293], [-45.30953404, -23.50495591], [-45.31005109, -23.50513412], [-45.31050325, -23.50523787], [-45.31074366, -23.50526337], [-45.31098815, -23.50528173], [-45.31190962, -23.50534049], [-45.31252354, -23.50535435], [-45.31294327, -23.50529303], [-45.3133472, -23.50532174], [-45.31375169, -23.50541099], [-45.31462556, -23.50570732], [-45.31602791, -23.50572941], [-45.31616842, -23.50571139], [-45.31675432, -23.50575089], [-45.31703096, -23.50581956], [-45.31714138, -23.50587412], [-45.31723149, -23.50600237], [-45.31729868, -23.50614734], [-45.317331, -23.50644521], [-45.31715075, -23.5069973], [-45.31700254, -23.50747683], [-45.31691822, -23.50773447], [-45.31679797, -23.5081486], [-45.31672683, -23.50868476], [-45.31680838, -23.50990602], [-45.31689369, -23.51062503], [-45.31679051, -23.51238022], [-45.31677502, -23.51322193], [-45.31683451, -23.51357364], [-45.31704099, -23.51379632], [-45.31725816, -23.51389544], [-45.31766045, -23.51399638], [-45.31777142, -23.51402747], [-45.31796498, -23.51413065], [-45.31809783, -23.51423263], [-45.31815209, -23.51430145], [-45.3181928, -23.51440524], [-45.31842924, -23.51596381], [-45.31869074, -23.51660496], [-45.3189906, -23.51715472], [-45.31925759, -23.51781314], [-45.31929571, -23.51798735], [-45.31926034, -23.51828931], [-45.31906676, -23.5185692], [-45.31853284, -23.51903485], [-45.31827504, -23.5194228], [-45.31821708, -23.51972703], [-45.31826872, -23.52003702], [-45.31836818, -23.52035517], [-45.31843161, -23.52045128], [-45.31852091, -23.52061475], [-45.31869782, -23.52076096], [-45.319288, -23.52112758], [-45.31986256, -23.52132224], [-45.32046128, -23.52148845], [-45.32127475, -23.52173206], [-45.32153323, -23.52178229], [-45.32182637, -23.52181694], [-45.32204576, -23.52186279], [-45.32225959, -23.52197991], [-45.32236922, -23.52211215], [-45.32256946, -23.52247926], [-45.32285301, -23.52301513], [-45.32301886, -23.52325869], [-45.32334717, -23.52363824], [-45.32378498, -23.52402806], [-45.32401572, -23.52426205], [-45.32427114, -23.52453085], [-45.32446674, -23.52488702], [-45.32458299, -23.52528501], [-45.32460121, -23.52572805], [-45.32455707, -23.52594311], [-45.32446887, -23.52624223], [-45.32428809, -23.52664705], [-45.32397486, -23.52722997], [-45.32387619, -23.52764272], [-45.32391934, -23.5278116], [-45.32404223, -23.52796398], [-45.32430422, -23.52824556], [-45.32469104, -23.52846724], [-45.32517811, -23.5285906], [-45.32546972, -23.52873453], [-45.32587158, -23.52906944], [-45.32614994, -23.5294489], [-45.32632126, -23.52958325], [-45.32684319, -23.52989521], [-45.3272199, -23.5301736], [-45.32753636, -23.53064325], [-45.32771911, -23.5308772], [-45.32796471, -23.53106269], [-45.32818214, -23.53119432], [-45.32842315, -23.53132371], [-45.32869034, -23.53137952], [-45.32889592, -23.53134469], [-45.32901705, -23.53123322], [-45.32905872, -23.53082658], [-45.3290671, -23.53080326], [-45.32907522, -23.53079077], [-45.32917336, -23.53052798], [-45.32927874, -23.53033399], [-45.32952382, -23.53015809], [-45.32971746, -23.53004623], [-45.33020189, -23.52994366], [-45.33039641, -23.52992126], [-45.3306389, -23.52994316], [-45.33121993, -23.53002859], [-45.33171563, -23.53011776], [-45.33304012, -23.5306405], [-45.3335075, -23.5308538], [-45.33400282, -23.53117334], [-45.33412703, -23.53126882], [-45.33444442, -23.53148551], [-45.33481652, -23.53188034], [-45.33549042, -23.53283034], [-45.33575311, -23.53325376], [-45.33583269, -23.53341522], [-45.33605177, -23.5338179], [-45.33632601, -23.53429304], [-45.33684672, -23.53483079], [-45.33712014, -23.53504301], [-45.33744777, -23.53524092], [-45.33777509, -23.53540991], [-45.33808678, -23.53553434], [-45.33839895, -23.53568045], [-45.33878252, -23.53574664], [-45.33910911, -23.53581895], [-45.33943693, -23.53596627], [-45.33975659, -23.53612789], [-45.34039624, -23.53647913], [-45.34070897, -23.53672914], [-45.34080715, -23.53676357], [-45.34111703, -23.53705238], [-45.3417904, -23.53777197], [-45.34202959, -23.53810999], [-45.34225572, -23.53846221], [-45.34232127, -23.53872368], [-45.3424039, -23.5389665], [-45.34238138, -23.53943675], [-45.34235751, -23.53979495], [-45.34231029, -23.5402313], [-45.34231095, -23.5405448], [-45.3423167, -23.5409361], [-45.34228893, -23.54129332], [-45.34221757, -23.54205624], [-45.34220781, -23.54231172], [-45.34218374, -23.54263559], [-45.34219931, -23.54285452], [-45.34233378, -23.54327272], [-45.34252048, -23.5437642], [-45.3427213, -23.54432372], [-45.34275964, -23.54470391], [-45.34274777, -23.54530808], [-45.34286104, -23.54648203], [-45.34301975, -23.54704073], [-45.34312608, -23.54723342], [-45.34315691, -23.54729907], [-45.34329387, -23.54739478], [-45.34362447, -23.54750782], [-45.34408961, -23.54752228], [-45.34468694, -23.54741283], [-45.3452137, -23.54717553], [-45.3455906, -23.5470636], [-45.34602277, -23.54697713], [-45.34709141, -23.54691206], [-45.34749079, -23.54697403], [-45.34800884, -23.54707443], [-45.34839761, -23.54717232], [-45.34892637, -23.54736146], [-45.34916223, -23.5474609], [-45.34964292, -23.5475669], [-45.34999509, -23.5475936]]]]}}]}