{"type": "FeatureCollection", "features": [{"type": "Feature", "properties": {"name": "Parque Estadual Turístico do Alto Ribeira (PETAR)"}, "geometry": {"type": "MultiPolygon", "coordinates": [[[[-48.68969497, -24.64241291], [-48.68980232, -24.64237653], [-48.68990645, -24.64222482], [-48.69000225, -24.64208811], [-48.69015777, -24.64185235], [-48.69052768, -24.64155138], [-48.69098651, -24.64128782], [-48.69222035, -24.64087293], [-48.69341332, -24.64052971], [-48.69388433, -24.64064294], [-48.69430689, -24.64082649], [-48.69483687, -24.64084401], [-48.69519114, -24.64064551], [-48.69525149, -24.64048329], [-48.69524097, -24.64008776], [-48.69517184, -24.63954439], [-48.69493914, -24.63881673], [-48.69487406, -24.63784159], [-48.69484448, -24.63689808], [-48.69515434, -24.63662421], [-48.69553178, -24.6365014], [-48.69603419, -24.6362015], [-48.696433, -24.63574134], [-48.69675203, -24.63512645], [-48.69783748, -24.63363668], [-48.69947176, -24.63209249], [-48.69956758, -24.63196775], [-48.7006631, -24.63054152], [-48.7012327, -24.62971753], [-48.7015912, -24.62917815], [-48.70180047, -24.62859834], [-48.70191479, -24.62806487], [-48.70211894, -24.6271549], [-48.70242228, -24.62681549], [-48.70269085, -24.62657213], [-48.70270023, -24.62605922], [-48.70276768, -24.6258214], [-48.70313559, -24.62572183], [-48.70355516, -24.62580912], [-48.70417053, -24.62625031], [-48.70503215, -24.62652244], [-48.70613117, -24.62677795], [-48.70719491, -24.62675191], [-48.70740539, -24.62674677], [-48.70868148, -24.62661437], [-48.70967592, -24.62654308], [-48.70996333, -24.62660119], [-48.71039304, -24.62689355], [-48.71075859, -24.62747206], [-48.7111698, -24.6283719], [-48.71172851, -24.62897052], [-48.71230621, -24.62956942], [-48.71311834, -24.6298074], [-48.71399247, -24.62976863], [-48.71509849, -24.62950775], [-48.71600412, -24.62913958], [-48.7167624, -24.6287094], [-48.71731793, -24.62865791], [-48.71759627, -24.62884949], [-48.71783596, -24.62924884], [-48.7179565, -24.6296914], [-48.71797485, -24.63012286], [-48.71779305, -24.63080635], [-48.71801401, -24.63143268], [-48.71840917, -24.63184927], [-48.71897287, -24.63236753], [-48.71989274, -24.6328912], [-48.72050985, -24.63302798], [-48.72122218, -24.63303878], [-48.7227697, -24.63300407], [-48.72360012, -24.63316901], [-48.72398587, -24.63353373], [-48.72465159, -24.63440748], [-48.72514438, -24.63514097], [-48.72581422, -24.63613799], [-48.7265177, -24.63643032], [-48.72789071, -24.63679129], [-48.72933381, -24.63750733], [-48.73014695, -24.63795677], [-48.73051768, -24.63805707], [-48.73081072, -24.63802736], [-48.73105559, -24.63792743], [-48.73104988, -24.63790226], [-48.73104761, -24.63789226], [-48.73104392, -24.6378922], [-48.73096896, -24.63776567], [-48.73088121, -24.63759374], [-48.73080227, -24.63737139], [-48.73078489, -24.63718517], [-48.73081551, -24.63707551], [-48.73088722, -24.63693306], [-48.73101519, -24.63673731], [-48.73136053, -24.6360989], [-48.73147788, -24.63583528], [-48.73159411, -24.63546964], [-48.73167163, -24.63527854], [-48.73171506, -24.63522503], [-48.73187283, -24.63512902], [-48.73206667, -24.63500467], [-48.73230667, -24.63483948], [-48.73252368, -24.63474436], [-48.73261166, -24.63468521], [-48.73267259, -24.63459225], [-48.73269756, -24.63452222], [-48.73270683, -24.63439147], [-48.73269531, -24.63426401], [-48.73264111, -24.63414765], [-48.73255904, -24.63398935], [-48.73254983, -24.63384297], [-48.73257799, -24.63365112], [-48.73266462, -24.63339245], [-48.7326959, -24.63324669], [-48.73268854, -24.63316173], [-48.73266743, -24.63307294], [-48.73263856, -24.63303099], [-48.7324462, -24.63274554], [-48.73225262, -24.63252778], [-48.73216833, -24.63238298], [-48.73214534, -24.63228875], [-48.73213586, -24.63215772], [-48.73214983, -24.63204058], [-48.73215187, -24.63187271], [-48.73216778, -24.63170234], [-48.73217886, -24.63163571], [-48.73220815, -24.63154498], [-48.73238746, -24.63118571], [-48.73254044, -24.63091721], [-48.73284579, -24.63030437], [-48.73301331, -24.62999638], [-48.73317623, -24.62977858], [-48.73340224, -24.62956714], [-48.73360133, -24.62947988], [-48.7340715, -24.62941926], [-48.73459873, -24.6294254], [-48.7347972, -24.62939269], [-48.73489984, -24.62937578], [-48.73515885, -24.62930566], [-48.73544766, -24.629171], [-48.73560827, -24.62908134], [-48.73583566, -24.62895749], [-48.7360207, -24.62882758], [-48.73630219, -24.62855108], [-48.73693553, -24.62787457], [-48.73738915, -24.62736235], [-48.73786602, -24.62692901], [-48.73824417, -24.62649418], [-48.73849729, -24.62614775], [-48.73853846, -24.62594526], [-48.73855477, -24.62569726], [-48.73852718, -24.62558401], [-48.73844868, -24.62544653], [-48.73836461, -24.62539922], [-48.73829199, -24.62537376], [-48.73800625, -24.62533877], [-48.7377099, -24.62528917], [-48.73735751, -24.6252261], [-48.73711939, -24.62517828], [-48.73689449, -24.6251099], [-48.73649849, -24.62494597], [-48.73621663, -24.62475036], [-48.73580653, -24.62427298], [-48.73563243, -24.62401579], [-48.73531377, -24.62361562], [-48.73497214, -24.62322953], [-48.73493684, -24.62315437], [-48.73491126, -24.62316316], [-48.73472914, -24.62303145], [-48.73399449, -24.62297611], [-48.73283584, -24.62298155], [-48.73192054, -24.62340358], [-48.73129733, -24.62350628], [-48.73070296, -24.62328939], [-48.73029405, -24.62271706], [-48.7295029, -24.62228253], [-48.72884949, -24.62202859], [-48.7284671, -24.62171942], [-48.72826813, -24.62100752], [-48.72775988, -24.62040934], [-48.72743575, -24.61983503], [-48.72660542, -24.61864225], [-48.72477457, -24.61708504], [-48.72311933, -24.61609694], [-48.72223831, -24.61534361], [-48.72160034, -24.61443111], [-48.72106129, -24.61340325], [-48.72036851, -24.61222082], [-48.71975775, -24.61152011], [-48.7187834, -24.61087615], [-48.71793309, -24.61040132], [-48.71675048, -24.61022216], [-48.71584682, -24.61021111], [-48.71483425, -24.60996647], [-48.71378938, -24.6094974], [-48.71287564, -24.60863378], [-48.71220866, -24.60783054], [-48.71062283, -24.60644683], [-48.70879791, -24.60463231], [-48.70706407, -24.60345208], [-48.70725707, -24.60326231], [-48.70780982, -24.60318245], [-48.7084058, -24.60321303], [-48.70877481, -24.60327258], [-48.70910056, -24.60313619], [-48.70981598, -24.60244033], [-48.71042625, -24.60211551], [-48.71079718, -24.60181275], [-48.71102855, -24.60145647], [-48.71116576, -24.60086745], [-48.71150835, -24.60057711], [-48.71192302, -24.60055283], [-48.71231532, -24.60025528], [-48.71247249, -24.59971679], [-48.70120518, -24.58268061], [-48.70062102, -24.58074562], [-48.69912703, -24.57832543], [-48.69860032, -24.57747217], [-48.69863059, -24.57666698], [-48.69931656, -24.57585388], [-48.70045094, -24.57479488], [-48.70251495, -24.57398136], [-48.70381355, -24.57381532], [-48.70490009, -24.57413389], [-48.70547257, -24.57419595], [-48.70518232, -24.57350748], [-48.70483255, -24.57300758], [-48.70422847, -24.57246274], [-48.70402206, -24.57202994], [-48.70399762, -24.57166446], [-48.70426598, -24.57137311], [-48.70509309, -24.57051275], [-48.70561469, -24.56961266], [-48.70597227, -24.56905892], [-48.70631017, -24.5688096], [-48.70681813, -24.56857305], [-48.7075716, -24.56816219], [-48.70788026, -24.5675745], [-48.70858666, -24.56656689], [-48.70949929, -24.56637292], [-48.71042702, -24.56534775], [-48.71153909, -24.56529537], [-48.71255646, -24.56489511], [-48.71307604, -24.56409467], [-48.71373221, -24.56338743], [-48.71872005, -24.55924402], [-48.718802, -24.55899681], [-48.71875439, -24.55883819], [-48.71853202, -24.55859986], [-48.71799918, -24.55810821], [-48.71653135, -24.55694448], [-48.71350505, -24.55352355], [-48.7121546, -24.55202455], [-48.71224718, -24.55126337], [-48.71190863, -24.55063733], [-48.71110536, -24.54977982], [-48.7114301, -24.53467732], [-48.71183711, -24.53417367], [-48.71266437, -24.53376991], [-48.71332442, -24.53367717], [-48.71494696, -24.5332314], [-48.71571502, -24.5327266], [-48.71628146, -24.53256874], [-48.71740442, -24.53253994], [-48.71919024, -24.53288635], [-48.72036866, -24.53285162], [-48.72125696, -24.53248501], [-48.72209792, -24.53214803], [-48.72222692, -24.53183642], [-48.7225382, -24.53153811], [-48.72275208, -24.53127603], [-48.7230686, -24.53079266], [-48.72343774, -24.52986688], [-48.72357576, -24.5296004], [-48.72377849, -24.52930674], [-48.72416554, -24.52896319], [-48.72482581, -24.52844774], [-48.72492595, -24.52840247], [-48.72491144, -24.52838895], [-48.72477723, -24.52834399], [-48.724363, -24.52827686], [-48.72401742, -24.52814644], [-48.72374104, -24.52789858], [-48.72354472, -24.52758741], [-48.72340422, -24.52727617], [-48.72338822, -24.52691511], [-48.72348446, -24.52655841], [-48.72372827, -24.52612027], [-48.72397036, -24.52576337], [-48.7242925, -24.52533865], [-48.72448847, -24.52506306], [-48.7247041, -24.52493187], [-48.72489581, -24.52488196], [-48.72510863, -24.52491778], [-48.72538697, -24.52504377], [-48.72564282, -24.52518334], [-48.72578839, -24.52519668], [-48.72603678, -24.52511509], [-48.72609592, -24.52507439], [-48.72628717, -24.5249342], [-48.72637917, -24.52481221], [-48.72635922, -24.52468135], [-48.72628595, -24.52437904], [-48.72614941, -24.52385566], [-48.72614114, -24.52370221], [-48.72621062, -24.52358025], [-48.72636984, -24.52345816], [-48.72668603, -24.52335843], [-48.72684554, -24.52322732], [-48.72684724, -24.52313704], [-48.72674922, -24.52297018], [-48.72669677, -24.52276263], [-48.72662153, -24.52257768], [-48.72640158, -24.52232974], [-48.72631579, -24.52209967], [-48.72633481, -24.52167085], [-48.72627408, -24.52130083], [-48.72611081, -24.52102121], [-48.72587915, -24.5207778], [-48.72539281, -24.52034969], [-48.72512957, -24.52002056], [-48.72508822, -24.51981299], [-48.72513661, -24.51961884], [-48.72528529, -24.51946518], [-48.72544338, -24.51941531], [-48.72582541, -24.51941479], [-48.72612822, -24.51942791], [-48.72647492, -24.51950416], [-48.72702218, -24.51966589], [-48.7275022, -24.51981868], [-48.72804974, -24.51995784], [-48.72869869, -24.52008331], [-48.7292357, -24.5201954], [-48.72959238, -24.52034385], [-48.72979153, -24.52050154], [-48.72996466, -24.52083942], [-48.73009589, -24.52106982], [-48.73047254, -24.52135364], [-48.73047378, -24.52135364], [-48.73073976, -24.52147062], [-48.73115287, -24.52160995], [-48.7313976, -24.52173599], [-48.73165062, -24.52202901], [-48.73199954, -24.52256523], [-48.73232711, -24.52310678], [-48.7323907, -24.52333237], [-48.73234089, -24.52359874], [-48.73232695, -24.52374319], [-48.73241474, -24.52386945], [-48.73262668, -24.52393234], [-48.73265752, -24.52393229], [-48.73288508, -24.52393648], [-48.73334629, -24.52389069], [-48.73389891, -24.52374547], [-48.7343832, -24.52367256], [-48.734596, -24.52369482], [-48.73474508, -24.52378036], [-48.73491006, -24.52387104], [-48.73535032, -24.52417629], [-48.73556539, -24.52426625], [-48.73576287, -24.52434721], [-48.73617738, -24.52439626], [-48.73662381, -24.52454456], [-48.73709066, -24.52484217], [-48.73744877, -24.52490936], [-48.73769355, -24.52492308], [-48.7377472, -24.52492609], [-48.73790655, -24.52464653], [-48.73818084, -24.52418976], [-48.73817039, -24.52418378], [-48.73796194, -24.52406458], [-48.73751732, -24.52371769], [-48.73739671, -24.52351475], [-48.7374524, -24.52326643], [-48.73751142, -24.52316253], [-48.73780896, -24.52297704], [-48.73833973, -24.52286343], [-48.73843267, -24.52275948], [-48.73845936, -24.5226782], [-48.7384808, -24.52259693], [-48.73774375, -24.52182619], [-48.73743081, -24.52166415], [-48.73713622, -24.52159236], [-48.73674461, -24.5215839], [-48.7364687, -24.5216159], [-48.7357694, -24.52198702], [-48.73554413, -24.52205956], [-48.73526972, -24.52206898], [-48.73506734, -24.52201059], [-48.73503002, -24.52200162], [-48.73496672, -24.52195206], [-48.73454716, -24.52164574], [-48.73421266, -24.52131222], [-48.7341447, -24.52124462], [-48.73402649, -24.52117257], [-48.73375098, -24.52107818], [-48.73310975, -24.52096625], [-48.73258954, -24.52076389], [-48.73211432, -24.52036286], [-48.73183911, -24.52007889], [-48.73140697, -24.51979966], [-48.7311254, -24.51958793], [-48.73098164, -24.51953848], [-48.7309071, -24.51947049], [-48.73076269, -24.51934019], [-48.73046389, -24.51914202], [-48.72990572, -24.51872756], [-48.72872033, -24.51771818], [-48.72825568, -24.51753829], [-48.72804182, -24.51742575], [-48.72764294, -24.51711487], [-48.72747121, -24.51693908], [-48.72721812, -24.5165964], [-48.72707513, -24.51608657], [-48.72703939, -24.51572553], [-48.72693119, -24.51536911], [-48.72663668, -24.5149633], [-48.72591237, -24.51437302], [-48.72554916, -24.5139989], [-48.72542382, -24.51371472], [-48.72534229, -24.51325896], [-48.72525652, -24.51303791], [-48.72510225, -24.51278085], [-48.72532704, -24.5127986], [-48.72588505, -24.51276172], [-48.72630905, -24.51261219], [-48.72634973, -24.51259859], [-48.72663235, -24.51234995], [-48.727471, -24.51142802], [-48.72768195, -24.51127878], [-48.72804058, -24.51112933], [-48.72817362, -24.51103436], [-48.72838617, -24.51073617], [-48.72848634, -24.51053292], [-48.72883499, -24.51013072], [-48.72904007, -24.50997246], [-48.72959507, -24.50967221], [-48.72979291, -24.50956518], [-48.72978926, -24.50941172], [-48.72982995, -24.50922661], [-48.72981308, -24.50891068], [-48.72975876, -24.50868959], [-48.72970708, -24.50839177], [-48.72972658, -24.50831913], [-48.72983847, -24.50787252], [-48.72979403, -24.50766045], [-48.72979175, -24.50740317], [-48.7299759, -24.50690642], [-48.73001321, -24.50672582], [-48.72999805, -24.50651371], [-48.72999805, -24.50650919], [-48.72995672, -24.50631517], [-48.72988691, -24.50605799], [-48.72982305, -24.5056654], [-48.72985592, -24.50504248], [-48.72983093, -24.50466337], [-48.72966681, -24.50441987], [-48.72902883, -24.50387422], [-48.72876464, -24.50370307], [-48.72856224, -24.50360857], [-48.72847885, -24.50352293], [-48.7283662, -24.50326581], [-48.72828949, -24.5029274], [-48.72806999, -24.5025621], [-48.72767392, -24.50225121], [-48.72754265, -24.50203325], [-48.72748447, -24.50160152], [-48.72738549, -24.50140306], [-48.72719614, -24.50118215], [-48.72690052, -24.50095728], [-48.72645729, -24.50091781], [-48.72578353, -24.50100415], [-48.72532147, -24.50104543], [-48.72482248, -24.50094141], [-48.72358601, -24.50034102], [-48.72267959, -24.49987019], [-48.72259388, -24.49974353], [-48.72234543, -24.49957235], [-48.72200531, -24.49946037], [-48.72187524, -24.49928903], [-48.72193626, -24.49870669], [-48.72183371, -24.49858496], [-48.72170288, -24.49851743], [-48.72157062, -24.49851309], [-48.72113531, -24.49870326], [-48.72093436, -24.49873512], [-48.72079896, -24.4986992], [-48.72070972, -24.49860905], [-48.72066511, -24.49828412], [-48.72068914, -24.49789141], [-48.72053533, -24.49771558], [-48.72035245, -24.49767972], [-48.71982861, -24.4976398], [-48.71970019, -24.49753616], [-48.71965632, -24.49728797], [-48.71970124, -24.49703514], [-48.71968097, -24.49689525], [-48.71954198, -24.49672843], [-48.71930776, -24.49658882], [-48.71918812, -24.49638136], [-48.71925454, -24.49588928], [-48.7194573, -24.49525258], [-48.71945993, -24.49516231], [-48.71949409, -24.49512615], [-48.71949607, -24.49501782], [-48.71936908, -24.49483745], [-48.71929787, -24.49483754], [-48.7140162, -24.4983323], [-48.71259541, -24.49672732], [-48.71228157, -24.49599558], [-48.71092715, -24.49515558], [-48.71035803, -24.49425812], [-48.70732218, -24.49215023], [-48.70614255, -24.49158973], [-48.70547951, -24.4906048], [-48.70513361, -24.48969503], [-48.70463664, -24.48922488], [-48.70389526, -24.48864412], [-48.7035197, -24.48802407], [-48.7026767, -24.48694149], [-48.70174507, -24.4860177], [-48.70143754, -24.4853751], [-48.70129033, -24.48510897], [-48.70105778, -24.48499323], [-48.70047017, -24.48482131], [-48.69961352, -24.48439342], [-48.69823596, -24.48400995], [-48.69779787, -24.48350625], [-48.697433, -24.48318464], [-48.69732223, -24.48299421], [-48.69719644, -24.48258448], [-48.69702635, -24.48201511], [-48.69647904, -24.48158834], [-48.69577079, -24.48079141], [-48.69509569, -24.48010577], [-48.69415159, -24.47983263], [-48.69263416, -24.47999426], [-48.69205779, -24.4805953], [-48.69200865, -24.48107504], [-48.69180441, -24.48120128], [-48.69071993, -24.48109685], [-48.68972907, -24.48139481], [-48.68854326, -24.48240438], [-48.68757561, -24.48352538], [-48.6866177, -24.48316606], [-48.68542119, -24.48209664], [-48.68460228, -24.48180598], [-48.68257918, -24.4805963], [-48.68149395, -24.48011971], [-48.68079431, -24.47897544], [-48.67995054, -24.47832359], [-48.67819417, -24.4783172], [-48.67712286, -24.47739416], [-48.67557297, -24.47654625], [-48.67505497, -24.47606385], [-48.67505318, -24.47586862], [-48.67505268, -24.47583064], [-48.67487743, -24.47522315], [-48.67463167, -24.47453513], [-48.67439273, -24.47401241], [-48.67404683, -24.47351422], [-48.67359573, -24.472944], [-48.67306776, -24.47237078], [-48.67281297, -24.47217459], [-48.6721646, -24.47176651], [-48.67198488, -24.47161751], [-48.67146281, -24.47104619], [-48.67113569, -24.47076131], [-48.66998596, -24.47005123], [-48.66941373, -24.46958023], [-48.66882015, -24.46919736], [-48.66838201, -24.46899652], [-48.6665427, -24.46829923], [-48.66610355, -24.46800089], [-48.66568068, -24.46771361], [-48.66521406, -24.46729297], [-48.6651853, -24.46719504], [-48.6651921, -24.46698663], [-48.66501202, -24.46675095], [-48.66482769, -24.46658562], [-48.66358606, -24.46615661], [-48.66238713, -24.46560548], [-48.66204861, -24.46529874], [-48.66132988, -24.46448604], [-48.66048634, -24.46375716], [-48.66044362, -24.46372039], [-48.65899106, -24.46206133], [-48.65826873, -24.46149861], [-48.65771161, -24.46112168], [-48.65691956, -24.46064993], [-48.65660869, -24.46039597], [-48.65609674, -24.45965687], [-48.65595847, -24.45929546], [-48.65580965, -24.45875786], [-48.65564917, -24.45778499], [-48.6555498, -24.45745307], [-48.6555442, -24.45727606], [-48.65551168, -24.4572214], [-48.65543024, -24.45666679], [-48.65541007, -24.45653108], [-48.65528465, -24.45622132], [-48.65514195, -24.45599253], [-48.65481229, -24.45574189], [-48.65454384, -24.45564746], [-48.65451331, -24.45564591], [-48.65473845, -24.45553831], [-48.6548733, -24.45541179], [-48.65497877, -24.45519954], [-48.65502312, -24.45490159], [-48.65501907, -24.45487997], [-48.65495211, -24.4545225], [-48.65490134, -24.45431943], [-48.65470791, -24.45294205], [-48.65466514, -24.45184398], [-48.65492801, -24.45120487], [-48.65526852, -24.45024194], [-48.65542285, -24.44967386], [-48.65536882, -24.44870763], [-48.65490997, -24.44777894], [-48.65462144, -24.44744068], [-48.65452074, -24.44723314], [-48.65444679, -24.44669607], [-48.65447297, -24.44613633], [-48.65443644, -24.44571659], [-48.65445268, -24.44556384], [-48.65444488, -24.44554957], [-48.65444457, -24.44554957], [-48.65434275, -24.4452383], [-48.65426892, -24.44501259], [-48.65412932, -24.44473287], [-48.65392535, -24.44449834], [-48.65359843, -24.44426844], [-48.65213149, -24.44366496], [-48.6516038, -24.44356164], [-48.65002055, -24.44338706], [-48.64933382, -24.4432613], [-48.6489498, -24.44322554], [-48.64839972, -24.44322604], [-48.64794371, -24.44329416], [-48.64738458, -24.44347071], [-48.64624919, -24.44395922], [-48.64599104, -24.4440407], [-48.64590816, -24.44406334], [-48.64493423, -24.44452913], [-48.64457658, -24.44466035], [-48.64300046, -24.44512214], [-48.64205925, -24.44536219], [-48.64161988, -24.44544382], [-48.64101066, -24.44547595], [-48.64019821, -24.44536832], [-48.63937306, -24.4451975], [-48.63883048, -24.44500386], [-48.63863342, -24.44486862], [-48.63858809, -24.44483706], [-48.63810897, -24.44461629], [-48.63783025, -24.4444473], [-48.63769375, -24.44436454], [-48.63769205, -24.44436351], [-48.63743243, -24.4442061], [-48.63706945, -24.44394009], [-48.63647757, -24.44343053], [-48.63601907, -24.44316911], [-48.63558536, -24.44305662], [-48.63529781, -24.44302526], [-48.63501987, -24.44304355], [-48.63483775, -24.44305724], [-48.63469418, -24.44309347], [-48.63367847, -24.44309882], [-48.63325619, -24.44300437], [-48.63300986, -24.44289173], [-48.63292297, -24.44276832], [-48.63292291, -24.44276842], [-48.63280341, -24.4425985], [-48.63270548, -24.4423458], [-48.63268127, -24.44216979], [-48.63272804, -24.44146108], [-48.63285111, -24.44062592], [-48.63286585, -24.44025578], [-48.63279097, -24.43993987], [-48.6323502, -24.43919545], [-48.63227541, -24.43897433], [-48.63226935, -24.4388641], [-48.6322662, -24.43880664], [-48.63226254, -24.43874011], [-48.63225408, -24.43858616], [-48.63228753, -24.43844169], [-48.63251454, -24.43801269], [-48.63275212, -24.4376875], [-48.63305967, -24.43738482], [-48.63372205, -24.43660339], [-48.63438457, -24.43597091], [-48.63546587, -24.43503114], [-48.63577218, -24.43472846], [-48.63594217, -24.43447752], [-48.63615874, -24.43394665], [-48.63683172, -24.43323723], [-48.63586673, -24.43330765], [-48.63478995, -24.43351863], [-48.63397139, -24.43323276], [-48.63349358, -24.43289286], [-48.63318252, -24.43251993], [-48.6331467, -24.4320851], [-48.63280732, -24.43177945], [-48.63214323, -24.43153532], [-48.63074542, -24.4313734], [-48.62972664, -24.43159265], [-48.62869212, -24.43172369], [-48.6275961, -24.43155925], [-48.62709936, -24.43137191], [-48.62662712, -24.43105318], [-48.625807, -24.43012934], [-48.62505975, -24.42985743], [-48.62458341, -24.42997655], [-48.62429982, -24.43035191], [-48.623656, -24.43097481], [-48.62277659, -24.43137627], [-48.62239122, -24.43161368], [-48.62201728, -24.43197996], [-48.6219364, -24.4323338], [-48.62176774, -24.43264522], [-48.62127313, -24.43303587], [-48.62048597, -24.43319442], [-48.6196485, -24.43293742], [-48.61908673, -24.43304566], [-48.61817418, -24.43345905], [-48.61791713, -24.4337198], [-48.61755794, -24.43389067], [-48.61712293, -24.43375481], [-48.61679229, -24.4333575], [-48.615902, -24.43255467], [-48.61545944, -24.43259633], [-48.61495767, -24.43292798], [-48.61413781, -24.43291505], [-48.61325902, -24.43329403], [-48.61296719, -24.43319671], [-48.61291064, -24.43297331], [-48.61306446, -24.43213578], [-48.61287137, -24.43183236], [-48.61238229, -24.43164051], [-48.61103313, -24.4316192], [-48.61001835, -24.4317576], [-48.60861494, -24.43163245], [-48.6081207, -24.4314387], [-48.60725193, -24.43072544], [-48.60638967, -24.43036168], [-48.60544551, -24.43007217], [-48.60444804, -24.43015879], [-48.60379178, -24.42998216], [-48.60359844, -24.42928782], [-48.60372934, -24.42831175], [-48.6039103, -24.42739948], [-48.6041329, -24.42668508], [-48.60477478, -24.42591349], [-48.60552541, -24.42550867], [-48.60652042, -24.42482434], [-48.60706644, -24.42459597], [-48.6074662, -24.42456809], [-48.60759946, -24.42467862], [-48.60766373, -24.42489696], [-48.60769722, -24.4251362], [-48.6078314, -24.42520248], [-48.60825175, -24.42528797], [-48.60873286, -24.42544563], [-48.60917613, -24.42568006], [-48.60963583, -24.4260228], [-48.61002394, -24.42625275], [-48.61072142, -24.42648249], [-48.6109877, -24.42654099], [-48.61132049, -24.42655881], [-48.61173951, -24.42650888], [-48.61281956, -24.42621473], [-48.61348062, -24.42598407], [-48.61440991, -24.42559071], [-48.61486262, -24.42531054], [-48.61515699, -24.42507561], [-48.61561408, -24.42451105], [-48.61561439, -24.42450654], [-48.61567644, -24.42391969], [-48.61585986, -24.42292199], [-48.61601142, -24.42252015], [-48.61636636, -24.42177962], [-48.6173446, -24.42030288], [-48.61736259, -24.42007717], [-48.61730061, -24.41965743], [-48.61586535, -24.41812373], [-48.61539988, -24.41749211], [-48.61526439, -24.41721686], [-48.61513339, -24.41678813], [-48.61511607, -24.41634127], [-48.61519764, -24.41551968], [-48.61517408, -24.41462143], [-48.61506558, -24.4141972], [-48.61465096, -24.413552], [-48.61438114, -24.41328136], [-48.61387491, -24.41288449], [-48.61369687, -24.41292523], [-48.61326773, -24.4129797], [-48.61218323, -24.41298496], [-48.61085, -24.41326122], [-48.61030814, -24.41336992], [-48.60983831, -24.41339732], [-48.60922111, -24.41330294], [-48.60879983, -24.41316781], [-48.60846509, -24.41298747], [-48.60813212, -24.4126988], [-48.6080075, -24.41251833], [-48.60779703, -24.41207159], [-48.60775876, -24.41159766], [-48.60779527, -24.41101082], [-48.60774235, -24.41032023], [-48.60744966, -24.40953048], [-48.6072726, -24.40925525], [-48.60716951, -24.40901608], [-48.60707742, -24.40857667], [-48.6070087, -24.40824882], [-48.60698427, -24.40813147], [-48.60674946, -24.40767121], [-48.60658908, -24.40745013], [-48.60628756, -24.40717949], [-48.60590414, -24.40695856], [-48.60485502, -24.40644916], [-48.60427244, -24.40604779], [-48.60385369, -24.40556055], [-48.60367257, -24.40519053], [-48.60347146, -24.40487016], [-48.60316068, -24.40456341], [-48.60248349, -24.40410342], [-48.60233764, -24.40394101], [-48.60219477, -24.40362963], [-48.60215014, -24.40327757], [-48.60193856, -24.40253742], [-48.60201939, -24.40227105], [-48.60257355, -24.40177868], [-48.6027228, -24.4015574], [-48.60295721, -24.40110135], [-48.60306772, -24.4009794], [-48.60335505, -24.40085283], [-48.60421749, -24.40064464], [-48.60455379, -24.40048644], [-48.60467664, -24.40040059], [-48.60500569, -24.40003926], [-48.60506984, -24.39972325], [-48.60499255, -24.39937572], [-48.60476154, -24.3990283], [-48.60464995, -24.39893357], [-48.60450167, -24.39880728], [-48.60446101, -24.39881182], [-48.60391243, -24.39851425], [-48.60332533, -24.39820316], [-48.60283431, -24.39784686], [-48.60263081, -24.39760324], [-48.60252597, -24.39747691], [-48.60237739, -24.39735061], [-48.60186155, -24.39675058], [-48.60134052, -24.39620472], [-48.60100009, -24.39575353], [-48.60091741, -24.39559559], [-48.60084818, -24.39528868], [-48.60086008, -24.39512617], [-48.60111308, -24.39399301], [-48.60112735, -24.39370862], [-48.60090637, -24.39315354], [-48.60082792, -24.39287372], [-48.60084989, -24.39258933], [-48.6009185, -24.3924629], [-48.60112446, -24.39229124], [-48.60112002, -24.39229419], [-48.60112404, -24.39229084], [-48.60161652, -24.39215963], [-48.60178765, -24.39196091], [-48.60187608, -24.39157265], [-48.60184535, -24.39126572], [-48.60175281, -24.39109876], [-48.60161533, -24.39097697], [-48.60095517, -24.39054404], [-48.60058622, -24.39025085], [-48.60044448, -24.39019677], [-48.60031414, -24.39014269], [-48.60006048, -24.38996228], [-48.59967456, -24.38962397], [-48.59817523, -24.38780574], [-48.59784944, -24.38711078], [-48.59784703, -24.3867632], [-48.5979382, -24.38631626], [-48.59805502, -24.38598667], [-48.59841946, -24.38516942], [-48.59851387, -24.3849572], [-48.59852604, -24.38474053], [-48.59842685, -24.38430273], [-48.59818346, -24.38382439], [-48.5980725, -24.38372966], [-48.59789928, -24.3835808], [-48.59760744, -24.38338688], [-48.59719485, -24.38320205], [-48.59647523, -24.38311671], [-48.59590741, -24.38295454], [-48.59516569, -24.38253066], [-48.59462454, -24.38216985], [-48.59428096, -24.38198949], [-48.59370743, -24.3815655], [-48.59345558, -24.38128578], [-48.59278096, -24.38032016], [-48.59264375, -24.38012162], [-48.59239845, -24.37949431], [-48.5922073, -24.37876767], [-48.59201634, -24.37833443], [-48.59162061, -24.37799158], [-48.59159965, -24.37797354], [-48.59150647, -24.37772984], [-48.59110969, -24.3771974], [-48.59002852, -24.37668792], [-48.58951671, -24.37639027], [-48.58923911, -24.37627306], [-48.5889326, -24.37621003], [-48.58878568, -24.37621914], [-48.5881759, -24.3763594], [-48.58784879, -24.37636861], [-48.58755458, -24.376283], [-48.58705646, -24.37620201], [-48.58677242, -24.37611188], [-48.58623394, -24.37583721], [-48.58589312, -24.3755846], [-48.5854869, -24.37516953], [-48.58537704, -24.37484006], [-48.58540238, -24.37447892], [-48.5854553, -24.37439313], [-48.58562584, -24.37423505], [-48.58598831, -24.37414006], [-48.58628913, -24.37396837], [-48.58650555, -24.37379221], [-48.58670715, -24.37355286], [-48.58685635, -24.3732684], [-48.58700563, -24.37261829], [-48.58700799, -24.37245127], [-48.5868498, -24.37216697], [-48.58672313, -24.37204065], [-48.58613464, -24.37172949], [-48.58568395, -24.37159882], [-48.5852259, -24.37153586], [-48.58494216, -24.37142767], [-48.58480104, -24.37133747], [-48.58446602, -24.37097652], [-48.58438128, -24.37092239], [-48.58435478, -24.37090435], [-48.58419861, -24.37088637], [-48.58367167, -24.3709679], [-48.58347944, -24.37091834], [-48.58316856, -24.37074697], [-48.58266781, -24.37034096], [-48.58228038, -24.36988072], [-48.58205685, -24.36950165], [-48.5816242, -24.36862614], [-48.58144882, -24.36841407], [-48.58115458, -24.36824268], [-48.58065895, -24.36813911], [-48.58034434, -24.3678955], [-48.57991795, -24.36767452], [-48.57966139, -24.36768819], [-48.57965338, -24.36768819], [-48.57922026, -24.36698894], [-48.57872219, -24.36616526], [-48.57894837, -24.36492339], [-48.57924216, -24.36404012], [-48.57879336, -24.36332703], [-48.57829232, -24.36266017], [-48.57865605, -24.36203072], [-48.57966387, -24.36167811], [-48.57994912, -24.36108656], [-48.57966674, -24.36062712], [-48.57899064, -24.36021754], [-48.57814562, -24.35942476], [-48.57771615, -24.35874488], [-48.5776761, -24.35807265], [-48.57747036, -24.35680588], [-48.57730094, -24.35631173], [-48.57691249, -24.35598679], [-48.57653588, -24.35598077], [-48.57608571, -24.35624025], [-48.5750165, -24.35690702], [-48.57369257, -24.35773126], [-48.5730826, -24.3583727], [-48.57290944, -24.35856551], [-48.57272899, -24.35872043], [-48.57254084, -24.35873177], [-48.57248105, -24.35858256], [-48.57261467, -24.35834051], [-48.57267969, -24.35802143], [-48.57269788, -24.35761523], [-48.57278272, -24.35614033], [-48.57317333, -24.35451513], [-48.57322285, -24.35401481], [-48.57287122, -24.35381379], [-48.57200204, -24.3539787], [-48.5714266, -24.35362437], [-48.57029606, -24.35332176], [-48.56962402, -24.35322443], [-48.56905005, -24.35349746], [-48.56838013, -24.35312904], [-48.56842658, -24.35264077], [-48.56901867, -24.3519002], [-48.56927636, -24.35149113], [-48.56928457, -24.35106128], [-48.56942455, -24.35080198], [-48.56986536, -24.35063391], [-48.57041065, -24.35040485], [-48.57076621, -24.35009859], [-48.57060785, -24.34971666], [-48.57027067, -24.34954264], [-48.56977021, -24.34957822], [-48.56908903, -24.3492539], [-48.56879767, -24.34860847], [-48.56896033, -24.34780169], [-48.5694196, -24.34706052], [-48.56937106, -24.34585331], [-48.57031798, -24.34524794], [-48.57031901, -24.34350451], [-48.56985228, -24.34261052], [-48.56886177, -24.34212185], [-48.56882268, -24.34079147], [-48.56976392, -24.34048151], [-48.57102189, -24.34042575], [-48.5728271, -24.33934472], [-48.57414201, -24.33922186], [-48.57578193, -24.33921636], [-48.5797445, -24.33678473], [-48.58016891, -24.33666045], [-48.58118202, -24.33636378], [-48.58230389, -24.33670652], [-48.58242371, -24.33684665], [-48.58314719, -24.33764756], [-48.58334717, -24.33786605], [-48.58355603, -24.33809424], [-48.5844208, -24.3388852], [-48.58493158, -24.33938077], [-48.58524839, -24.33961058], [-48.58623218, -24.34010104], [-48.58697996, -24.34056788], [-48.58736458, -24.34085924], [-48.58751378, -24.3409925], [-48.58793872, -24.34123576], [-48.58825305, -24.34138969], [-48.58864595, -24.34150426], [-48.58986168, -24.3416617], [-48.59043035, -24.34175558], [-48.59092661, -24.34177069], [-48.59123255, -24.34174306], [-48.59201512, -24.34151899], [-48.59216693, -24.34151418], [-48.59228356, -24.34154672], [-48.59239877, -24.34160181], [-48.5925819, -24.34171213], [-48.59380259, -24.34249425], [-48.59401209, -24.34251292], [-48.59416396, -24.34245305], [-48.59452136, -24.34220507], [-48.59474335, -24.34203167], [-48.59531398, -24.34170945], [-48.59568835, -24.3414491], [-48.59604927, -24.34127519], [-48.59633206, -24.34111719], [-48.59654661, -24.34097256], [-48.59696067, -24.34064514], [-48.5973359, -24.34023495], [-48.5976435, -24.33996271], [-48.59810289, -24.3396342], [-48.59868671, -24.33923815], [-48.59902171, -24.33897536], [-48.59915503, -24.33890616], [-48.59934733, -24.33884421], [-48.59952682, -24.33883442], [-48.59975832, -24.33888773], [-48.60016899, -24.3390531], [-48.60074405, -24.33927793], [-48.60110668, -24.33948316], [-48.60142587, -24.33974547], [-48.60184615, -24.34008068], [-48.60208068, -24.34013043], [-48.6021571, -24.34010095], [-48.60223253, -24.34007145], [-48.60279129, -24.33948813], [-48.60302944, -24.33934567], [-48.60323138, -24.3392947], [-48.60363651, -24.3392316], [-48.6038728, -24.33913513], [-48.60404382, -24.33899973], [-48.60438604, -24.33866664], [-48.60476002, -24.33842611], [-48.6053528, -24.33818092], [-48.60579913, -24.33812659], [-48.60620196, -24.33813295], [-48.60662937, -24.33819386], [-48.6067657, -24.3382267], [-48.60725911, -24.33839335], [-48.60760334, -24.33847732], [-48.60781866, -24.33850057], [-48.60798489, -24.33851493], [-48.60814544, -24.3384642], [-48.60826511, -24.3383352], [-48.60825113, -24.33818785], [-48.60781298, -24.33764927], [-48.60714239, -24.33668818], [-48.60697174, -24.33643725], [-48.60654192, -24.33561356], [-48.60626361, -24.33480128], [-48.6058753, -24.33397101], [-48.60563006, -24.33328653], [-48.60553929, -24.3329791], [-48.6054955, -24.332741], [-48.6054588, -24.33243983], [-48.60546912, -24.33215295], [-48.60554656, -24.331859], [-48.60564124, -24.33169621], [-48.60574581, -24.33158412], [-48.60555243, -24.33149442], [-48.60535127, -24.33145243], [-48.60518369, -24.3314579], [-48.60471133, -24.3315353], [-48.60436438, -24.33170223], [-48.60370777, -24.3321477], [-48.60307457, -24.33255292], [-48.60224747, -24.3328964], [-48.60163979, -24.33304476], [-48.60134821, -24.33304286], [-48.60112287, -24.33297701], [-48.60096881, -24.33289243], [-48.60078933, -24.33274516], [-48.60051955, -24.33252787], [-48.60010171, -24.33216922], [-48.59998326, -24.33197237], [-48.59998555, -24.33185055], [-48.60002347, -24.33177261], [-48.60013984, -24.33160927], [-48.60064098, -24.33110268], [-48.60081051, -24.33078401], [-48.60089281, -24.33038994], [-48.60085717, -24.33008518], [-48.60052817, -24.32945624], [-48.6000911, -24.32886349], [-48.59954969, -24.32811023], [-48.59929911, -24.32781561], [-48.59910871, -24.32767358], [-48.59851148, -24.32726876], [-48.59764116, -24.32666645], [-48.59715279, -24.32618391], [-48.59688168, -24.32572467], [-48.59644637, -24.32498842], [-48.59598541, -24.32441064], [-48.59557583, -24.3239817], [-48.59506006, -24.32359441], [-48.59481815, -24.32346781], [-48.59470097, -24.3234136], [-48.59420946, -24.32315035], [-48.59389005, -24.32290247], [-48.59334626, -24.32227823], [-48.59285901, -24.32173793], [-48.59236172, -24.32131211], [-48.59215695, -24.32114909], [-48.59195446, -24.3209175], [-48.59182039, -24.32066263], [-48.5915771, -24.31982741], [-48.59145885, -24.31946537], [-48.59132859, -24.31926923], [-48.59086479, -24.31868778], [-48.59061665, -24.31810975], [-48.59051074, -24.31782463], [-48.59045443, -24.31757279], [-48.59044138, -24.31711674], [-48.59053179, -24.31598173], [-48.59056768, -24.31522948], [-48.59051167, -24.31475379], [-48.59033499, -24.31440797], [-48.59019765, -24.314274], [-48.58972765, -24.31396956], [-48.58936397, -24.31382478], [-48.58893528, -24.31367986], [-48.58870789, -24.31356793], [-48.58848845, -24.31329635], [-48.58840091, -24.31282106], [-48.58820835, -24.31237841], [-48.58788788, -24.31198066], [-48.58740321, -24.31135914], [-48.5870511, -24.31107192], [-48.58649821, -24.31077608], [-48.58604248, -24.31070745], [-48.5858089, -24.31066312], [-48.58560958, -24.3105778], [-48.58389871, -24.30901696], [-48.5830597, -24.30848818], [-48.58226528, -24.30810093], [-48.58143627, -24.30766889], [-48.58085872, -24.3073248], [-48.58039539, -24.30672346], [-48.57951735, -24.30545026], [-48.5792902, -24.30491226], [-48.57874361, -24.30413177], [-48.57816675, -24.30359722], [-48.57779214, -24.30335565], [-48.57714121, -24.30298782], [-48.57652085, -24.30272156], [-48.57596569, -24.30260077], [-48.5754858, -24.30261296], [-48.57510427, -24.30252924], [-48.57474175, -24.30232577], [-48.57452743, -24.30199468], [-48.57406621, -24.30102598], [-48.57386847, -24.30085854], [-48.57343541, -24.30073969], [-48.57274462, -24.30070788], [-48.57234506, -24.30058866], [-48.57165851, -24.30012726], [-48.5713828, -24.29986559], [-48.57097773, -24.29962171], [-48.57062514, -24.29951859], [-48.57024663, -24.29943129], [-48.56982541, -24.29931172], [-48.56927223, -24.29908803], [-48.56821696, -24.29838963], [-48.5674347, -24.2975259], [-48.5669886, -24.2971622], [-48.56656242, -24.29683854], [-48.5662196, -24.29653336], [-48.56594891, -24.29621581], [-48.56563671, -24.295597], [-48.56533868, -24.29517531], [-48.56490886, -24.29456713], [-48.56437916, -24.29404413], [-48.56370912, -24.2935983], [-48.56331258, -24.2933735], [-48.56296831, -24.29324882], [-48.56271224, -24.29314632], [-48.56241361, -24.29300342], [-48.56215997, -24.29272224], [-48.56195074, -24.29223055], [-48.56172006, -24.29146952], [-48.56164511, -24.29070196], [-48.56178501, -24.28987467], [-48.56185069, -24.2893233], [-48.5616893, -24.28844153], [-48.56134581, -24.28776083], [-48.56065384, -24.28717654], [-48.56013479, -24.28692268], [-48.55918002, -24.28669251], [-48.55862073, -24.28653458], [-48.55819143, -24.28642839], [-48.55775683, -24.28644487], [-48.55720851, -24.28664005], [-48.55678007, -24.28690035], [-48.55623337, -24.28726795], [-48.55572961, -24.28765611], [-48.55514225, -24.28788405], [-48.55446848, -24.28815032], [-48.55364825, -24.28845304], [-48.55320939, -24.28864004], [-48.55277978, -24.28890933], [-48.55235492, -24.28923917], [-48.55220026, -24.28939554], [-48.55213187, -24.28957226], [-48.55212465, -24.28994855], [-48.55226958, -24.29112071], [-48.55243871, -24.29159643], [-48.55283308, -24.2923944], [-48.55322883, -24.29317254], [-48.55337894, -24.2937671], [-48.55341109, -24.29440128], [-48.55325617, -24.29493044], [-48.5525975, -24.29594704], [-48.55236053, -24.29623567], [-48.55171529, -24.29675693], [-48.55143218, -24.2970376], [-48.55112043, -24.29752722], [-48.55076672, -24.29799631], [-48.55043254, -24.29852529], [-48.54989303, -24.29928383], [-48.54951184, -24.29995285], [-48.54930155, -24.3004405], [-48.54911739, -24.30085004], [-48.54893534, -24.30130293], [-48.54864599, -24.30175319], [-48.54833339, -24.30208122], [-48.54801013, -24.30229715], [-48.54776941, -24.30247198], [-48.54762843, -24.30273508], [-48.54757704, -24.30310253], [-48.54769127, -24.30356473], [-48.54823226, -24.3043696], [-48.54869426, -24.30528782], [-48.5489782, -24.3058367], [-48.54898002, -24.30610031], [-48.54884195, -24.30631471], [-48.54840665, -24.30646655], [-48.54792275, -24.30653365], [-48.54740997, -24.30666798], [-48.54692297, -24.3068957], [-48.54636119, -24.30732441], [-48.54600402, -24.30797124], [-48.54556757, -24.30900042], [-48.54527926, -24.30944617], [-48.54437911, -24.31046424], [-48.54405281, -24.31063226], [-48.54351223, -24.31082841], [-48.54271563, -24.31107187], [-48.54201141, -24.31117239], [-48.54164058, -24.31129998], [-48.54083172, -24.31202523], [-48.54022058, -24.31245762], [-48.53967372, -24.31282516], [-48.53938736, -24.31311749], [-48.539324, -24.31338905], [-48.53931787, -24.31370668], [-48.53943346, -24.31409669], [-48.53960061, -24.31436749], [-48.5402123, -24.31477456], [-48.54028398, -24.31509255], [-48.54020224, -24.31529613], [-48.53985716, -24.31561909], [-48.53969785, -24.31596312], [-48.53953082, -24.31655345], [-48.53942308, -24.31692991], [-48.53919826, -24.3173505], [-48.53884843, -24.31756237], [-48.53832781, -24.31769202], [-48.53780489, -24.31794079], [-48.53736824, -24.31821082], [-48.53681981, -24.31865775], [-48.53633332, -24.31926364], [-48.53598865, -24.31971749], [-48.53560356, -24.32012193], [-48.53525243, -24.32029856], [-48.53453554, -24.32044036], [-48.53364477, -24.32050712], [-48.53312936, -24.32046896], [-48.5324183, -24.32030936], [-48.53185932, -24.32018112], [-48.53151598, -24.32005729], [-48.5312179, -24.319834], [-48.5309267, -24.31925609], [-48.53070537, -24.31888512], [-48.53042142, -24.31854291], [-48.53016725, -24.31839255], [-48.52999586, -24.31829047], [-48.52997765, -24.31811235], [-48.53022736, -24.317629], [-48.53066146, -24.3171351], [-48.5306865, -24.3169613], [-48.53056716, -24.31681674], [-48.53036669, -24.31679272], [-48.52952733, -24.31690181], [-48.52900658, -24.31698721], [-48.52837668, -24.31721524], [-48.52757388, -24.3174197], [-48.52653396, -24.3176609], [-48.52582811, -24.31784346], [-48.52529791, -24.31811102], [-48.52485085, -24.31866156], [-48.52432405, -24.31910879], [-48.52395415, -24.31933834], [-48.52364717, -24.31942179], [-48.52342505, -24.31944705], [-48.52319697, -24.31942437], [-48.5230782, -24.31925093], [-48.52300777, -24.31912432], [-48.52297407, -24.31888186], [-48.52301661, -24.31866954], [-48.52311249, -24.31819632], [-48.52318936, -24.31758649], [-48.52312012, -24.31709433], [-48.52313394, -24.31694111], [-48.5232264, -24.31679549], [-48.52370773, -24.31635654], [-48.52373613, -24.31611149], [-48.52363029, -24.31562776], [-48.52352239, -24.3151485], [-48.52348242, -24.31472181], [-48.52349204, -24.31422642], [-48.52350126, -24.31375179], [-48.52346841, -24.31326293], [-48.52343621, -24.31289232], [-48.52331944, -24.31221073], [-48.52318687, -24.31168324], [-48.52291771, -24.31058215], [-48.5228527, -24.31012616], [-48.52263834, -24.3094493], [-48.52236771, -24.30893038], [-48.5220503, -24.30853887], [-48.52154878, -24.30824455], [-48.52076787, -24.30793393], [-48.52027355, -24.30782656], [-48.51971232, -24.30781739], [-48.5191496, -24.30783437], [-48.51901728, -24.30785207], [-48.51884672, -24.30796211], [-48.51853675, -24.30835239], [-48.51807589, -24.30885394], [-48.51775703, -24.30919444], [-48.517532, -24.30937038], [-48.51695716, -24.30950359], [-48.51642186, -24.30957878], [-48.51583747, -24.30954484], [-48.51555994, -24.30948253], [-48.51531736, -24.30934587], [-48.5151559, -24.30914014], [-48.51505268, -24.30842266], [-48.51506348, -24.30786863], [-48.5150743, -24.30731369], [-48.51512819, -24.30672154], [-48.51514092, -24.30606825], [-48.51496145, -24.30572592], [-48.51469361, -24.30547061], [-48.5141891, -24.30533146], [-48.51345011, -24.30534734], [-48.51288591, -24.305441], [-48.51238802, -24.30556823], [-48.51212793, -24.30562264], [-48.5117164, -24.30571519], [-48.5114358, -24.30571059], [-48.51117685, -24.30570634], [-48.51091868, -24.30566239], [-48.51055529, -24.30545876], [-48.51028022, -24.30506973], [-48.51000034, -24.30457411], [-48.50963436, -24.30399855], [-48.50936189, -24.30357797], [-48.50906504, -24.30329599], [-48.50859434, -24.30309059], [-48.50796914, -24.30308033], [-48.50746981, -24.30323099], [-48.50705346, -24.30352022], [-48.50685409, -24.30379405], [-48.50648257, -24.30400638], [-48.50607107, -24.30409801], [-48.50590219, -24.30412141], [-48.5054083, -24.30399415], [-48.50511107, -24.30373201], [-48.50483472, -24.30350994], [-48.50455799, -24.30330772], [-48.50430177, -24.3031645], [-48.50402311, -24.30306063], [-48.50333438, -24.30282455], [-48.50305325, -24.30254553], [-48.50295547, -24.30225779], [-48.50297293, -24.30201978], [-48.50318488, -24.30180845], [-48.50361928, -24.30155293], [-48.50403552, -24.30131967], [-48.50460175, -24.30107173], [-48.50496023, -24.30087092], [-48.50541144, -24.30051097], [-48.5055751, -24.30035119], [-48.50561611, -24.30016772], [-48.50560415, -24.30002401], [-48.50557603, -24.29995134], [-48.5052686, -24.29970709], [-48.50456176, -24.2992902], [-48.50406128, -24.2989471], [-48.50360366, -24.29842688], [-48.50323657, -24.29786032], [-48.50317164, -24.29720304], [-48.50319241, -24.29614189], [-48.50315353, -24.29546158], [-48.5030036, -24.29517208], [-48.50273734, -24.29503953], [-48.50228639, -24.29493372], [-48.50187796, -24.29481959], [-48.50143896, -24.29465712], [-48.50104261, -24.29432836], [-48.50088044, -24.29396013], [-48.50076388, -24.29332457], [-48.50072361, -24.29266589], [-48.50076586, -24.29211779], [-48.50087251, -24.29170073], [-48.50105996, -24.29138158], [-48.50124698, -24.29113463], [-48.50149758, -24.29096003], [-48.50237249, -24.29063684], [-48.50269781, -24.29041834], [-48.50311765, -24.28994866], [-48.50344788, -24.2895795], [-48.50364822, -24.28930569], [-48.50376211, -24.28897088], [-48.50376907, -24.28861536], [-48.50356898, -24.28781957], [-48.50319698, -24.28700199], [-48.50264508, -24.28621937], [-48.50214785, -24.2856624], [-48.50169929, -24.2852353], [-48.50129458, -24.28493258], [-48.50073889, -24.28464633], [-48.5004557, -24.28457488], [-48.50033538, -24.28453408], [-48.50017905, -24.28447104], [-48.49996854, -24.28435926], [-48.49986708, -24.28431065], [-48.49978468, -24.2842443], [-48.49962411, -24.28409634], [-48.49928331, -24.28364844], [-48.49897165, -24.28307015], [-48.49870437, -24.28243842], [-48.4983542, -24.28121321], [-48.49819942, -24.28061944], [-48.49800142, -24.28012064], [-48.49781681, -24.27989375], [-48.49753961, -24.27971859], [-48.49734629, -24.27963417], [-48.49645855, -24.27941013], [-48.49560125, -24.2792913], [-48.49523763, -24.27930516], [-48.49468405, -24.27946482], [-48.49442668, -24.27953369], [-48.49420182, -24.27965183], [-48.49387652, -24.27987032], [-48.49344565, -24.28019989], [-48.4930536, -24.28050753], [-48.49232705, -24.28080062], [-48.49205885, -24.28091895], [-48.49152072, -24.28119439], [-48.49111787, -24.28135021], [-48.49079985, -24.28149841], [-48.49061378, -24.28159642], [-48.49047869, -24.28170612], [-48.49036944, -24.2818036], [-48.49028535, -24.28187352], [-48.49023313, -24.28192501], [-48.49008889, -24.28204899], [-48.489954, -24.28214876], [-48.48981662, -24.28227466], [-48.48957535, -24.28257576], [-48.48936375, -24.28276994], [-48.48900477, -24.28299778], [-48.48863197, -24.28332739], [-48.4882692, -24.28369779], [-48.48805625, -24.2838107], [-48.48778425, -24.28382155], [-48.4874416, -24.28376985], [-48.48702277, -24.28363655], [-48.48663945, -24.28329985], [-48.4864071, -24.28319762], [-48.48618359, -24.28319663], [-48.48557588, -24.28345375], [-48.48469671, -24.28374427], [-48.48363013, -24.28405065], [-48.48238201, -24.28467353], [-48.48139433, -24.28512291], [-48.48000649, -24.28598896], [-48.47919266, -24.28660909], [-48.47681446, -24.28860409], [-48.47629236, -24.28901152], [-48.47568481, -24.28910884], [-48.47526469, -24.28904047], [-48.47477605, -24.28850342], [-48.47446641, -24.28787818], [-48.47404773, -24.28718974], [-48.47334109, -24.28587642], [-48.47282199, -24.28523776], [-48.47245, -24.28497704], [-48.47217481, -24.2848506], [-48.47186859, -24.28484912], [-48.47150108, -24.28505872], [-48.47136534, -24.28594554], [-48.47137661, -24.28761285], [-48.4713112, -24.28813076], [-48.47097521, -24.2882398], [-48.47072259, -24.28821663], [-48.47026793, -24.28800327], [-48.46987783, -24.28781173], [-48.46892649, -24.28717037], [-48.46835015, -24.28683673], [-48.46776738, -24.28662844], [-48.46733437, -24.28656526], [-48.46701386, -24.28643987], [-48.46657554, -24.28609859], [-48.46615136, -24.28554092], [-48.46592866, -24.28525108], [-48.46570429, -24.28519408], [-48.4654614, -24.28522704], [-48.46519432, -24.2854365], [-48.46411727, -24.28621733], [-48.46369748, -24.28667787], [-48.46333464, -24.2870482], [-48.46301829, -24.28735792], [-48.46269087, -24.2876792], [-48.46251223, -24.28804628], [-48.46214618, -24.28882453], [-48.46192669, -24.28926494], [-48.46156154, -24.28984914], [-48.46086005, -24.29065789], [-48.46020311, -24.29125706], [-48.45986048, -24.29155009], [-48.45959007, -24.29192557], [-48.45947964, -24.29237773], [-48.45954893, -24.29295294], [-48.45952018, -24.29320971], [-48.45939022, -24.29345575], [-48.45860883, -24.29407179], [-48.45772566, -24.2948531], [-48.45724099, -24.29520693], [-48.45678623, -24.29544301], [-48.45642161, -24.29551422], [-48.45632338, -24.29553723], [-48.45620377, -24.29554079], [-48.45611244, -24.29605837], [-48.45655622, -24.29686156], [-48.45639872, -24.29728809], [-48.45557611, -24.29801496], [-48.45464606, -24.2994522], [-48.45494825, -24.29988456], [-48.45526992, -24.30006126], [-48.45549186, -24.30009744], [-48.45614595, -24.30034139], [-48.45669633, -24.30049953], [-48.4570283, -24.30057111], [-48.45736708, -24.30064416], [-48.45806326, -24.30068543], [-48.45829771, -24.30069933], [-48.45836141, -24.30070311], [-48.45946088, -24.30081057], [-48.45948709, -24.30081313], [-48.45949557, -24.30081396], [-48.46049134, -24.30091129], [-48.46083097, -24.30088618], [-48.46085645, -24.30088429], [-48.46085629, -24.30088384], [-48.46194014, -24.30065883], [-48.46305761, -24.30067715], [-48.46357944, -24.30058246], [-48.4643996, -24.30035242], [-48.46475056, -24.30028026], [-48.46561475, -24.30001411], [-48.46584195, -24.29997353], [-48.46595741, -24.29991486], [-48.46671319, -24.29983828], [-48.46705861, -24.2997616], [-48.46727166, -24.29964428], [-48.46745796, -24.29943214], [-48.46752664, -24.29929221], [-48.46757475, -24.29891754], [-48.46763943, -24.29877761], [-48.46804798, -24.2985926], [-48.46806152, -24.29860164], [-48.46827639, -24.29864231], [-48.46865559, -24.29889066], [-48.46917791, -24.2993151], [-48.46950172, -24.29947316], [-48.46987574, -24.29953192], [-48.470086, -24.29950487], [-48.47011587, -24.29949133], [-48.47071469, -24.29918899], [-48.47120019, -24.29904462], [-48.4714831, -24.29903112], [-48.47174722, -24.29906728], [-48.47236933, -24.29924344], [-48.47245368, -24.29928409], [-48.473085, -24.29959568], [-48.47340392, -24.29973026], [-48.47383916, -24.29990728], [-48.47460197, -24.30008346], [-48.4749449, -24.30012414], [-48.47549103, -24.30003845], [-48.47582968, -24.29990759], [-48.4772339, -24.29910876], [-48.47775572, -24.29891472], [-48.47812453, -24.29885157], [-48.47887813, -24.29879298], [-48.48055063, -24.29886993], [-48.48179062, -24.29882945], [-48.48229057, -24.29874373], [-48.48256671, -24.29866702], [-48.48330896, -24.2983827], [-48.48331604, -24.29837367], [-48.48355157, -24.29812541], [-48.48373939, -24.2977372], [-48.48379579, -24.29722709], [-48.48375124, -24.29643709], [-48.48370929, -24.29625612], [-48.48366786, -24.29607142], [-48.48347736, -24.29569221], [-48.48307435, -24.29519068], [-48.48247827, -24.2945229], [-48.4822973, -24.29426106], [-48.48216774, -24.29398116], [-48.4820936, -24.29360646], [-48.48211582, -24.29322275], [-48.48223346, -24.29280745], [-48.48237756, -24.29253209], [-48.48276086, -24.29212585], [-48.48300375, -24.29194079], [-48.48338056, -24.29176025], [-48.4837555, -24.29167903], [-48.48412796, -24.29171067], [-48.48475837, -24.29190936], [-48.48513514, -24.29198614], [-48.48540911, -24.29192296], [-48.48542882, -24.29192296], [-48.48561505, -24.29190944], [-48.4861436, -24.29177857], [-48.48648683, -24.29180568], [-48.48674786, -24.2919005], [-48.48693192, -24.29204498], [-48.48722586, -24.29241968], [-48.48725079, -24.29246483], [-48.48760227, -24.29311943], [-48.4877891, -24.29338578], [-48.48816493, -24.29380113], [-48.48839548, -24.29398623], [-48.4892306, -24.29435194], [-48.48977912, -24.29474923], [-48.49019992, -24.29497497], [-48.4904708, -24.2950743], [-48.49116773, -24.29520074], [-48.49143605, -24.29529064], [-48.49187572, -24.29564769], [-48.49244857, -24.29627069], [-48.49269883, -24.2964603], [-48.49283243, -24.29652802], [-48.49307623, -24.29659574], [-48.49319721, -24.29660478], [-48.49334867, -24.29661833], [-48.49420014, -24.2967899], [-48.49478471, -24.29701112], [-48.49531356, -24.29751673], [-48.49568665, -24.29792303], [-48.49598771, -24.29818938], [-48.49634726, -24.29843316], [-48.49666988, -24.2986047], [-48.49738593, -24.29884192], [-48.4974376, -24.29887889], [-48.49743871, -24.29887968], [-48.49743981, -24.29888047], [-48.4976636, -24.29904055], [-48.49797113, -24.29932947], [-48.49810688, -24.2996861], [-48.4981081, -24.29969267], [-48.49807854, -24.30029758], [-48.49795936, -24.30078096], [-48.49793384, -24.30088443], [-48.49778577, -24.3011598], [-48.49709248, -24.3018595], [-48.49660667, -24.30262691], [-48.4963179, -24.30293839], [-48.4959771, -24.30319569], [-48.49534045, -24.30351168], [-48.49518129, -24.3036471], [-48.49508246, -24.30381412], [-48.49505506, -24.30405338], [-48.49509507, -24.30416623], [-48.49524944, -24.30435916], [-48.49525761, -24.30436938], [-48.49547326, -24.30456273], [-48.49547497, -24.30456426], [-48.49547539, -24.30456464], [-48.49548419, -24.30457253], [-48.49558907, -24.30466366], [-48.49558953, -24.30466405], [-48.49559024, -24.30466467], [-48.49569563, -24.30475624], [-48.49569722, -24.30475762], [-48.49597797, -24.30515939], [-48.4960617, -24.30540768], [-48.49606785, -24.30553859], [-48.49603737, -24.30564242], [-48.49594471, -24.30574624], [-48.49592254, -24.30577333], [-48.49540194, -24.30610737], [-48.49523631, -24.30626085], [-48.49500202, -24.30655427], [-48.49481052, -24.30687477], [-48.49471568, -24.30729008], [-48.49460792, -24.30750676], [-48.4943844, -24.30781824], [-48.49402511, -24.30821999], [-48.49376772, -24.30851341], [-48.49371506, -24.30874363], [-48.49371382, -24.3089558], [-48.4939364, -24.30926278], [-48.49414666, -24.30942981], [-48.49493016, -24.30990835], [-48.49542058, -24.31041396], [-48.49588022, -24.31073448], [-48.49589469, -24.31075253], [-48.49626658, -24.31122202], [-48.49626904, -24.31122654], [-48.49690417, -24.3117502], [-48.49709905, -24.31186306], [-48.49760509, -24.31216426], [-48.49795329, -24.31244414], [-48.49821713, -24.31279174], [-48.49837814, -24.31336956], [-48.4986306, -24.31380293], [-48.49902683, -24.31415053], [-48.49971186, -24.31452521], [-48.4999443, -24.31472384], [-48.50013426, -24.31498566], [-48.50013888, -24.31499469], [-48.50010909, -24.31525643], [-48.5001044, -24.31529714], [-48.50012749, -24.31547771], [-48.50022478, -24.31564022], [-48.50029837, -24.31574856], [-48.50036548, -24.31581628], [-48.5004587, -24.31596829], [-48.50064037, -24.31609651], [-48.50074978, -24.31619245], [-48.50090803, -24.31630079], [-48.50114449, -24.3164949], [-48.50135785, -24.31672061], [-48.50206137, -24.31725328], [-48.50237511, -24.31753316], [-48.50271502, -24.31802972], [-48.50272303, -24.318278], [-48.50264914, -24.31842245], [-48.5025811, -24.3184992], [-48.50250536, -24.3185308], [-48.50238005, -24.3185624], [-48.50225382, -24.31854886], [-48.50213867, -24.31847212], [-48.50197672, -24.31830509], [-48.501933, -24.31827801], [-48.50182185, -24.3182735], [-48.50151304, -24.31835476], [-48.50128367, -24.31843601], [-48.50078616, -24.31861031], [-48.50069187, -24.3186374], [-48.500483, -24.31871206], [-48.50031689, -24.31877962], [-48.49992777, -24.31889623], [-48.49964914, -24.31909486], [-48.49955184, -24.31923029], [-48.49950874, -24.31941085], [-48.49952813, -24.31963656], [-48.49976552, -24.32033627], [-48.49974119, -24.32071997], [-48.49947733, -24.32112625], [-48.49941698, -24.32127522], [-48.49941944, -24.32150544], [-48.49952936, -24.32188464], [-48.49947979, -24.3221916], [-48.49930613, -24.3224128], [-48.49901609, -24.3228913], [-48.49863243, -24.3235019], [-48.49846185, -24.32395332], [-48.49843475, -24.32417903], [-48.4984743, -24.32450355], [-48.49847439, -24.32450729], [-48.49850558, -24.32476017], [-48.49866903, -24.32501343], [-48.49877876, -24.32512284], [-48.49911733, -24.32546034], [-48.49929037, -24.3257673], [-48.49940676, -24.32616455], [-48.49950313, -24.32687779], [-48.49958996, -24.32727504], [-48.4997553, -24.32772194], [-48.49984736, -24.32785286], [-48.50039687, -24.32840319], [-48.50046595, -24.32846678], [-48.50047671, -24.32851795], [-48.50056781, -24.328586], [-48.50057429, -24.32859216], [-48.50067694, -24.3287451], [-48.50071476, -24.32889991], [-48.50074678, -24.32897665], [-48.50079019, -24.32911208], [-48.50084901, -24.32940099], [-48.50092291, -24.32944613], [-48.5016077, -24.32963572], [-48.5018137, -24.32973954], [-48.50208497, -24.33007359], [-48.50241783, -24.33037603], [-48.50258534, -24.33057014], [-48.50278487, -24.33089515], [-48.50286094, -24.33118857], [-48.5027578, -24.33182959], [-48.50276936, -24.33218906], [-48.50279052, -24.33284707], [-48.50279816, -24.33308453], [-48.50274459, -24.33330572], [-48.50258971, -24.3335224], [-48.50224946, -24.33379326], [-48.50192461, -24.33397834], [-48.50140361, -24.3342176], [-48.50119576, -24.33436657], [-48.50104303, -24.33457873], [-48.5007345, -24.33517912], [-48.50073117, -24.33531171], [-48.50072865, -24.33548157], [-48.50069663, -24.33566213], [-48.50070433, -24.33589687], [-48.50068708, -24.33613612], [-48.50066615, -24.336258], [-48.50061842, -24.33637537], [-48.50059779, -24.3364792], [-48.50060764, -24.33652885], [-48.50066769, -24.33682678], [-48.50071634, -24.33693061], [-48.50077146, -24.33702992], [-48.50093282, -24.3372782], [-48.50118286, -24.3377883], [-48.5012075, -24.33808171], [-48.50104768, -24.33830291], [-48.50075115, -24.33840222], [-48.50058988, -24.33836901], [-48.50042252, -24.33834428], [-48.50034102, -24.33827559], [-48.50025542, -24.33823948], [-48.49984895, -24.33796412], [-48.49952716, -24.33783772], [-48.4989812, -24.33779709], [-48.49865695, -24.33791446], [-48.49846172, -24.33806794], [-48.49834779, -24.33819433], [-48.49799705, -24.3387586], [-48.49783754, -24.3389527], [-48.49708986, -24.33955307], [-48.49691557, -24.33975169], [-48.49674096, -24.34005865], [-48.49669999, -24.34063646], [-48.49658882, -24.34083056], [-48.49644286, -24.34099307], [-48.49627565, -24.34112398], [-48.49584175, -24.34134967], [-48.4954984, -24.34157537], [-48.4954982, -24.34157617], [-48.49540631, -24.34195456], [-48.49540476, -24.34227957], [-48.49553008, -24.34261814], [-48.49575856, -24.34297927], [-48.49604339, -24.3435616], [-48.49610466, -24.34401302], [-48.49608063, -24.34443283], [-48.49610649, -24.34476688], [-48.49622196, -24.34506481], [-48.4966894, -24.34584125], [-48.49678948, -24.34631524], [-48.49679502, -24.34642809], [-48.49681867, -24.34687996], [-48.4968547, -24.34699282], [-48.49698188, -24.34714179], [-48.4970136, -24.3471779], [-48.4974709, -24.34748035], [-48.49820258, -24.34844187], [-48.49853948, -24.34879397], [-48.49891918, -24.34912351], [-48.49933369, -24.34939887], [-48.49969554, -24.34957943], [-48.50049364, -24.34984305], [-48.50079217, -24.3499945], [-48.50102592, -24.35006221], [-48.50115443, -24.35008477], [-48.50149233, -24.34974888], [-48.50163328, -24.34977713], [-48.50164192, -24.34980249], [-48.5019124, -24.35022757], [-48.50197263, -24.35032153], [-48.5020953, -24.35044631], [-48.50236772, -24.35072248], [-48.50278334, -24.35103171], [-48.50341201, -24.35162967], [-48.50394526, -24.35222064], [-48.50469742, -24.3531546], [-48.50511907, -24.35380962], [-48.50532453, -24.35423543], [-48.50541587, -24.3545014], [-48.50548078, -24.35500974], [-48.50539949, -24.35523586], [-48.50533174, -24.3554252], [-48.50514033, -24.35573977], [-48.50391692, -24.35728026], [-48.50378064, -24.35754699], [-48.5037352, -24.3577033], [-48.50367201, -24.35831243], [-48.50353728, -24.35855031], [-48.50328423, -24.35889274], [-48.5031749, -24.35904168], [-48.50300638, -24.35914361], [-48.50285878, -24.35928379], [-48.50243626, -24.35952595], [-48.50213749, -24.35973765], [-48.50179201, -24.3599197], [-48.50141686, -24.35995684], [-48.50091155, -24.35994851], [-48.50058946, -24.3599432], [-48.50054385, -24.35995779], [-48.50045554, -24.35998883], [-48.50039383, -24.3600203], [-48.50037566, -24.36004257], [-48.5002797, -24.36011229], [-48.50017626, -24.36021168], [-48.50003982, -24.36028525], [-48.49934582, -24.36140478], [-48.49917173, -24.3615391], [-48.49894063, -24.36161652], [-48.49870468, -24.36163971], [-48.49803996, -24.36162061], [-48.49754682, -24.3616946], [-48.49719935, -24.36182697], [-48.49690012, -24.36206122], [-48.4965799, -24.36256139], [-48.49659858, -24.36336412], [-48.49650219, -24.3640061], [-48.49639243, -24.36432561], [-48.49626156, -24.36451661], [-48.49609782, -24.36467547], [-48.4958268, -24.36482805], [-48.49495557, -24.36518733], [-48.49471189, -24.36535209], [-48.49459211, -24.36548009], [-48.49445323, -24.36577746], [-48.49447754, -24.36619396], [-48.49457436, -24.36643115], [-48.49453735, -24.3666589], [-48.49443869, -24.36681522], [-48.4942152, -24.36700559], [-48.49358107, -24.36733268], [-48.49333719, -24.3675579], [-48.49325906, -24.36782198], [-48.4931553, -24.36883661], [-48.49306045, -24.36904896], [-48.49291592, -24.36918286], [-48.49264448, -24.36930563], [-48.49228618, -24.36938635], [-48.49207832, -24.36938382], [-48.49165516, -24.3693055], [-48.49152954, -24.3693296], [-48.49127837, -24.36932454], [-48.49096293, -24.36943034], [-48.49066253, -24.36967268], [-48.49056573, -24.36988409], [-48.49052185, -24.37010992], [-48.49055345, -24.37045614], [-48.49073154, -24.37091852], [-48.49102853, -24.37134857], [-48.49180704, -24.37174597], [-48.49199817, -24.37194771], [-48.49211964, -24.37213386], [-48.49237958, -24.37274381], [-48.49238915, -24.37295789], [-48.49238283, -24.37297855], [-48.49229564, -24.3732524], [-48.4921161, -24.37356173], [-48.49194383, -24.37370239], [-48.49170346, -24.37399808], [-48.49161209, -24.37418431], [-48.49158865, -24.37427328], [-48.49149289, -24.37463184], [-48.49147872, -24.37495022], [-48.49153741, -24.37527162], [-48.49163923, -24.37555492], [-48.49193144, -24.37612751], [-48.49202769, -24.37649375], [-48.49203228, -24.37705977], [-48.49194944, -24.37736258], [-48.4918202, -24.37746965], [-48.49166653, -24.37751675], [-48.49150636, -24.37749334], [-48.49130323, -24.37735007], [-48.49102692, -24.37687072], [-48.49091405, -24.3767479], [-48.49065261, -24.37656305], [-48.4904825, -24.37649434], [-48.4902088, -24.37648168], [-48.49010963, -24.37651343], [-48.48990696, -24.37664637], [-48.48986612, -24.37681809], [-48.48991261, -24.37695876], [-48.49011778, -24.37729794], [-48.49131403, -24.37860036], [-48.49175722, -24.37901298], [-48.4921575, -24.37930303], [-48.492378, -24.37946554], [-48.49251764, -24.37978015], [-48.49259593, -24.38010729], [-48.49270374, -24.38038708], [-48.49319389, -24.38111728], [-48.49331516, -24.38141444], [-48.49333785, -24.38181287], [-48.49340904, -24.38225001], [-48.49349613, -24.38253126], [-48.49373751, -24.38293421], [-48.49380703, -24.38340653], [-48.49372754, -24.3835397], [-48.49321461, -24.38381282], [-48.49306865, -24.38401801], [-48.49307685, -24.38415173], [-48.49320413, -24.38434429], [-48.49324981, -24.38437664], [-48.49329839, -24.38441174], [-48.49352004, -24.38446596], [-48.49409799, -24.38449357], [-48.49458299, -24.38468663], [-48.49482777, -24.38496779], [-48.49502468, -24.38542686], [-48.49502652, -24.38563359], [-48.49496732, -24.38588715], [-48.4948215, -24.38613476], [-48.49462858, -24.38627237], [-48.49438081, -24.38639283], [-48.4936165, -24.38656973], [-48.49332701, -24.38670665], [-48.49316993, -24.3868259], [-48.49312706, -24.38690101], [-48.4931977, -24.38716665], [-48.49340834, -24.3873299], [-48.49381865, -24.38746305], [-48.4941287, -24.38748263], [-48.494898, -24.38745294], [-48.49519976, -24.38749313], [-48.49532697, -24.38753946], [-48.49545509, -24.38763906], [-48.49557629, -24.38779], [-48.49592221, -24.38859002], [-48.49603342, -24.38874801], [-48.49626603, -24.38894682], [-48.49690875, -24.38923906], [-48.49741517, -24.38929708], [-48.49775997, -24.38925404], [-48.49842176, -24.38897884], [-48.49903726, -24.38880217], [-48.49928738, -24.38866279], [-48.49979534, -24.38824153], [-48.49995653, -24.38806367], [-48.5001989, -24.38756672], [-48.5002987, -24.38740319], [-48.50037139, -24.38731503], [-48.5004558, -24.38723248], [-48.50051431, -24.38716394], [-48.50071349, -24.38690818], [-48.50079495, -24.38677504], [-48.50091193, -24.38663977], [-48.50116727, -24.38648512], [-48.50137967, -24.3864092], [-48.50169751, -24.38638376], [-48.50219006, -24.38644423], [-48.50252602, -24.38654996], [-48.50279361, -24.38667443], [-48.50284698, -24.38671683], [-48.50291198, -24.38676935], [-48.50297804, -24.38686792], [-48.50304542, -24.38720029], [-48.50304259, -24.38739431], [-48.50285181, -24.38822518], [-48.50285633, -24.38839675], [-48.50291212, -24.38856646], [-48.50314553, -24.38892594], [-48.5034332, -24.38923215], [-48.5046056, -24.39010536], [-48.50487696, -24.39033909], [-48.50503402, -24.3905213], [-48.50512066, -24.39117803], [-48.50501995, -24.39168905], [-48.50500575, -24.3920607], [-48.50516004, -24.39303626], [-48.50514011, -24.39349897], [-48.50512978, -24.39372356], [-48.50504237, -24.39400915], [-48.50454028, -24.39493327], [-48.50438971, -24.39527288], [-48.50435388, -24.39544108], [-48.50436656, -24.39559834], [-48.50446474, -24.39576785], [-48.50460007, -24.39585312], [-48.50485871, -24.3959323], [-48.5053552, -24.39614538], [-48.50568263, -24.39618507], [-48.5059188, -24.39615376], [-48.50612445, -24.39592067], [-48.50642596, -24.39502121], [-48.50654144, -24.39476226], [-48.50683232, -24.39435365], [-48.50709346, -24.39405467], [-48.50739742, -24.39388367], [-48.50767587, -24.39385756], [-48.50797222, -24.39392382], [-48.50835681, -24.39416393], [-48.50882643, -24.39459137], [-48.50890668, -24.39472086], [-48.50887777, -24.39493882], [-48.50869585, -24.3951687], [-48.50840543, -24.39540312], [-48.50768433, -24.39578659], [-48.50752142, -24.39590125], [-48.50744647, -24.39605436], [-48.50742573, -24.39625711], [-48.50756965, -24.39645715], [-48.50798054, -24.39676359], [-48.50810678, -24.39691009], [-48.50829177, -24.39757836], [-48.50839962, -24.39775795], [-48.50860002, -24.39779194], [-48.50870246, -24.39774488], [-48.50881102, -24.39763745], [-48.50887932, -24.39762233], [-48.50889783, -24.39758292], [-48.50902367, -24.39754888], [-48.50931391, -24.39757532], [-48.50933884, -24.39761094], [-48.50950561, -24.39785197], [-48.50957234, -24.39786661], [-48.50991148, -24.39846521], [-48.51016799, -24.39900558], [-48.51029148, -24.39919175], [-48.51078549, -24.39968368], [-48.51129161, -24.40011081], [-48.51127821, -24.40024147], [-48.51119238, -24.40029602], [-48.51102986, -24.40034029], [-48.51051848, -24.40038242], [-48.51028086, -24.40063757], [-48.51025921, -24.4007365], [-48.51022616, -24.40076303], [-48.51022141, -24.4010554], [-48.51033044, -24.40127563], [-48.51055751, -24.40160882], [-48.51063281, -24.40178968], [-48.51069768, -24.40184942], [-48.51120113, -24.40231262], [-48.51133402, -24.40237167], [-48.51155713, -24.40240422], [-48.51192538, -24.40237326], [-48.51239902, -24.40214547], [-48.51301793, -24.40194804], [-48.51362891, -24.40180373], [-48.51421365, -24.40179077], [-48.5145067, -24.40182537], [-48.51555146, -24.4021792], [-48.51585128, -24.40216968], [-48.51600292, -24.40212703], [-48.51661553, -24.4017986], [-48.51693244, -24.40172167], [-48.51708615, -24.40172419], [-48.5172311, -24.4017717], [-48.51757627, -24.40201384], [-48.51803879, -24.40250523], [-48.51815521, -24.40270121], [-48.51809998, -24.40290429], [-48.5178842, -24.40310204], [-48.51751887, -24.40333614], [-48.51738198, -24.40348103], [-48.51731998, -24.40372823], [-48.51739769, -24.40388746], [-48.51769882, -24.40421464], [-48.51818303, -24.40455474], [-48.51890976, -24.40474177], [-48.51913742, -24.40484389], [-48.51927855, -24.40503665], [-48.51932262, -24.4052531], [-48.51930233, -24.40558493], [-48.51916266, -24.40587239], [-48.51866402, -24.40637058], [-48.51840177, -24.40657479], [-48.51830035, -24.40662006], [-48.51826575, -24.40667545], [-48.51783048, -24.40695715], [-48.51779871, -24.40701891], [-48.51782827, -24.40712049], [-48.51798316, -24.4072142], [-48.5182834, -24.40733556], [-48.51845424, -24.40736995], [-48.5186378, -24.40735852], [-48.51883333, -24.40728952], [-48.52016191, -24.40664065], [-48.52058125, -24.40651844], [-48.52086854, -24.40649517], [-48.52090118, -24.40659048], [-48.52078988, -24.40719161], [-48.52079808, -24.40757897], [-48.52079964, -24.4076503], [-48.52083483, -24.40781696], [-48.52120482, -24.4085054], [-48.52148435, -24.40918243], [-48.52160546, -24.40939112], [-48.52207649, -24.41000359], [-48.52280231, -24.41069334], [-48.52292886, -24.41087594], [-48.52296859, -24.41106253], [-48.52287064, -24.41133352], [-48.52262829, -24.41162922], [-48.52176584, -24.41223159], [-48.52158608, -24.41265378], [-48.52156593, -24.41302894], [-48.52154858, -24.41305934], [-48.52145888, -24.41321042], [-48.52141238, -24.41321958], [-48.52115793, -24.41357917], [-48.52105949, -24.41397561], [-48.52092443, -24.4141783], [-48.52071699, -24.41430126], [-48.52041551, -24.41439381], [-48.51956243, -24.41451522], [-48.51927077, -24.41466027], [-48.51913574, -24.4148106], [-48.51906397, -24.41500258], [-48.51913653, -24.41522401], [-48.51925157, -24.41539017], [-48.51970083, -24.41565479], [-48.52078885, -24.41602103], [-48.52102176, -24.41620898], [-48.52108577, -24.41636348], [-48.52104534, -24.41661645], [-48.52098368, -24.41664432], [-48.52080157, -24.4168327], [-48.52044866, -24.41703451], [-48.52037215, -24.41746923], [-48.52022289, -24.41764099], [-48.51998189, -24.41781666], [-48.51934111, -24.41812026], [-48.5185838, -24.41838404], [-48.51736345, -24.41873409], [-48.51681168, -24.41892342], [-48.5168045, -24.41891285], [-48.51625896, -24.4190984], [-48.51613788, -24.41914355], [-48.51528072, -24.41927454], [-48.51494025, -24.41923846], [-48.51462043, -24.41916626], [-48.51431568, -24.41897671], [-48.51372343, -24.41841252], [-48.51333578, -24.41786186], [-48.51284644, -24.41727961], [-48.51266155, -24.41695011], [-48.51253149, -24.41650324], [-48.51217769, -24.41555084], [-48.51210867, -24.41546508], [-48.51200729, -24.41533418], [-48.51195738, -24.41531162], [-48.5119469, -24.41524842], [-48.51184213, -24.41516718], [-48.51161136, -24.41506789], [-48.51115905, -24.41495056], [-48.51062016, -24.41464365], [-48.51030558, -24.41454437], [-48.51012164, -24.41451729], [-48.50984497, -24.41460759], [-48.50955968, -24.41482427], [-48.509279, -24.41486491], [-48.50893115, -24.41480625], [-48.50847422, -24.41463926], [-48.50816085, -24.41456717], [-48.50806233, -24.41455738], [-48.50758038, -24.41450852], [-48.50715398, -24.41459431], [-48.50748507, -24.41479427], [-48.50859751, -24.41563739], [-48.50917064, -24.41608704], [-48.5096401, -24.4166624], [-48.51012075, -24.41877119], [-48.50986346, -24.42010664], [-48.50970355, -24.4214163], [-48.51023068, -24.42202411], [-48.51174881, -24.42267465], [-48.51246298, -24.42395661], [-48.51274098, -24.4253598], [-48.5128968, -24.42676096], [-48.51323367, -24.42827701], [-48.51347415, -24.42888909], [-48.51430028, -24.42997287], [-48.51570189, -24.43140247], [-48.51679798, -24.43231477], [-48.5171905, -24.43294677], [-48.51713078, -24.4340579], [-48.51701438, -24.43483214], [-48.51709444, -24.43550132], [-48.51744126, -24.43651401], [-48.51814911, -24.43781236], [-48.5183825, -24.43837562], [-48.51866276, -24.43966697], [-48.5186352, -24.44063697], [-48.5186413, -24.44123853], [-48.51902106, -24.4421492], [-48.51975339, -24.4432653], [-48.52075573, -24.44462628], [-48.5211005, -24.44486356], [-48.52204401, -24.4459048], [-48.52291907, -24.44700954], [-48.52394405, -24.44874304], [-48.52481118, -24.44981058], [-48.52508281, -24.45070845], [-48.52468874, -24.45114318], [-48.52406264, -24.45136001], [-48.52392834, -24.45182561], [-48.52393651, -24.45279647], [-48.52449267, -24.4537761], [-48.52504175, -24.45442915], [-48.5256083, -24.45541865], [-48.52613947, -24.45603139], [-48.52681267, -24.45697541], [-48.52741505, -24.4578183], [-48.52804798, -24.45896157], [-48.52867376, -24.46047127], [-48.52898113, -24.46150925], [-48.5290747, -24.46231049], [-48.52876836, -24.46284864], [-48.52887441, -24.46357339], [-48.52937424, -24.4637567], [-48.52963832, -24.46402598], [-48.52980596, -24.46496628], [-48.53049529, -24.46599906], [-48.53142723, -24.46674736], [-48.53323863, -24.46779123], [-48.53365742, -24.46838358], [-48.53361101, -24.46897333], [-48.5340467, -24.46985113], [-48.53466399, -24.47176859], [-48.53546562, -24.47337476], [-48.53754395, -24.47522653], [-48.53788655, -24.47573056], [-48.53762234, -24.47613674], [-48.53748962, -24.47657585], [-48.5374184, -24.47762449], [-48.53712779, -24.47831481], [-48.53695245, -24.4787043], [-48.53623882, -24.47952134], [-48.5352808, -24.48010549], [-48.53456601, -24.48127033], [-48.53358138, -24.48241513], [-48.53299371, -24.4828958], [-48.53189319, -24.48391542], [-48.53169088, -24.4843769], [-48.5317348, -24.48499118], [-48.53181124, -24.48568422], [-48.53189255, -24.48608606], [-48.53221702, -24.48644016], [-48.53335019, -24.48708706], [-48.53407082, -24.48742701], [-48.53504148, -24.48793978], [-48.53663472, -24.48894481], [-48.53770033, -24.48999313], [-48.53824756, -24.49102557], [-48.53827126, -24.49190431], [-48.53816108, -24.49285356], [-48.53752692, -24.49373756], [-48.53683242, -24.49455028], [-48.53658521, -24.49528942], [-48.53653298, -24.49583894], [-48.53661908, -24.49668855], [-48.53674718, -24.49829216], [-48.53724575, -24.49885938], [-48.53850397, -24.49965252], [-48.53989581, -24.50019902], [-48.54079356, -24.50039699], [-48.54139804, -24.50095684], [-48.54167007, -24.50153015], [-48.54149776, -24.50245131], [-48.54169708, -24.50324027], [-48.54246801, -24.50384952], [-48.54322035, -24.50426181], [-48.54322859, -24.50505199], [-48.54289376, -24.50566433], [-48.54288483, -24.50598374], [-48.54311111, -24.50664524], [-48.54399546, -24.50788483], [-48.54531226, -24.50839905], [-48.54604826, -24.50875091], [-48.54649747, -24.50980577], [-48.54651595, -24.51087289], [-48.54685731, -24.511882], [-48.54667213, -24.51248225], [-48.54671209, -24.51289287], [-48.54682741, -24.51325043], [-48.54741842, -24.51383217], [-48.54801622, -24.51401116], [-48.54865039, -24.51469854], [-48.54896309, -24.51576299], [-48.54944777, -24.51650998], [-48.55041927, -24.51707199], [-48.55129412, -24.51806792], [-48.55189605, -24.51930483], [-48.55237245, -24.52072572], [-48.55308301, -24.52105463], [-48.55358994, -24.52114374], [-48.5540583, -24.52144289], [-48.55405484, -24.52211033], [-48.55389398, -24.52241427], [-48.55378389, -24.52277953], [-48.55377325, -24.5231922], [-48.55382272, -24.52345964], [-48.55389702, -24.52421658], [-48.55487983, -24.52543749], [-48.55605698, -24.52608067], [-48.55709331, -24.52682958], [-48.55736626, -24.52773806], [-48.55734409, -24.52888302], [-48.55758258, -24.5298899], [-48.55825717, -24.53028371], [-48.5803341, -24.53045561], [-48.58039387, -24.53037434], [-48.58124523, -24.52980522], [-48.58215786, -24.52909614], [-48.58232707, -24.52896516], [-48.5826901, -24.52860841], [-48.58280719, -24.52846844], [-48.58290677, -24.52843228], [-48.58302209, -24.5284277], [-48.58313746, -24.52849084], [-48.58348424, -24.52881112], [-48.58354284, -24.52882463], [-48.58365782, -24.52876589], [-48.5839087, -24.52855814], [-48.58409786, -24.52828724], [-48.5841902, -24.52800284], [-48.58417072, -24.52791709], [-48.58414681, -24.52765983], [-48.58398684, -24.52725821], [-48.58400889, -24.52701898], [-48.58416827, -24.52694217], [-48.58431197, -24.52696015], [-48.58454422, -24.52705933], [-48.58493613, -24.52703656], [-48.58504557, -24.52700039], [-48.58520457, -24.5268288], [-48.58517328, -24.5260886], [-48.58525322, -24.52522196], [-48.585128, -24.52468943], [-48.58486066, -24.52418405], [-48.58482388, -24.52403513], [-48.58489555, -24.52375525], [-48.58503813, -24.5234618], [-48.58526219, -24.52279368], [-48.58526933, -24.5223694], [-48.58526475, -24.52233901], [-48.58522814, -24.5220941], [-48.58507095, -24.52169248], [-48.58435133, -24.52078111], [-48.58425413, -24.5206593], [-48.58393521, -24.520005], [-48.58377733, -24.51948151], [-48.58375892, -24.51925756], [-48.58375883, -24.51925654], [-48.5837582, -24.51924894], [-48.58374378, -24.51907531], [-48.58365938, -24.51869621], [-48.58336465, -24.51774852], [-48.58316651, -24.51743719], [-48.58308198, -24.51735206], [-48.58342899, -24.51730279], [-48.58443671, -24.51727704], [-48.58543879, -24.51754441], [-48.5863036, -24.51780957], [-48.58744462, -24.51799538], [-48.58817932, -24.51788146], [-48.58928977, -24.51727091], [-48.59007983, -24.51665523], [-48.59070036, -24.51532477], [-48.59157663, -24.51378895], [-48.59173391, -24.51274428], [-48.59189437, -24.51153212], [-48.59251408, -24.51024351], [-48.59316517, -24.50970937], [-48.59426915, -24.50943375], [-48.59579216, -24.50878785], [-48.59644007, -24.50842117], [-48.59690568, -24.50800973], [-48.59683247, -24.50704516], [-48.59680345, -24.50616507], [-48.59727463, -24.50546048], [-48.59811034, -24.50484548], [-48.59926957, -24.50406808], [-48.59982351, -24.50382556], [-48.60023062, -24.50408337], [-48.60080487, -24.50518156], [-48.60170346, -24.50607548], [-48.60287985, -24.50680626], [-48.60382741, -24.5075334], [-48.60478516, -24.5089309], [-48.60545418, -24.50986304], [-48.60639545, -24.51092515], [-48.60738328, -24.51194612], [-48.60910103, -24.51310432], [-48.61045821, -24.51396359], [-48.61145006, -24.51477513], [-48.61254059, -24.51521128], [-48.61391839, -24.51498176], [-48.61576336, -24.51425693], [-48.61694759, -24.51404896], [-48.61768801, -24.51416171], [-48.61836427, -24.51471692], [-48.61899805, -24.51578892], [-48.61979787, -24.51628145], [-48.62077328, -24.51685769], [-48.62141971, -24.51753808], [-48.62198539, -24.51861934], [-48.62236924, -24.51963068], [-48.62268175, -24.52054039], [-48.62277583, -24.52137964], [-48.62271449, -24.52189574], [-48.622597, -24.52255326], [-48.62242502, -24.52339701], [-48.62272346, -24.52416014], [-48.62308296, -24.5251041], [-48.62347643, -24.52599496], [-48.62378959, -24.52648243], [-48.6241871, -24.5271589], [-48.62429369, -24.52772356], [-48.62416238, -24.52847211], [-48.62414573, -24.5293565], [-48.62443163, -24.52973633], [-48.62516149, -24.52988187], [-48.62613127, -24.5297363], [-48.62677274, -24.52990724], [-48.62714502, -24.53036885], [-48.6272794, -24.53101434], [-48.62730791, -24.53152415], [-48.62743966, -24.53199805], [-48.62776134, -24.53234626], [-48.62822805, -24.53246084], [-48.62890491, -24.53262161], [-48.62965127, -24.53282637], [-48.630274, -24.53337232], [-48.63070923, -24.53391532], [-48.63106694, -24.53484313], [-48.63126334, -24.53561831], [-48.63134585, -24.5362201], [-48.63149344, -24.53647549], [-48.63182932, -24.53656655], [-48.63250337, -24.5366286], [-48.6331561, -24.5368276], [-48.63345288, -24.53700383], [-48.63346678, -24.5372614], [-48.63312028, -24.53773636], [-48.6327398, -24.53802205], [-48.63220643, -24.53845977], [-48.63216247, -24.53880222], [-48.63256951, -24.53910029], [-48.63347099, -24.53934444], [-48.63377938, -24.53946802], [-48.63401584, -24.53965523], [-48.63408028, -24.5399546], [-48.6340261, -24.54022342], [-48.63338379, -24.54061268], [-48.63290018, -24.54100443], [-48.63260745, -24.54179852], [-48.63298652, -24.54274839], [-48.63382731, -24.54341507], [-48.63436714, -24.54425854], [-48.63478112, -24.5454631], [-48.63499741, -24.5466282], [-48.63557011, -24.54783524], [-48.63621705, -24.54882006], [-48.63649652, -24.54909335], [-48.63728297, -24.54961286], [-48.6381076, -24.54988628], [-48.6390249, -24.55007493], [-48.63990557, -24.55052438], [-48.64062642, -24.5510294], [-48.64102932, -24.55155849], [-48.64140318, -24.55194191], [-48.64194012, -24.55209553], [-48.64251314, -24.55201737], [-48.64369474, -24.55165828], [-48.64526987, -24.55147961], [-48.64618991, -24.55152303], [-48.64667352, -24.55173024], [-48.64687689, -24.55214365], [-48.64708391, -24.5529601], [-48.64751587, -24.55363486], [-48.64803871, -24.55385797], [-48.64868827, -24.55376934], [-48.65009208, -24.55341368], [-48.6510767, -24.55339999], [-48.65264136, -24.55324707], [-48.65352104, -24.55343808], [-48.65449703, -24.55388893], [-48.65560939, -24.5546904], [-48.65727296, -24.55573282], [-48.65908726, -24.5572132], [-48.66049049, -24.55860005], [-48.66109607, -24.55933556], [-48.66168362, -24.56018695], [-48.66214043, -24.5612396], [-48.66237394, -24.56206971], [-48.66277858, -24.56278883], [-48.66314759, -24.56407449], [-48.66319954, -24.56506326], [-48.6628945, -24.56638874], [-48.66307373, -24.56724607], [-48.6633833, -24.56785181], [-48.66375987, -24.56810318], [-48.66383999, -24.56803992], [-48.66387106, -24.56796767], [-48.66382314, -24.56762019], [-48.66386691, -24.5673358], [-48.66409142, -24.56705123], [-48.66441098, -24.56680268], [-48.6651813, -24.56640472], [-48.66579295, -24.56615135], [-48.66638078, -24.56584836], [-48.66668402, -24.56563141], [-48.66693777, -24.56529716], [-48.66726623, -24.56451601], [-48.66754837, -24.56419527], [-48.66817903, -24.56361691], [-48.66830622, -24.56345881], [-48.66838344, -24.56329625], [-48.66839294, -24.5632511], [-48.66839632, -24.56323756], [-48.66843403, -24.56305699], [-48.66832647, -24.56236655], [-48.66834944, -24.5619874], [-48.66852425, -24.5611748], [-48.66877526, -24.56063294], [-48.66886214, -24.56030337], [-48.66914242, -24.55924243], [-48.66955521, -24.55858756], [-48.66966683, -24.55831212], [-48.66978794, -24.55773879], [-48.66994948, -24.5574272], [-48.67006744, -24.55729619], [-48.67049379, -24.55713778], [-48.67066802, -24.55711051], [-48.67085927, -24.55713288], [-48.67098147, -24.55718692], [-48.67138092, -24.55746633], [-48.67177592, -24.55789018], [-48.67202662, -24.55809302], [-48.6722948, -24.55821911], [-48.67265648, -24.558142], [-48.67294744, -24.55798824], [-48.67328448, -24.55769], [-48.6733719, -24.5575545], [-48.67341869, -24.55748224], [-48.6733541, -24.55713477], [-48.6732595, -24.55696336], [-48.67305623, -24.5567018], [-48.67269145, -24.5560342], [-48.67259446, -24.55518578], [-48.67243673, -24.55459469], [-48.67223733, -24.55422028], [-48.67210426, -24.55410307], [-48.67183053, -24.55397247], [-48.67091221, -24.55383803], [-48.67059105, -24.55375261], [-48.67047377, -24.55368954], [-48.66999434, -24.55356818], [-48.66985524, -24.55356381], [-48.66954233, -24.55366794], [-48.66931159, -24.5538758], [-48.66911712, -24.55399335], [-48.66878627, -24.55405688], [-48.66843591, -24.55405724], [-48.66841339, -24.55404824], [-48.66754495, -24.5542855], [-48.66704359, -24.55333016], [-48.66675529, -24.55309927], [-48.66575906, -24.55298351], [-48.66527642, -24.55198552], [-48.66646812, -24.55119729], [-48.66860146, -24.55071584], [-48.67052999, -24.54908478], [-48.67075756, -24.54706758], [-48.67124028, -24.54646151], [-48.67202554, -24.54631457], [-48.67165105, -24.54686877], [-48.67248509, -24.54824679], [-48.67376813, -24.54826499], [-48.67551606, -24.54770797], [-48.67729451, -24.54703758], [-48.67897689, -24.54626443], [-48.6807131, -24.54485197], [-48.68126693, -24.54516764], [-48.68132647, -24.5459876], [-48.68199597, -24.54610028], [-48.68277925, -24.54611233], [-48.68363525, -24.54622787], [-48.68433579, -24.54668229], [-48.68477085, -24.54737151], [-48.68546513, -24.5481671], [-48.68654745, -24.54814959], [-48.68783417, -24.54919316], [-48.68716377, -24.55116224], [-48.68505763, -24.55133812], [-48.68323575, -24.55183583], [-48.68290396, -24.55272748], [-48.68254524, -24.55273253], [-48.6825463, -24.55273773], [-48.68258477, -24.55289718], [-48.68259965, -24.55295883], [-48.68268162, -24.55337397], [-48.68283736, -24.55359495], [-48.68300458, -24.55372075], [-48.6833795, -24.55388737], [-48.68353177, -24.55395525], [-48.68392301, -24.55408119], [-48.68467687, -24.55414804], [-48.68532225, -24.55404801], [-48.68609549, -24.55385757], [-48.68641003, -24.55382562], [-48.68702866, -24.55382989], [-48.68750783, -24.55413555], [-48.68792229, -24.55462605], [-48.68878424, -24.5554236], [-48.68966552, -24.55605456], [-48.69053955, -24.55683352], [-48.69105078, -24.55756732], [-48.69162754, -24.55937139], [-48.69220751, -24.56100121], [-48.69217825, -24.56155851], [-48.69198225, -24.56234737], [-48.69201752, -24.56302995], [-48.69208872, -24.56351983], [-48.6920502, -24.56374295], [-48.69190301, -24.5638675], [-48.69166702, -24.56387132], [-48.69098983, -24.5638484], [-48.69052031, -24.56385499], [-48.69025933, -24.56398599], [-48.68993138, -24.56457422], [-48.68935434, -24.56542896], [-48.6888883, -24.56573991], [-48.68832665, -24.56578925], [-48.6879282, -24.56612805], [-48.6875851, -24.56704485], [-48.68734586, -24.56744361], [-48.68673601, -24.56779296], [-48.68546078, -24.56818689], [-48.68432321, -24.56880085], [-48.68345052, -24.56945564], [-48.6828004, -24.56974649], [-48.68143914, -24.56986204], [-48.68041373, -24.56942614], [-48.67868087, -24.56936899], [-48.67659105, -24.56850919], [-48.67583389, -24.56859605], [-48.67529923, -24.56895746], [-48.6746402, -24.56940835], [-48.67365357, -24.56973506], [-48.67301001, -24.57015628], [-48.67199394, -24.57072101], [-48.67167688, -24.57102001], [-48.67166667, -24.57144361], [-48.6720922, -24.57214705], [-48.67369367, -24.57377834], [-48.67431074, -24.57456117], [-48.67530468, -24.57545549], [-48.67622972, -24.57607829], [-48.67731043, -24.57718424], [-48.67817623, -24.5782606], [-48.67914994, -24.57949047], [-48.67979628, -24.5804622], [-48.68049425, -24.5816372], [-48.68146429, -24.5826422], [-48.68283195, -24.58395106], [-48.68427987, -24.58498573], [-48.68575456, -24.58607142], [-48.68739064, -24.58741268], [-48.6891356, -24.58885683], [-48.69000808, -24.58957889], [-48.6909378, -24.5902006], [-48.69203169, -24.59092605], [-48.69290699, -24.5914963], [-48.69388466, -24.59252364], [-48.69452931, -24.59359654], [-48.69517585, -24.59456823], [-48.69538056, -24.59548252], [-48.69514804, -24.5960864], [-48.69358346, -24.59687234], [-48.69119891, -24.59708887], [-48.68931896, -24.59695878], [-48.68793991, -24.59668449], [-48.68456094, -24.59703365], [-48.6830287, -24.59731762], [-48.68132413, -24.59668393], [-48.67973495, -24.59579888], [-48.67822573, -24.59481142], [-48.67673296, -24.59347472], [-48.67597122, -24.59275429], [-48.67487457, -24.59214369], [-48.67376142, -24.59204588], [-48.67258458, -24.59170088], [-48.67157966, -24.59086532], [-48.67003804, -24.59028345], [-48.66922476, -24.5893597], [-48.66797533, -24.58807488], [-48.66642531, -24.58658291], [-48.66516746, -24.58575349], [-48.66374643, -24.58476969], [-48.66286754, -24.58440172], [-48.66197832, -24.58459037], [-48.66103192, -24.58487939], [-48.65959305, -24.58485702], [-48.65815608, -24.58473344], [-48.65700146, -24.58431053], [-48.65596319, -24.5835857], [-48.65524662, -24.58342267], [-48.6536276, -24.58415672], [-48.65239502, -24.5849474], [-48.65094011, -24.58578523], [-48.64938679, -24.58596346], [-48.64793754, -24.58649761], [-48.6463414, -24.58748503], [-48.64286772, -24.58986116], [-48.64013504, -24.59283111], [-48.63951044, -24.59471501], [-48.63964218, -24.59639019], [-48.64828652, -24.61198959], [-48.65016648, -24.61222806], [-48.65146591, -24.61213167], [-48.65284532, -24.61230878], [-48.6539605, -24.61285484], [-48.65537528, -24.61364402], [-48.65586059, -24.61420013], [-48.65640529, -24.61482432], [-48.65748784, -24.61615725], [-48.65788841, -24.61659698], [-48.65834897, -24.61710255], [-48.65884437, -24.61764631], [-48.65970573, -24.61847949], [-48.6603097, -24.61929013], [-48.66074402, -24.61995811], [-48.66133119, -24.62041455], [-48.66246935, -24.62067617], [-48.66326602, -24.62105593], [-48.66380951, -24.62152105], [-48.66441063, -24.62203548], [-48.66566788, -24.62291553], [-48.66656811, -24.62363817], [-48.66782443, -24.62456879], [-48.66878239, -24.62533562], [-48.6695604, -24.62585562], [-48.67023115, -24.62617528], [-48.67122748, -24.62662823], [-48.67215182, -24.62711618], [-48.67296815, -24.62788812], [-48.6736719, -24.62875951], [-48.67453799, -24.62983592], [-48.67505473, -24.63068152], [-48.67594929, -24.63137631], [-48.67726299, -24.63220651], [-48.67863302, -24.63298696], [-48.67920763, -24.63323315], [-48.68022638, -24.63366961], [-48.68178553, -24.63470605], [-48.68309373, -24.63583984], [-48.6837855, -24.63649384], [-48.68440006, -24.63707482], [-48.68532445, -24.63800022], [-48.6858609, -24.63886119], [-48.68656802, -24.63983899], [-48.6865939, -24.63986157], [-48.68731659, -24.64069225], [-48.68862998, -24.64152947], [-48.68969497, -24.64241291]]]]}}]}