{"type": "FeatureCollection", "features": [{"type": "Feature", "properties": {"name": "Parque Estadual Prelado"}, "geometry": {"type": "MultiPolygon", "coordinates": [[[[-47.30163328, -24.60574928], [-47.30163794, -24.60574519], [-47.30166745, -24.60571901], [-47.30206029, -24.60531907], [-47.30209594, -24.60529507], [-47.30232735, -24.605046], [-47.30244207, -24.60467866], [-47.30249887, -24.60457756], [-47.30261598, -24.60441693], [-47.30264985, -24.6043794], [-47.30308936, -24.60411811], [-47.30326927, -24.60391406], [-47.30339629, -24.60341023], [-47.30339997, -24.60339573], [-47.30357211, -24.60303744], [-47.30402154, -24.60250971], [-47.30430937, -24.6017299], [-47.30442435, -24.60159274], [-47.30467497, -24.60142281], [-47.30505361, -24.60096567], [-47.30532353, -24.60017891], [-47.30592547, -24.5993004], [-47.30620686, -24.59849361], [-47.3064342, -24.59818502], [-47.3066563, -24.59796768], [-47.30727912, -24.59763678], [-47.30743347, -24.59749359], [-47.30759914, -24.59721393], [-47.307861, -24.59642007], [-47.30800967, -24.59623635], [-47.30822346, -24.59605073], [-47.3085175, -24.59588013], [-47.30916106, -24.59501271], [-47.30944621, -24.59473482], [-47.3097897, -24.59446236], [-47.31022111, -24.59403148], [-47.31078038, -24.59325201], [-47.311174, -24.59296794], [-47.31137538, -24.59291339], [-47.31219856, -24.5928502], [-47.31259571, -24.59275834], [-47.31300066, -24.59255353], [-47.31314774, -24.59244565], [-47.31327615, -24.59228842], [-47.31339253, -24.59206728], [-47.31350472, -24.59172615], [-47.31355537, -24.5916277], [-47.31366141, -24.59142158], [-47.31376779, -24.5912148], [-47.3138515, -24.59088133], [-47.31384546, -24.59055285], [-47.3137838, -24.59020626], [-47.31388146, -24.58950429], [-47.31371741, -24.58874314], [-47.31372676, -24.58839276], [-47.31386563, -24.58810628], [-47.31448513, -24.58759848], [-47.31454906, -24.58747835], [-47.31456936, -24.58740131], [-47.31464419, -24.58712213], [-47.31461973, -24.58665131], [-47.31438285, -24.5860628], [-47.31418574, -24.5853825], [-47.31394285, -24.5850044], [-47.31343281, -24.58448508], [-47.31340232, -24.58441958], [-47.31272159, -24.58400411], [-47.31260686, -24.58374945], [-47.31231448, -24.58341724], [-47.31215306, -24.58312003], [-47.31192039, -24.58242549], [-47.31191422, -24.58240706], [-47.31187629, -24.58229382], [-47.31163386, -24.58156367], [-47.31120577, -24.58056014], [-47.31090263, -24.58007103], [-47.31060531, -24.579469], [-47.31025289, -24.57855367], [-47.30980952, -24.57714598], [-47.30960463, -24.57668514], [-47.3092194, -24.57575588], [-47.3090422, -24.5754589], [-47.30876291, -24.57497754], [-47.30868659, -24.57479908], [-47.30867564, -24.57468641], [-47.30871373, -24.57407201], [-47.30864326, -24.57378152], [-47.30847341, -24.57345465], [-47.30824703, -24.57316655], [-47.30771412, -24.57268818], [-47.30716749, -24.57232194], [-47.30661544, -24.57209119], [-47.3058817, -24.57180273], [-47.30562509, -24.57164237], [-47.30548238, -24.57144958], [-47.30533071, -24.57119825], [-47.30527835, -24.57103386], [-47.30525746, -24.57080941], [-47.30515425, -24.57007801], [-47.30507491, -24.56978766], [-47.30498017, -24.56951921], [-47.30485289, -24.56925216], [-47.30468511, -24.56903718], [-47.30415224, -24.56855879], [-47.30405237, -24.56844116], [-47.30401774, -24.56832886], [-47.30400671, -24.56815752], [-47.30400534, -24.56808261], [-47.30412017, -24.56766923], [-47.30435913, -24.5668649], [-47.30446668, -24.56618836], [-47.30448033, -24.56604038], [-47.30461266, -24.56526411], [-47.30469324, -24.56479142], [-47.30457907, -24.56491354], [-47.30422759, -24.56517799], [-47.30357595, -24.56549036], [-47.30338362, -24.56555197], [-47.30268796, -24.56593993], [-47.3020293, -24.5664465], [-47.30187406, -24.5665659], [-47.30148685, -24.56686368], [-47.3006957, -24.56742821], [-47.30011769, -24.56766632], [-47.29978822, -24.56773093], [-47.29945384, -24.56774326], [-47.29909886, -24.56770896], [-47.29868526, -24.56749051], [-47.2982576, -24.56715131], [-47.29800624, -24.56689878], [-47.29756055, -24.56632786], [-47.29717465, -24.5656802], [-47.29695521, -24.56544614], [-47.29674132, -24.56529956], [-47.29588264, -24.56497595], [-47.29553654, -24.56472396], [-47.29541719, -24.564566], [-47.29525178, -24.56410093], [-47.29517461, -24.5634946], [-47.29508738, -24.56314929], [-47.29498273, -24.56298479], [-47.29479216, -24.56281799], [-47.29451834, -24.56274092], [-47.2941176, -24.56273981], [-47.29334547, -24.56288606], [-47.29256641, -24.563194], [-47.29176554, -24.56366024], [-47.29146975, -24.5637857], [-47.29117216, -24.56386696], [-47.29057588, -24.56391394], [-47.29021485, -24.56391344], [-47.29016218, -24.56391336], [-47.28889101, -24.56391157], [-47.28801966, -24.56403042], [-47.28744438, -24.56420165], [-47.28638999, -24.56467712], [-47.28598692, -24.56492877], [-47.28534696, -24.56518041], [-47.28467027, -24.56525747], [-47.28387686, -24.56521173], [-47.28339705, -24.56509624], [-47.28206061, -24.56438712], [-47.28177076, -24.56429673], [-47.28064254, -24.56407551], [-47.2801871, -24.56394248], [-47.27971837, -24.56373023], [-47.27911042, -24.56340543], [-47.27854231, -24.56321001], [-47.27786999, -24.56314616], [-47.27766841, -24.5630788], [-47.27749783, -24.56297938], [-47.2772191, -24.56273896], [-47.27710316, -24.56271363], [-47.27699215, -24.56274239], [-47.27683625, -24.56279981], [-47.27622834, -24.56313216], [-47.27565427, -24.56337103], [-47.27447571, -24.56358652], [-47.273631, -24.56365072], [-47.27308668, -24.56362464], [-47.27284681, -24.56351361], [-47.2726723, -24.56336008], [-47.27256303, -24.56321188], [-47.27248124, -24.56300008], [-47.27226694, -24.56261064], [-47.27217369, -24.5625299], [-47.27202023, -24.56250333], [-47.27120123, -24.56262491], [-47.27019667, -24.56291086], [-47.26925468, -24.5631092], [-47.26826464, -24.56354387], [-47.26755697, -24.56365472], [-47.2673031, -24.5636432], [-47.26651402, -24.56339871], [-47.26600021, -24.56331256], [-47.26549045, -24.56334189], [-47.26449052, -24.56350226], [-47.26391607, -24.56355693], [-47.26330045, -24.56368263], [-47.26311404, -24.56374501], [-47.26231117, -24.56416148], [-47.26208958, -24.56424335], [-47.26177584, -24.56430583], [-47.26078513, -24.5643207], [-47.26035074, -24.56437055], [-47.2596042, -24.56457132], [-47.25922595, -24.56472414], [-47.25907923, -24.56474349], [-47.25878183, -24.56489148], [-47.25841697, -24.56513075], [-47.25696377, -24.56638201], [-47.25639727, -24.56666131], [-47.25575459, -24.56687585], [-47.25549779, -24.56692122], [-47.25495211, -24.56709549], [-47.25441944, -24.56739052], [-47.2539906, -24.5677508], [-47.25365393, -24.56818733], [-47.25333133, -24.56896939], [-47.25296965, -24.57004992], [-47.25259321, -24.57069195], [-47.25228919, -24.57107835], [-47.25198436, -24.57136455], [-47.25153622, -24.57164025], [-47.25088673, -24.5718621], [-47.25050919, -24.57190807], [-47.25035472, -24.57186373], [-47.25015307, -24.57184779], [-47.24947117, -24.57185798], [-47.24920524, -24.57189083], [-47.24832998, -24.57212965], [-47.24831625, -24.5721334], [-47.24828797, -24.57214597], [-47.24808513, -24.57223615], [-47.24710702, -24.57279508], [-47.2466978, -24.57292937], [-47.24625982, -24.57294583], [-47.24550838, -24.57282073], [-47.24518457, -24.57281833], [-47.24494263, -24.57286798], [-47.24447969, -24.57303466], [-47.2438477, -24.57340877], [-47.24376692, -24.57347564], [-47.24373735, -24.57350011], [-47.24347902, -24.57371396], [-47.24300063, -24.57395579], [-47.24261338, -24.57409681], [-47.24263859, -24.5744127], [-47.24264746, -24.57441151], [-47.24279894, -24.57438127], [-47.24301, -24.57431583], [-47.24330224, -24.5741526], [-47.2435413, -24.57399649], [-47.24393789, -24.57370622], [-47.24429809, -24.57347969], [-47.24455392, -24.57337839], [-47.24478719, -24.57334061], [-47.24493929, -24.57334556], [-47.24519008, -24.57340411], [-47.2454643, -24.57350383], [-47.24572506, -24.57367958], [-47.24595019, -24.57384954], [-47.24624736, -24.57407349], [-47.24656946, -24.57425645], [-47.24694952, -24.57436813], [-47.2476275, -24.57458008], [-47.24824478, -24.57476495], [-47.24873253, -24.5749373], [-47.24930615, -24.5752194], [-47.24971855, -24.57542809], [-47.25007571, -24.5756562], [-47.25035475, -24.57584285], [-47.25113679, -24.5761657], [-47.2511819, -24.57618433], [-47.25165253, -24.57637861], [-47.25209197, -24.57655348], [-47.2523306, -24.57665011], [-47.25269993, -24.57687839], [-47.2535595, -24.57747304], [-47.25426986, -24.57794806], [-47.25495582, -24.57838373], [-47.25573355, -24.57892724], [-47.255858, -24.57898585], [-47.25596765, -24.5790456], [-47.25645226, -24.57937143], [-47.25683201, -24.57963023], [-47.25713803, -24.57979535], [-47.25749819, -24.58006256], [-47.25831211, -24.58047553], [-47.25864713, -24.58066188], [-47.25900211, -24.58085966], [-47.25938645, -24.58115359], [-47.25988135, -24.58150182], [-47.26041445, -24.5818883], [-47.26072586, -24.5820786], [-47.2611757, -24.58233634], [-47.26155431, -24.58253015], [-47.26205599, -24.58276092], [-47.26310216, -24.58318752], [-47.26336465, -24.5832919], [-47.2636425, -24.58342674], [-47.26417797, -24.58366963], [-47.26449903, -24.58384715], [-47.26490082, -24.58406678], [-47.26533291, -24.58433809], [-47.26539704, -24.58437835], [-47.26558177, -24.58449434], [-47.26627165, -24.58486941], [-47.26669859, -24.58511483], [-47.2671061, -24.5853777], [-47.26758653, -24.58574327], [-47.26824647, -24.58631828], [-47.26935001, -24.58702199], [-47.2706051, -24.58775321], [-47.27141909, -24.58816519], [-47.2720165, -24.58844684], [-47.27259701, -24.58877659], [-47.27384294, -24.58959998], [-47.27486591, -24.59026696], [-47.27564077, -24.59069756], [-47.27629373, -24.59104696], [-47.27733178, -24.59167307], [-47.27826309, -24.5922376], [-47.27941121, -24.59294417], [-47.2801583, -24.59347447], [-47.28064556, -24.59372255], [-47.28164901, -24.59412618], [-47.28244718, -24.59447877], [-47.28358901, -24.59510777], [-47.28583165, -24.59628061], [-47.28721928, -24.59701508], [-47.28784236, -24.59729266], [-47.2883201, -24.59755891], [-47.28872776, -24.59782532], [-47.28907161, -24.59805749], [-47.28966347, -24.59857205], [-47.29030526, -24.59911743], [-47.29071442, -24.5994118], [-47.29110261, -24.59969294], [-47.29183282, -24.60010518], [-47.29329812, -24.60098012], [-47.29441881, -24.60152721], [-47.29555475, -24.60209753], [-47.29555977, -24.60210196], [-47.29567568, -24.60215879], [-47.29612762, -24.60238035], [-47.29620831, -24.60241974], [-47.2969778, -24.60287288], [-47.2976536, -24.60333105], [-47.29883561, -24.60420574], [-47.30003439, -24.60497095], [-47.30009807, -24.60500196], [-47.30154763, -24.60570786], [-47.30163328, -24.60574928]]]]}}]}