{"type": "FeatureCollection", "features": [{"type": "Feature", "properties": {"name": "Parque Estadual Porto Ferreira"}, "geometry": {"type": "MultiPolygon", "coordinates": [[[[-47.42190778, -21.86677972], [-47.42276722, -21.86671083], [-47.42349556, -21.86656167], [-47.42454861, -21.86627722], [-47.42612917, -21.86573], [-47.42854472, -21.86456333], [-47.4301225, -21.86297056], [-47.43141056, -21.86089472], [-47.43203583, -21.85998667], [-47.43330083, -21.85851639], [-47.43556333, -21.85666333], [-47.43717556, -21.8555825], [-47.43888917, -21.8547225], [-47.44076167, -21.85407444], [-47.44204528, -21.85345361], [-47.44367583, -21.85224333], [-47.44540889, -21.85061], [-47.44631694, -21.84973194], [-47.44822, -21.84786694], [-47.44966, -21.84706778], [-47.45071556, -21.84660722], [-47.4518175, -21.84628694], [-47.45335694, -21.84623667], [-47.45428056, -21.84629889], [-47.45470833, -21.84651278], [-47.45547028, -21.84653778], [-47.45601194, -21.84651611], [-47.45598861, -21.84643194], [-47.45602833, -21.84637389], [-47.45617528, -21.84638306], [-47.45633667, -21.84620833], [-47.45651333, -21.84625], [-47.45657583, -21.84619278], [-47.4562925, -21.84593472], [-47.45597972, -21.84576667], [-47.45599083, -21.84528917], [-47.45600917, -21.84506722], [-47.4557625, -21.84490167], [-47.45589444, -21.84471417], [-47.45616944, -21.84476667], [-47.45658, -21.84499806], [-47.45678889, -21.84502222], [-47.45690056, -21.84479889], [-47.45672278, -21.844445], [-47.45634556, -21.84422778], [-47.45610667, -21.84440083], [-47.45601833, -21.84438583], [-47.45603889, -21.84423361], [-47.45613222, -21.84422778], [-47.45622111, -21.84413972], [-47.45624917, -21.84404444], [-47.4135175, -21.84176722], [-47.41351278, -21.84185917], [-47.41399278, -21.84277556], [-47.41435694, -21.84379583], [-47.41436472, -21.84418222], [-47.41469722, -21.84477833], [-47.41592444, -21.84662917], [-47.41446361, -21.84818417], [-47.41255694, -21.85023806], [-47.41280194, -21.85036694], [-47.41296611, -21.85044444], [-47.41327611, -21.85055833], [-47.41374167, -21.85065833], [-47.41392639, -21.85094], [-47.41395194, -21.85102639], [-47.41405167, -21.85115389], [-47.41410639, -21.85118917], [-47.41417194, -21.85120639], [-47.41442861, -21.8511], [-47.4145825, -21.85109389], [-47.41479278, -21.85119139], [-47.41498722, -21.85132222], [-47.41521944, -21.85143944], [-47.41532806, -21.85148167], [-47.41544833, -21.85157944], [-47.41569333, -21.85167139], [-47.41575028, -21.85170528], [-47.41583889, -21.85183667], [-47.41594361, -21.85193944], [-47.41615028, -21.85194611], [-47.41622083, -21.85207944], [-47.41626889, -21.85221333], [-47.41638833, -21.85226194], [-47.41631583, -21.85238722], [-47.41636833, -21.85247306], [-47.4165625, -21.85256806], [-47.41687944, -21.85255139], [-47.41740833, -21.85294139], [-47.41740222, -21.85313222], [-47.41742722, -21.85320222], [-47.41752611, -21.85334056], [-47.41759944, -21.85358972], [-47.41761472, -21.85372944], [-47.41771417, -21.85384444], [-47.41790556, -21.85394917], [-47.41794694, -21.85401028], [-47.41788083, -21.85418361], [-47.41792639, -21.85429667], [-47.4181875, -21.8545275], [-47.4181825, -21.8546575], [-47.41810139, -21.85474389], [-47.41809444, -21.85485722], [-47.41820722, -21.85496389], [-47.41843611, -21.85499333], [-47.41859944, -21.85497472], [-47.41873472, -21.85512194], [-47.41863528, -21.85529056], [-47.41860167, -21.85532639], [-47.41858028, -21.85536667], [-47.418585, -21.85542361], [-47.41863111, -21.85545667], [-47.41868, -21.85547083], [-47.41876306, -21.85548222], [-47.41891111, -21.85553], [-47.41900222, -21.85560722], [-47.41908056, -21.85566083], [-47.4191225, -21.85567083], [-47.41932917, -21.85588944], [-47.41942361, -21.85603889], [-47.41952194, -21.85611806], [-47.41950944, -21.85618472], [-47.41952472, -21.8563025], [-47.41955028, -21.85639611], [-47.41955556, -21.85649611], [-47.41952778, -21.85658972], [-47.41954889, -21.85697778], [-47.41952861, -21.85712278], [-47.41950917, -21.85718361], [-47.419505, -21.85724194], [-47.41953722, -21.85728611], [-47.41983167, -21.85737], [-47.41991694, -21.85740389], [-47.42001111, -21.85751972], [-47.41972833, -21.85753889], [-47.41991583, -21.85788361], [-47.42003722, -21.85804306], [-47.41984889, -21.85803944], [-47.41978917, -21.85810528], [-47.41983056, -21.85814056], [-47.41993333, -21.85819556], [-47.42001806, -21.85818722], [-47.42012306, -21.85816222], [-47.42018306, -21.8581525], [-47.42019806, -21.85819222], [-47.42017778, -21.8582975], [-47.42018583, -21.85842694], [-47.42010472, -21.85862167], [-47.42011444, -21.85867722], [-47.42022667, -21.85865389], [-47.42048778, -21.85864694], [-47.42066861, -21.85867667], [-47.42075778, -21.85877778], [-47.42063917, -21.85884611], [-47.42058583, -21.85892694], [-47.42058556, -21.85900361], [-47.42064806, -21.859055], [-47.42071417, -21.85904167], [-47.42087028, -21.85898778], [-47.4210075, -21.85889333], [-47.42114972, -21.85894528], [-47.42089028, -21.85905278], [-47.42099333, -21.85913472], [-47.42090222, -21.85929083], [-47.42092389, -21.85949944], [-47.4211125, -21.85961028], [-47.42113306, -21.85969111], [-47.42108278, -21.85989167], [-47.4209925, -21.86000583], [-47.42082278, -21.86005056], [-47.42073167, -21.85998139], [-47.42066333, -21.85999556], [-47.42063806, -21.86004361], [-47.42066917, -21.86012889], [-47.42072667, -21.86017861], [-47.42079139, -21.86022667], [-47.42107222, -21.86023083], [-47.42106694, -21.86028583], [-47.42104417, -21.86033778], [-47.42079222, -21.86065389], [-47.42082444, -21.86069917], [-47.42092972, -21.86073472], [-47.42074444, -21.86076306], [-47.42066222, -21.86075639], [-47.42060972, -21.86077778], [-47.42056778, -21.86081028], [-47.42056056, -21.86087306], [-47.42056861, -21.86096417], [-47.42051889, -21.86105694], [-47.42068667, -21.86111833], [-47.42086639, -21.86118889], [-47.42083333, -21.86123972], [-47.42035778, -21.8612425], [-47.42031556, -21.86151], [-47.42029639, -21.86157611], [-47.42021528, -21.86165111], [-47.42012, -21.86167694], [-47.42003056, -21.86169389], [-47.41996556, -21.86172639], [-47.41994056, -21.86185167], [-47.41994583, -21.86196056], [-47.41992139, -21.86226222], [-47.41995417, -21.86233194], [-47.42000111, -21.86237389], [-47.42005139, -21.86239083], [-47.4201425, -21.86240194], [-47.42023528, -21.86238417], [-47.42033556, -21.86238139], [-47.4203225, -21.86247611], [-47.42029083, -21.86256611], [-47.42041667, -21.86282556], [-47.42051194, -21.86295639], [-47.42058583, -21.86308722], [-47.42061417, -21.86317667], [-47.42061833, -21.86323167], [-47.42058639, -21.86331111], [-47.42048806, -21.86349222], [-47.42052083, -21.8635825], [-47.42064, -21.86360722], [-47.42076167, -21.86367778], [-47.42068861, -21.86385833], [-47.42041694, -21.86389667], [-47.42038194, -21.863965], [-47.42041667, -21.86402917], [-47.42049417, -21.86409389], [-47.42062778, -21.8641375], [-47.4206875, -21.86410833], [-47.42073667, -21.86404444], [-47.42094361, -21.86399917], [-47.42088444, -21.86412528], [-47.42080111, -21.86422222], [-47.42080389, -21.86428611], [-47.42083778, -21.86434389], [-47.42099028, -21.86441222], [-47.42101111, -21.86449111], [-47.42116222, -21.86455528], [-47.42116278, -21.86460833], [-47.42110944, -21.86468083], [-47.42101917, -21.86500111], [-47.42106028, -21.86509778], [-47.42112139, -21.86513889], [-47.42117833, -21.86515472], [-47.42133, -21.86514222], [-47.42139194, -21.86511417], [-47.42142083, -21.86506639], [-47.42140306, -21.864825], [-47.42146917, -21.86477611], [-47.42156333, -21.86472417], [-47.42166361, -21.86471444], [-47.42191889, -21.86477472], [-47.42220639, -21.86488972], [-47.42239861, -21.86497972], [-47.42245444, -21.86515972], [-47.42243972, -21.86534917], [-47.42241583, -21.86543194], [-47.42237278, -21.8655375], [-47.42233944, -21.86562861], [-47.42223833, -21.86576333], [-47.42221972, -21.86589944], [-47.4222625, -21.86594861], [-47.42236278, -21.86597472], [-47.4224725, -21.86594667], [-47.42255472, -21.86597972], [-47.42264194, -21.86599417], [-47.42270333, -21.86598194], [-47.42274278, -21.8659325], [-47.42276111, -21.86582306], [-47.422765, -21.86575583], [-47.42270278, -21.86564028], [-47.42268333, -21.86558056], [-47.42272528, -21.86558556], [-47.42275611, -21.8656025], [-47.42280194, -21.86565444], [-47.42281944, -21.86570694], [-47.42281972, -21.86578361], [-47.42283667, -21.86585056], [-47.42287444, -21.86595806], [-47.42291, -21.86608556], [-47.42295056, -21.86621306], [-47.42296556, -21.86629111], [-47.42299722, -21.86634083], [-47.42306028, -21.86637222], [-47.42311083, -21.86636639], [-47.42321972, -21.86629111], [-47.42330278, -21.86615806], [-47.42359056, -21.866325], [-47.42347806, -21.86650778], [-47.42338472, -21.86652667], [-47.42318556, -21.86649472], [-47.42316806, -21.86648528], [-47.42304639, -21.86647778], [-47.42279472, -21.86636972], [-47.42267222, -21.86637472], [-47.42258472, -21.86641972], [-47.42253139, -21.86646111], [-47.42243972, -21.8665025], [-47.42233056, -21.86643333], [-47.42227194, -21.86637528], [-47.422255, -21.86629556], [-47.42230472, -21.86614306], [-47.42229333, -21.86611528], [-47.42226389, -21.8660975], [-47.42222417, -21.86610333], [-47.42211167, -21.86615583], [-47.42191167, -21.86627083], [-47.42186583, -21.86632861], [-47.42184694, -21.86640194], [-47.4218875, -21.86645472], [-47.42193944, -21.86649972], [-47.42199222, -21.86652306], [-47.42199083, -21.86663889], [-47.42190778, -21.86677972]]]]}}]}