{"type": "FeatureCollection", "features": [{"type": "Feature", "properties": {"name": "Parque Estadual Serra do Mar - Caminhos do Mar"}, "geometry": {"type": "MultiPolygon", "coordinates": [[[[-46.4295909, -23.87145021], [-46.4296061, -23.87144814], [-46.42961986, -23.87144186], [-46.42963083, -23.87143197], [-46.43024808, -23.8706666], [-46.43047034, -23.87040084], [-46.43072508, -23.87008784], [-46.43097692, -23.86976596], [-46.43106576, -23.86965865], [-46.43135886, -23.86927894], [-46.43144812, -23.8691682], [-46.43165851, -23.86891771], [-46.43278047, -23.86752901], [-46.43299494, -23.86723585], [-46.43309738, -23.86708379], [-46.43318405, -23.86693545], [-46.43325994, -23.86679218], [-46.43347646, -23.86634417], [-46.43356475, -23.86619377], [-46.43366943, -23.86604492], [-46.43390627, -23.86575675], [-46.4340273, -23.86561582], [-46.43442534, -23.86517281], [-46.43460558, -23.86496255], [-46.4346934, -23.86486619], [-46.43476144, -23.86478274], [-46.43483144, -23.86468774], [-46.4348387, -23.86467234], [-46.43483933, -23.86465557], [-46.43482502, -23.86453057], [-46.43482823, -23.86442741], [-46.43481832, -23.86435441], [-46.43479731, -23.86428236], [-46.43474397, -23.86417236], [-46.4346969, -23.86411218], [-46.43463312, -23.86404343], [-46.43454873, -23.86397667], [-46.43444106, -23.86391962], [-46.43419978, -23.86381552], [-46.43394642, -23.86368808], [-46.4338525, -23.86359095], [-46.43380479, -23.86355048], [-46.43369961, -23.86347242], [-46.43367143, -23.8634386], [-46.43363865, -23.86338866], [-46.43360622, -23.86333117], [-46.43359424, -23.86326728], [-46.43360553, -23.86322438], [-46.4336298, -23.86320011], [-46.43368949, -23.86318255], [-46.43377801, -23.86320162], [-46.43388375, -23.86325528], [-46.43390131, -23.86326054], [-46.43405785, -23.86327709], [-46.43415721, -23.86323875], [-46.434256, -23.86318377], [-46.43436715, -23.86313436], [-46.43449591, -23.86311624], [-46.43476834, -23.86305685], [-46.43490901, -23.86308131], [-46.43502798, -23.86311487], [-46.43512073, -23.86318008], [-46.43517473, -23.86325807], [-46.43522075, -23.86334219], [-46.43525982, -23.86343823], [-46.43526831, -23.86345156], [-46.43528119, -23.86346148], [-46.43529695, -23.86346682], [-46.43531374, -23.86346697], [-46.43532961, -23.8634619], [-46.43541461, -23.86341857], [-46.43542796, -23.86340858], [-46.43550588, -23.86332553], [-46.43557979, -23.86324012], [-46.43573235, -23.8630859], [-46.43579683, -23.86301209], [-46.43593648, -23.86293619], [-46.43606865, -23.86290472], [-46.43647524, -23.86282869], [-46.43669558, -23.86280403], [-46.43687116, -23.86279185], [-46.43708283, -23.86275685], [-46.43709616, -23.86275276], [-46.4373306, -23.86264456], [-46.43746284, -23.86260849], [-46.43758068, -23.86262216], [-46.43772362, -23.86256719], [-46.43773711, -23.8625592], [-46.43782711, -23.8624842], [-46.43784001, -23.86246685], [-46.43787667, -23.86237851], [-46.43788766, -23.86229651], [-46.43791032, -23.86220586], [-46.43791126, -23.86219066], [-46.43789643, -23.86207036], [-46.43788989, -23.86195427], [-46.43788826, -23.86184237], [-46.43790306, -23.86168292], [-46.43789477, -23.86157402], [-46.43788913, -23.86155617], [-46.43782394, -23.86144372], [-46.4377476, -23.86125529], [-46.43772138, -23.86116737], [-46.43771833, -23.86106824], [-46.43773479, -23.86095262], [-46.43772514, -23.86085162], [-46.43771837, -23.86084026], [-46.4376213, -23.86072329], [-46.4375073, -23.86063243], [-46.43742322, -23.86055769], [-46.437365, -23.86046485], [-46.43734527, -23.86044252], [-46.4373661, -23.86042632], [-46.43746421, -23.86043749], [-46.43754988, -23.86049318], [-46.43762801, -23.86057131], [-46.43764937, -23.8605838], [-46.43780437, -23.8606288], [-46.43793963, -23.86065804], [-46.43811768, -23.86066914], [-46.43813847, -23.86066621], [-46.43827013, -23.86061954], [-46.43828355, -23.86061237], [-46.43829386, -23.8606017], [-46.43835053, -23.86052003], [-46.43835683, -23.86050647], [-46.43842375, -23.86024216], [-46.43843789, -23.86008981], [-46.43847699, -23.85988293], [-46.43851715, -23.85976243], [-46.43855809, -23.85966827], [-46.43861352, -23.85965049], [-46.43877786, -23.8596753], [-46.43879321, -23.85967538], [-46.43880783, -23.8596711], [-46.4389595, -23.8596011], [-46.43909416, -23.85948888], [-46.43919993, -23.85939488], [-46.43927519, -23.85930722], [-46.43933835, -23.85927404], [-46.4393956, -23.85931037], [-46.43948792, -23.859398], [-46.43956907, -23.85950349], [-46.43958005, -23.85951377], [-46.43968838, -23.85958711], [-46.43970842, -23.85959512], [-46.44001057, -23.85964839], [-46.44012561, -23.85971523], [-46.44024748, -23.85976381], [-46.44026157, -23.85976371], [-46.44038114, -23.85974518], [-46.44061549, -23.85956639], [-46.44088864, -23.85942321], [-46.44103441, -23.8593428], [-46.44114986, -23.85927156], [-46.4411631, -23.85925945], [-46.4412431, -23.85915111], [-46.44124971, -23.85913809], [-46.44127439, -23.85905823], [-46.44135461, -23.8589877], [-46.44147273, -23.85894378], [-46.44161669, -23.85891056], [-46.44176048, -23.85890248], [-46.44189293, -23.85887939], [-46.44204486, -23.85888314], [-46.44217436, -23.85885589], [-46.44229436, -23.85881089], [-46.44230824, -23.85880298], [-46.44242158, -23.85871132], [-46.44243124, -23.85870067], [-46.44243693, -23.85868782], [-46.44246419, -23.85858199], [-46.44252857, -23.85845], [-46.44259695, -23.85832279], [-46.44274346, -23.85816997], [-46.44286297, -23.85809606], [-46.44297012, -23.8580424], [-46.44312232, -23.85795494], [-46.44317662, -23.85791467], [-46.44324456, -23.85783217], [-46.44331014, -23.85777207], [-46.44340411, -23.85776177], [-46.44354519, -23.85780471], [-46.44367579, -23.85785381], [-46.44378867, -23.8578422], [-46.44380964, -23.85783503], [-46.44393797, -23.8577567], [-46.44403647, -23.85769053], [-46.44419576, -23.85754374], [-46.44427875, -23.8575009], [-46.44437316, -23.85751304], [-46.44451494, -23.85756503], [-46.44463147, -23.85762226], [-46.44473814, -23.85765226], [-46.44475582, -23.85765413], [-46.44503592, -23.85763935], [-46.44519217, -23.85765546], [-46.44535567, -23.85768188], [-46.44549823, -23.85768917], [-46.44551991, -23.85768568], [-46.44563158, -23.85764235], [-46.44565003, -23.85762985], [-46.44569392, -23.85758197], [-46.4457542, -23.85757101], [-46.44583576, -23.85760176], [-46.44597227, -23.85770146], [-46.44638552, -23.85829227], [-46.44637524, -23.85840532], [-46.44637617, -23.85841859], [-46.44638127, -23.85843104], [-46.44639009, -23.85844158], [-46.44640187, -23.85844931], [-46.44641558, -23.85845354], [-46.44643004, -23.85845391], [-46.44644398, -23.85845039], [-46.44657066, -23.85839705], [-46.4466668, -23.85832063], [-46.44671347, -23.85825563], [-46.44672089, -23.85823833], [-46.44674659, -23.85809575], [-46.44674659, -23.85797075], [-46.44673657, -23.85783893], [-46.44673493, -23.85768907], [-46.44673825, -23.85737388], [-46.4467447, -23.85726577], [-46.44674973, -23.85723848], [-46.44683997, -23.85723027], [-46.44696668, -23.85728786], [-46.4472187, -23.85752571], [-46.44725699, -23.85764822], [-46.4472639, -23.85766157], [-46.44734588, -23.85776916], [-46.44745755, -23.85788416], [-46.44760151, -23.85797121], [-46.44773318, -23.85801788], [-46.44774979, -23.85802089], [-46.44792306, -23.85802419], [-46.44809096, -23.8580166], [-46.4482543, -23.85798493], [-46.44839022, -23.85795384], [-46.44851429, -23.85794579], [-46.4485321, -23.85794145], [-46.44867485, -23.85787837], [-46.44880219, -23.85782584], [-46.44891062, -23.85780755], [-46.44906084, -23.85793467], [-46.44914071, -23.85805397], [-46.44922071, -23.8581373], [-46.44923356, -23.85814683], [-46.44924912, -23.8581519], [-46.44926562, -23.85815195], [-46.44928121, -23.85814695], [-46.44939622, -23.85808862], [-46.44940838, -23.85807991], [-46.44951391, -23.85797603], [-46.44962782, -23.85787816], [-46.44973377, -23.8578152], [-46.4499077, -23.85776316], [-46.45010103, -23.85769816], [-46.45029288, -23.85758378], [-46.45044985, -23.85751847], [-46.45055789, -23.85746273], [-46.45066396, -23.85740381], [-46.45076277, -23.85741255], [-46.4508725, -23.85741544], [-46.45102727, -23.8575337], [-46.45108428, -23.85765234], [-46.45115076, -23.85776848], [-46.45120249, -23.85783709], [-46.45119546, -23.85794533], [-46.45115522, -23.8580877], [-46.451068, -23.85821616], [-46.45095349, -23.85837216], [-46.45094664, -23.85838616], [-46.45091164, -23.85851116], [-46.4509104, -23.8585275], [-46.45093706, -23.85874417], [-46.45097507, -23.85887737], [-46.45103791, -23.85900462], [-46.45104583, -23.85901576], [-46.45114201, -23.8591152], [-46.45134374, -23.85938658], [-46.45148589, -23.85949932], [-46.45178063, -23.85968885], [-46.45186269, -23.85981779], [-46.45187528, -23.85998136], [-46.45189464, -23.86016768], [-46.45199371, -23.86030298], [-46.4521198, -23.86040321], [-46.45214568, -23.86040736], [-46.45229234, -23.86039402], [-46.45249713, -23.86032007], [-46.45285499, -23.86022443], [-46.45312144, -23.86016416], [-46.4532497, -23.86019854], [-46.4533102, -23.86031149], [-46.45331176, -23.86045787], [-46.45332526, -23.86056951], [-46.45313672, -23.8608759], [-46.45308505, -23.8610559], [-46.453058, -23.86121653], [-46.45301113, -23.86134099], [-46.45297341, -23.8614637], [-46.45288241, -23.86161855], [-46.4527618, -23.86177503], [-46.45257409, -23.86198559], [-46.4524299, -23.86209738], [-46.45229394, -23.8621952], [-46.45228262, -23.86220674], [-46.45221429, -23.86230674], [-46.45220811, -23.86232027], [-46.45220697, -23.8623349], [-46.4522153, -23.86241823], [-46.45221961, -23.86243302], [-46.45222905, -23.86244563], [-46.45224253, -23.86245462], [-46.45237484, -23.8625131], [-46.4525148, -23.86254274], [-46.45276229, -23.86261114], [-46.45287009, -23.86266345], [-46.45295238, -23.86270886], [-46.45297733, -23.86275995], [-46.45298291, -23.86285326], [-46.45291186, -23.86301709], [-46.45286203, -23.86318321], [-46.45275194, -23.86350863], [-46.4527386, -23.86365363], [-46.45273345, -23.86380101], [-46.45274185, -23.8639302], [-46.45274888, -23.86395085], [-46.45280055, -23.86402919], [-46.45281062, -23.86404009], [-46.4528239, -23.86404755], [-46.45283905, -23.86405081], [-46.45291572, -23.86405581], [-46.45292993, -23.86405483], [-46.45294324, -23.86405013], [-46.45295452, -23.86404212], [-46.45296282, -23.86403147], [-46.45303949, -23.8638948], [-46.45304494, -23.86387504], [-46.45304827, -23.8637267], [-46.45304328, -23.86357674], [-46.45304491, -23.86328957], [-46.45306639, -23.86316529], [-46.45312617, -23.86306177], [-46.453227, -23.86298691], [-46.45347634, -23.86282399], [-46.45349055, -23.86280918], [-46.45356722, -23.86268084], [-46.45357248, -23.86266725], [-46.45357281, -23.86265283], [-46.45355423, -23.86254281], [-46.45347406, -23.86244881], [-46.45346939, -23.86236581], [-46.45354085, -23.86230243], [-46.45366628, -23.86229095], [-46.45379183, -23.86229258], [-46.45381128, -23.86228916], [-46.45392962, -23.86224416], [-46.45394207, -23.86223728], [-46.45404784, -23.86215715], [-46.45417838, -23.86209666], [-46.45437711, -23.86201717], [-46.45448928, -23.86196624], [-46.45450303, -23.86195695], [-46.45459303, -23.86187028], [-46.45469138, -23.86176372], [-46.45479953, -23.86167171], [-46.45491644, -23.86158609], [-46.45492615, -23.86157657], [-46.45501448, -23.8614599], [-46.45502183, -23.86144501], [-46.45506662, -23.8612737], [-46.45506458, -23.86109522], [-46.45500508, -23.86062397], [-46.45500916, -23.86053417], [-46.45504794, -23.86049538], [-46.45511724, -23.86055103], [-46.45521139, -23.86067633], [-46.45532606, -23.860791], [-46.45540581, -23.860918], [-46.45539034, -23.86111446], [-46.45536075, -23.86131663], [-46.45532524, -23.86147874], [-46.45521527, -23.86159763], [-46.45508433, -23.86167232], [-46.45498534, -23.86182268], [-46.45497945, -23.86183663], [-46.45494639, -23.86198376], [-46.45489344, -23.8621741], [-46.454894, -23.86234428], [-46.45491567, -23.86247428], [-46.4549462, -23.86257824], [-46.4549387, -23.86265829], [-46.45479156, -23.8627724], [-46.45447187, -23.86300641], [-46.45434617, -23.8631307], [-46.45426985, -23.8632617], [-46.45427178, -23.86341343], [-46.45430102, -23.86358444], [-46.45436769, -23.86388781], [-46.45439591, -23.86402894], [-46.45444683, -23.86415059], [-46.45445388, -23.86416195], [-46.45453055, -23.86425195], [-46.45454047, -23.86426072], [-46.45455264, -23.86426661], [-46.45479611, -23.8642825], [-46.45482177, -23.86427754], [-46.45501855, -23.86411138], [-46.45513303, -23.86398528], [-46.45524363, -23.86387129], [-46.45533696, -23.86376796], [-46.45542124, -23.86366593], [-46.45549134, -23.8636147], [-46.45565873, -23.86360252], [-46.45585879, -23.86359472], [-46.45605879, -23.86355139], [-46.45622228, -23.86347974], [-46.45623531, -23.86347129], [-46.4562447, -23.86345944], [-46.45632795, -23.86330763], [-46.45642382, -23.86318548], [-46.45666644, -23.86303667], [-46.45681302, -23.862939], [-46.45694283, -23.8628349], [-46.45703856, -23.86270807], [-46.4571219, -23.86257306], [-46.45712824, -23.862553], [-46.45713131, -23.86249565], [-46.45720905, -23.86248304], [-46.45739719, -23.86250277], [-46.45753125, -23.86258264], [-46.45756383, -23.86265593], [-46.4575869, -23.86275253], [-46.45753345, -23.86292683], [-46.45756839, -23.86305558], [-46.45757476, -23.86306879], [-46.45758535, -23.86307947], [-46.45769035, -23.86315614], [-46.45783196, -23.86323578], [-46.45811057, -23.86345849], [-46.45815768, -23.86357855], [-46.45820237, -23.86370932], [-46.45826416, -23.86384345], [-46.45828586, -23.86392423], [-46.45814664, -23.86403133], [-46.45803864, -23.86404612], [-46.45802049, -23.86405213], [-46.45790478, -23.86411851], [-46.4578536, -23.86420898], [-46.45784856, -23.86422604], [-46.45784329, -23.86429722], [-46.45778151, -23.86434618], [-46.45766562, -23.86436066], [-46.45750444, -23.86436226], [-46.45735849, -23.86434118], [-46.45734284, -23.86434124], [-46.45724451, -23.86435624], [-46.45722996, -23.86436069], [-46.45721761, -23.86436905], [-46.45720867, -23.86438051], [-46.45720401, -23.86439394], [-46.45718568, -23.86450394], [-46.45718683, -23.86452262], [-46.45722953, -23.86466713], [-46.45725728, -23.8648116], [-46.45731819, -23.86494495], [-46.45739117, -23.86514777], [-46.45745283, -23.86527277], [-46.45751963, -23.86536353], [-46.4574942, -23.8654144], [-46.45735952, -23.86548988], [-46.45718414, -23.86554833], [-46.45716565, -23.86555933], [-46.45710231, -23.86561933], [-46.45708985, -23.86564008], [-46.4570918, -23.86576864], [-46.4570943, -23.86578172], [-46.45713597, -23.86589672], [-46.45719863, -23.86601943], [-46.45724701, -23.86615004], [-46.45728315, -23.86628802], [-46.45731855, -23.86640613], [-46.45737629, -23.86650437], [-46.45739253, -23.86652036], [-46.45747489, -23.8665673], [-46.45759827, -23.86657063], [-46.45772972, -23.86655577], [-46.45785155, -23.86652284], [-46.45797621, -23.86649694], [-46.45827664, -23.86646229], [-46.45844641, -23.86643301], [-46.45868038, -23.86645399], [-46.45885096, -23.86647404], [-46.45903096, -23.86649071], [-46.45921276, -23.8664991], [-46.45937987, -23.8665216], [-46.45954278, -23.86656885], [-46.45955997, -23.86657088], [-46.45992056, -23.86655252], [-46.46008893, -23.86652171], [-46.46010518, -23.86651577], [-46.46024185, -23.86643744], [-46.46025702, -23.86642376], [-46.46034754, -23.86629318], [-46.46039696, -23.86615447], [-46.46049405, -23.86602562], [-46.46058239, -23.86587562], [-46.4605876, -23.86586179], [-46.4606176, -23.86570179], [-46.46062638, -23.86556304], [-46.46065616, -23.86542199], [-46.46072292, -23.86529737], [-46.46092881, -23.8651591], [-46.46107643, -23.8651576], [-46.46109764, -23.86515293], [-46.46120566, -23.86510382], [-46.46131449, -23.86506506], [-46.46145798, -23.8650774], [-46.46160672, -23.86506427], [-46.46175715, -23.86506427], [-46.46189203, -23.86510077], [-46.46190998, -23.86510244], [-46.46206164, -23.86509078], [-46.46208284, -23.86508449], [-46.46220951, -23.86501448], [-46.46222214, -23.86500446], [-46.46223039, -23.86499113], [-46.46226706, -23.86489779], [-46.46226983, -23.86487896], [-46.46225868, -23.86474675], [-46.46228386, -23.86462827], [-46.46236437, -23.8645168], [-46.46256067, -23.86427261], [-46.46263146, -23.86412639], [-46.46270131, -23.863899], [-46.46278066, -23.86377919], [-46.46289157, -23.86366185], [-46.46301536, -23.86355135], [-46.4631381, -23.8634286], [-46.46328535, -23.86331627], [-46.46341035, -23.86320293], [-46.46351788, -23.86309548], [-46.46368028, -23.86301747], [-46.46379687, -23.86294476], [-46.46390046, -23.86285929], [-46.46391249, -23.86284396], [-46.46403185, -23.86259036], [-46.46411496, -23.86244718], [-46.46417996, -23.86229385], [-46.46418316, -23.86228109], [-46.46419665, -23.86212578], [-46.46419665, -23.86197078], [-46.46418019, -23.86174707], [-46.46419326, -23.86165126], [-46.46424832, -23.8615701], [-46.46433064, -23.86148937], [-46.46443095, -23.8614024], [-46.4645153, -23.86131493], [-46.4646895, -23.86122703], [-46.46470588, -23.86121363], [-46.46491113, -23.86094665], [-46.46494733, -23.86086766], [-46.46498639, -23.86079279], [-46.46507534, -23.86063828], [-46.46516109, -23.86047006], [-46.46529603, -23.86017854], [-46.46544926, -23.85983377], [-46.46551725, -23.85969612], [-46.46557891, -23.85952567], [-46.46564157, -23.85936902], [-46.46582802, -23.85895948], [-46.46599859, -23.858562], [-46.46602694, -23.85851574], [-46.46612648, -23.85839662], [-46.46616216, -23.85832797], [-46.46617788, -23.85823511], [-46.4662212, -23.85790854], [-46.46630269, -23.85740466], [-46.46640083, -23.85688731], [-46.46651235, -23.85636802], [-46.46654608, -23.85618761], [-46.46661949, -23.85572217], [-46.46662738, -23.855607], [-46.46653905, -23.855197], [-46.46649326, -23.85508763], [-46.46628021, -23.85466636], [-46.465867, -23.85386658], [-46.46574075, -23.85361076], [-46.46559971, -23.85331044], [-46.46552048, -23.85312126], [-46.46550539, -23.85301414], [-46.46552054, -23.85290814], [-46.46556215, -23.85280181], [-46.46578376, -23.85246201], [-46.46603707, -23.85212758], [-46.4661834, -23.85195824], [-46.46625773, -23.85188061], [-46.46630732, -23.85179962], [-46.46645491, -23.85162213], [-46.46649966, -23.85154037], [-46.46660104, -23.85149025], [-46.46671508, -23.85142125], [-46.46681341, -23.85134125], [-46.46690056, -23.85126257], [-46.46698783, -23.85119535], [-46.46706116, -23.85113201], [-46.46712176, -23.85107159], [-46.46717223, -23.85103112], [-46.46721508, -23.85098773], [-46.4672235, -23.85097592], [-46.46722754, -23.85096229], [-46.4672268, -23.85094818], [-46.46722136, -23.85093497], [-46.46721175, -23.85092395], [-46.46719891, -23.85091621], [-46.46718409, -23.85091249], [-46.46716875, -23.85091317], [-46.46715439, -23.85091817], [-46.46714241, -23.85092702], [-46.46710157, -23.85096837], [-46.46705143, -23.85100853], [-46.46699264, -23.85106732], [-46.46692165, -23.85112863], [-46.46683606, -23.85119447], [-46.4667474, -23.8512744], [-46.46665273, -23.85135142], [-46.46654918, -23.85141355], [-46.46643938, -23.85146763], [-46.46642724, -23.85147608], [-46.46641849, -23.85148754], [-46.46637428, -23.85157041], [-46.46622681, -23.85174783], [-46.46618045, -23.85182469], [-46.46610773, -23.8519007], [-46.46595887, -23.85207298], [-46.46570215, -23.8524118], [-46.46547539, -23.85275932], [-46.46542388, -23.85289155], [-46.46540721, -23.8530199], [-46.46542675, -23.85314867], [-46.46550909, -23.85334519], [-46.46565089, -23.85364714], [-46.46577786, -23.85390443], [-46.46619147, -23.854705], [-46.46640241, -23.85512189], [-46.46644359, -23.8552185], [-46.46652976, -23.85561848], [-46.46652207, -23.85571084], [-46.4664491, -23.85617353], [-46.46641596, -23.85635082], [-46.46630426, -23.85687102], [-46.46620568, -23.85739073], [-46.46612398, -23.85789595], [-46.46606988, -23.8582964], [-46.46604527, -23.85834563], [-46.46594697, -23.85846326], [-46.46590864, -23.85852568], [-46.46573694, -23.85892575], [-46.46554982, -23.85933686], [-46.46548595, -23.85949659], [-46.46542678, -23.85966096], [-46.46535887, -23.85979849], [-46.46520553, -23.86014351], [-46.46507105, -23.86043404], [-46.46498695, -23.86059894], [-46.46489829, -23.86075291], [-46.46485829, -23.86082958], [-46.46482276, -23.86090698], [-46.46463242, -23.86115284], [-46.46446061, -23.86123953], [-46.46444749, -23.86124916], [-46.46435897, -23.86134095], [-46.46426227, -23.86142455], [-46.46417341, -23.86151156], [-46.46410424, -23.86161188], [-46.46409718, -23.86163016], [-46.46408191, -23.86174885], [-46.46409846, -23.86197232], [-46.46409846, -23.86212396], [-46.46408587, -23.86226721], [-46.46402456, -23.86241184], [-46.46394241, -23.86255305], [-46.46382685, -23.86279875], [-46.4637388, -23.86287188], [-46.46363228, -23.86293865], [-46.46346482, -23.8630191], [-46.46345142, -23.86302855], [-46.46334056, -23.86313941], [-46.46321794, -23.86325059], [-46.46306808, -23.86336522], [-46.46294403, -23.86348927], [-46.46281883, -23.86360116], [-46.46269896, -23.86372896], [-46.46260864, -23.86386851], [-46.46253795, -23.86409865], [-46.46247329, -23.86423113], [-46.46228488, -23.86446378], [-46.46219666, -23.8645858], [-46.46218937, -23.86460212], [-46.46216104, -23.86473546], [-46.46217112, -23.86487625], [-46.46214397, -23.86494535], [-46.46204207, -23.86500167], [-46.46191094, -23.86501176], [-46.46176422, -23.86497397], [-46.46160422, -23.86497397], [-46.46146234, -23.86498709], [-46.46131212, -23.86497416], [-46.46128982, -23.86497702], [-46.46116815, -23.86502035], [-46.46106416, -23.86506742], [-46.46091201, -23.86506897], [-46.46089706, -23.86507127], [-46.4608836, -23.86507765], [-46.46064663, -23.8652384], [-46.46056102, -23.86539885], [-46.46052935, -23.86554885], [-46.46052036, -23.865689], [-46.46049221, -23.86583914], [-46.46040902, -23.8659804], [-46.46031225, -23.86610834], [-46.4603059, -23.86612006], [-46.46025623, -23.86625943], [-46.46018068, -23.86636609], [-46.46006079, -23.86643481], [-46.45991115, -23.86646258], [-46.45956392, -23.86648029], [-46.45939799, -23.86643278], [-46.45922466, -23.86640944], [-46.45903956, -23.86640075], [-46.45886145, -23.86638426], [-46.45869064, -23.86636418], [-46.45844898, -23.86634252], [-46.45826345, -23.8663728], [-46.45795672, -23.86640841], [-46.45782839, -23.86643508], [-46.45770602, -23.86646806], [-46.4575901, -23.86648059], [-46.4575041, -23.8664792], [-46.45745618, -23.86645068], [-46.45741164, -23.86637691], [-46.45737842, -23.86626616], [-46.45734068, -23.86612289], [-46.45729068, -23.86598789], [-46.45722819, -23.86586561], [-46.45718976, -23.86575955], [-46.45718716, -23.86566859], [-46.45722823, -23.86562969], [-46.4573976, -23.86557323], [-46.45755809, -23.86548434], [-46.45756922, -23.8654758], [-46.45757715, -23.86546464], [-46.45762048, -23.86537798], [-46.45762478, -23.86536303], [-46.45762335, -23.86534763], [-46.45761636, -23.86533357], [-46.45754047, -23.86523184], [-46.45748167, -23.86511267], [-46.45741083, -23.86491498], [-46.45735001, -23.86478146], [-46.45732492, -23.86464561], [-46.45728431, -23.86450817], [-46.45729568, -23.86443997], [-46.45735109, -23.86443151], [-46.4575014, -23.86445259], [-46.45766974, -23.86445093], [-46.45780915, -23.86443385], [-46.4578227, -23.86443028], [-46.45783459, -23.86442332], [-46.45793151, -23.86434445], [-46.45793985, -23.86432218], [-46.45794586, -23.86424118], [-46.45797846, -23.86418098], [-46.45806284, -23.8641341], [-46.45817477, -23.86411877], [-46.45819904, -23.86410874], [-46.45837237, -23.86397541], [-46.45838153, -23.86396609], [-46.45838754, -23.86395481], [-46.45838993, -23.86394244], [-46.45835605, -23.86381144], [-46.45829532, -23.86368013], [-46.45825039, -23.86354878], [-46.45819323, -23.86340719], [-46.45808194, -23.86331379], [-46.45789281, -23.86316482], [-46.457749, -23.86308367], [-46.4576592, -23.8630181], [-46.45763348, -23.86292807], [-46.4576866, -23.86275564], [-46.45765632, -23.86262536], [-46.45761632, -23.86253536], [-46.45760867, -23.86252363], [-46.45759756, -23.86251455], [-46.45744089, -23.86242121], [-46.45741976, -23.86241425], [-46.4572131, -23.86239258], [-46.45707568, -23.86241298], [-46.45706018, -23.86241806], [-46.45704738, -23.86242758], [-46.45703872, -23.86244044], [-46.45703517, -23.86245522], [-46.45703074, -23.86253783], [-46.45695429, -23.86266168], [-46.45686582, -23.86277859], [-46.45675376, -23.86286697], [-46.45661116, -23.86296203], [-46.45636196, -23.86311488], [-46.45634939, -23.86312602], [-46.45624606, -23.86325768], [-46.45616451, -23.86340514], [-46.456031, -23.86346464], [-46.45584091, -23.86350582], [-46.45565401, -23.86351232], [-46.45546866, -23.86352576], [-46.45545454, -23.86352876], [-46.45544199, -23.86353542], [-46.45534676, -23.86360681], [-46.45526075, -23.86371102], [-46.45516866, -23.86381297], [-46.45505818, -23.86392684], [-46.45494518, -23.8640513], [-46.45478126, -23.86419116], [-46.45459426, -23.86418032], [-46.45453561, -23.86411147], [-46.45449163, -23.86400833], [-46.45439754, -23.86356788], [-46.45436987, -23.86340837], [-46.4543669, -23.86328356], [-46.45442919, -23.86317926], [-46.4545409, -23.8630707], [-46.45485418, -23.86284196], [-46.45501751, -23.86271529], [-46.45502945, -23.86270155], [-46.45503478, -23.86268465], [-46.45504478, -23.86257798], [-46.45504322, -23.86256221], [-46.4550123, -23.86245804], [-46.45499162, -23.862334], [-46.45499162, -23.86217996], [-46.45504166, -23.86200563], [-46.45507394, -23.86186234], [-46.45515513, -23.86173686], [-46.45527301, -23.86167103], [-46.45528492, -23.86166169], [-46.45541503, -23.86151882], [-46.45545732, -23.86133302], [-46.45548785, -23.86112512], [-46.45550483, -23.8609107], [-46.45550371, -23.86089733], [-46.45549838, -23.86088486], [-46.45540838, -23.86074152], [-46.45528602, -23.86061756], [-46.45519466, -23.86049521], [-46.45507648, -23.86039842], [-46.45506371, -23.860391], [-46.45504909, -23.86038751], [-46.455034, -23.86038827], [-46.45501988, -23.86039321], [-46.45500806, -23.86040187], [-46.45492473, -23.8604852], [-46.45491551, -23.86049849], [-46.45491181, -23.86051388], [-46.45490713, -23.86063123], [-46.45496679, -23.86110375], [-46.45496838, -23.86126876], [-46.45492874, -23.86141512], [-46.45484967, -23.86151956], [-46.45473419, -23.86160429], [-46.45462252, -23.86169929], [-46.45452102, -23.86180888], [-46.45443801, -23.86188882], [-46.45433685, -23.8619348], [-46.45413543, -23.86201545], [-46.45399877, -23.86207878], [-46.45388531, -23.86216329], [-46.45378311, -23.86220216], [-46.45365933, -23.86220084], [-46.45351417, -23.86221412], [-46.45349842, -23.86221807], [-46.45348495, -23.86222655], [-46.45338512, -23.86231509], [-46.45337656, -23.86232522], [-46.45337144, -23.86233715], [-46.45337017, -23.86234993], [-46.45337683, -23.8624681], [-46.45338, -23.8624819], [-46.45338765, -23.86249412], [-46.45346246, -23.8625794], [-46.45347331, -23.86265051], [-46.4534098, -23.86275682], [-46.45316948, -23.86291371], [-46.45305669, -23.8629973], [-46.45304416, -23.86301126], [-46.45298444, -23.86311468], [-46.45300578, -23.86304354], [-46.45307809, -23.86287756], [-46.45308154, -23.86285829], [-46.45307487, -23.86274662], [-46.45307064, -23.8627306], [-46.45303564, -23.86265893], [-46.45302756, -23.86264745], [-46.45301611, -23.86263871], [-46.45291944, -23.86258538], [-46.4527947, -23.86252578], [-46.45254192, -23.86245593], [-46.45240241, -23.86242627], [-46.45231055, -23.86238475], [-46.45230626, -23.86234185], [-46.45236119, -23.86226147], [-46.4524925, -23.86216695], [-46.45264715, -23.86204606], [-46.45283882, -23.86183106], [-46.45296424, -23.86166854], [-46.45306238, -23.86150223], [-46.45310438, -23.86136929], [-46.45315224, -23.86124221], [-46.45318065, -23.86107664], [-46.45323001, -23.86090469], [-46.45341847, -23.8606015], [-46.45342394, -23.86058821], [-46.45342463, -23.86057401], [-46.45340992, -23.86045465], [-46.45340828, -23.86030032], [-46.45340322, -23.8602808], [-46.45332822, -23.8601408], [-46.45332063, -23.86013051], [-46.45331026, -23.86012251], [-46.45312356, -23.86007228], [-46.45283079, -23.86013691], [-46.45265337, -23.86018252], [-46.4524625, -23.86023555], [-46.45227569, -23.8603048], [-46.45215704, -23.86031558], [-46.45207109, -23.86024709], [-46.45198863, -23.86013666], [-46.45195982, -23.8598009], [-46.45195322, -23.85978128], [-46.45185988, -23.85963462], [-46.45184548, -23.85962031], [-46.45154445, -23.85942681], [-46.45141287, -23.85932217], [-46.4512215, -23.85906211], [-46.45112406, -23.85896078], [-46.45106887, -23.8588504], [-46.45103422, -23.85873069], [-46.45100898, -23.85852562], [-46.45103961, -23.85841623], [-46.45115082, -23.85826467], [-46.45124248, -23.85812967], [-46.45124836, -23.85811711], [-46.45129169, -23.85796378], [-46.45130152, -23.85782678], [-46.45129975, -23.85781181], [-46.45129273, -23.8577982], [-46.45123616, -23.85772385], [-46.45117339, -23.8576144], [-46.45111241, -23.8574875], [-46.45109888, -23.85747102], [-46.45092222, -23.85733602], [-46.45090818, -23.85732851], [-46.45089225, -23.85732562], [-46.45076726, -23.85732233], [-46.45065727, -23.85731248], [-46.45064164, -23.85731339], [-46.45062713, -23.85731877], [-46.45050781, -23.85738506], [-46.4504037, -23.85743874], [-46.45024224, -23.85750634], [-46.45006199, -23.85761514], [-46.44987482, -23.85767807], [-46.44968587, -23.85773616], [-46.449564, -23.85780942], [-46.44944566, -23.85791109], [-46.44934196, -23.85801302], [-46.44926826, -23.8580504], [-46.44921718, -23.85799719], [-46.44913241, -23.85787252], [-46.44895908, -23.85772586], [-46.44894654, -23.85771815], [-46.44893206, -23.8577143], [-46.44891698, -23.85771467], [-46.44876741, -23.85774122], [-46.44863291, -23.85779672], [-46.44849803, -23.85785632], [-46.44837065, -23.85786527], [-46.44823317, -23.85789674], [-46.44807462, -23.85792748], [-46.44792025, -23.85793391], [-46.44776047, -23.85793078], [-46.44764165, -23.85788866], [-46.44752645, -23.85781954], [-46.44742108, -23.85771103], [-46.4473491, -23.85761607], [-46.44730968, -23.85748994], [-46.44729778, -23.85747102], [-46.44703078, -23.85721904], [-46.44701759, -23.85721027], [-46.44685801, -23.85713967], [-46.44670201, -23.85715255], [-46.44668682, -23.85715647], [-46.44667377, -23.85716461], [-46.4466642, -23.85717614], [-46.4466591, -23.85718987], [-46.44664682, -23.85725827], [-46.44664008, -23.85737197], [-46.44663674, -23.85768954], [-46.44663841, -23.8578412], [-46.44664841, -23.85797234], [-46.44664841, -23.85809193], [-46.44662584, -23.8582138], [-46.44658883, -23.85826536], [-46.446513, -23.85832369], [-46.44647997, -23.85833709], [-46.44648475, -23.85828451], [-46.44648347, -23.85826984], [-46.44647712, -23.85825632], [-46.44605045, -23.85764632], [-46.44603969, -23.85763539], [-46.44587945, -23.85752064], [-46.44576391, -23.85747914], [-46.44565798, -23.85749645], [-46.44564256, -23.85750185], [-46.44562996, -23.85751164], [-46.44558256, -23.85756336], [-46.44549215, -23.85759844], [-46.44536973, -23.85759247], [-46.44520766, -23.85756628], [-46.44504296, -23.85754921], [-46.4447582, -23.85756347], [-46.44466492, -23.85753724], [-46.44455401, -23.85748214], [-46.44440401, -23.85742714], [-46.44427596, -23.85740936], [-46.44426007, -23.85740971], [-46.44424514, -23.85741471], [-46.4441418, -23.85746804], [-46.44397531, -23.85761979], [-46.44388275, -23.85768203], [-46.44376492, -23.85775395], [-46.44368943, -23.85776276], [-46.44357791, -23.85771955], [-46.44342458, -23.85767288], [-46.44340335, -23.85767091], [-46.44328168, -23.85768425], [-46.44326609, -23.85768845], [-46.44325283, -23.8576971], [-46.44317283, -23.85777043], [-46.44310237, -23.85785527], [-46.44306453, -23.8578819], [-46.44291943, -23.85796505], [-46.4428101, -23.85801994], [-46.442674, -23.85810588], [-46.44251181, -23.8582774], [-46.44243936, -23.85841226], [-46.4423727, -23.85854893], [-46.44234499, -23.85865301], [-46.44224962, -23.85873015], [-46.4421411, -23.85877084], [-46.44202965, -23.85879374], [-46.44189099, -23.85878896], [-46.44175132, -23.85881253], [-46.44159721, -23.85882195], [-46.44144554, -23.85885695], [-46.44130909, -23.85890722], [-46.44129356, -23.85891645], [-46.44118877, -23.85901077], [-46.44115743, -23.8591064], [-46.44108722, -23.85920147], [-46.44098282, -23.85926595], [-46.44083928, -23.85934515], [-46.44056337, -23.85948975], [-46.4403397, -23.85966137], [-46.4402611, -23.85967243], [-46.44016923, -23.85963426], [-46.44005552, -23.85956766], [-46.44003867, -23.85956145], [-46.43973756, -23.85950827], [-46.43964464, -23.85944538], [-46.43956107, -23.85933766], [-46.43946274, -23.85924433], [-46.4393687, -23.85918358], [-46.43935641, -23.85917793], [-46.4393429, -23.85917564], [-46.43932923, -23.85917687], [-46.43921813, -23.85923321], [-46.43920384, -23.85924457], [-46.43912926, -23.85933211], [-46.43890924, -23.85952326], [-46.43877804, -23.85958382], [-46.43860491, -23.8595591], [-46.43850465, -23.85958978], [-46.43849227, -23.85959568], [-46.43848219, -23.85960454], [-46.43842523, -23.85973065], [-46.43838221, -23.85985918], [-46.43834078, -23.86007635], [-46.43832716, -23.86022564], [-46.43826339, -23.86047776], [-46.43821977, -23.86054062], [-46.4381132, -23.86057839], [-46.43795802, -23.86056926], [-46.43783214, -23.86054217], [-46.43769141, -23.86050131], [-46.43761081, -23.86042221], [-46.4375002, -23.86035197], [-46.43735685, -23.86033427], [-46.43733048, -23.86033798], [-46.43731911, -23.8603446], [-46.43724411, -23.86040294], [-46.43723404, -23.86041369], [-46.4372281, -23.86042679], [-46.43722687, -23.86044093], [-46.43723047, -23.86045473], [-46.43723856, -23.86046682], [-46.43728224, -23.86051362], [-46.43735003, -23.86061821], [-46.43744199, -23.86069986], [-46.43755305, -23.86078839], [-46.43763118, -23.86088388], [-46.43763648, -23.86095417], [-46.43762007, -23.86106702], [-46.43762513, -23.86118602], [-46.43765474, -23.86128467], [-46.43773323, -23.8614784], [-46.43779763, -23.86159027], [-46.43780489, -23.86167885], [-46.43779023, -23.86183691], [-46.43779172, -23.86195635], [-46.43779845, -23.86207641], [-46.43781275, -23.86219315], [-46.4377913, -23.86227896], [-46.43778265, -23.86235183], [-46.43775247, -23.86242454], [-46.4376772, -23.86248726], [-46.43756735, -23.86253092], [-46.43746604, -23.86251771], [-46.43744518, -23.86251912], [-46.43729852, -23.86255912], [-46.43705847, -23.86266913], [-46.4368563, -23.86270256], [-46.43668487, -23.86271426], [-46.43645789, -23.8627398], [-46.43604742, -23.86281655], [-46.43590517, -23.86285037], [-46.43573916, -23.86293854], [-46.43572584, -23.86294916], [-46.43565836, -23.86302652], [-46.43550406, -23.86318263], [-46.43542967, -23.86326859], [-46.43535936, -23.86334349], [-46.43533183, -23.86335752], [-46.43530966, -23.86330378], [-46.43526132, -23.86321545], [-46.43519888, -23.86312483], [-46.43518729, -23.86311321], [-46.43508062, -23.86303821], [-46.4350652, -23.86303091], [-46.43492993, -23.86299305], [-46.43477659, -23.86296638], [-46.43475667, -23.8629667], [-46.43447455, -23.86302808], [-46.43434512, -23.8630461], [-46.43433111, -23.86305009], [-46.43421111, -23.86310343], [-46.43411471, -23.86315729], [-46.43404349, -23.86318605], [-46.43392295, -23.86317204], [-46.43381952, -23.86311955], [-46.43369866, -23.86309178], [-46.43367251, -23.86309274], [-46.43358751, -23.86311774], [-46.43356633, -23.86313018], [-46.4335175, -23.86318114], [-46.43349642, -23.86325512], [-46.43349575, -23.86327342], [-46.43351075, -23.86335342], [-46.43351555, -23.86336654], [-46.43355222, -23.86343154], [-46.43358877, -23.86348741], [-46.43362517, -23.86353154], [-46.43374208, -23.86361998], [-46.43378433, -23.86365597], [-46.43380552, -23.86367598], [-46.43383267, -23.86370831], [-46.4338799, -23.86375487], [-46.43389194, -23.86376354], [-46.43415428, -23.86389554], [-46.43439832, -23.86400095], [-46.43449541, -23.86405262], [-46.43456569, -23.86410915], [-46.43461896, -23.86416713], [-46.43465649, -23.86421366], [-46.43470597, -23.86431571], [-46.43472248, -23.86437423], [-46.43473004, -23.86443021], [-46.43472684, -23.86453406], [-46.43473974, -23.86465123], [-46.43468083, -23.86473118], [-46.43461567, -23.86481099], [-46.43452887, -23.86490617], [-46.43434927, -23.86511571], [-46.43395061, -23.86555943], [-46.42949544, -23.87139937], [-46.42956214, -23.87144132], [-46.42957576, -23.87144786], [-46.4295909, -23.87145021]]]]}}]}