{"type": "FeatureCollection", "features": [{"type": "Feature", "properties": {"name": "Parque Estadual Morro do Diabo"}, "geometry": {"type": "MultiPolygon", "coordinates": [[[[-52.21874382, -22.6760637], [-52.22003619, -22.67637299], [-52.22149414, -22.67596295], [-52.22320009, -22.67443402], [-52.22370387, -22.67307383], [-52.2230225, -22.6737971], [-52.22105935, -22.67540778], [-52.22003054, -22.67573476], [-52.22011369, -22.67541499], [-52.22105511, -22.6749291], [-52.221993, -22.67404431], [-52.22232485, -22.67268544], [-52.22240516, -22.67204655], [-52.2218041, -22.67213092], [-52.22128688, -22.67197529], [-52.22179491, -22.67109379], [-52.2231626, -22.67020571], [-52.22375799, -22.6694831], [-52.22416516, -22.66692688], [-52.22407, -22.6658904], [-52.22304126, -22.6662174], [-52.22269387, -22.66582112], [-52.22311874, -22.66525939], [-52.22405301, -22.66397569], [-52.22411845, -22.66166143], [-52.22416619, -22.65735268], [-52.22500737, -22.65527184], [-52.22567164, -22.65263386], [-52.2259033, -22.64968005], [-52.22546079, -22.6482473], [-52.22467307, -22.64665762], [-52.22483719, -22.64577873], [-52.22508655, -22.64481941], [-52.22524288, -22.64306294], [-52.22469889, -22.63987569], [-52.22486371, -22.63907658], [-52.22554704, -22.63859265], [-52.2260613, -22.63842915], [-52.22682277, -22.63706698], [-52.22707281, -22.63618743], [-52.22758281, -22.63554525], [-52.22774761, -22.63474613], [-52.22842594, -22.63370373], [-52.23038772, -22.63201321], [-52.23208736, -22.62984596], [-52.23258806, -22.62816663], [-52.23249856, -22.62776839], [-52.23146445, -22.6274572], [-52.23154754, -22.62713742], [-52.23249145, -22.6269706], [-52.23420524, -22.62639892], [-52.23470733, -22.62487914], [-52.23657727, -22.62255098], [-52.23955999, -22.61973548], [-52.24144338, -22.61892307], [-52.24177656, -22.6189119], [-52.24256603, -22.61867613], [-52.24415136, -22.61709146], [-52.24536976, -22.61655787], [-52.24611378, -22.61559119], [-52.2468641, -22.6153233], [-52.24855447, -22.61496073], [-52.24986454, -22.61416434], [-52.25071129, -22.61415774], [-52.25164897, -22.61380101], [-52.25277085, -22.61300606], [-52.25351006, -22.61151526], [-52.25398126, -22.61159893], [-52.25408484, -22.61264638], [-52.25399947, -22.61360795], [-52.25447226, -22.61386632], [-52.25560047, -22.61377014], [-52.25720226, -22.61401967], [-52.25796049, -22.61462521], [-52.25881201, -22.61514266], [-52.26050393, -22.61495467], [-52.26275556, -22.61423813], [-52.26341973, -22.61484438], [-52.26483658, -22.6154447], [-52.2658715, -22.61543654], [-52.26727075, -22.61411518], [-52.26792533, -22.61367323], [-52.26830567, -22.614107], [-52.26840375, -22.614543], [-52.26793654, -22.61489611], [-52.26775158, -22.61524699], [-52.2676703, -22.6166453], [-52.26810094, -22.61703836], [-52.26992914, -22.6167148], [-52.27114983, -22.61644307], [-52.27237534, -22.61669542], [-52.27435675, -22.61729118], [-52.27520754, -22.61772119], [-52.27633575, -22.61762486], [-52.27727983, -22.61796677], [-52.27813144, -22.61848411], [-52.2801129, -22.61907979], [-52.28200109, -22.61976355], [-52.28294601, -22.62019277], [-52.28473447, -22.62026581], [-52.28567614, -22.62034562], [-52.28699986, -22.62103384], [-52.28898138, -22.62162941], [-52.29020533, -22.62170693], [-52.29161828, -22.62187026], [-52.29416027, -22.62202449], [-52.29529259, -22.62236476], [-52.29586203, -22.62288429], [-52.29793196, -22.62286755], [-52.29934246, -22.62276878], [-52.30188611, -22.62309757], [-52.30537148, -22.62350602], [-52.30725737, -22.62392743], [-52.30960875, -22.62382089], [-52.31309972, -22.62387139], [-52.31346387, -22.62352731], [-52.31402839, -22.62352269], [-52.31478358, -22.62377856], [-52.31563786, -22.62455774], [-52.31874027, -22.6242702], [-52.32005917, -22.62443406], [-52.32090346, -22.62416505], [-52.32137139, -22.62389914], [-52.32222486, -22.62459093], [-52.32382352, -22.62449039], [-52.32655207, -22.62446785], [-52.32900591, -22.62523372], [-52.33296014, -22.62546297], [-52.3388877, -22.6254136], [-52.34190105, -22.62565048], [-52.34434225, -22.62510592], [-52.34537381, -22.62474786], [-52.34622229, -22.62491545], [-52.34885589, -22.62480597], [-52.35280071, -22.62407393], [-52.35496042, -22.62361894], [-52.3571184, -22.62298923], [-52.35851681, -22.62166711], [-52.35869554, -22.62070472], [-52.35821825, -22.62000995], [-52.35737064, -22.61992977], [-52.35707896, -22.61897136], [-52.35726113, -22.61835835], [-52.35801979, -22.6189634], [-52.35905384, -22.61886729], [-52.36018799, -22.61938179], [-52.36085173, -22.61990028], [-52.36150945, -22.61980735], [-52.36216287, -22.61927769], [-52.3630994, -22.61883297], [-52.36337217, -22.61786978], [-52.36496294, -22.61698273], [-52.36815134, -22.61590735], [-52.37218552, -22.61473733], [-52.3743398, -22.61375802], [-52.37743222, -22.61250858], [-52.37809076, -22.61250293], [-52.38118748, -22.61169014], [-52.38550014, -22.61016798], [-52.38888073, -22.6095273], [-52.39047562, -22.60907673], [-52.39253823, -22.60836004], [-52.3929031, -22.6072213], [-52.39287496, -22.6044263], [-52.39266836, -22.60259371], [-52.39181294, -22.60172761], [-52.3914191, -22.59998399], [-52.39158177, -22.59744939], [-52.39232201, -22.59622005], [-52.39260216, -22.59601288], [-52.39260922, -22.59590677], [-52.39251321, -22.59549989], [-52.39246926, -22.5952892], [-52.39250698, -22.59488117], [-52.39242021, -22.59456155], [-52.39225838, -22.59426454], [-52.39199655, -22.5940047], [-52.39181087, -22.59383154], [-52.39171705, -22.59364313], [-52.39174641, -22.59323517], [-52.39172705, -22.59297323], [-52.39164209, -22.59284291], [-52.39142371, -22.59273561], [-52.39138938, -22.59264856], [-52.39149663, -22.59250926], [-52.3914679, -22.59213821], [-52.39150945, -22.59193679], [-52.39164824, -22.5915389], [-52.39170615, -22.5912128], [-52.39167647, -22.59097027], [-52.39151123, -22.59075855], [-52.39119652, -22.59055995], [-52.39112693, -22.59040069], [-52.39105095, -22.59028294], [-52.39106836, -22.58999268], [-52.39114125, -22.58980264], [-52.3912706, -22.58958828], [-52.39104509, -22.58934194], [-52.39109276, -22.589158], [-52.39107791, -22.58890983], [-52.39086455, -22.58865264], [-52.3908757, -22.58852294], [-52.39110953, -22.58835906], [-52.39105657, -22.58802479], [-52.39099332, -22.58789582], [-52.39082057, -22.58797291], [-52.39070815, -22.58788754], [-52.39076642, -22.58751997], [-52.39072818, -22.58741237], [-52.39047995, -22.5873821], [-52.39041702, -22.58728546], [-52.39050323, -22.58723079], [-52.39071377, -22.58720738], [-52.39074951, -22.58706671], [-52.39053691, -22.58688502], [-52.39052034, -22.58646418], [-52.39059246, -22.58623685], [-52.39059116, -22.58610735], [-52.39092398, -22.58592139], [-52.3910599, -22.58587704], [-52.39102199, -22.58580186], [-52.39085953, -22.58567365], [-52.39094455, -22.58550022], [-52.39094293, -22.58533829], [-52.39080408, -22.58509121], [-52.39098917, -22.58500326], [-52.39113809, -22.58502355], [-52.39112389, -22.58484015], [-52.39117241, -22.58473179], [-52.39133205, -22.58459005], [-52.39132945, -22.58433104], [-52.39147445, -22.58395188], [-52.39137131, -22.58392775], [-52.39133025, -22.58387861], [-52.39130911, -22.58379742], [-52.39130425, -22.58371969], [-52.39125477, -22.58364579], [-52.39127876, -22.58360313], [-52.3913272, -22.58357444], [-52.39143254, -22.58355583], [-52.39145646, -22.58350612], [-52.3914356, -22.58345329], [-52.39134124, -22.58335511], [-52.39132034, -22.58329866], [-52.39132386, -22.58324209], [-52.39146179, -22.58323376], [-52.39157943, -22.58321865], [-52.39170473, -22.58315389], [-52.39171596, -22.58306185], [-52.39165839, -22.58299515], [-52.39159751, -22.58299568], [-52.39152078, -22.58303518], [-52.39145966, -22.58302162], [-52.39144275, -22.58295457], [-52.39147885, -22.58290828], [-52.3915436, -22.58288649], [-52.39155928, -22.58282973], [-52.39153027, -22.58276992], [-52.39141198, -22.5826808], [-52.39141472, -22.58254638], [-52.39136138, -22.58249382], [-52.39127992, -22.58246978], [-52.39126318, -22.58242034], [-52.39133149, -22.58234551], [-52.39133916, -22.58229594], [-52.39126897, -22.58218338], [-52.39126837, -22.58212323], [-52.39129212, -22.58206649], [-52.3912388, -22.58200679], [-52.39110436, -22.58196551], [-52.39105105, -22.58191647], [-52.39107856, -22.58182781], [-52.39116286, -22.58172809], [-52.39115394, -22.58164327], [-52.39114119, -22.58159388], [-52.39116925, -22.58155119], [-52.39118877, -22.5814803], [-52.39114349, -22.58141701], [-52.39108166, -22.58132208], [-52.39109744, -22.58127597], [-52.39114965, -22.58121681], [-52.39114521, -22.58118144], [-52.39110829, -22.58114645], [-52.39102616, -22.58105512], [-52.39098853, -22.58094941], [-52.39101618, -22.58087484], [-52.39108452, -22.58080353], [-52.39120613, -22.58077773], [-52.39124224, -22.58073144], [-52.39125361, -22.58065358], [-52.39125311, -22.58060409], [-52.39123218, -22.58054411], [-52.39131659, -22.58045496], [-52.39135255, -22.58039449], [-52.39132274, -22.58026397], [-52.39130984, -22.58018975], [-52.39134996, -22.58013638], [-52.39136559, -22.58007609], [-52.39133219, -22.57998444], [-52.39123706, -22.57981907], [-52.39124853, -22.57974111], [-52.39129225, -22.57964879], [-52.39131958, -22.57954252], [-52.39140036, -22.57949937], [-52.39149415, -22.579541], [-52.39158334, -22.57950302], [-52.39160702, -22.57943923], [-52.39159845, -22.57938972], [-52.39145975, -22.57933086], [-52.39136571, -22.57926447], [-52.39135715, -22.57922562], [-52.3914456, -22.57913291], [-52.39143717, -22.57909757], [-52.39139645, -22.57909088], [-52.39131557, -22.57912346], [-52.39129897, -22.5790882], [-52.3913063, -22.5790139], [-52.39136546, -22.57883301], [-52.39138399, -22.57866305], [-52.39131035, -22.57860354], [-52.39129773, -22.57855767], [-52.39134187, -22.57850779], [-52.39132897, -22.57843366], [-52.39121475, -22.57838163], [-52.39116148, -22.57833612], [-52.39116106, -22.57829367], [-52.39121344, -22.57825077], [-52.39122918, -22.57820114], [-52.39124873, -22.57813377], [-52.3913299, -22.57812955], [-52.39137013, -22.57808675], [-52.39140882, -22.57794976], [-52.39143682, -22.57790002], [-52.39152531, -22.57782149], [-52.39160171, -22.57773945], [-52.39159709, -22.57768647], [-52.39158057, -22.57765834], [-52.3915073, -22.57764479], [-52.39149056, -22.57759544], [-52.39151863, -22.57755275], [-52.39151007, -22.5775139], [-52.39147741, -22.57749648], [-52.39142897, -22.57752526], [-52.39139635, -22.57751136], [-52.39139152, -22.57743716], [-52.39142339, -22.57737673], [-52.39148768, -22.57730897], [-52.3914708, -22.57724544], [-52.39146202, -22.5771748], [-52.39150161, -22.57707899], [-52.39150094, -22.57701179], [-52.39141507, -22.57692529], [-52.3913247, -22.57682699], [-52.39132008, -22.57677401], [-52.39135232, -22.57674898], [-52.39142577, -22.57678014], [-52.39154418, -22.57684279], [-52.39160065, -22.57681051], [-52.39159194, -22.57674691], [-52.39148466, -22.57658165], [-52.39146724, -22.57646502], [-52.39145001, -22.57636617], [-52.39140118, -22.57635603], [-52.39132861, -22.57640263], [-52.39119893, -22.5764285], [-52.39113352, -22.57639366], [-52.39107633, -22.57635523], [-52.39098742, -22.57640197], [-52.39089009, -22.57641347], [-52.39085732, -22.57638549], [-52.39086876, -22.57630401], [-52.39088796, -22.57620133], [-52.39082239, -22.57614174], [-52.39073287, -22.57611777], [-52.39070786, -22.57605783], [-52.39079655, -22.57598987], [-52.39084876, -22.57592926], [-52.39081991, -22.57589419], [-52.39077509, -22.57587688], [-52.39072161, -22.57581014], [-52.39066446, -22.57577532], [-52.39060768, -22.57578638], [-52.39052722, -22.57586132], [-52.39044968, -22.57589749], [-52.39041374, -22.57586294], [-52.39035512, -22.57575858], [-52.39034402, -22.57569943], [-52.39040113, -22.57565332], [-52.39047414, -22.57562081], [-52.39044204, -22.57555271], [-52.39036324, -22.57552142], [-52.39027376, -22.57547207], [-52.3902669, -22.57531262], [-52.3902175, -22.57508047], [-52.39017509, -22.57503071], [-52.39012816, -22.57504485], [-52.39008716, -22.57513633], [-52.3900988, -22.57525022], [-52.39004146, -22.57527348], [-52.38999398, -22.575242], [-52.38991736, -22.57490532], [-52.38988043, -22.57487827], [-52.38981866, -22.57498367], [-52.38977794, -22.5750934], [-52.38972612, -22.57514397], [-52.38967882, -22.57513074], [-52.3896517, -22.57503524], [-52.38968777, -22.57497568], [-52.3897237, -22.57490239], [-52.38966019, -22.57483456], [-52.38965896, -22.57471147], [-52.38969977, -22.57461086], [-52.3896558, -22.574397], [-52.38960818, -22.5743518], [-52.38949884, -22.57440748], [-52.38943091, -22.57441258], [-52.38941465, -22.5743626], [-52.38947126, -22.57426637], [-52.38929681, -22.57409464], [-52.38923897, -22.57406777], [-52.3891977, -22.57413199], [-52.38917766, -22.57421878], [-52.38912575, -22.57426023], [-52.3890469, -22.57422442], [-52.38894664, -22.57414779], [-52.38896591, -22.57398352], [-52.38893938, -22.57394726], [-52.38881918, -22.57395742], [-52.38882903, -22.5739026], [-52.388939, -22.57383156], [-52.38896452, -22.57376757], [-52.38896365, -22.57368096], [-52.38889476, -22.57359946], [-52.38866288, -22.57344195], [-52.38847355, -22.57334785], [-52.38837315, -22.57325749], [-52.38830951, -22.57317603], [-52.38830873, -22.57309854], [-52.38837635, -22.57305235], [-52.38838055, -22.57294745], [-52.38835872, -22.57286554], [-52.38836356, -22.57282449], [-52.3884683, -22.57282358], [-52.388557, -22.57279545], [-52.38858234, -22.57271322], [-52.38856038, -22.57261767], [-52.38846035, -22.57255468], [-52.38842766, -22.57242734], [-52.38847336, -22.57229011], [-52.38850349, -22.57216222], [-52.38844524, -22.57209436], [-52.38846026, -22.57202125], [-52.38848587, -22.57196638], [-52.38858343, -22.57178318], [-52.3885717, -22.57165105], [-52.38849267, -22.57160612], [-52.38843059, -22.57167052], [-52.38843113, -22.57172525], [-52.38836799, -22.57169382], [-52.38816196, -22.57150412], [-52.38817086, -22.57135366], [-52.38813908, -22.57131744], [-52.38809229, -22.57134521], [-52.38803499, -22.57137308], [-52.38786128, -22.57127423], [-52.38780321, -22.5712246], [-52.38786511, -22.57113285], [-52.38790018, -22.57097304], [-52.38786804, -22.57090034], [-52.38783142, -22.57090526], [-52.38779207, -22.57090876], [-52.38775979, -22.57082242], [-52.3876421, -22.5705681], [-52.38754193, -22.57050059], [-52.38741109, -22.57049712], [-52.38734754, -22.57042478], [-52.38730997, -22.57033388], [-52.38715306, -22.57033984], [-52.3871211, -22.57028538], [-52.38715083, -22.57011649], [-52.38717543, -22.5699612], [-52.38714859, -22.56989306], [-52.38709075, -22.56986619], [-52.38703318, -22.56986669], [-52.38703464, -22.57001263], [-52.38697739, -22.57004501], [-52.38686139, -22.5699594], [-52.38677669, -22.56987351], [-52.3867866, -22.56981417], [-52.3868481, -22.56968141], [-52.3868004, -22.56961797], [-52.38674268, -22.56961395], [-52.38671224, -22.56970083], [-52.3865876, -22.56980216], [-52.38652455, -22.56977994], [-52.38655441, -22.5696247], [-52.38651684, -22.5695338], [-52.3863792, -22.56937548], [-52.38632693, -22.56938045], [-52.38622288, -22.56944972], [-52.38613376, -22.56943685], [-52.38605506, -22.56941476], [-52.38610656, -22.56933222], [-52.38623165, -22.5692764], [-52.38624129, -22.5691897], [-52.38618833, -22.56913552], [-52.38609958, -22.56914992], [-52.38601115, -22.56920542], [-52.38595344, -22.56919219], [-52.38592998, -22.56894627], [-52.38589241, -22.56884624], [-52.38585045, -22.56884209], [-52.38578202, -22.56880619], [-52.38575481, -22.56870156], [-52.38571802, -22.56867912], [-52.38563488, -22.56874821], [-52.38553061, -22.56878551], [-52.38546747, -22.56875417], [-52.38548738, -22.56864462], [-52.38553358, -22.5685576], [-52.38545985, -22.56851714], [-52.38539717, -22.56852229], [-52.38535024, -22.56854545], [-52.38528706, -22.5685096], [-52.38528095, -22.56841391], [-52.38528802, -22.56808102], [-52.38514646, -22.56805487], [-52.38499384, -22.56797409], [-52.38491952, -22.56786535], [-52.38490797, -22.56776058], [-52.38495458, -22.5676359], [-52.3850426, -22.5675394], [-52.38508912, -22.56747515], [-52.38509848, -22.5673702], [-52.38515582, -22.56734695], [-52.38517125, -22.56731493], [-52.38512848, -22.56722868], [-52.38515943, -22.5671828], [-52.38523777, -22.5671684], [-52.38526352, -22.56711805], [-52.38524718, -22.56705894], [-52.3851682, -22.56700949], [-52.38505804, -22.56698308], [-52.38500522, -22.56694252], [-52.38500983, -22.56687863], [-52.38503554, -22.56683279], [-52.38505595, -22.56677337], [-52.38501354, -22.56672361], [-52.38493949, -22.56664214], [-52.38490772, -22.56660593], [-52.38493863, -22.56655553], [-52.38501167, -22.56653666], [-52.38503742, -22.56649543], [-52.3850108, -22.56645005], [-52.38495283, -22.56640954], [-52.38493065, -22.56628211], [-52.38486235, -22.56625985], [-52.38478328, -22.56620128], [-52.38478776, -22.56612374], [-52.38480757, -22.5660142], [-52.38479621, -22.56592768], [-52.38475942, -22.56590514], [-52.38473412, -22.5660011], [-52.38471362, -22.56604237], [-52.38466094, -22.56600634], [-52.3846477, -22.56573287], [-52.38457339, -22.56562413], [-52.3845156, -22.56560187], [-52.38448441, -22.5656249], [-52.38442096, -22.56556159], [-52.3843938, -22.56546157], [-52.38436162, -22.56538435], [-52.38429327, -22.56535757], [-52.38423968, -22.56523041], [-52.38418034, -22.56505308], [-52.38412259, -22.56503533], [-52.38410241, -22.56510848], [-52.38407776, -22.56525908], [-52.38404096, -22.56524576], [-52.38398719, -22.56510035], [-52.38400518, -22.56480837], [-52.38394132, -22.56470415], [-52.38388878, -22.56468175], [-52.38378967, -22.56470997], [-52.38365974, -22.56456296], [-52.38358651, -22.56457271], [-52.38354031, -22.56465973], [-52.38347233, -22.56466944], [-52.38340997, -22.56471559], [-52.38330579, -22.564762], [-52.38328768, -22.56451604], [-52.38334858, -22.56433315], [-52.38337912, -22.56424627], [-52.38331002, -22.56413288], [-52.38324154, -22.56409247], [-52.38318506, -22.56420233], [-52.38311772, -22.5642758], [-52.38305455, -22.56423082], [-52.38306172, -22.56390705], [-52.38298302, -22.56388497], [-52.38287328, -22.56389955], [-52.38288771, -22.56377632], [-52.38283457, -22.56369476], [-52.38267712, -22.56365502], [-52.38265023, -22.56358237], [-52.38272283, -22.56350876], [-52.38278501, -22.56344446], [-52.38274748, -22.56335817], [-52.38262076, -22.56324979], [-52.3825936, -22.56314976], [-52.38253051, -22.56312294], [-52.38243534, -22.5630189], [-52.38238554, -22.56275486], [-52.3823377, -22.56267778], [-52.38224905, -22.56271052], [-52.38207689, -22.56276664], [-52.3820186, -22.56269425], [-52.38205449, -22.56261645], [-52.38225754, -22.56251896], [-52.3823095, -22.5624729], [-52.38230868, -22.56239081], [-52.38225057, -22.56233667], [-52.38212992, -22.56231034], [-52.38210824, -22.56223303], [-52.38219643, -22.5621639], [-52.3822116, -22.56210442], [-52.38209542, -22.56200065], [-52.38201668, -22.56197396], [-52.38197558, -22.56205633], [-52.38191802, -22.56205682], [-52.38190647, -22.56195206], [-52.3818322, -22.56184783], [-52.38182052, -22.56172943], [-52.38188422, -22.56164191], [-52.3819668, -22.5615171], [-52.38196571, -22.56140764], [-52.38188938, -22.56132068], [-52.38178862, -22.56129969], [-52.38176266, -22.5612123], [-52.381829, -22.56114598], [-52.38188771, -22.56115279], [-52.38192889, -22.56107946], [-52.38185266, -22.5609925], [-52.38182689, -22.56093428], [-52.38193507, -22.56086037], [-52.38199293, -22.56077227], [-52.38198382, -22.56070668], [-52.3819081, -22.56067084], [-52.38179912, -22.56066446], [-52.38178157, -22.56059163], [-52.38183933, -22.56050353], [-52.38199751, -22.56039261], [-52.38197189, -22.56034902], [-52.38189711, -22.5604081], [-52.38181329, -22.56040882], [-52.38176222, -22.56032897], [-52.38177778, -22.56021205], [-52.38181904, -22.56014594], [-52.38177662, -22.56009527], [-52.38165972, -22.56013277], [-52.38154249, -22.56014832], [-52.38150851, -22.5601048], [-52.38150793, -22.56004646], [-52.38159931, -22.55996538], [-52.38158128, -22.55983412], [-52.38159749, -22.55978286], [-52.38163897, -22.5597387], [-52.38159655, -22.55968794], [-52.38152919, -22.55965203], [-52.38145249, -22.55952859], [-52.38148371, -22.55929475], [-52.3814076, -22.55922965], [-52.38126392, -22.55910678], [-52.3811975, -22.55895137], [-52.38119656, -22.55885645], [-52.38110329, -22.55874778], [-52.38111841, -22.55858706], [-52.38103426, -22.55854398], [-52.38094899, -22.55839866], [-52.38093953, -22.55828928], [-52.38085528, -22.55824619], [-52.38072803, -22.55809401], [-52.3806189, -22.558073], [-52.3805011, -22.55803021], [-52.38038296, -22.55794361], [-52.3802315, -22.55787925], [-52.38015517, -22.55779229], [-52.38018799, -22.55771903], [-52.38037162, -22.55764447], [-52.38036236, -22.55756426], [-52.38029421, -22.55744797], [-52.3803271, -22.55738202], [-52.38043549, -22.55732997], [-52.3804347, -22.55724968], [-52.38040013, -22.55714783], [-52.38037417, -22.55706044], [-52.38046512, -22.55693555], [-52.38049743, -22.55681118], [-52.38040474, -22.55676085], [-52.38027102, -22.55679849], [-52.37994559, -22.55694001], [-52.37985319, -22.55691886], [-52.37988613, -22.55686746], [-52.37988526, -22.55677994], [-52.3797837, -22.55667857], [-52.37974085, -22.55658401], [-52.37970689, -22.55653327], [-52.37971482, -22.5564894], [-52.37974793, -22.55644531], [-52.37972209, -22.55637978], [-52.37965473, -22.55634386], [-52.37955388, -22.55632287], [-52.37953606, -22.55621346], [-52.3794767, -22.55614099], [-52.37941843, -22.55617798], [-52.37936029, -22.55623692], [-52.37929998, -22.55606953], [-52.37934175, -22.55605454], [-52.37940009, -22.55602487], [-52.37939944, -22.55595912], [-52.37925611, -22.55587274], [-52.37917923, -22.55572012], [-52.37926201, -22.55562448], [-52.3792949, -22.55555854], [-52.37921865, -22.5554789], [-52.37906748, -22.5554437], [-52.37895727, -22.55531323], [-52.37884749, -22.55522656], [-52.37868677, -22.55508198], [-52.37870236, -22.55495775], [-52.37863483, -22.55491452], [-52.37853516, -22.55500299], [-52.37845971, -22.55500363], [-52.37827608, -22.55507819], [-52.37826677, -22.55498334], [-52.37820763, -22.55493273], [-52.37816587, -22.55494772], [-52.37812491, -22.55504299], [-52.37801615, -22.55505847], [-52.37786447, -22.55497216], [-52.37763711, -22.55486463], [-52.37745902, -22.55465445], [-52.37738255, -22.55455295], [-52.37727452, -22.55464149], [-52.37719906, -22.55464213], [-52.37722323, -22.55453968], [-52.37723087, -22.55446664], [-52.37709599, -22.5543875], [-52.37712837, -22.55427044], [-52.37708581, -22.55420505], [-52.37697662, -22.55417681], [-52.37690059, -22.55411902], [-52.37689071, -22.55396583], [-52.37685614, -22.55386388], [-52.37676361, -22.55382819], [-52.37666357, -22.55388016], [-52.37645522, -22.55399142], [-52.37635439, -22.55396311], [-52.37629465, -22.55386146], [-52.3762612, -22.55386175], [-52.37622794, -22.55389121], [-52.37617876, -22.5540011], [-52.37602831, -22.55403888], [-52.37593584, -22.55401049], [-52.37576749, -22.55393895], [-52.37568251, -22.5538229], [-52.37553905, -22.55372188], [-52.37544261, -22.55368486], [-52.37534681, -22.55370275], [-52.37526534, -22.55368502], [-52.37520019, -22.55368558], [-52.37513873, -22.55371438], [-52.37502248, -22.5538075], [-52.37497225, -22.55383204], [-52.37492819, -22.55381119], [-52.37490661, -22.55377308], [-52.37490777, -22.55372349], [-52.3749282, -22.5536553], [-52.37492789, -22.55362405], [-52.37489022, -22.55359041], [-52.37488318, -22.553538], [-52.37488412, -22.55347567], [-52.37485436, -22.55342633], [-52.37481339, -22.55339408], [-52.37480483, -22.55335441], [-52.37481577, -22.55331042], [-52.37483329, -22.55327198], [-52.37482153, -22.55323387], [-52.37479855, -22.55321131], [-52.37480798, -22.55317157], [-52.37485332, -22.55315421], [-52.374915, -22.55313805], [-52.37492608, -22.55310824], [-52.37491283, -22.55308569], [-52.37487691, -22.55307181], [-52.37473185, -22.55306465], [-52.37464786, -22.55300802], [-52.3745731, -22.55300098], [-52.37448564, -22.55303614], [-52.37438945, -22.55308293], [-52.37427914, -22.55303032], [-52.37418183, -22.55295465], [-52.37419842, -22.55286265], [-52.37414516, -22.55280575], [-52.37404853, -22.5527989], [-52.37403474, -22.55274166], [-52.37406495, -22.55268016], [-52.37408166, -22.55259973], [-52.37398872, -22.55252393], [-52.37383843, -22.55242965], [-52.37378022, -22.55231535], [-52.37370967, -22.55228154], [-52.373669, -22.55217088], [-52.37364102, -22.55200665], [-52.37363117, -22.55189582], [-52.37356464, -22.55183515], [-52.3735597, -22.55177784], [-52.3735454, -22.55165937], [-52.37343989, -22.5516488], [-52.37328499, -22.55153153], [-52.37313524, -22.55148304], [-52.3729984, -22.5514115], [-52.37292244, -22.55128209], [-52.37284316, -22.55125982], [-52.37270997, -22.55111563], [-52.37266016, -22.55095538], [-52.37270302, -22.55085548], [-52.3727942, -22.55074378], [-52.37282342, -22.55066983], [-52.37274064, -22.55057814], [-52.37251995, -22.55030825], [-52.3723025, -22.55006994], [-52.37226229, -22.54998592], [-52.37227998, -22.54993555], [-52.37233717, -22.54989812], [-52.37236962, -22.54981611], [-52.37231994, -22.54968981], [-52.37223092, -22.54956656], [-52.37196788, -22.54931021], [-52.37185441, -22.54917398], [-52.37181934, -22.54900014], [-52.37180242, -22.54881296], [-52.37175005, -22.54872896], [-52.37160648, -22.54860617], [-52.37149689, -22.54854641], [-52.37146356, -22.54854931], [-52.37142471, -22.54860239], [-52.37133811, -22.54872452], [-52.37126247, -22.54873573], [-52.37121065, -22.54870718], [-52.37117667, -22.54863359], [-52.37110033, -22.54857354], [-52.37100035, -22.54857178], [-52.37087306, -22.54857133], [-52.37070721, -22.54855612], [-52.37060411, -22.54843489], [-52.37055698, -22.54833973], [-52.37058968, -22.54817515], [-52.37053502, -22.54801584], [-52.37048405, -22.54788648], [-52.37040686, -22.54780947], [-52.37005453, -22.54761819], [-52.3697344, -22.54744894], [-52.36961253, -22.5473667], [-52.36956032, -22.54723952], [-52.36946414, -22.54717929], [-52.36940057, -22.54719094], [-52.3692928, -22.54724731], [-52.36920408, -22.5472925], [-52.36912776, -22.54724483], [-52.36905014, -22.54712338], [-52.36887704, -22.54701385], [-52.36879349, -22.54694239], [-52.36880585, -22.54690345], [-52.36897746, -22.54686315], [-52.36898943, -22.54678537], [-52.3688988, -22.5466363], [-52.36881546, -22.54658706], [-52.36866905, -22.54659942], [-52.36859861, -22.54655558], [-52.36862843, -22.54635553], [-52.36856936, -22.54617295], [-52.36845984, -22.54605177], [-52.36840165, -22.54596899], [-52.36841401, -22.54593005], [-52.36858579, -22.54590637], [-52.36861729, -22.54586726], [-52.36855927, -22.54580119], [-52.36838063, -22.54576938], [-52.36806151, -22.54571104], [-52.36803532, -22.54563918], [-52.3680603, -22.54558902], [-52.36818091, -22.54554356], [-52.36822495, -22.54549324], [-52.36818004, -22.54545478], [-52.36808386, -22.54539454], [-52.36811522, -22.54534993], [-52.36819756, -22.54529928], [-52.36813909, -22.54517766], [-52.36799692, -22.54497908], [-52.36792593, -22.54487979], [-52.36796986, -22.54481836], [-52.36800126, -22.54476814], [-52.36797551, -22.54474063], [-52.36789207, -22.54468028], [-52.36786534, -22.54455289], [-52.36778755, -22.54441481], [-52.3677231, -22.5443376], [-52.3675823, -22.54427774], [-52.36750489, -22.5441785], [-52.3674725, -22.54411781], [-52.36738319, -22.54411297], [-52.36736468, -22.54416867], [-52.36731428, -22.54422456], [-52.36723095, -22.54417532], [-52.3671855, -22.54409243], [-52.36721032, -22.54402565], [-52.36730437, -22.5438695], [-52.36727137, -22.54374766], [-52.36720012, -22.54363175], [-52.36721814, -22.54352611], [-52.36719799, -22.54341527], [-52.36713942, -22.54329366], [-52.36713195, -22.5431772], [-52.36725278, -22.54315396], [-52.36725224, -22.54309851], [-52.36714322, -22.54302727], [-52.36709771, -22.54293887], [-52.36701373, -22.54282307], [-52.36681592, -22.54278031], [-52.36664905, -22.54265961], [-52.36655836, -22.54250503], [-52.36655074, -22.54238298], [-52.36656936, -22.54222973], [-52.36653509, -22.54190892], [-52.36647916, -22.54150232], [-52.36650916, -22.54138907], [-52.36669505, -22.54128796], [-52.36683942, -22.5411872], [-52.3668892, -22.54096973], [-52.36692822, -22.54071614], [-52.36700299, -22.54030718], [-52.36702246, -22.54032271], [-52.36708264, -22.5403222], [-52.36709155, -22.54019974], [-52.36697912, -22.53999964], [-52.36690694, -22.5397992], [-52.36666552, -22.53974001], [-52.36642374, -22.53964587], [-52.36644198, -22.53945342], [-52.36641124, -22.53939245], [-52.36627999, -22.53931489], [-52.36620549, -22.53887846], [-52.3658286, -22.53831335], [-52.36542374, -22.5379584], [-52.36520218, -22.53787284], [-52.36495118, -22.53785754], [-52.3646791, -22.53774614], [-52.36444633, -22.53753829], [-52.36432303, -22.53725085], [-52.36428918, -22.53723158], [-52.36428848, -22.53721791], [-52.36424062, -22.53703749], [-52.36408206, -22.53673255], [-52.36390238, -22.53663364], [-52.36371202, -22.5366152], [-52.36352175, -22.53660679], [-52.36335947, -22.53651775], [-52.36315685, -22.53641903], [-52.36289676, -22.53628264], [-52.36293069, -22.5362804], [-52.36292437, -22.53622021], [-52.36283744, -22.53617073], [-52.36285337, -22.53603999], [-52.36277723, -22.53591012], [-52.36270721, -22.5358203], [-52.36259157, -22.53578615], [-52.36252175, -22.53571647], [-52.36254312, -22.53554558], [-52.36246129, -22.53543075], [-52.36238629, -22.53533754], [-52.36225185, -22.53514286], [-52.36198432, -22.53489909], [-52.36190892, -22.53484445], [-52.3619198, -22.53478411], [-52.36202309, -22.53473808], [-52.36206284, -22.5346775], [-52.3620622, -22.5346122], [-52.3620093, -22.53450219], [-52.36197969, -22.53442711], [-52.36197154, -22.53418114], [-52.36186574, -22.53397114], [-52.36170238, -22.53377173], [-52.36169546, -22.53365121], [-52.36166002, -22.53356616], [-52.36157888, -22.53352168], [-52.36145784, -22.53351268], [-52.36133577, -22.53340822], [-52.36108679, -22.53315228], [-52.3609128, -22.53303823], [-52.36088314, -22.53295809], [-52.36084225, -22.53290325], [-52.36079048, -22.53290875], [-52.36070939, -22.53286924], [-52.36066811, -22.53277421], [-52.36047667, -22.53264522], [-52.3603948, -22.53252542], [-52.36041612, -22.53234948], [-52.36040303, -22.53218394], [-52.3603617, -22.53208385], [-52.36023938, -22.53195437], [-52.36018653, -22.53184932], [-52.36005343, -22.53180023], [-52.35997235, -22.53176081], [-52.35994219, -22.53162043], [-52.35992959, -22.53150502], [-52.35985424, -22.53146555], [-52.35981326, -22.5314006], [-52.35985277, -22.53131491], [-52.3598809, -22.53124937], [-52.3598115, -22.53116171], [-52.35969022, -22.53112751], [-52.35960349, -22.53109816], [-52.35959153, -22.53105807], [-52.35971104, -22.53090144], [-52.35971634, -22.53085623], [-52.35949553, -22.53066725], [-52.35949504, -22.53061703], [-52.35951774, -22.53058171], [-52.3595571, -22.53048094], [-52.35952572, -22.53022514], [-52.35947787, -22.53004481], [-52.35938463, -22.52993513], [-52.35928001, -22.5298456], [-52.35924834, -22.52955964], [-52.35912627, -22.52944524], [-52.35912558, -22.52937498], [-52.35944, -22.52911617], [-52.35945054, -22.5290207], [-52.3593977, -22.52878748], [-52.3593552, -22.52856692], [-52.35931225, -22.52830119], [-52.35926949, -22.52805552], [-52.35926111, -22.52778444], [-52.35924169, -22.52756865], [-52.35914869, -22.5274941], [-52.35896927, -22.52741026], [-52.35893981, -22.52734024], [-52.35900829, -22.52727436], [-52.35908873, -22.52724857], [-52.35905937, -22.52719869], [-52.3588675, -22.52702455], [-52.35883225, -22.52694951], [-52.35887205, -22.52690402], [-52.35895869, -22.52691503], [-52.35893977, -22.52674945], [-52.35888648, -22.52660936], [-52.35891427, -22.52649866], [-52.35899388, -22.52638752], [-52.35900991, -22.52626681], [-52.35896858, -22.52615669], [-52.35885161, -22.52598697], [-52.35880465, -22.52589705], [-52.35880352, -22.52578153], [-52.35880278, -22.52570621], [-52.35877322, -22.52563619], [-52.35868582, -22.52553649], [-52.35866728, -22.52540107], [-52.35873003, -22.52533524], [-52.35874675, -22.52528497], [-52.35867694, -22.5252152], [-52.35865346, -22.52517024], [-52.35868196, -22.52512186], [-52.35877343, -22.52505081], [-52.3587846, -22.52501053], [-52.35876651, -22.52493038], [-52.35868989, -22.52476032], [-52.35870053, -22.52466476], [-52.35874597, -22.52459917], [-52.35876209, -22.52447854], [-52.35879464, -22.52426736], [-52.35888562, -22.52414602], [-52.35908087, -22.52407916], [-52.35913224, -22.52402344], [-52.35910841, -22.52394335], [-52.35897478, -22.52383898], [-52.35896263, -22.52375987], [-52.35894979, -22.52362947], [-52.35906277, -22.5233925], [-52.35918831, -22.52326589], [-52.35921027, -22.52315524], [-52.35918042, -22.52305506], [-52.35892669, -22.52303715], [-52.35890889, -22.52297706], [-52.35892566, -22.52293166], [-52.35898247, -22.52284583], [-52.35898163, -22.52276048], [-52.35894041, -22.52267051], [-52.35892202, -22.5225602], [-52.35897893, -22.52248439], [-52.35905344, -22.52243851], [-52.35904153, -22.52240348], [-52.35893707, -22.52232903], [-52.35889614, -22.52226913], [-52.3589131, -22.52223385], [-52.35898182, -22.52219317], [-52.35899804, -22.52208248], [-52.35897407, -22.5219873], [-52.35892701, -22.52188726], [-52.35891466, -22.52180707], [-52.35898319, -22.52173622], [-52.35904598, -22.52167544], [-52.35903961, -22.52162022], [-52.35899304, -22.52157039], [-52.3589925, -22.52151521], [-52.35899774, -22.52145492], [-52.35893965, -22.52141016], [-52.35892176, -22.52135007], [-52.35893269, -22.52129479], [-52.35899563, -22.52123898], [-52.35898921, -22.52117879], [-52.35896538, -22.5210987], [-52.35897538, -22.52093793], [-52.35897346, -22.52074213], [-52.35902987, -22.5206348], [-52.35916795, -22.52054819], [-52.35931029, -22.52049009], [-52.35936683, -22.52042557], [-52.35930042, -22.52031576], [-52.3592336, -22.52016332], [-52.35930587, -22.52003815], [-52.35932514, -22.51992057], [-52.35924704, -22.51986785], [-52.35918123, -22.51981864], [-52.35916015, -22.51975117], [-52.35922426, -22.51962607], [-52.35918616, -22.51948766], [-52.35910228, -22.51926066], [-52.3591259, -22.5191715], [-52.35921067, -22.51907116], [-52.35921014, -22.51901778], [-52.35916485, -22.51897896], [-52.35899338, -22.51899107], [-52.35897663, -22.51894858], [-52.35902011, -22.51880225], [-52.35901544, -22.51874187], [-52.35895413, -22.51873525], [-52.35882362, -22.51875053], [-52.35880701, -22.51872222], [-52.35883873, -22.51862594], [-52.35876448, -22.51854826], [-52.35868624, -22.51848127], [-52.35870149, -22.51837085], [-52.3587046, -22.5182712], [-52.35863028, -22.51818639], [-52.35860415, -22.51801942], [-52.35865143, -22.51785364], [-52.35865851, -22.5177433], [-52.35854319, -22.51765178], [-52.35845572, -22.51747459], [-52.35835742, -22.51744335], [-52.35827175, -22.51745121], [-52.35824282, -22.51741587], [-52.35831506, -22.51728718], [-52.35831806, -22.51717687], [-52.35825958, -22.51704206], [-52.35826283, -22.51695668], [-52.35830625, -22.51680331], [-52.35824784, -22.51667573], [-52.35814019, -22.51652363], [-52.35814177, -22.51626737], [-52.35823138, -22.5162453], [-52.3583375, -22.51624079], [-52.3583732, -22.51613373], [-52.35847879, -22.51607594], [-52.35847011, -22.51602263], [-52.3583881, -22.51598774], [-52.35825227, -22.51586577], [-52.35815791, -22.51582032], [-52.35812885, -22.51577071], [-52.35822244, -22.51573795], [-52.35827516, -22.51570192], [-52.35830993, -22.51549876], [-52.35835206, -22.5152138], [-52.35845988, -22.51495665], [-52.35845092, -22.51487489], [-52.35835172, -22.51476183], [-52.35833459, -22.51468014], [-52.35832132, -22.51457548], [-52.35842632, -22.51445718], [-52.35846163, -22.51430026], [-52.35845211, -22.51416161], [-52.35852895, -22.51408626], [-52.35851608, -22.51402224], [-52.35844207, -22.51396949], [-52.35840834, -22.51387015], [-52.35843642, -22.51380948], [-52.35855025, -22.51375867], [-52.3586065, -22.5136657], [-52.35862926, -22.51348758], [-52.35862445, -22.51341292], [-52.35857211, -22.51309118], [-52.35862389, -22.5129484], [-52.35872122, -22.51288002], [-52.35872875, -22.51281592], [-52.35867125, -22.51278081], [-52.35851179, -22.51276789], [-52.35842553, -22.51271524], [-52.35835972, -22.51266602], [-52.3583346, -22.51260211], [-52.35837861, -22.51250925], [-52.35850067, -22.51246549], [-52.35854513, -22.51241887], [-52.35847108, -22.5123626], [-52.35844572, -22.51227384], [-52.35854238, -22.51213782], [-52.3585778, -22.5120023], [-52.35855122, -22.51178901], [-52.35852966, -22.51167177], [-52.35845998, -22.51164391], [-52.35839846, -22.51161597], [-52.35838465, -22.51145595], [-52.35846103, -22.51133427], [-52.35857126, -22.51133334], [-52.35863717, -22.51138265], [-52.3587303, -22.51130355], [-52.35877891, -22.51126403], [-52.35870452, -22.51117208], [-52.35864234, -22.51107659], [-52.35871489, -22.51097988], [-52.35876312, -22.51090116], [-52.35888073, -22.51086991], [-52.35894148, -22.51081963], [-52.35896099, -22.51072698], [-52.35886678, -22.51069571], [-52.35873621, -22.51070394], [-52.35868642, -22.51062253], [-52.35866472, -22.51049103], [-52.35875733, -22.51035856], [-52.35889502, -22.51024359], [-52.35899259, -22.51020004], [-52.35900383, -22.51009671], [-52.35893771, -22.51001544], [-52.35897738, -22.50989768], [-52.35905789, -22.50977958], [-52.35905677, -22.5096657], [-52.3591297, -22.50960818], [-52.35920256, -22.50953287], [-52.35916491, -22.50944061], [-52.35917576, -22.50929826], [-52.35925686, -22.50924058], [-52.35925232, -22.50919437], [-52.35919081, -22.50916644], [-52.35910466, -22.5091351], [-52.35905959, -22.50909854], [-52.35909595, -22.50905913], [-52.35924212, -22.50897606], [-52.35931079, -22.50890078], [-52.35931753, -22.50875477], [-52.35941942, -22.50873611], [-52.35945139, -22.50866467], [-52.35941377, -22.50857611], [-52.35926157, -22.50845989], [-52.35921147, -22.5083465], [-52.35906286, -22.50818048], [-52.35898831, -22.50808149], [-52.35891322, -22.50791846], [-52.35881389, -22.50778047], [-52.35879969, -22.50758134], [-52.35882737, -22.50748861], [-52.35895396, -22.50749107], [-52.35901474, -22.50744431], [-52.35901384, -22.50735183], [-52.35893942, -22.50725635], [-52.35879161, -22.50717216], [-52.35879081, -22.50709033], [-52.35880638, -22.50701198], [-52.35884301, -22.50700092], [-52.35888045, -22.50707178], [-52.35896639, -22.50709246], [-52.35903916, -22.50702871], [-52.35905888, -22.50695737], [-52.35918131, -22.50694207], [-52.35921352, -22.50689555], [-52.35917598, -22.50681404], [-52.35913885, -22.50677524], [-52.35917075, -22.50669666], [-52.35926343, -22.50657133], [-52.35930227, -22.50636814], [-52.35926417, -22.50622972], [-52.35929582, -22.50612622], [-52.35945978, -22.50619249], [-52.35953237, -22.5061898], [-52.35956474, -22.50615041], [-52.35951053, -22.50604411], [-52.35952041, -22.50580205], [-52.35949058, -22.50567423], [-52.35936364, -22.5056361], [-52.35927352, -22.50560489], [-52.35925185, -22.5054769], [-52.35928305, -22.50532725], [-52.35923246, -22.50516401], [-52.35923121, -22.50503585], [-52.35931981, -22.50491055], [-52.35931741, -22.50466508], [-52.35939358, -22.50452209], [-52.35942425, -22.50434841], [-52.3594019, -22.50414935], [-52.35929401, -22.50397232], [-52.35922295, -22.50381278], [-52.35916846, -22.50366737], [-52.35914184, -22.50343077], [-52.35913989, -22.50323154], [-52.35923188, -22.50303504], [-52.35947365, -22.50270919], [-52.35958577, -22.50248406], [-52.35959648, -22.50232745], [-52.3595057, -22.50222859], [-52.35948407, -22.50210422], [-52.35952745, -22.50197722], [-52.35963701, -22.50190864], [-52.35972176, -22.5018083], [-52.35976835, -22.50156241], [-52.35972278, -22.50149515], [-52.35977896, -22.50139505], [-52.35990025, -22.50127299], [-52.35996655, -22.50095576], [-52.36001792, -22.50078101], [-52.36008212, -22.50066657], [-52.36011381, -22.50056731], [-52.36008852, -22.50045688], [-52.36012783, -22.50040046], [-52.36012738, -22.50035512], [-52.36005011, -22.5002864], [-52.3600127, -22.50021735], [-52.35997226, -22.50014833], [-52.35992911, -22.50011934], [-52.35989466, -22.50004493], [-52.35991855, -22.49998331], [-52.35996411, -22.49994029], [-52.35996374, -22.4999029], [-52.35992043, -22.49985793], [-52.35988304, -22.49979149], [-52.35989807, -22.49976743], [-52.35996176, -22.49970015], [-52.36003763, -22.49963547], [-52.36004644, -22.49959267], [-52.36000594, -22.49952635], [-52.359953, -22.4994307], [-52.35993773, -22.49912138], [-52.36000435, -22.49904603], [-52.36006797, -22.49898146], [-52.36003995, -22.49892841], [-52.36000868, -22.49886192], [-52.36001742, -22.49882184], [-52.36007837, -22.49879197], [-52.36015483, -22.49877795], [-52.36019728, -22.49873496], [-52.36023339, -22.49867062], [-52.36021741, -22.49860672], [-52.36018906, -22.49852151], [-52.36016394, -22.49845768], [-52.36019695, -22.4983837], [-52.36017793, -22.49831712], [-52.36014645, -22.49822932], [-52.36015195, -22.49816523], [-52.3602247, -22.49808992], [-52.3603492, -22.49797949], [-52.36038817, -22.49789914], [-52.36039673, -22.4978297], [-52.36046014, -22.49774372], [-52.36049908, -22.49764999], [-52.36048597, -22.49756213], [-52.36046088, -22.49750092], [-52.36044536, -22.49748507], [-52.36042592, -22.49738534], [-52.3603241, -22.49730075], [-52.36024992, -22.49722939], [-52.36020624, -22.49714702], [-52.3601812, -22.49709124], [-52.36017785, -22.49705658], [-52.36022004, -22.49698686], [-52.36019809, -22.49693899], [-52.36008698, -22.49684916], [-52.36001599, -22.49678572], [-52.36001207, -22.49670311], [-52.36003925, -22.49666015], [-52.36003596, -22.49664148], [-52.35998049, -22.49660465], [-52.35989107, -22.49653604], [-52.35984138, -22.49646438], [-52.35983115, -22.49636303], [-52.35978486, -22.49632079], [-52.35974763, -22.49627035], [-52.35968299, -22.49621092], [-52.35965499, -22.49616048], [-52.35966947, -22.49608034], [-52.35965355, -22.49601372], [-52.35958233, -22.49593692], [-52.35952332, -22.49584673], [-52.35948264, -22.49576172], [-52.35947861, -22.49565761], [-52.35941354, -22.49558347], [-52.35933632, -22.49550942], [-52.35931458, -22.49548296], [-52.35931094, -22.49541895], [-52.35934962, -22.49530924], [-52.35935234, -22.49526912], [-52.35932743, -22.4952267], [-52.35925032, -22.49517397], [-52.35920374, -22.49510228], [-52.35920293, -22.49501964], [-52.35914689, -22.49492401], [-52.35900797, -22.4948131], [-52.35899232, -22.49477322], [-52.35900426, -22.49474114], [-52.35904349, -22.49468743], [-52.35906113, -22.49463291], [-52.35899325, -22.4945801], [-52.358919, -22.4945007], [-52.35892704, -22.49438854], [-52.35894496, -22.49434305], [-52.35891357, -22.4942632], [-52.35886388, -22.49419163], [-52.35882921, -22.49408516], [-52.35877651, -22.49402428], [-52.35876984, -22.49396824], [-52.35877982, -22.49373603], [-52.358675, -22.49366222], [-52.3586223, -22.49359059], [-52.35862795, -22.49354258], [-52.35870059, -22.49345652], [-52.35870911, -22.49339241], [-52.35869019, -22.49333657], [-52.35858819, -22.49323338], [-52.35857854, -22.49319074], [-52.35861465, -22.4931264], [-52.35866304, -22.49306466], [-52.35868611, -22.49290839], [-52.35866926, -22.49274577], [-52.35864082, -22.49266065], [-52.35850497, -22.49254438], [-52.35835103, -22.49245761], [-52.35831987, -22.49240188], [-52.358307, -22.49233795], [-52.35836469, -22.49228408], [-52.35840398, -22.4922357], [-52.35839759, -22.49220911], [-52.35832943, -22.49212695], [-52.35831975, -22.49207103], [-52.35840192, -22.4920249], [-52.35851787, -22.49198391], [-52.35854192, -22.49193837], [-52.35854734, -22.49186634], [-52.35845782, -22.49178697], [-52.35836831, -22.49171836], [-52.358331, -22.49165997], [-52.35829384, -22.49159751], [-52.35824454, -22.49156595], [-52.35815586, -22.49157202], [-52.3580643, -22.49160215], [-52.35801215, -22.4915866], [-52.35800514, -22.49149589], [-52.35804138, -22.49144491], [-52.35798773, -22.49128522], [-52.35789118, -22.49111262], [-52.35770517, -22.49087673], [-52.35763953, -22.49074387], [-52.35761596, -22.49051998], [-52.35758814, -22.49043839], [-52.35751116, -22.49038836], [-52.35740105, -22.49039995], [-52.35727945, -22.49048904], [-52.35719697, -22.49050301], [-52.35711104, -22.49048242], [-52.35703946, -22.49036831], [-52.35702282, -22.49022701], [-52.35694804, -22.49009423], [-52.35666965, -22.48980312], [-52.35651764, -22.48960424], [-52.35646989, -22.48941253], [-52.356411, -22.48929434], [-52.35627471, -22.48913273], [-52.35602821, -22.48897204], [-52.35589213, -22.48883174], [-52.35578917, -22.48862983], [-52.35568119, -22.48844007], [-52.35559591, -22.48817669], [-52.35545572, -22.48792433], [-52.35536151, -22.48768234], [-52.35535334, -22.48747159], [-52.35531486, -22.48729317], [-52.35521212, -22.48711258], [-52.35503875, -22.48691659], [-52.35479213, -22.48674253], [-52.35461944, -22.48661591], [-52.35453044, -22.48649869], [-52.3545013, -22.48633085], [-52.35445729, -22.4862138], [-52.35437381, -22.48613448], [-52.35422315, -22.48606375], [-52.35408194, -22.48602493], [-52.35386541, -22.48579724], [-52.35372655, -22.48568099], [-52.35371368, -22.48561705], [-52.3536997, -22.48543842], [-52.35361258, -22.48529509], [-52.35345196, -22.48514967], [-52.35325618, -22.48505629], [-52.35317882, -22.48497692], [-52.35312833, -22.48482253], [-52.35308754, -22.4847162], [-52.3529793, -22.48459969], [-52.3529139, -22.48449086], [-52.35277354, -22.4842198], [-52.35262173, -22.48403971], [-52.35259311, -22.48392515], [-52.35253118, -22.48385368], [-52.35238992, -22.48380943], [-52.35225462, -22.48374924], [-52.35209435, -22.48354917], [-52.35206288, -22.48346137], [-52.3520742, -22.48336526], [-52.35201808, -22.48326168], [-52.35195301, -22.48317678], [-52.35197078, -22.4831153], [-52.35200976, -22.48303495], [-52.35197292, -22.48284183], [-52.35182632, -22.48265256], [-52.35157104, -22.48245299], [-52.35129262, -22.48235447], [-52.35090314, -22.48199914], [-52.35073242, -22.48192282], [-52.35072715, -22.48184829], [-52.35073165, -22.48173163], [-52.3505983, -22.48169077], [-52.35034353, -22.48168766], [-52.35017262, -22.48157276], [-52.35014107, -22.48144621], [-52.35023606, -22.48123921], [-52.35020441, -22.48110209], [-52.35009455, -22.48102895], [-52.34991875, -22.48104099], [-52.34972493, -22.48106908], [-52.34951355, -22.48116072], [-52.3494404, -22.48111373], [-52.34941508, -22.48100826], [-52.34940206, -22.4809185], [-52.34934095, -22.48087141], [-52.34923166, -22.48085652], [-52.34906122, -22.48078921], [-52.34890833, -22.48065835], [-52.34878062, -22.48062772], [-52.34868934, -22.48059669], [-52.34873064, -22.48047477], [-52.34868102, -22.48035894], [-52.34854712, -22.48031246], [-52.34846771, -22.48020112], [-52.34843069, -22.48013269], [-52.34838761, -22.48006965], [-52.34829629, -22.48003338], [-52.34823503, -22.47997049], [-52.34822794, -22.47987011], [-52.34811186, -22.47977597], [-52.34806846, -22.47968113], [-52.34812798, -22.47956439], [-52.34809705, -22.47950115], [-52.34799909, -22.47940153], [-52.34794896, -22.47924343], [-52.34793548, -22.47909551], [-52.34789857, -22.47904821], [-52.34777606, -22.47892243], [-52.34775584, -22.47871115], [-52.34766319, -22.47853751], [-52.34764966, -22.47839482], [-52.34765487, -22.47831024], [-52.3477032, -22.47828337], [-52.34775695, -22.47820371], [-52.34779202, -22.47806061], [-52.34787042, -22.47801769], [-52.34792437, -22.4779485], [-52.34789931, -22.47786941], [-52.34792897, -22.47780052], [-52.3479772, -22.47777365], [-52.34797061, -22.47771553], [-52.34784836, -22.47761612], [-52.34767072, -22.47743795], [-52.34760819, -22.47724283], [-52.34759481, -22.47711613], [-52.34750869, -22.47698462], [-52.34748215, -22.47675226], [-52.34744422, -22.47658873], [-52.34735399, -22.47649429], [-52.34739431, -22.47640245], [-52.34747869, -22.47635415], [-52.34760502, -22.47624209], [-52.34763436, -22.4761414], [-52.34766866, -22.47592967], [-52.34767239, -22.47569182], [-52.34761593, -22.47549141], [-52.34769979, -22.47539027], [-52.34772934, -22.47531072], [-52.34771617, -22.4751945], [-52.34757488, -22.47501594], [-52.34755543, -22.47488396], [-52.34759141, -22.47483615], [-52.34765123, -22.47475102], [-52.34762025, -22.47468254], [-52.34748667, -22.47466785], [-52.34741327, -22.47460506], [-52.34743103, -22.47456255], [-52.34753893, -22.47443483], [-52.3475376, -22.47429737], [-52.34752489, -22.47422874], [-52.34748748, -22.47412862], [-52.34749258, -22.4740229], [-52.34754648, -22.47395904], [-52.34753336, -22.47385871], [-52.34743535, -22.47375376], [-52.34744683, -22.47368493], [-52.34748756, -22.47350494], [-52.34763652, -22.47320066], [-52.34770788, -22.47305202], [-52.34772395, -22.47283521], [-52.34766775, -22.47267174], [-52.34760599, -22.47255601], [-52.34751875, -22.47231883], [-52.34735857, -22.47205588], [-52.34732585, -22.47180768], [-52.34726194, -22.47146995], [-52.34718629, -22.4711746], [-52.34713596, -22.47098471], [-52.34707399, -22.47084776], [-52.34707935, -22.47077898], [-52.34715132, -22.47069383], [-52.34713851, -22.4706252], [-52.34706521, -22.47056241], [-52.34696798, -22.47054732], [-52.34688819, -22.47044755], [-52.34678438, -22.47037445], [-52.3466385, -22.47034396], [-52.34648042, -22.47029768], [-52.3464917, -22.47020771], [-52.34652135, -22.47013873], [-52.34645393, -22.47007056], [-52.34647138, -22.46998587], [-52.34649455, -22.46988], [-52.3463844, -22.46977515], [-52.34634719, -22.46968559], [-52.34624368, -22.46964418], [-52.34610954, -22.46957133], [-52.34602355, -22.46942175], [-52.34604105, -22.4693423], [-52.3460459, -22.46922069], [-52.3460267, -22.46911508], [-52.34606244, -22.46905137], [-52.34607984, -22.46897192], [-52.34606024, -22.46882414], [-52.34612037, -22.46877071], [-52.34614389, -22.46869121], [-52.34607647, -22.46862313], [-52.34592437, -22.46857147], [-52.34582105, -22.46854063], [-52.3457837, -22.46844583], [-52.34583754, -22.46836607], [-52.34596948, -22.4682117], [-52.34598673, -22.46811635], [-52.34597321, -22.46797375], [-52.34596019, -22.46788399], [-52.34608034, -22.46776674], [-52.34607708, -22.46742842], [-52.34616139, -22.46736431], [-52.34617226, -22.46723208], [-52.34621402, -22.46716823], [-52.34637041, -22.46702955], [-52.34635101, -22.46690281], [-52.34620496, -22.46675418], [-52.34608241, -22.46662306], [-52.34599131, -22.46660801], [-52.34586896, -22.46649803], [-52.34583206, -22.46645074], [-52.3458071, -22.46637164], [-52.34572135, -22.46628781], [-52.34570262, -22.4662298], [-52.34575065, -22.4661818], [-52.34574953, -22.46606556], [-52.34569404, -22.46596559], [-52.34565056, -22.46586018], [-52.34569164, -22.46571713], [-52.345672, -22.46557458], [-52.34565683, -22.46525226], [-52.34568542, -22.46507228], [-52.34576933, -22.46497647], [-52.34578056, -22.46488117], [-52.34568235, -22.46475518], [-52.34566878, -22.46460725], [-52.3456673, -22.46445399], [-52.34560503, -22.46428533], [-52.34559819, -22.46421142], [-52.34565178, -22.4641052], [-52.34568138, -22.46403098], [-52.34568603, -22.46388823], [-52.34578821, -22.46379218], [-52.34584783, -22.463686], [-52.34585221, -22.46350622], [-52.34576662, -22.4634382], [-52.34562111, -22.46344475], [-52.3455963, -22.46338146], [-52.34560768, -22.46330215], [-52.34575749, -22.46316695], [-52.34587718, -22.4630021], [-52.34587508, -22.46278535], [-52.34595894, -22.46268421], [-52.34600615, -22.4625411], [-52.34604683, -22.46236635], [-52.34617969, -22.46230708], [-52.34616004, -22.46215396], [-52.34621337, -22.46202137], [-52.34636378, -22.46189854], [-52.34636832, -22.46174514], [-52.34642824, -22.46167066], [-52.34667027, -22.4616158], [-52.34680833, -22.46147194], [-52.34698921, -22.46136466], [-52.34705546, -22.46131127], [-52.34718862, -22.46128369], [-52.34738297, -22.46131387], [-52.34751573, -22.46125459], [-52.34769778, -22.46125831], [-52.3478731, -22.46120933], [-52.34792638, -22.46107142], [-52.34794399, -22.4610131], [-52.34802315, -22.46104947], [-52.34811415, -22.46105395], [-52.3481312, -22.46093756], [-52.34811808, -22.46082666], [-52.34821393, -22.46070953], [-52.34821275, -22.46058796], [-52.34817472, -22.46041387], [-52.34819013, -22.46012832], [-52.34820595, -22.45988504], [-52.34815583, -22.45971628], [-52.34822769, -22.45962048], [-52.3484617, -22.45937014], [-52.34848517, -22.45928531], [-52.34838727, -22.45919102], [-52.34838548, -22.45900605], [-52.34839638, -22.45885611], [-52.34832874, -22.45869482], [-52.34837109, -22.45838159], [-52.3484801, -22.45812895], [-52.34846317, -22.45808592], [-52.3484498, -22.45805075], [-52.34846666, -22.45802474], [-52.34853047, -22.45779045], [-52.34853211, -22.45753862], [-52.34868491, -22.45713098], [-52.3487237, -22.4568717], [-52.34885006, -22.45633268], [-52.34888454, -22.45605898], [-52.34889102, -22.45587548], [-52.34893092, -22.45573135], [-52.34887186, -22.45560233], [-52.34868886, -22.45544922], [-52.34864198, -22.45529498], [-52.34863272, -22.45519128], [-52.34858233, -22.45510535], [-52.3484868, -22.45503425], [-52.34835454, -22.45501377], [-52.34822633, -22.45497889], [-52.34815167, -22.45493634], [-52.34810923, -22.45481801], [-52.34801698, -22.45466415], [-52.34778385, -22.45440172], [-52.34762197, -22.45430236], [-52.34744821, -22.45424989], [-52.3473982, -22.45420361], [-52.34737534, -22.45396996], [-52.34730175, -22.45361452], [-52.34718455, -22.45344289], [-52.34693175, -22.45332632], [-52.3468327, -22.45332353], [-52.34677073, -22.45330607], [-52.34675303, -22.45318393], [-52.3466901, -22.45307651], [-52.34655739, -22.45300934], [-52.34641475, -22.4527588], [-52.34629818, -22.45265183], [-52.34625107, -22.45250301], [-52.3463321, -22.45234048], [-52.34638874, -22.45222846], [-52.34639578, -22.45210258], [-52.34637016, -22.45198316], [-52.3471051, -22.45198863], [-52.34708778, -22.45182502], [-52.34706385, -22.45178178], [-52.34700068, -22.45148993], [-52.34689356, -22.45124406], [-52.34684208, -22.45107541], [-52.34684869, -22.45094511], [-52.34694103, -22.4507365], [-52.34701463, -22.45048913], [-52.34702045, -22.45027655], [-52.34699552, -22.45010035], [-52.34696549, -22.44997948], [-52.34689119, -22.44988183], [-52.34673823, -22.44978032], [-52.34647727, -22.44962263], [-52.34633396, -22.44944327], [-52.34627261, -22.44932961], [-52.34624501, -22.44918812], [-52.346244, -22.44908308], [-52.34625116, -22.44900986], [-52.34632646, -22.44893842], [-52.34643055, -22.44885988], [-52.34644593, -22.44882326], [-52.34644038, -22.44879124], [-52.34638488, -22.44873922], [-52.34630813, -22.44865984], [-52.34631278, -22.44859811], [-52.34630669, -22.44851136], [-52.34623518, -22.44844114], [-52.34621859, -22.4483431], [-52.34624877, -22.44822823], [-52.34629504, -22.44812957], [-52.34632048, -22.44804717], [-52.34632193, -22.44792603], [-52.3463015, -22.44771141], [-52.34630346, -22.44737106], [-52.34631474, -22.44718129], [-52.34634716, -22.44701654], [-52.34641353, -22.44683552], [-52.34645427, -22.44670719], [-52.34644816, -22.44661818], [-52.34643183, -22.44656747], [-52.34641827, -22.44652188], [-52.34645443, -22.44646214], [-52.34645612, -22.44636621], [-52.34642916, -22.44629101], [-52.34645233, -22.44624512], [-52.34648617, -22.44621746], [-52.34663788, -22.446191], [-52.34673948, -22.4461262], [-52.34678563, -22.44602529], [-52.34678444, -22.44590192], [-52.34675368, -22.44569497], [-52.34678464, -22.44565127], [-52.34690151, -22.44553838], [-52.34694042, -22.44549236], [-52.34693473, -22.4454467], [-52.34690546, -22.44540359], [-52.34679718, -22.44531995], [-52.34671821, -22.44528627], [-52.34667781, -22.44516333], [-52.34661891, -22.44504044], [-52.34653642, -22.44491088], [-52.34648051, -22.44481543], [-52.34649602, -22.44479245], [-52.34650834, -22.44471918], [-52.34652602, -22.44464822], [-52.34653609, -22.44460469], [-52.34651753, -22.44458434], [-52.34648881, -22.4445891], [-52.34646289, -22.44462129], [-52.34643928, -22.44462149], [-52.34636829, -22.44459471], [-52.34633088, -22.44452421], [-52.34629112, -22.44447197], [-52.34625681, -22.44445167], [-52.34624715, -22.44445175], [-52.34623278, -22.44435721], [-52.34643353, -22.44433756], [-52.3464235, -22.44429564], [-52.34636497, -22.44422062], [-52.34622851, -22.44404545], [-52.34622737, -22.44392786], [-52.34632139, -22.44369196], [-52.3464433, -22.44334672], [-52.34654807, -22.44322825], [-52.34650828, -22.44310267], [-52.3465251, -22.44284222], [-52.34660085, -22.44270719], [-52.3467255, -22.44265584], [-52.34682122, -22.44259624], [-52.34698332, -22.44241858], [-52.34714663, -22.44237521], [-52.34722343, -22.44234937], [-52.34737655, -22.44224729], [-52.34755876, -22.44217026], [-52.34757889, -22.44226241], [-52.34774203, -22.44220224], [-52.34784819, -22.44221816], [-52.34792581, -22.44227631], [-52.34799323, -22.44227575], [-52.34808862, -22.44218264], [-52.34828959, -22.44205496], [-52.34854944, -22.44202759], [-52.34875137, -22.4420007], [-52.34875377, -22.4419897], [-52.34886447, -22.44200012], [-52.34901925, -22.44192946], [-52.34914874, -22.44185594], [-52.34939092, -22.44185075], [-52.3494956, -22.44182468], [-52.3496569, -22.44168459], [-52.34977191, -22.4416111], [-52.34995632, -22.44160956], [-52.35005371, -22.44158354], [-52.35027255, -22.44140513], [-52.35030031, -22.44128197], [-52.35036745, -22.44112063], [-52.35052552, -22.44100903], [-52.35064446, -22.44097019], [-52.3507961, -22.44094679], [-52.35100887, -22.44089461], [-52.35116006, -22.44081449], [-52.35146455, -22.44052192], [-52.35150021, -22.44047122], [-52.35159123, -22.44038943], [-52.35183978, -22.44028962], [-52.35207334, -22.44013638], [-52.35238317, -22.44001401], [-52.35268599, -22.43991998], [-52.35299941, -22.43979759], [-52.35320718, -22.43960039], [-52.35339486, -22.43918586], [-52.35350102, -22.43895166], [-52.35367618, -22.43873902], [-52.35390033, -22.43851829], [-52.35428448, -22.43823452], [-52.35470089, -22.43792203], [-52.3548485, -22.43785459], [-52.35502449, -22.43772702], [-52.35512831, -22.43762219], [-52.35520312, -22.4375017], [-52.35530361, -22.43742526], [-52.35548371, -22.43735122], [-52.35574596, -22.43718192], [-52.35611937, -22.43690447], [-52.35647389, -22.43667216], [-52.35684478, -22.4365052], [-52.35717269, -22.43639523], [-52.3574039, -22.43637125], [-52.35756479, -22.43637053], [-52.35771984, -22.43631883], [-52.35790657, -22.436188], [-52.3580855, -22.4359942], [-52.3582942, -22.43589472], [-52.35885289, -22.4357072], [-52.35918086, -22.43560355], [-52.35934292, -22.43553282], [-52.35944384, -22.43550045], [-52.35962949, -22.43551785], [-52.35975626, -22.43553575], [-52.35988608, -22.43549681], [-52.36002634, -22.4354231], [-52.36007585, -22.43530924], [-52.36013974, -22.43518568], [-52.36032257, -22.43502337], [-52.36045174, -22.43491832], [-52.36078436, -22.43466442], [-52.36106166, -22.43455496], [-52.36137903, -22.43447027], [-52.36151282, -22.4343911], [-52.36166845, -22.43439927], [-52.36178781, -22.43440459], [-52.36186683, -22.4343472], [-52.36197429, -22.43424857], [-52.3621144, -22.43415905], [-52.36218601, -22.43407968], [-52.36226179, -22.43406956], [-52.36237712, -22.43403074], [-52.36244861, -22.43393873], [-52.362542, -22.43388122], [-52.3626436, -22.43391821], [-52.36270153, -22.43392088], [-52.36282409, -22.43388516], [-52.3629173, -22.4337992], [-52.36301496, -22.43381102], [-52.3631126, -22.4338102], [-52.36324204, -22.43373342], [-52.36332889, -22.43374217], [-52.36357742, -22.43379164], [-52.36386691, -22.43381756], [-52.36402967, -22.43381934], [-52.36420702, -22.43384305], [-52.36433395, -22.43387666], [-52.3644476, -22.43403331], [-52.36452375, -22.43406103], [-52.36461795, -22.43407604], [-52.36476952, -22.4340464], [-52.36490326, -22.4340421], [-52.3649902, -22.43406025], [-52.36512112, -22.43413483], [-52.36523416, -22.43423793], [-52.36535757, -22.43435918], [-52.36565352, -22.43452549], [-52.36566036, -22.43477075], [-52.36572114, -22.43492514], [-52.36589454, -22.4350317], [-52.36605099, -22.43505386], [-52.36616398, -22.43504351], [-52.36624951, -22.43497703], [-52.36626467, -22.43487827], [-52.36635075, -22.43486815], [-52.36643167, -22.43487686], [-52.36651209, -22.4348339], [-52.36661402, -22.43479556], [-52.36672227, -22.43484622], [-52.36681425, -22.4348924], [-52.36689466, -22.43484945], [-52.36693176, -22.43478817], [-52.36706097, -22.43478708], [-52.36716807, -22.43472042], [-52.36724299, -22.43467281], [-52.36735069, -22.4346672], [-52.36751755, -22.4346611], [-52.36761386, -22.43459452], [-52.36773257, -22.43461231], [-52.36784505, -22.4345503], [-52.36785473, -22.43443749], [-52.36785989, -22.43441866], [-52.36807017, -22.43443097], [-52.36815588, -22.43438327], [-52.3682033, -22.43427485], [-52.36831523, -22.43415657], [-52.36872959, -22.43412488], [-52.36892291, -22.43406218], [-52.36903603, -22.43406592], [-52.3690906, -22.43413121], [-52.36915511, -22.43412127], [-52.3692299, -22.43405958], [-52.36939764, -22.4341333], [-52.36945178, -22.43416572], [-52.36952685, -22.43413221], [-52.36950473, -22.43407603], [-52.36948284, -22.43403395], [-52.36949335, -22.43400568], [-52.36962247, -22.43399519], [-52.36963827, -22.43396218], [-52.36956777, -22.43390642], [-52.36956099, -22.43377027], [-52.36952828, -22.43372358], [-52.36947455, -22.43374282], [-52.36943764, -22.43382298], [-52.36943888, -22.43394978], [-52.36939626, -22.43399241], [-52.36931515, -22.43396492], [-52.36929266, -22.43387117], [-52.36941487, -22.43370105], [-52.36953708, -22.43352163], [-52.37065984, -22.43141503], [-52.37543967, -22.42624025], [-52.37696807, -22.42510294], [-52.37839445, -22.42413846], [-52.38247185, -22.42093917], [-52.38485839, -22.417352], [-52.38740553, -22.41355341], [-52.39191102, -22.40650115], [-52.39504423, -22.40179156], [-52.39489818, -22.40089114], [-52.3947897, -22.40054262], [-52.39460415, -22.40011149], [-52.39392485, -22.39897721], [-52.39366203, -22.39846346], [-52.39326003, -22.39738514], [-52.39315215, -22.39708647], [-52.39285109, -22.39656474], [-52.39226903, -22.39558461], [-52.39136001, -22.39437742], [-52.38970936, -22.39246928], [-52.38845439, -22.39101539], [-52.38688189, -22.38919326], [-52.38668021, -22.38906186], [-52.38623114, -22.38900745], [-52.38511363, -22.3888922], [-52.3848651, -22.38884438], [-52.38460621, -22.38872177], [-52.38434659, -22.38851589], [-52.38334032, -22.38783443], [-52.38188012, -22.38683991], [-52.38035435, -22.38577439], [-52.37917284, -22.38497717], [-52.37686857, -22.38400072], [-52.37626245, -22.38348986], [-52.37578158, -22.38310285], [-52.37556079, -22.3829716], [-52.37517543, -22.38275656], [-52.37430994, -22.38206111], [-52.373804, -22.38166212], [-52.37255791, -22.37973021], [-52.3712301, -22.3776906], [-52.36913656, -22.37569195], [-52.36883269, -22.37568305], [-52.36376543, -22.37567941], [-52.3635547, -22.37575038], [-52.36300057, -22.37581258], [-52.36226346, -22.3760838], [-52.36034177, -22.37680286], [-52.35994679, -22.37693291], [-52.35844457, -22.3770242], [-52.35686041, -22.37712962], [-52.3528777, -22.37834016], [-52.34925587, -22.37947651], [-52.34857066, -22.3796551], [-52.34658248, -22.37895729], [-52.344488, -22.37820271], [-52.34137053, -22.37683444], [-52.33949954, -22.37596269], [-52.33906754, -22.3756775], [-52.33830737, -22.37517698], [-52.3382146, -22.37509329], [-52.33763506, -22.37423649], [-52.33689389, -22.37318257], [-52.33670791, -22.37296877], [-52.33633742, -22.37270574], [-52.33489755, -22.37178647], [-52.33471729, -22.37167388], [-52.33442535, -22.37152002], [-52.33359015, -22.37126506], [-52.3324929, -22.37094469], [-52.33072918, -22.37045347], [-52.33030708, -22.37036824], [-52.32986582, -22.37030006], [-52.32916877, -22.37031428], [-52.32828855, -22.37041021], [-52.32811596, -22.3703988], [-52.32790241, -22.37033723], [-52.32761074, -22.3702213], [-52.32729944, -22.37006344], [-52.3269976, -22.36988852], [-52.32674448, -22.36975122], [-52.32654663, -22.36972791], [-52.3263878, -22.36969146], [-52.32621473, -22.36968032], [-52.32540907, -22.36831652], [-52.32480961, -22.36741629], [-52.3244148, -22.36681606], [-52.32428233, -22.36652793], [-52.32400313, -22.36595195], [-52.32381464, -22.36584032], [-52.32364229, -22.36590459], [-52.323457, -22.36611982], [-52.32199805, -22.36882214], [-52.32165833, -22.36947869], [-52.32063402, -22.37242892], [-52.32059424, -22.37279388], [-52.32101082, -22.37567987], [-52.32120264, -22.3776145], [-52.32147486, -22.37890996], [-52.32181423, -22.37966312], [-52.32228592, -22.38066728], [-52.32278894, -22.38192301], [-52.32276414, -22.38244303], [-52.32260956, -22.3828065], [-52.3222377, -22.3832001], [-52.32047388, -22.38457524], [-52.31978448, -22.38499663], [-52.31886488, -22.3855207], [-52.31795773, -22.3858305], [-52.31749615, -22.38590977], [-52.3170914, -22.38587531], [-52.31492124, -22.3855276], [-52.31301277, -22.38569973], [-52.31250229, -22.38578498], [-52.31139635, -22.38679385], [-52.31057821, -22.38711119], [-52.30969545, -22.38714535], [-52.3088047, -22.38797686], [-52.30870025, -22.39005852], [-52.30860945, -22.39028895], [-52.30801422, -22.3912531], [-52.3068632, -22.39242443], [-52.30663163, -22.39250732], [-52.30625833, -22.39234821], [-52.30591676, -22.39226995], [-52.30562188, -22.39221822], [-52.30521665, -22.39246799], [-52.30526576, -22.39439982], [-52.30525438, -22.39484575], [-52.30511932, -22.39531978], [-52.30357017, -22.39865622], [-52.30212223, -22.39955967], [-52.30182821, -22.3996025], [-52.30129972, -22.39941762], [-52.30105109, -22.3993386], [-52.3006946, -22.39932791], [-52.29979845, -22.39959182], [-52.29853098, -22.39991282], [-52.29375983, -22.40001863], [-52.29198897, -22.3995193], [-52.28684615, -22.40208137], [-52.28622707, -22.40215386], [-52.28573181, -22.40221182], [-52.28486426, -22.40223217], [-52.28374818, -22.40217357], [-52.28164971, -22.40143348], [-52.28110557, -22.4012351], [-52.28034463, -22.40103853], [-52.27849951, -22.40059356], [-52.27823535, -22.40051453], [-52.27810968, -22.40032638], [-52.27798856, -22.39893561], [-52.27696305, -22.39782567], [-52.27655718, -22.39749106], [-52.27607426, -22.39719761], [-52.27562383, -22.39707958], [-52.27509686, -22.39705673], [-52.27408885, -22.39695656], [-52.27346806, -22.39683987], [-52.27264657, -22.39680578], [-52.27208972, -22.39690474], [-52.27148829, -22.39720673], [-52.27013619, -22.39846041], [-52.26993717, -22.39871877], [-52.26936137, -22.4001555], [-52.26845084, -22.40225702], [-52.26824264, -22.40271434], [-52.26817493, -22.40379589], [-52.26807597, -22.40483704], [-52.26797005, -22.40512167], [-52.26794139, -22.4053786], [-52.26286342, -22.40926929], [-52.26227108, -22.40977956], [-52.26235265, -22.41023832], [-52.26342842, -22.41267557], [-52.26601061, -22.41771792], [-52.26623274, -22.41828026], [-52.26453485, -22.41966533], [-52.26490348, -22.42073036], [-52.26511834, -22.42113378], [-52.26519035, -22.42209067], [-52.26538337, -22.42242065], [-52.26601149, -22.4253158], [-52.26608163, -22.42605411], [-52.26647128, -22.42710985], [-52.26700021, -22.42838543], [-52.26744239, -22.42940381], [-52.26908733, -22.43154374], [-52.26997487, -22.43269831], [-52.27040533, -22.43324798], [-52.27073801, -22.43383456], [-52.27103885, -22.43440304], [-52.2732446, -22.43774602], [-52.27472219, -22.43997153], [-52.27552406, -22.44105163], [-52.27879387, -22.44557578], [-52.279062, -22.44602474], [-52.28040231, -22.44823285], [-52.28088269, -22.44918133], [-52.281059, -22.45113166], [-52.2811735, -22.45323902], [-52.28114784, -22.45375697], [-52.27954362, -22.45961577], [-52.27947772, -22.45975178], [-52.27943877, -22.46115059], [-52.27877991, -22.46266712], [-52.27868263, -22.46334469], [-52.27805808, -22.46578579], [-52.27788418, -22.46657669], [-52.27774524, -22.46835981], [-52.27456995, -22.47203919], [-52.27522525, -22.4750924], [-52.27512547, -22.47549929], [-52.2750745, -22.47558993], [-52.27471468, -22.47586338], [-52.27362984, -22.47609759], [-52.27295292, -22.47565176], [-52.27219958, -22.47534193], [-52.27134533, -22.47532609], [-52.27070024, -22.47553422], [-52.27038727, -22.47526599], [-52.26961026, -22.47520445], [-52.26901799, -22.47552489], [-52.26889635, -22.47638303], [-52.26851354, -22.47697252], [-52.26805575, -22.47785588], [-52.26761969, -22.4782879], [-52.26697724, -22.4787892], [-52.26631222, -22.4796516], [-52.26634197, -22.48007996], [-52.26644896, -22.48046255], [-52.26713041, -22.48140461], [-52.26754719, -22.48169462], [-52.26799148, -22.48216478], [-52.26950725, -22.48377698], [-52.27047041, -22.48437845], [-52.27213307, -22.48500782], [-52.27249622, -22.48509518], [-52.27387756, -22.4861445], [-52.27463199, -22.48656713], [-52.27502274, -22.48683474], [-52.27554524, -22.48737192], [-52.27572951, -22.48770881], [-52.2762242, -22.48802076], [-52.27651218, -22.48837942], [-52.27737117, -22.48891393], [-52.27982847, -22.4915562], [-52.27993156, -22.49151031], [-52.28063288, -22.49177535], [-52.28115729, -22.49251563], [-52.2816845, -22.49354908], [-52.28163425, -22.49370737], [-52.28112219, -22.4943205], [-52.28027374, -22.4949362], [-52.27976167, -22.49554933], [-52.27898641, -22.49569088], [-52.2778549, -22.49648929], [-52.27755143, -22.49725169], [-52.27713005, -22.49928515], [-52.27643853, -22.50008016], [-52.27532952, -22.50051753], [-52.27461099, -22.50119992], [-52.27400625, -22.5021], [-52.27397809, -22.50279319], [-52.27413789, -22.50325891], [-52.27477996, -22.50352498], [-52.27518553, -22.50439548], [-52.27467133, -22.50676468], [-52.27293774, -22.51000207], [-52.27171357, -22.51035822], [-52.27076306, -22.5103958], [-52.26861459, -22.50987043], [-52.26788425, -22.50939421], [-52.26681094, -22.50923691], [-52.26589504, -22.50927428], [-52.26406826, -22.50989119], [-52.2631315, -22.50953697], [-52.26230187, -22.50955856], [-52.26139594, -22.51069543], [-52.26127816, -22.51104284], [-52.25996101, -22.51258966], [-52.25939197, -22.51433458], [-52.25946295, -22.51452984], [-52.26045648, -22.51542595], [-52.26184529, -22.51606279], [-52.26497394, -22.51790623], [-52.26710536, -22.52034494], [-52.26740011, -22.52066237], [-52.26791409, -22.52204425], [-52.26711805, -22.52385818], [-52.26374221, -22.52716873], [-52.26350794, -22.52802919], [-52.26256124, -22.5284886], [-52.26289882, -22.52949524], [-52.26135548, -22.53089318], [-52.25873703, -22.53090691], [-52.25606179, -22.53142496], [-52.25430931, -22.53074566], [-52.2521579, -22.53183194], [-52.24953131, -22.53200302], [-52.24808755, -22.53219948], [-52.24532292, -22.53204901], [-52.24403004, -22.53252572], [-52.24120505, -22.53193341], [-52.23796045, -22.53171272], [-52.23495933, -22.53350452], [-52.23459497, -22.533753], [-52.2317452, -22.53672287], [-52.23111848, -22.53918423], [-52.23056456, -22.54031861], [-52.23140711, -22.54311269], [-52.23233116, -22.54611334], [-52.23134421, -22.54924081], [-52.23005856, -22.55234454], [-52.22978288, -22.55253227], [-52.22888774, -22.55473906], [-52.22724072, -22.55659577], [-52.22628876, -22.5576689], [-52.22248798, -22.56187248], [-52.21902111, -22.56564033], [-52.21869769, -22.56583391], [-52.21815151, -22.5660337], [-52.21770308, -22.56612318], [-52.21718294, -22.56622096], [-52.21633157, -22.5664543], [-52.21531001, -22.56674375], [-52.21411915, -22.56719092], [-52.21251529, -22.56765682], [-52.21145111, -22.56821258], [-52.21058398, -22.56870425], [-52.21026199, -22.5688632], [-52.20866097, -22.56894381], [-52.20644287, -22.5690387], [-52.20620951, -22.56905607], [-52.20547399, -22.56919464], [-52.20201273, -22.56991697], [-52.20187767, -22.56988664], [-52.20176046, -22.56984064], [-52.19967894, -22.56842399], [-52.19886206, -22.56850054], [-52.1970588, -22.56877999], [-52.19544366, -22.56899551], [-52.19470822, -22.56913394], [-52.19308082, -22.56924737], [-52.19077858, -22.56999997], [-52.18802007, -22.57099066], [-52.18080473, -22.5734372], [-52.18035543, -22.57505353], [-52.17982585, -22.57593394], [-52.17941268, -22.57671125], [-52.17902786, -22.57792923], [-52.178323, -22.57924638], [-52.17832428, -22.57939694], [-52.17950263, -22.58147455], [-52.18010367, -22.58245947], [-52.18084132, -22.58352947], [-52.18120329, -22.58398927], [-52.18310963, -22.58690252], [-52.18469505, -22.58914337], [-52.18601845, -22.59098563], [-52.18726904, -22.59271588], [-52.18750254, -22.59313958], [-52.18781167, -22.59400072], [-52.18806475, -22.59474539], [-52.18873455, -22.59655281], [-52.1894415, -22.59856228], [-52.19000179, -22.60020999], [-52.19095622, -22.60283553], [-52.19101748, -22.60327307], [-52.19076184, -22.60362533], [-52.1899501, -22.60448231], [-52.1890671, -22.60541486], [-52.18801429, -22.60664909], [-52.18656718, -22.60840624], [-52.18601254, -22.60908615], [-52.1856851, -22.60945141], [-52.18541321, -22.60959107], [-52.18485214, -22.60952015], [-52.18444947, -22.60948555], [-52.18347132, -22.60938013], [-52.18154342, -22.60913158], [-52.17989604, -22.60896738], [-52.17880302, -22.60887524], [-52.17640227, -22.60878022], [-52.1760573, -22.60877028], [-52.17574178, -22.60884765], [-52.17526829, -22.60893874], [-52.17486469, -22.60894422], [-52.1748522, -22.6089454], [-52.17329429, -22.60909264], [-52.17255762, -22.60919269], [-52.17066262, -22.60955391], [-52.16870754, -22.60996821], [-52.16849028, -22.61001189], [-52.16811697, -22.61018306], [-52.16796154, -22.61039474], [-52.16748786, -22.61149462], [-52.16729753, -22.61193655], [-52.16702421, -22.61249648], [-52.16694143, -22.6127182], [-52.16554522, -22.61345466], [-52.16530391, -22.61351964], [-52.16500148, -22.61349022], [-52.16428598, -22.6132322], [-52.16408119, -22.61313506], [-52.16319136, -22.61811921], [-52.16323975, -22.61818657], [-52.16324895, -22.61837727], [-52.16312902, -22.61847451], [-52.16294812, -22.61852849], [-52.16282857, -22.61868065], [-52.16271013, -22.6189775], [-52.16255515, -22.61932227], [-52.16255434, -22.6194343], [-52.16240393, -22.62198856], [-52.16140216, -22.62550642], [-52.1599867, -22.63094215], [-52.15899954, -22.63621519], [-52.15911025, -22.63916649], [-52.15980454, -22.63995933], [-52.16067744, -22.64154875], [-52.16232996, -22.64385058], [-52.16440625, -22.64543123], [-52.16949569, -22.64754841], [-52.17268681, -22.64880167], [-52.17570472, -22.64989657], [-52.1782049, -22.65075586], [-52.18019006, -22.65169868], [-52.18225368, -22.65176326], [-52.18225232, -22.6516037], [-52.1821609, -22.65096608], [-52.1836194, -22.65063617], [-52.186634, -22.65133195], [-52.18671721, -22.6510122], [-52.18576759, -22.65054051], [-52.18404439, -22.65007453], [-52.18386906, -22.6496769], [-52.18463854, -22.6491925], [-52.18579161, -22.64929092], [-52.186359, -22.64933935], [-52.18713739, -22.64989208], [-52.1875651, -22.64964956], [-52.18738976, -22.64925193], [-52.1868665, -22.64837816], [-52.18755756, -22.64877197], [-52.18850305, -22.64876496], [-52.18919617, -22.64939811], [-52.18938389, -22.65123178], [-52.18964725, -22.65186812], [-52.19076812, -22.65225872], [-52.19179615, -22.65185215], [-52.19541388, -22.65270285], [-52.19817348, -22.65371945], [-52.20154314, -22.65568886], [-52.20413162, -22.65678642], [-52.20637281, -22.65748763], [-52.20801719, -22.65875181], [-52.20819749, -22.65970787], [-52.20848821, -22.66345559], [-52.20901936, -22.66520685], [-52.21058561, -22.66734922], [-52.21240278, -22.66869182], [-52.21362525, -22.67083676], [-52.21440387, -22.67138935], [-52.21475125, -22.67178564], [-52.21458845, -22.67282408], [-52.21675454, -22.67472248], [-52.21874382, -22.6760637]]]]}}]}