{"type": "FeatureCollection", "features": [{"type": "Feature", "properties": {"name": "Parque Estadual Cantareira"}, "geometry": {"type": "MultiPolygon", "coordinates": [[[[-46.63497329, -23.45477288], [-46.63595488, -23.45482394], [-46.63596441, -23.45482444], [-46.63613057, -23.45477179], [-46.63615482, -23.4547641], [-46.6365882, -23.45462679], [-46.63775948, -23.45454473], [-46.63784471, -23.45453876], [-46.63822442, -23.4543385], [-46.63834316, -23.45427588], [-46.63863424, -23.45437098], [-46.63866717, -23.45438174], [-46.63920859, -23.45432278], [-46.63998494, -23.45470213], [-46.64058737, -23.45461888], [-46.64100783, -23.45422127], [-46.64150079, -23.4538798], [-46.64149924, -23.45368988], [-46.64185134, -23.45326043], [-46.64209396, -23.45273624], [-46.64209515, -23.45273367], [-46.64211949, -23.4526811], [-46.64208412, -23.45257766], [-46.64181972, -23.45213927], [-46.64174172, -23.45208799], [-46.64126555, -23.45177493], [-46.64119721, -23.45173], [-46.64096716, -23.45153812], [-46.64082815, -23.45136256], [-46.64071558, -23.45132379], [-46.64044716, -23.45123134], [-46.64002585, -23.45108875], [-46.63976644, -23.45095212], [-46.63974039, -23.45026796], [-46.63981041, -23.45019163], [-46.63984353, -23.45015553], [-46.63994435, -23.45004563], [-46.6399652, -23.45005464], [-46.64012044, -23.45012173], [-46.64045396, -23.45004111], [-46.64079741, -23.45001787], [-46.64079999, -23.4500177], [-46.64096095, -23.44994284], [-46.64112097, -23.44986841], [-46.64115506, -23.44976838], [-46.64119508, -23.44965093], [-46.64120683, -23.44961645], [-46.64132974, -23.44935299], [-46.64148995, -23.4491696], [-46.64142422, -23.44892858], [-46.64141506, -23.44889498], [-46.64137485, -23.44886463], [-46.64139556, -23.44882345], [-46.64139102, -23.44880679], [-46.64154909, -23.44854555], [-46.64196124, -23.44786438], [-46.6423202, -23.44700047], [-46.64232015, -23.44699796], [-46.64231382, -23.446623], [-46.64230699, -23.44651717], [-46.64221473, -23.44508919], [-46.64213713, -23.44420335], [-46.64208935, -23.44365791], [-46.64208756, -23.44253495], [-46.64208709, -23.44223985], [-46.64208578, -23.44217506], [-46.64207757, -23.44176728], [-46.64205787, -23.44078914], [-46.64205253, -23.440524], [-46.64250436, -23.43768306], [-46.64643648, -23.43784298], [-46.64701763, -23.43786661], [-46.64844342, -23.43792457], [-46.65036683, -23.43800273], [-46.65089534, -23.43811329], [-46.65145306, -23.43879137], [-46.65160925, -23.43898128], [-46.65182426, -23.43921062], [-46.65182559, -23.43921203], [-46.65217492, -23.43958465], [-46.6524461, -23.4398739], [-46.65258298, -23.44022487], [-46.65277801, -23.44072493], [-46.65280188, -23.44156008], [-46.65266745, -23.44226714], [-46.65267791, -23.44317071], [-46.65302378, -23.44391902], [-46.65313159, -23.444578], [-46.6531588, -23.44474433], [-46.65289961, -23.44560309], [-46.65287366, -23.44561768], [-46.65211479, -23.44604436], [-46.65200135, -23.44612181], [-46.65149149, -23.44646991], [-46.65121578, -23.44689825], [-46.65120756, -23.44691103], [-46.65111226, -23.44705909], [-46.65115408, -23.44730547], [-46.65126519, -23.44796001], [-46.65126827, -23.44797819], [-46.65128156, -23.44805643], [-46.6517618, -23.44888673], [-46.65177462, -23.44888862], [-46.65210867, -23.44893779], [-46.65227857, -23.4489628], [-46.65228723, -23.44895596], [-46.65228736, -23.44895586], [-46.65229252, -23.44895178], [-46.65232391, -23.44892697], [-46.65253462, -23.44876044], [-46.6526102, -23.44870071], [-46.65264195, -23.44883482], [-46.65266145, -23.44891715], [-46.65266299, -23.44892366], [-46.65273569, -23.44885966], [-46.65273882, -23.4488569], [-46.65275318, -23.44884426], [-46.65287246, -23.44873926], [-46.65291444, -23.44870231], [-46.65305516, -23.44857843], [-46.6539692, -23.44777379], [-46.65427476, -23.44759758], [-46.65439602, -23.44746992], [-46.65452809, -23.4472506], [-46.65468521, -23.44705377], [-46.65495394, -23.44688956], [-46.65555866, -23.44689177], [-46.65597851, -23.44690824], [-46.65616048, -23.44678823], [-46.65645006, -23.44632919], [-46.65659142, -23.44612172], [-46.6566548, -23.4460287], [-46.65681449, -23.44574315], [-46.65682253, -23.44572878], [-46.65712346, -23.44527814], [-46.65739488, -23.44527399], [-46.65740039, -23.44527691], [-46.65773106, -23.44545186], [-46.65773764, -23.44547325], [-46.65787465, -23.44591858], [-46.65794344, -23.4463407], [-46.65816897, -23.44654312], [-46.65866612, -23.44675283], [-46.65913125, -23.44726039], [-46.66007987, -23.44716584], [-46.66047005, -23.44688539], [-46.6608394, -23.44683399], [-46.66117443, -23.44694324], [-46.66118431, -23.44699182], [-46.6612417, -23.44727388], [-46.66123637, -23.44728456], [-46.66108651, -23.44758506], [-46.66138317, -23.4483468], [-46.66155589, -23.44834416], [-46.66209508, -23.44811861], [-46.66249874, -23.44790657], [-46.66287388, -23.44787297], [-46.6629165, -23.44860289], [-46.6629182, -23.44863212], [-46.66271746, -23.44930106], [-46.66270788, -23.44933299], [-46.66286518, -23.44987956], [-46.6631287, -23.45013858], [-46.66316683, -23.45018643], [-46.66338084, -23.45045496], [-46.6634221, -23.45070594], [-46.66350171, -23.4510364], [-46.66373053, -23.45143319], [-46.66396784, -23.45160111], [-46.66447099, -23.45179927], [-46.66456352, -23.45179786], [-46.66461285, -23.45179091], [-46.66501905, -23.45173369], [-46.66559641, -23.45157617], [-46.66628423, -23.45138264], [-46.6662958, -23.45137855], [-46.66740059, -23.4509881], [-46.66764538, -23.45091924], [-46.66771326, -23.45090015], [-46.66766449, -23.45078953], [-46.66743931, -23.4502787], [-46.66696951, -23.44956297], [-46.66705294, -23.44895808], [-46.66773732, -23.44856765], [-46.668087, -23.44828677], [-46.66803178, -23.4478743], [-46.66797074, -23.44778409], [-46.66791329, -23.44769918], [-46.66767494, -23.44732063], [-46.66760348, -23.44720715], [-46.66751585, -23.44706798], [-46.6674644, -23.4462995], [-46.66663498, -23.44510977], [-46.66630785, -23.44473737], [-46.66615228, -23.44429371], [-46.66603141, -23.44371227], [-46.66603743, -23.4436421], [-46.66604816, -23.44351695], [-46.66605135, -23.4434797], [-46.66607266, -23.44323128], [-46.66608235, -23.44319499], [-46.66623515, -23.44262263], [-46.66632558, -23.44241644], [-46.66643716, -23.44216205], [-46.6666862, -23.44156351], [-46.6669389, -23.44118222], [-46.66719025, -23.44072088], [-46.667367, -23.44022638], [-46.66780359, -23.43977365], [-46.66867235, -23.43933715], [-46.66950794, -23.43912991], [-46.67074082, -23.43906524], [-46.67157931, -23.43902949], [-46.6720781, -23.43907174], [-46.67232414, -23.43929254], [-46.67268886, -23.43969867], [-46.67311798, -23.44005158], [-46.67315847, -23.44046917], [-46.67335278, -23.44078366], [-46.67346409, -23.44079666], [-46.67371981, -23.44082652], [-46.67383683, -23.44117927], [-46.67407917, -23.44164446], [-46.67433882, -23.44167478], [-46.67454177, -23.44127137], [-46.67469246, -23.4406972], [-46.67485723, -23.44022575], [-46.67544416, -23.43990792], [-46.67560381, -23.43986832], [-46.67593568, -23.43978599], [-46.67606419, -23.43992688], [-46.676162, -23.44003413], [-46.67600333, -23.44047813], [-46.67598528, -23.44052864], [-46.67598633, -23.44053718], [-46.67604257, -23.44099667], [-46.67635467, -23.44120917], [-46.67691808, -23.44096032], [-46.6771621, -23.44079645], [-46.67756785, -23.44071014], [-46.67802993, -23.4410347], [-46.67827327, -23.44118797], [-46.6783667, -23.44124682], [-46.6785116, -23.44121984], [-46.67896945, -23.4411346], [-46.67957574, -23.44079154], [-46.6795928, -23.44078189], [-46.6796429, -23.44075237], [-46.67997154, -23.44055875], [-46.68055962, -23.44030951], [-46.68071975, -23.44035627], [-46.68082004, -23.44038555], [-46.6810283, -23.44055538], [-46.68109533, -23.44061005], [-46.68163532, -23.44116214], [-46.68183465, -23.44127343], [-46.68249946, -23.44118312], [-46.68300137, -23.44094663], [-46.68336681, -23.44066651], [-46.68385774, -23.44051025], [-46.6842764, -23.44045804], [-46.6845515, -23.44067109], [-46.68463691, -23.44093241], [-46.68473374, -23.44122869], [-46.68463004, -23.44148398], [-46.68455608, -23.44166604], [-46.68442544, -23.44196542], [-46.68463041, -23.44240829], [-46.6851029, -23.4426183], [-46.68526891, -23.44294741], [-46.68543474, -23.44326508], [-46.68552998, -23.44369798], [-46.68543875, -23.44422572], [-46.68534608, -23.4445817], [-46.68538659, -23.44478694], [-46.68568229, -23.4447595], [-46.68607201, -23.44445612], [-46.68631057, -23.44397208], [-46.68640615, -23.44378761], [-46.68669854, -23.44356579], [-46.68710156, -23.44331938], [-46.68765633, -23.44328793], [-46.688065, -23.44337311], [-46.68828979, -23.44352975], [-46.68876189, -23.44371688], [-46.68923147, -23.44375536], [-46.68964995, -23.4436917], [-46.68995993, -23.4437784], [-46.69029848, -23.44409339], [-46.69060846, -23.44418009], [-46.69075338, -23.44399486], [-46.69073753, -23.44378924], [-46.69106711, -23.44357827], [-46.69130956, -23.4433229], [-46.69147622, -23.44296578], [-46.69173295, -23.44282456], [-46.69200026, -23.44258024], [-46.69217848, -23.44217719], [-46.69224762, -23.4418902], [-46.69236592, -23.441591], [-46.69281866, -23.44136669], [-46.69302721, -23.44129484], [-46.69326574, -23.44081079], [-46.69333173, -23.44074106], [-46.69361725, -23.44043936], [-46.6938265, -23.44043612], [-46.69408604, -23.44043209], [-46.69418062, -23.44053811], [-46.69428733, -23.44065771], [-46.69450473, -23.44074222], [-46.69477485, -23.44084721], [-46.69479664, -23.44085568], [-46.69498211, -23.44081711], [-46.69515322, -23.44078153], [-46.69551098, -23.44077598], [-46.69580002, -23.44035977], [-46.6958202, -23.44009641], [-46.69605009, -23.43982979], [-46.69679987, -23.43965804], [-46.69727884, -23.4395248], [-46.69776858, -23.4392999], [-46.69845463, -23.43914555], [-46.69993486, -23.4390657], [-46.70040812, -23.43891901], [-46.70067712, -23.43883564], [-46.70155798, -23.43856261], [-46.70231449, -23.43797659], [-46.70248265, -23.43780461], [-46.70276435, -23.43775834], [-46.7031317, -23.43775262], [-46.70319905, -23.4372026], [-46.70315322, -23.43668866], [-46.70298579, -23.43627953], [-46.70283227, -23.43596169], [-46.70270323, -23.43563203], [-46.70276764, -23.43507062], [-46.70293191, -23.43457627], [-46.70302609, -23.43431176], [-46.70303706, -23.43423153], [-46.7031191, -23.43397864], [-46.70306152, -23.43349919], [-46.70286747, -23.43297611], [-46.7028471, -23.43250751], [-46.70297025, -23.43177364], [-46.70325435, -23.43107156], [-46.7031956, -23.43052351], [-46.70302309, -23.4298171], [-46.70303072, -23.4295425], [-46.70308338, -23.42901558], [-46.70307091, -23.42888724], [-46.70306309, -23.42880677], [-46.70305331, -23.42870608], [-46.70305871, -23.42862545], [-46.70311234, -23.42782569], [-46.7032439, -23.42686295], [-46.70333513, -23.4257064], [-46.70345005, -23.42521282], [-46.70359704, -23.42477437], [-46.70365461, -23.42460265], [-46.70370829, -23.42444253], [-46.70333631, -23.42396019], [-46.70236173, -23.423927], [-46.70227592, -23.42392408], [-46.70215091, -23.42365483], [-46.70191786, -23.42315286], [-46.70127137, -23.42269774], [-46.70038663, -23.42250227], [-46.69942475, -23.42232784], [-46.69929234, -23.42230383], [-46.69890279, -23.42197812], [-46.69887355, -23.42147455], [-46.69907781, -23.42102003], [-46.69963619, -23.41998731], [-46.70014101, -23.41842781], [-46.70044962, -23.41770889], [-46.70051184, -23.41756396], [-46.70043629, -23.41719458], [-46.70040863, -23.41705935], [-46.69987012, -23.41680015], [-46.69942623, -23.4166536], [-46.69914637, -23.41656121], [-46.69911138, -23.41654946], [-46.69843495, -23.41632243], [-46.69788589, -23.41594872], [-46.69761615, -23.41567983], [-46.6976066, -23.41567032], [-46.69631602, -23.41541189], [-46.69621483, -23.41542968], [-46.69493141, -23.41565528], [-46.69430135, -23.41573783], [-46.69375458, -23.41601596], [-46.69336558, -23.41645642], [-46.69292675, -23.41693048], [-46.69261485, -23.41705108], [-46.69259211, -23.41705988], [-46.6923562, -23.41715109], [-46.69172736, -23.4171536], [-46.69156163, -23.41713328], [-46.690989, -23.41706307], [-46.68964858, -23.41683819], [-46.68879893, -23.41676893], [-46.68809508, -23.41683897], [-46.68718869, -23.41724919], [-46.68644804, -23.41730727], [-46.68556512, -23.41699738], [-46.6847528, -23.41690576], [-46.68420007, -23.41676507], [-46.68411232, -23.41686563], [-46.683145, -23.41563638], [-46.68280366, -23.41459089], [-46.68230377, -23.41422926], [-46.68195952, -23.41416718], [-46.68150185, -23.41426357], [-46.68109064, -23.41454359], [-46.68078967, -23.41487092], [-46.68072097, -23.41489774], [-46.68065712, -23.41492268], [-46.68034326, -23.41504523], [-46.68028109, -23.4150695], [-46.67950549, -23.41509162], [-46.67947933, -23.41509236], [-46.67881317, -23.41511716], [-46.6779121, -23.41518434], [-46.67705926, -23.41532081], [-46.67651705, -23.4153376], [-46.67635003, -23.41534277], [-46.67624844, -23.41534591], [-46.67569352, -23.41574749], [-46.67510219, -23.41637807], [-46.67478179, -23.41668767], [-46.674534, -23.4172518], [-46.67447486, -23.41738645], [-46.67432669, -23.41751569], [-46.67415914, -23.41766185], [-46.67388318, -23.41790255], [-46.67354645, -23.4180702], [-46.67335257, -23.41816672], [-46.67306846, -23.41826756], [-46.67305596, -23.41827199], [-46.6727721, -23.41837274], [-46.67257485, -23.41844275], [-46.67231641, -23.41861374], [-46.67205253, -23.41878833], [-46.67201981, -23.41880998], [-46.67201088, -23.41882619], [-46.6719219, -23.41898767], [-46.6718803, -23.41906316], [-46.67178623, -23.4192339], [-46.67134169, -23.41934911], [-46.67117213, -23.4193011], [-46.67081593, -23.41920025], [-46.67069859, -23.41916703], [-46.67005316, -23.41883342], [-46.66988181, -23.41874485], [-46.66986313, -23.41874771], [-46.66920245, -23.41884899], [-46.66907985, -23.41887691], [-46.66869612, -23.4189643], [-46.66812831, -23.41904496], [-46.66788086, -23.41908011], [-46.66783097, -23.41910407], [-46.66780273, -23.41911764], [-46.66755457, -23.41923685], [-46.66721184, -23.41982259], [-46.66673217, -23.42053614], [-46.66641969, -23.42082843], [-46.66609402, -23.42113307], [-46.66558541, -23.42152597], [-46.66549381, -23.42159674], [-46.66521927, -23.42180882], [-46.66509784, -23.42257596], [-46.66459318, -23.42329793], [-46.66408766, -23.42371084], [-46.66363109, -23.42395197], [-46.66270521, -23.42429687], [-46.66126057, -23.42474562], [-46.66019899, -23.4251823], [-46.65916246, -23.42574485], [-46.65873112, -23.42618052], [-46.65847305, -23.42670749], [-46.65828937, -23.42732591], [-46.65814563, -23.42759379], [-46.65798246, -23.42789786], [-46.65797782, -23.4279065], [-46.65789592, -23.42805914], [-46.65752633, -23.42848326], [-46.65711941, -23.42881586], [-46.65675016, -23.4293659], [-46.65623224, -23.4297788], [-46.65485012, -23.43052502], [-46.65464101, -23.43058721], [-46.65426973, -23.43069763], [-46.65365715, -23.43073462], [-46.6535324, -23.43067519], [-46.65301485, -23.43042865], [-46.652561, -23.43021245], [-46.65255363, -23.43020851], [-46.65181511, -23.42981286], [-46.65089717, -23.42937648], [-46.65053885, -23.42863942], [-46.65052879, -23.4286069], [-46.65048101, -23.42845233], [-46.65026898, -23.42776641], [-46.64984858, -23.42627369], [-46.64953918, -23.42518776], [-46.64944809, -23.42486805], [-46.64943962, -23.42483832], [-46.64936462, -23.42449412], [-46.64920964, -23.42378291], [-46.64911967, -23.4232327], [-46.64898759, -23.42222445], [-46.64894296, -23.42192648], [-46.64855461, -23.42153204], [-46.64902751, -23.42078749], [-46.64949023, -23.42005894], [-46.65031147, -23.42036815], [-46.65218516, -23.41882855], [-46.65216537, -23.4185195], [-46.65116572, -23.41779604], [-46.65077558, -23.41751594], [-46.6500635, -23.41732267], [-46.64922346, -23.41695879], [-46.64898053, -23.41629297], [-46.64904525, -23.41600137], [-46.64877363, -23.41574844], [-46.64871178, -23.41569085], [-46.64870633, -23.41568628], [-46.64842274, -23.41544813], [-46.64833696, -23.4153761], [-46.64833325, -23.41537415], [-46.64816331, -23.41528482], [-46.64776529, -23.41507562], [-46.64766932, -23.4150347], [-46.64721708, -23.41484188], [-46.64719458, -23.41483228], [-46.64676163, -23.41472417], [-46.64645704, -23.41457279], [-46.64631869, -23.41450403], [-46.64631446, -23.41450193], [-46.64629481, -23.41450598], [-46.64590761, -23.41458579], [-46.64589707, -23.41458797], [-46.64579943, -23.41465661], [-46.64553181, -23.41484476], [-46.64546971, -23.41484937], [-46.64522587, -23.4148675], [-46.64515041, -23.41487311], [-46.64507223, -23.41486146], [-46.64506658, -23.41486062], [-46.64473054, -23.41481054], [-46.64429893, -23.41478244], [-46.64414365, -23.41474368], [-46.64381968, -23.41466283], [-46.64359166, -23.41460591], [-46.64308542, -23.41447956], [-46.64284533, -23.41430397], [-46.64280922, -23.41427756], [-46.64275669, -23.41421141], [-46.64264433, -23.4140699], [-46.64243525, -23.41380658], [-46.64239679, -23.41371157], [-46.64229031, -23.41344849], [-46.6422699, -23.41339807], [-46.64223284, -23.41330653], [-46.64223952, -23.41314219], [-46.64224301, -23.4130564], [-46.64226259, -23.41257444], [-46.64226302, -23.41256385], [-46.64227181, -23.41234765], [-46.64205437, -23.41200312], [-46.64196997, -23.4118694], [-46.64194433, -23.41182877], [-46.64194232, -23.41182558], [-46.64135738, -23.41140363], [-46.64104204, -23.41117616], [-46.64103937, -23.41116313], [-46.64101551, -23.41104655], [-46.6409984, -23.41096296], [-46.64096546, -23.41080201], [-46.64090948, -23.41065755], [-46.64074777, -23.41024028], [-46.64074596, -23.41023631], [-46.64063364, -23.40998995], [-46.64052993, -23.40976246], [-46.64048791, -23.40973833], [-46.64037126, -23.40967135], [-46.63997041, -23.40944117], [-46.63947235, -23.40899943], [-46.63894043, -23.40908344], [-46.63845749, -23.40900976], [-46.63746353, -23.40889649], [-46.63587154, -23.40880294], [-46.63535533, -23.40880267], [-46.63505784, -23.40880252], [-46.63395828, -23.4089466], [-46.6337821, -23.4090276], [-46.6333496, -23.40958267], [-46.63295989, -23.40986143], [-46.6325031, -23.41002234], [-46.63209573, -23.41018317], [-46.63124344, -23.41031029], [-46.63105056, -23.41035575], [-46.63064363, -23.41045165], [-46.63032757, -23.41052614], [-46.63011964, -23.41057515], [-46.62955472, -23.41061589], [-46.62850119, -23.41069187], [-46.62837665, -23.41066928], [-46.62836732, -23.41066759], [-46.62756165, -23.41052146], [-46.62683206, -23.41030498], [-46.62625609, -23.41042849], [-46.62575759, -23.41053539], [-46.62531094, -23.41069476], [-46.62501684, -23.41079969], [-46.62379559, -23.4123847], [-46.62306823, -23.41332869], [-46.62302142, -23.41338945], [-46.62302138, -23.41338953], [-46.62290469, -23.41361727], [-46.62277211, -23.41387602], [-46.62276317, -23.41389347], [-46.62245641, -23.41477531], [-46.62240513, -23.41452101], [-46.62237238, -23.41435862], [-46.62231212, -23.41405982], [-46.62220848, -23.41360086], [-46.62205444, -23.41320979], [-46.62133062, -23.41286885], [-46.6212312, -23.41225999], [-46.62111086, -23.41207525], [-46.62099032, -23.41157691], [-46.62109651, -23.410657], [-46.62112687, -23.41055358], [-46.62135728, -23.40976882], [-46.62186948, -23.4085501], [-46.62188272, -23.40851857], [-46.62193199, -23.40840326], [-46.62244732, -23.40719696], [-46.62262555, -23.40677977], [-46.62260295, -23.40569782], [-46.62259759, -23.40544136], [-46.62231336, -23.40477841], [-46.6220746, -23.4042215], [-46.62181846, -23.40381164], [-46.62153364, -23.40335588], [-46.62130944, -23.40319483], [-46.62084527, -23.4028614], [-46.62070481, -23.4027605], [-46.62023032, -23.40236473], [-46.61989327, -23.40198081], [-46.61972179, -23.40178548], [-46.61951543, -23.40160668], [-46.61907731, -23.4012271], [-46.61850449, -23.40106758], [-46.61765991, -23.40083238], [-46.61703989, -23.4006597], [-46.61646734, -23.40072083], [-46.61646731, -23.40072083], [-46.61536829, -23.40083816], [-46.61477995, -23.40090096], [-46.61395548, -23.40157499], [-46.61312637, -23.40176865], [-46.61207843, -23.40170797], [-46.61206712, -23.40170732], [-46.61109946, -23.40131569], [-46.61062555, -23.40088558], [-46.60995148, -23.39986929], [-46.6092261, -23.39897803], [-46.60882378, -23.39869764], [-46.60831826, -23.39870163], [-46.6081413, -23.39897348], [-46.60772978, -23.39926475], [-46.60727719, -23.39889347], [-46.60699759, -23.39854205], [-46.60673825, -23.39821608], [-46.60653036, -23.39795479], [-46.6055701, -23.3971058], [-46.60537925, -23.39696413], [-46.60521949, -23.39684555], [-46.6050828, -23.39674409], [-46.60465492, -23.39652049], [-46.60432269, -23.39648127], [-46.603585, -23.3964636], [-46.60307805, -23.39645145], [-46.60270438, -23.39648822], [-46.60229472, -23.39652854], [-46.60196677, -23.39656082], [-46.60192131, -23.39653656], [-46.60158245, -23.39635571], [-46.60100758, -23.39604889], [-46.6006463, -23.39585607], [-46.60061596, -23.39590692], [-46.59962914, -23.39474222], [-46.59935194, -23.3943493], [-46.59900614, -23.39362371], [-46.59884411, -23.39296945], [-46.59870781, -23.39217169], [-46.59916223, -23.39159041], [-46.59966149, -23.39120897], [-46.60037192, -23.39072774], [-46.60098891, -23.38992491], [-46.60097606, -23.38919281], [-46.60096487, -23.38915604], [-46.60083035, -23.38871382], [-46.60081719, -23.38867055], [-46.60074193, -23.38842314], [-46.60057529, -23.38805472], [-46.59969924, -23.38753546], [-46.59844142, -23.38681871], [-46.59762334, -23.38633146], [-46.5973882, -23.38619141], [-46.59691181, -23.38590767], [-46.59567577, -23.38535185], [-46.59502722, -23.38505633], [-46.59363869, -23.38490337], [-46.59358753, -23.38489773], [-46.59344594, -23.38488213], [-46.59343421, -23.38488084], [-46.59341209, -23.3848784], [-46.59262774, -23.38479199], [-46.59171073, -23.3846703], [-46.59163449, -23.38466018], [-46.59028173, -23.3835106], [-46.58890749, -23.382358], [-46.58732989, -23.38082495], [-46.58655176, -23.38016151], [-46.5860076, -23.37951298], [-46.58547634, -23.37928684], [-46.5850083, -23.37932807], [-46.58471578, -23.37916875], [-46.58441554, -23.37900522], [-46.58432852, -23.37895783], [-46.58417793, -23.37868886], [-46.58391729, -23.37822333], [-46.58368717, -23.37772349], [-46.58330907, -23.37722583], [-46.58299616, -23.37694451], [-46.58225554, -23.3769097], [-46.58172455, -23.37687179], [-46.58117833, -23.37672412], [-46.58088214, -23.37664404], [-46.58061948, -23.37641917], [-46.5805913, -23.37620227], [-46.58059882, -23.37590479], [-46.58066189, -23.37522905], [-46.58067526, -23.37453117], [-46.58039195, -23.37379192], [-46.57998663, -23.37313453], [-46.57996299, -23.37311995], [-46.57992181, -23.37309457], [-46.57981498, -23.37302872], [-46.5797873, -23.37301165], [-46.57918845, -23.37335217], [-46.57878615, -23.37364404], [-46.57789542, -23.37383782], [-46.57782747, -23.3738526], [-46.57741219, -23.37380944], [-46.57734564, -23.37380252], [-46.57716726, -23.37377801], [-46.57675087, -23.37372082], [-46.57661794, -23.37370256], [-46.57644325, -23.37367856], [-46.57625877, -23.37373777], [-46.57619973, -23.37375671], [-46.57614552, -23.37377411], [-46.57576903, -23.37389493], [-46.57548459, -23.37398621], [-46.57530177, -23.37404489], [-46.57525784, -23.37407644], [-46.57515804, -23.37414812], [-46.57502832, -23.3742413], [-46.57502829, -23.37424132], [-46.57417626, -23.37485332], [-46.57330244, -23.37507313], [-46.57263339, -23.37524143], [-46.57247117, -23.37528224], [-46.57224544, -23.37533902], [-46.57155019, -23.37544336], [-46.57055741, -23.37559235], [-46.57033889, -23.37562514], [-46.57030546, -23.37563015], [-46.57006798, -23.37563239], [-46.56975324, -23.37563535], [-46.56890005, -23.37564338], [-46.568063, -23.37557363], [-46.56729938, -23.3747845], [-46.56697883, -23.37403634], [-46.56662469, -23.37308181], [-46.5662853, -23.37252634], [-46.56606051, -23.37215843], [-46.56557659, -23.37160222], [-46.5650923, -23.37106887], [-46.56486286, -23.37077952], [-46.56421838, -23.37024376], [-46.56343929, -23.36964879], [-46.56291746, -23.36938053], [-46.5625226, -23.36917754], [-46.56132437, -23.36858769], [-46.55985769, -23.36783367], [-46.55982399, -23.36781368], [-46.55928399, -23.36749338], [-46.55867764, -23.36688955], [-46.55827777, -23.36647181], [-46.55784075, -23.36606495], [-46.55692354, -23.36562797], [-46.55625052, -23.36533191], [-46.55577955, -23.36474154], [-46.55534744, -23.3640374], [-46.55520316, -23.36381794], [-46.55498814, -23.36340298], [-46.5543399, -23.36235248], [-46.55377264, -23.36162342], [-46.55285182, -23.36066029], [-46.55198012, -23.35970933], [-46.55141213, -23.35902599], [-46.55068264, -23.35842027], [-46.55006258, -23.35799059], [-46.54983951, -23.35783601], [-46.5498053, -23.3578123], [-46.54967693, -23.35776757], [-46.54963374, -23.35775252], [-46.54931669, -23.35777443], [-46.54922656, -23.35778066], [-46.54912729, -23.35778683], [-46.54838335, -23.35783303], [-46.54816788, -23.35784641], [-46.54748513, -23.35803177], [-46.54733605, -23.35807225], [-46.54697844, -23.35817224], [-46.54559018, -23.35856042], [-46.5447233, -23.3588103], [-46.54354289, -23.35938709], [-46.54206275, -23.36019947], [-46.5406425, -23.36111568], [-46.53983107, -23.36161864], [-46.53975605, -23.3617985], [-46.53952198, -23.36201602], [-46.53910276, -23.36225645], [-46.53857262, -23.36257701], [-46.53815324, -23.36274875], [-46.53769698, -23.36298918], [-46.53732715, -23.3632296], [-46.53705117, -23.36340789], [-46.53682262, -23.36345549], [-46.5367434, -23.363472], [-46.53649332, -23.36352409], [-46.53592687, -23.36364208], [-46.53583141, -23.36366196], [-46.5347382, -23.3634848], [-46.53443665, -23.36327034], [-46.53405343, -23.3629978], [-46.53284829, -23.3621407], [-46.5320142, -23.36189926], [-46.53177536, -23.3618187], [-46.53066369, -23.36144373], [-46.53062923, -23.36143211], [-46.53004688, -23.36109932], [-46.52945718, -23.36076234], [-46.52831016, -23.36007007], [-46.52761124, -23.35960493], [-46.52759281, -23.35959266], [-46.52735589, -23.35943498], [-46.52707901, -23.35925071], [-46.52707096, -23.35924598], [-46.5269074, -23.35914982], [-46.52631358, -23.3588007], [-46.52620023, -23.35873407], [-46.52569956, -23.35853272], [-46.52498821, -23.35824664], [-46.52469814, -23.35809806], [-46.52429151, -23.35788978], [-46.52360731, -23.35753932], [-46.52287929, -23.35685342], [-46.52240177, -23.35646862], [-46.52204019, -23.35617725], [-46.52142966, -23.35583624], [-46.52009886, -23.3550839], [-46.52003901, -23.35506253], [-46.51922902, -23.35477322], [-46.51851417, -23.35460279], [-46.51835745, -23.35456543], [-46.51686018, -23.35418792], [-46.5156569, -23.35391784], [-46.51460804, -23.35399322], [-46.51339497, -23.35430623], [-46.51245335, -23.35460054], [-46.5115695, -23.35512447], [-46.51056684, -23.35538352], [-46.50953163, -23.35537902], [-46.50865122, -23.35496518], [-46.50788343, -23.35445014], [-46.50755495, -23.35409827], [-46.50726601, -23.35378874], [-46.50672137, -23.35319708], [-46.50649343, -23.35282759], [-46.50607432, -23.35210062], [-46.50587219, -23.35182444], [-46.50544788, -23.35124465], [-46.50474134, -23.35075341], [-46.50392393, -23.35026046], [-46.50349269, -23.3502538], [-46.50276304, -23.35040265], [-46.50216892, -23.35055359], [-46.50163429, -23.35083124], [-46.50120112, -23.35093892], [-46.50036319, -23.35117037], [-46.50038061, -23.3512153], [-46.49948438, -23.35109303], [-46.49881181, -23.35102353], [-46.4982133, -23.35023783], [-46.49792448, -23.34985868], [-46.49741502, -23.34975934], [-46.49739225, -23.34974343], [-46.49697657, -23.34945288], [-46.49689658, -23.34939696], [-46.49668993, -23.34912835], [-46.49647359, -23.34886932], [-46.49634644, -23.34871709], [-46.49631673, -23.34868152], [-46.49616253, -23.34850294], [-46.49576716, -23.34849179], [-46.49520958, -23.34843354], [-46.49504753, -23.34841662], [-46.49499915, -23.34841156], [-46.49476883, -23.34844593], [-46.49463364, -23.3484661], [-46.49452021, -23.34848303], [-46.49437443, -23.34848539], [-46.4943729, -23.34848542], [-46.4938645, -23.34849368], [-46.493669, -23.34849685], [-46.49355959, -23.34849188], [-46.4932116, -23.34847609], [-46.49297277, -23.34857388], [-46.49257859, -23.34873528], [-46.49179916, -23.34904461], [-46.49127917, -23.34900886], [-46.49121767, -23.34900463], [-46.49073872, -23.34907608], [-46.4905022, -23.34917313], [-46.49022745, -23.34928587], [-46.48914779, -23.34947816], [-46.48875087, -23.34942125], [-46.48820871, -23.34944877], [-46.48818443, -23.34946094], [-46.48800765, -23.34970659], [-46.48762941, -23.35019862], [-46.48722798, -23.3505164], [-46.4871879, -23.35054813], [-46.48689635, -23.35077892], [-46.48684815, -23.35081708], [-46.48678312, -23.35108231], [-46.48675227, -23.3512844], [-46.486662, -23.35187581], [-46.48669324, -23.35225466], [-46.48672508, -23.35264095], [-46.4867489, -23.35279645], [-46.48684648, -23.35343344], [-46.48689965, -23.35378057], [-46.48704354, -23.35515139], [-46.4870458, -23.35517289], [-46.48714597, -23.35615326], [-46.4871939, -23.35662238], [-46.48705422, -23.35723327], [-46.48667986, -23.35783966], [-46.48589777, -23.35843524], [-46.48480543, -23.35898277], [-46.48404709, -23.35918841], [-46.48329147, -23.3594741], [-46.48267421, -23.35967792], [-46.48233932, -23.3597885], [-46.48197298, -23.36026871], [-46.48200068, -23.36072767], [-46.48130629, -23.36136498], [-46.48026036, -23.36187], [-46.48009495, -23.36189419], [-46.48005193, -23.36190049], [-46.47983209, -23.36193265], [-46.47976208, -23.36195817], [-46.47973459, -23.36196819], [-46.47972897, -23.36233411], [-46.47973384, -23.36336458], [-46.48023807, -23.36373568], [-46.48062837, -23.36380542], [-46.48082295, -23.36384019], [-46.48119077, -23.3638417], [-46.481502, -23.36384297], [-46.48159803, -23.36388041], [-46.48240275, -23.36419408], [-46.48269013, -23.36447134], [-46.48283196, -23.36460818], [-46.48298988, -23.36476053], [-46.48332775, -23.36562057], [-46.48341716, -23.36679706], [-46.48327136, -23.36759128], [-46.48321024, -23.36772751], [-46.48304911, -23.36808668], [-46.48276647, -23.36871669], [-46.4822029, -23.36956908], [-46.48180304, -23.37015332], [-46.48157894, -23.37082394], [-46.48161512, -23.37188753], [-46.4816208, -23.3727803], [-46.48173599, -23.37307291], [-46.48178037, -23.37318565], [-46.48184407, -23.37334743], [-46.48202619, -23.37381005], [-46.48210711, -23.37389218], [-46.48253276, -23.37432415], [-46.48259082, -23.37438307], [-46.48266674, -23.37446012], [-46.48271669, -23.37451082], [-46.48295669, -23.37465062], [-46.48313618, -23.37475517], [-46.48333386, -23.37487032], [-46.48336413, -23.3748817], [-46.48362467, -23.37497971], [-46.48370516, -23.37500999], [-46.48376916, -23.37503406], [-46.4838277, -23.37505609], [-46.4838624, -23.37506914], [-46.48385192, -23.3750795], [-46.48383779, -23.37509346], [-46.48383358, -23.37509762], [-46.48377807, -23.37515247], [-46.48372786, -23.37520208], [-46.48352326, -23.37535697], [-46.48331216, -23.37568376], [-46.48308943, -23.37602624], [-46.48305637, -23.37607709], [-46.48305406, -23.37608064], [-46.48271697, -23.3764346], [-46.48267262, -23.37648117], [-46.48235882, -23.37686187], [-46.48230507, -23.37692708], [-46.4821984, -23.37702079], [-46.48199746, -23.37719732], [-46.48186695, -23.37731197], [-46.4818559, -23.37732167], [-46.48165774, -23.37749575], [-46.48145486, -23.37762716], [-46.48138633, -23.37767154], [-46.48110208, -23.37785564], [-46.48073102, -23.37819862], [-46.48054652, -23.37858187], [-46.48048341, -23.37890428], [-46.48024502, -23.37951807], [-46.47984862, -23.38020524], [-46.47975488, -23.38071506], [-46.47971317, -23.38094192], [-46.47989334, -23.38152043], [-46.48000341, -23.38221549], [-46.47986901, -23.38262015], [-46.47972311, -23.38285022], [-46.47966431, -23.38288817], [-46.47859379, -23.38357905], [-46.47828703, -23.38381827], [-46.47756535, -23.38438107], [-46.4769954, -23.38475421], [-46.47677546, -23.38527518], [-46.47660717, -23.38567379], [-46.47641169, -23.38639655], [-46.47641148, -23.38671738], [-46.47641126, -23.38704821], [-46.47646861, -23.38773353], [-46.47648963, -23.38798468], [-46.47649105, -23.38798721], [-46.47666721, -23.38830252], [-46.47689376, -23.38874085], [-46.4771168, -23.38917239], [-46.47711812, -23.38978293], [-46.47711903, -23.39020598], [-46.47711673, -23.39075478], [-46.47696846, -23.39137404], [-46.47689712, -23.39217523], [-46.4769281, -23.39252925], [-46.47707329, -23.39289475], [-46.47709528, -23.39295011], [-46.47759588, -23.39308997], [-46.47823004, -23.39326712], [-46.47979129, -23.39350193], [-46.48005125, -23.39354103], [-46.48034698, -23.39351968], [-46.48051673, -23.39350743], [-46.48070512, -23.39349383], [-46.48139937, -23.39344371], [-46.48333697, -23.39361649], [-46.48350742, -23.39363169], [-46.48351159, -23.39358303], [-46.48354657, -23.393174], [-46.48355947, -23.39302317], [-46.48355331, -23.39300268], [-46.48363045, -23.39283467], [-46.48376346, -23.39254497], [-46.48390584, -23.39223488], [-46.48396434, -23.39210745], [-46.48448333, -23.39095753], [-46.48506615, -23.38994397], [-46.48647717, -23.3888782], [-46.48675782, -23.38919357], [-46.48730901, -23.38972636], [-46.48788926, -23.39008693], [-46.48838278, -23.39043863], [-46.48859611, -23.39090167], [-46.48853925, -23.39140706], [-46.48849602, -23.39147555], [-46.48828153, -23.39181538], [-46.48844257, -23.39230479], [-46.48846059, -23.39235957], [-46.48886349, -23.39258802], [-46.48935702, -23.39293971], [-46.48956178, -23.39315115], [-46.49031073, -23.39344342], [-46.49128701, -23.39343083], [-46.49157232, -23.39342716], [-46.49224209, -23.39314413], [-46.4933782, -23.392192], [-46.49353491, -23.39194452], [-46.49355241, -23.39191688], [-46.49370557, -23.39167498], [-46.49381587, -23.39150078], [-46.4938672, -23.39141971], [-46.49388376, -23.39136796], [-46.49415739, -23.39051279], [-46.49434343, -23.38995019], [-46.49492395, -23.38948539], [-46.49572532, -23.3890896], [-46.49633851, -23.38927241], [-46.49697258, -23.38946145], [-46.49714136, -23.38951176], [-46.49792173, -23.3897444], [-46.49916052, -23.39002068], [-46.49975729, -23.39045305], [-46.50027834, -23.39122851], [-46.50032168, -23.39144239], [-46.50045642, -23.39210724], [-46.50064588, -23.39239048], [-46.50139354, -23.39287165], [-46.50190313, -23.39311601], [-46.50243774, -23.39338289], [-46.50302282, -23.39338359], [-46.50317792, -23.39338377], [-46.50392347, -23.39293851], [-46.50475587, -23.39252631], [-46.50537798, -23.39212205], [-46.50543974, -23.39208192], [-46.50568451, -23.39194837], [-46.50597793, -23.39178829], [-46.50642103, -23.39172477], [-46.50685233, -23.39169574], [-46.50728228, -23.39176633], [-46.50755729, -23.39181148], [-46.50808582, -23.39176969], [-46.50808708, -23.39176959], [-46.50849246, -23.39166086], [-46.50901063, -23.39166489], [-46.50932288, -23.39177953], [-46.50973025, -23.3919291], [-46.51019396, -23.39259891], [-46.51024773, -23.39267658], [-46.51037292, -23.39299751], [-46.51062044, -23.393632], [-46.51107519, -23.39431175], [-46.51151364, -23.39470625], [-46.5115757, -23.39476209], [-46.51168117, -23.39483713], [-46.51198556, -23.3950537], [-46.51207488, -23.39511726], [-46.51214196, -23.39516498], [-46.51217452, -23.39518814], [-46.51219583, -23.39522251], [-46.51233562, -23.3954479], [-46.51236436, -23.39549424], [-46.51246113, -23.39560373], [-46.51275369, -23.39593473], [-46.51301961, -23.39616733], [-46.51320398, -23.3963286], [-46.51349124, -23.39655323], [-46.51361613, -23.39656532], [-46.51377201, -23.3965804], [-46.51380011, -23.39658312], [-46.51388675, -23.39634299], [-46.51399618, -23.39603969], [-46.51403655, -23.39592778], [-46.51408909, -23.39559939], [-46.51412643, -23.39536605], [-46.514389, -23.39513942], [-46.51455205, -23.39499869], [-46.51488104, -23.39471473], [-46.51507114, -23.39461173], [-46.51535809, -23.39445626], [-46.51545359, -23.39440683], [-46.51583532, -23.39420923], [-46.51620262, -23.39403239], [-46.5172543, -23.39344542], [-46.51733055, -23.39338844], [-46.5175506, -23.39322402], [-46.51764447, -23.39315388], [-46.51775648, -23.39297292], [-46.51781868, -23.39287243], [-46.5178886, -23.39275946], [-46.51797051, -23.39274136], [-46.51843459, -23.3926388], [-46.51875581, -23.39259798], [-46.5188304, -23.39256857], [-46.51926432, -23.39239749], [-46.51953764, -23.39228973], [-46.52064047, -23.39205177], [-46.52067593, -23.39204412], [-46.52068762, -23.39205368], [-46.52117456, -23.39245203], [-46.5212031, -23.39254931], [-46.52124515, -23.39269271], [-46.52130094, -23.39288293], [-46.5214778, -23.39348595], [-46.52189905, -23.39409853], [-46.52202805, -23.39415658], [-46.52233222, -23.39429346], [-46.52270266, -23.39446016], [-46.52295137, -23.39457208], [-46.52360306, -23.39474718], [-46.52435051, -23.394948], [-46.52533184, -23.39556637], [-46.52548511, -23.39566296], [-46.52557953, -23.39569805], [-46.526159, -23.39591341], [-46.52707639, -23.39627214], [-46.52707675, -23.39625001], [-46.52866357, -23.39727826], [-46.52915615, -23.39805202], [-46.52941514, -23.39842286], [-46.52986659, -23.39906926], [-46.53040245, -23.40034593], [-46.53051879, -23.40062311], [-46.53057999, -23.40079356], [-46.53062594, -23.40092153], [-46.53100187, -23.40196853], [-46.53109955, -23.40248398], [-46.53134108, -23.40256329], [-46.53149266, -23.40280134], [-46.53150765, -23.40283827], [-46.53160802, -23.40308562], [-46.53186098, -23.40325118], [-46.53188185, -23.40326483], [-46.53216546, -23.40328383], [-46.53237391, -23.40322382], [-46.53267309, -23.40344842], [-46.53278659, -23.4035379], [-46.53297245, -23.40368445], [-46.53320753, -23.40374984], [-46.53355326, -23.40380229], [-46.53384882, -23.40379826], [-46.53415597, -23.40374833], [-46.53441398, -23.40355088], [-46.53490556, -23.40363518], [-46.53524984, -23.40359618], [-46.53543114, -23.40351977], [-46.53540442, -23.40338504], [-46.53510634, -23.40277438], [-46.53463231, -23.40162353], [-46.53455462, -23.40148472], [-46.53448796, -23.40136563], [-46.53397378, -23.400447], [-46.53366169, -23.3994675], [-46.53350509, -23.39897601], [-46.53349733, -23.39888046], [-46.53349566, -23.3988599], [-46.53348111, -23.39868084], [-46.53345392, -23.39834623], [-46.53387485, -23.39805309], [-46.53411906, -23.39788302], [-46.53428961, -23.39776425], [-46.53520163, -23.39734052], [-46.53545751, -23.39722164], [-46.5357081, -23.39706039], [-46.53649768, -23.3965523], [-46.53668549, -23.39643145], [-46.5369325, -23.3962725], [-46.53700275, -23.39622729], [-46.53706203, -23.3961922], [-46.53787775, -23.39570932], [-46.53789208, -23.39570083], [-46.53805476, -23.39560453], [-46.5383215, -23.39544663], [-46.53834917, -23.39543025], [-46.53847193, -23.39535758], [-46.53848182, -23.39532873], [-46.53863198, -23.39489092], [-46.53866179, -23.39480401], [-46.5387958, -23.39441328], [-46.53899733, -23.39416282], [-46.53913293, -23.39399429], [-46.53977763, -23.39319306], [-46.54038771, -23.3921802], [-46.54039881, -23.39216178], [-46.54042362, -23.39213087], [-46.54052733, -23.39200167], [-46.54185899, -23.39034269], [-46.54283944, -23.38948362], [-46.54285974, -23.38946583], [-46.54347584, -23.38901674], [-46.54348084, -23.3890131], [-46.54402687, -23.38861508], [-46.54412004, -23.38854716], [-46.54412523, -23.38854381], [-46.54420345, -23.38849324], [-46.54455513, -23.38826588], [-46.54519168, -23.38785435], [-46.54550924, -23.3872758], [-46.54577261, -23.38742108], [-46.54659667, -23.38787563], [-46.54795773, -23.38906274], [-46.54881781, -23.38965419], [-46.54933511, -23.39000992], [-46.55009357, -23.390642], [-46.55056922, -23.39103838], [-46.55147127, -23.39179011], [-46.55148753, -23.39180365], [-46.55160837, -23.39192072], [-46.55168496, -23.3919949], [-46.552254, -23.39254614], [-46.55251892, -23.39280276], [-46.55293437, -23.39336159], [-46.55344758, -23.3940519], [-46.55382867, -23.3945688], [-46.55429168, -23.39519683], [-46.55460436, -23.39571028], [-46.55503117, -23.39641112], [-46.55507192, -23.39647803], [-46.55590542, -23.39751986], [-46.55732255, -23.39830746], [-46.55767909, -23.39843788], [-46.55882214, -23.39885601], [-46.5591485, -23.39897539], [-46.55969057, -23.39917248], [-46.56016569, -23.39934523], [-46.56123888, -23.40005898], [-46.56187693, -23.40099492], [-46.56268066, -23.40160168], [-46.56315864, -23.40213159], [-46.56337085, -23.40236685], [-46.56392733, -23.40301564], [-46.5647653, -23.40303966], [-46.565317, -23.40247614], [-46.56572042, -23.40193326], [-46.56591249, -23.40147746], [-46.56607959, -23.40108093], [-46.56639244, -23.40004494], [-46.56672249, -23.39871185], [-46.56735452, -23.39700591], [-46.56754275, -23.3963098], [-46.56765635, -23.39588969], [-46.56763357, -23.39577498], [-46.56684405, -23.39505409], [-46.56603895, -23.39438438], [-46.56555863, -23.39452518], [-46.56506416, -23.39446018], [-46.56509477, -23.39433635], [-46.56512577, -23.39421096], [-46.56519681, -23.39392364], [-46.56522089, -23.39382622], [-46.56525121, -23.39370357], [-46.56538033, -23.39353108], [-46.56581839, -23.39294587], [-46.5664214, -23.39225731], [-46.5666373, -23.39187172], [-46.56745413, -23.39092334], [-46.56849615, -23.39005056], [-46.56855405, -23.39000207], [-46.56887293, -23.38972507], [-46.56900181, -23.38961311], [-46.56927046, -23.38937974], [-46.56929934, -23.38935465], [-46.56942318, -23.38924707], [-46.56966702, -23.38903525], [-46.56973424, -23.38901113], [-46.56978894, -23.3889915], [-46.57058163, -23.38870701], [-46.57104345, -23.38854126], [-46.57117028, -23.38853776], [-46.57119064, -23.3885372], [-46.57158524, -23.38852633], [-46.57238774, -23.38850422], [-46.57360301, -23.38881975], [-46.57437329, -23.38920868], [-46.57514003, -23.38981483], [-46.57561173, -23.39037082], [-46.57583377, -23.39111749], [-46.57569094, -23.39231615], [-46.57596005, -23.39320076], [-46.57674477, -23.39497366], [-46.57737446, -23.39601134], [-46.57750112, -23.39622007], [-46.57768618, -23.3962114], [-46.57775192, -23.3961351], [-46.57806279, -23.39574396], [-46.57874534, -23.39488518], [-46.57881266, -23.3948074], [-46.57896221, -23.39463462], [-46.57898622, -23.39460689], [-46.57922076, -23.39433592], [-46.57994044, -23.39404932], [-46.58075333, -23.39409576], [-46.58078586, -23.3940929], [-46.5815311, -23.39402731], [-46.58195016, -23.39392219], [-46.58233826, -23.39382483], [-46.58248158, -23.39378887], [-46.58236887, -23.39481746], [-46.58205875, -23.39569342], [-46.58207206, -23.39639122], [-46.58292106, -23.39725015], [-46.58286959, -23.3981414], [-46.58282778, -23.39826519], [-46.58251989, -23.39917687], [-46.58284616, -23.399582], [-46.58342986, -23.39986671], [-46.5839103, -23.40010105], [-46.58439793, -23.40043996], [-46.58502196, -23.40148994], [-46.5853804, -23.40219287], [-46.58537951, -23.40289407], [-46.58537945, -23.40293915], [-46.58537938, -23.40299806], [-46.58537936, -23.40301626], [-46.58537595, -23.40302589], [-46.58501752, -23.40404012], [-46.58499561, -23.40435032], [-46.58497595, -23.40462856], [-46.58497249, -23.40467742], [-46.58494512, -23.40506484], [-46.58494001, -23.40513725], [-46.58492147, -23.40539958], [-46.58524525, -23.40671955], [-46.58609868, -23.40807027], [-46.5869603, -23.40891792], [-46.58820905, -23.40946255], [-46.58918867, -23.40987737], [-46.58957194, -23.4099992], [-46.59025868, -23.41021749], [-46.59026026, -23.41021799], [-46.590562, -23.4103139], [-46.59066061, -23.41034524], [-46.59099501, -23.41052903], [-46.59151605, -23.41081539], [-46.59233099, -23.41161767], [-46.59235344, -23.41163977], [-46.59287251, -23.41248177], [-46.5930863, -23.41282855], [-46.59362185, -23.41302387], [-46.59387324, -23.41311556], [-46.59423735, -23.41324835], [-46.594263, -23.4132577], [-46.59494875, -23.41323381], [-46.59564469, -23.41320956], [-46.59644186, -23.41347296], [-46.59729512, -23.41408027], [-46.59748737, -23.41424125], [-46.59817102, -23.4148137], [-46.5989555, -23.41488603], [-46.59920518, -23.41490905], [-46.60027816, -23.41489062], [-46.60085622, -23.41497921], [-46.59815279, -23.41830357], [-46.59802587, -23.41845964], [-46.59813018, -23.41887287], [-46.59822839, -23.41966341], [-46.59842907, -23.42098152], [-46.59846488, -23.42258309], [-46.59855022, -23.42340774], [-46.5987721, -23.42376007], [-46.59882833, -23.42384936], [-46.59885052, -23.4238846], [-46.59886281, -23.42390411], [-46.5989862, -23.42390593], [-46.59918332, -23.42390885], [-46.59965491, -23.42372141], [-46.59973864, -23.42374968], [-46.59988757, -23.42378261], [-46.600194, -23.42385036], [-46.60014564, -23.42380803], [-46.6012223, -23.4243015], [-46.60158477, -23.42459303], [-46.60168883, -23.42467672], [-46.60204611, -23.42496408], [-46.6022434, -23.42502862], [-46.60295025, -23.42525982], [-46.60352976, -23.42528997], [-46.60415864, -23.42532268], [-46.60509383, -23.42525226], [-46.60657371, -23.42457984], [-46.60663183, -23.42465143], [-46.60691266, -23.42499731], [-46.6069558, -23.42505045], [-46.60657761, -23.42571517], [-46.60650779, -23.42583788], [-46.60612212, -23.42636905], [-46.60599641, -23.42697653], [-46.60609223, -23.42756944], [-46.6064315, -23.42874172], [-46.60709847, -23.43002959], [-46.60743617, -23.43068167], [-46.60794201, -23.43067762], [-46.60808704, -23.43067646], [-46.60864842, -23.43067196], [-46.61221885, -23.43064334], [-46.61289743, -23.43063789], [-46.61588682, -23.43080122], [-46.61652165, -23.4308359], [-46.61685723, -23.43085423], [-46.61717395, -23.43038201], [-46.61771982, -23.42932364], [-46.61802005, -23.4284161], [-46.61858877, -23.42716276], [-46.61910916, -23.42621047], [-46.61929302, -23.425874], [-46.61930988, -23.42584592], [-46.61994702, -23.42478489], [-46.61999542, -23.4247043], [-46.61995495, -23.4249104], [-46.61993726, -23.42500045], [-46.61983823, -23.42550478], [-46.61954342, -23.42623779], [-46.61935928, -23.4267417], [-46.61950842, -23.42708492], [-46.61969551, -23.42778294], [-46.61967262, -23.42852704], [-46.6192054, -23.42951211], [-46.61891006, -23.43002763], [-46.61870814, -23.43036323], [-46.61868696, -23.43039843], [-46.61856541, -23.43060044], [-46.61853765, -23.43070429], [-46.61846744, -23.43096688], [-46.61846671, -23.43099573], [-46.6184449, -23.43185978], [-46.61841747, -23.43209618], [-46.61833597, -23.43279859], [-46.61827624, -23.43315222], [-46.61821414, -23.43351992], [-46.61829821, -23.43373583], [-46.61851263, -23.43428648], [-46.61873666, -23.43492722], [-46.61891215, -23.43593433], [-46.61856823, -23.43680477], [-46.61808795, -23.43751513], [-46.61768869, -23.43788629], [-46.61765588, -23.43791679], [-46.61726617, -23.43827907], [-46.6170891, -23.43844367], [-46.6164473, -23.43881083], [-46.61618801, -23.4389142], [-46.61604039, -23.43920057], [-46.61579439, -23.43969312], [-46.61568548, -23.44028086], [-46.61567785, -23.44032204], [-46.615648, -23.44048316], [-46.61565565, -23.4405359], [-46.61573599, -23.44108974], [-46.61572346, -23.44115411], [-46.61556522, -23.44196731], [-46.61557253, -23.44197321], [-46.61573967, -23.44210815], [-46.61581641, -23.44217012], [-46.6197747, -23.44536574], [-46.62011092, -23.44563717], [-46.62016744, -23.44568279], [-46.62176586, -23.44523266], [-46.62252666, -23.4450184], [-46.62449085, -23.44446523], [-46.62391876, -23.44399829], [-46.6215024, -23.44202597], [-46.62098052, -23.44171106], [-46.62069292, -23.44125101], [-46.62095451, -23.44041097], [-46.62132876, -23.44014199], [-46.6216526, -23.43994088], [-46.6231105, -23.44007388], [-46.62339853, -23.44010015], [-46.6240568, -23.4401602], [-46.62414818, -23.44016853], [-46.62524655, -23.44026871], [-46.62537044, -23.44111596], [-46.62537129, -23.44127939], [-46.62537348, -23.44169923], [-46.62541583, -23.44183998], [-46.62562934, -23.44254955], [-46.62579513, -23.44310055], [-46.62600504, -23.44385838], [-46.62616241, -23.44404365], [-46.62643293, -23.44409335], [-46.62685395, -23.44398514], [-46.62744758, -23.44387944], [-46.62755911, -23.44381067], [-46.6276297, -23.44376713], [-46.62784612, -23.44363367], [-46.62793297, -23.44389127], [-46.62803698, -23.44419974], [-46.6281741, -23.44460641], [-46.62828638, -23.44493942], [-46.6283279, -23.44506256], [-46.62835079, -23.44513043], [-46.62848879, -23.44553969], [-46.62833051, -23.44556554], [-46.62757913, -23.44568822], [-46.62745329, -23.44584648], [-46.62763186, -23.44624934], [-46.62786864, -23.44635982], [-46.62801135, -23.44642641], [-46.62867642, -23.44648186], [-46.6291415, -23.44670592], [-46.6296703, -23.44701054], [-46.62972364, -23.44704127], [-46.62973573, -23.44703615], [-46.62987334, -23.44721435], [-46.63016338, -23.44758994], [-46.63073832, -23.44866184], [-46.63090047, -23.44926476], [-46.63096238, -23.44949494], [-46.6311459, -23.4501773], [-46.63117084, -23.45031701], [-46.6312784, -23.45091952], [-46.63131578, -23.45112894], [-46.63133142, -23.45116053], [-46.63152817, -23.45155822], [-46.63166616, -23.45183711], [-46.63168622, -23.45187766], [-46.63191639, -23.45217807], [-46.63208495, -23.45239807], [-46.63274606, -23.45270503], [-46.63297637, -23.45280894], [-46.63368895, -23.45313044], [-46.63374948, -23.45318122], [-46.63428534, -23.45363085], [-46.63457355, -23.45379987], [-46.63472524, -23.45388883], [-46.63531833, -23.45403843], [-46.63513958, -23.45441881], [-46.63507954, -23.45454656], [-46.63502118, -23.45467076], [-46.63497329, -23.45477288]]]]}}]}