{"type": "FeatureCollection", "features": [{"type": "Feature", "properties": {"name": "Parque Estadual Alberto Löfgren"}, "geometry": {"type": "MultiPolygon", "coordinates": [[[[-46.64564405, -23.46926833], [-46.64607634, -23.46926632], [-46.64634937, -23.46842351], [-46.64746377, -23.46665652], [-46.64805094, -23.46513138], [-46.64815168, -23.46517549], [-46.64844728, -23.46457657], [-46.64855034, -23.4645814], [-46.64869723, -23.4645718], [-46.64888266, -23.46460041], [-46.64867478, -23.46391459], [-46.64833969, -23.46357797], [-46.64727886, -23.46113831], [-46.64742318, -23.46057858], [-46.64740785, -23.46028414], [-46.64759522, -23.45996623], [-46.64774289, -23.45967684], [-46.64790089, -23.45945712], [-46.64806758, -23.45917626], [-46.6478218, -23.45917885], [-46.64764078, -23.45906738], [-46.6457093, -23.45960237], [-46.64432489, -23.46003563], [-46.64358987, -23.46028194], [-46.64330238, -23.4603255], [-46.64331627, -23.46014819], [-46.64332944, -23.46003161], [-46.64332648, -23.45990025], [-46.64333166, -23.45988916], [-46.64334225, -23.45977873], [-46.64332551, -23.45971395], [-46.64332343, -23.45965403], [-46.64313744, -23.45922589], [-46.64312913, -23.4591984], [-46.64295044, -23.45903848], [-46.64306619, -23.45905075], [-46.64309274, -23.45904924], [-46.64315984, -23.45899583], [-46.64325636, -23.45885079], [-46.64331274, -23.458708], [-46.64319376, -23.45840909], [-46.64313023, -23.45832151], [-46.64291232, -23.45816569], [-46.64278292, -23.45810154], [-46.64255077, -23.45807235], [-46.64233666, -23.45810555], [-46.64197508, -23.45811363], [-46.64163854, -23.45816206], [-46.64151003, -23.45816983], [-46.6414149, -23.45815907], [-46.64144979, -23.45807641], [-46.64134299, -23.4579653], [-46.64158259, -23.45558769], [-46.64274982, -23.45444945], [-46.64287525, -23.45419869], [-46.64290732, -23.45392438], [-46.64281309, -23.45383132], [-46.6423044, -23.45391437], [-46.6421899, -23.45361584], [-46.64180821, -23.45357488], [-46.64144684, -23.45374225], [-46.64086159, -23.45372796], [-46.64055358, -23.45355127], [-46.64027397, -23.45316165], [-46.64015758, -23.45306882], [-46.63959397, -23.45301096], [-46.63908855, -23.45299991], [-46.63761345, -23.45306856], [-46.6371883, -23.45309756], [-46.63627205, -23.45319714], [-46.63556907, -23.45333945], [-46.63418324, -23.45382014], [-46.63410831, -23.45386586], [-46.63469088, -23.45430601], [-46.63461775, -23.45460446], [-46.63489816, -23.45476608], [-46.63506662, -23.45463354], [-46.63539107, -23.45477027], [-46.63552593, -23.45479478], [-46.63562184, -23.45461266], [-46.63585435, -23.45461653], [-46.63599662, -23.45460628], [-46.63602172, -23.45461965], [-46.63591401, -23.45477552], [-46.63574731, -23.45498581], [-46.63551549, -23.45529282], [-46.63489067, -23.45605509], [-46.63442229, -23.45664605], [-46.63430254, -23.45678948], [-46.63426756, -23.45683633], [-46.63401697, -23.45730444], [-46.63390593, -23.45778147], [-46.63385026, -23.45806098], [-46.63380447, -23.45832107], [-46.63379525, -23.45864891], [-46.63378728, -23.45876454], [-46.63369834, -23.4588718], [-46.63349565, -23.4589936], [-46.63350106, -23.45914519], [-46.63344888, -23.45918669], [-46.63329612, -23.45926655], [-46.6326571, -23.46008743], [-46.6320009, -23.46142492], [-46.63110612, -23.46163947], [-46.63064401, -23.46163747], [-46.63019298, -23.46157235], [-46.63016331, -23.46169898], [-46.63008093, -23.46183725], [-46.6299478, -23.46195167], [-46.62971611, -23.46206047], [-46.6296909, -23.46208248], [-46.62964201, -23.46218298], [-46.62953013, -23.46235301], [-46.62950626, -23.46249821], [-46.62945024, -23.46251535], [-46.62942113, -23.46347083], [-46.62935442, -23.46410315], [-46.62938228, -23.46422032], [-46.62943452, -23.46436604], [-46.6295398, -23.46452672], [-46.62983794, -23.46493804], [-46.62994061, -23.46527826], [-46.6299011, -23.46558229], [-46.62992746, -23.46577261], [-46.62998505, -23.4659626], [-46.63007837, -23.46612784], [-46.63020999, -23.46627042], [-46.63032141, -23.46635578], [-46.63064804, -23.46654296], [-46.63078948, -23.46671434], [-46.63089936, -23.46691294], [-46.63091254, -23.46692956], [-46.63092217, -23.4669506], [-46.63107117, -23.46695961], [-46.63147913, -23.46672707], [-46.63167399, -23.46658251], [-46.63182563, -23.46638215], [-46.63189369, -23.46625069], [-46.63194203, -23.46607953], [-46.63201005, -23.46577186], [-46.63203546, -23.46527629], [-46.63207673, -23.46511629], [-46.6321905, -23.464991], [-46.63230488, -23.46491445], [-46.63245779, -23.46484636], [-46.63261832, -23.46481144], [-46.6330458, -23.46480031], [-46.63320712, -23.46482965], [-46.63350118, -23.46490857], [-46.63392768, -23.46501269], [-46.63447594, -23.46509837], [-46.63478418, -23.46511453], [-46.63545539, -23.4651917], [-46.63577503, -23.46520165], [-46.63633733, -23.46559267], [-46.63633521, -23.46559728], [-46.63661184, -23.46569276], [-46.63687996, -23.46577519], [-46.6372292, -23.46587076], [-46.63749027, -23.4659543], [-46.63805029, -23.46619278], [-46.63838792, -23.46629783], [-46.63905844, -23.46642366], [-46.63998931, -23.46660986], [-46.64033249, -23.46664675], [-46.64091105, -23.46669319], [-46.64110311, -23.46672581], [-46.64130559, -23.4667813], [-46.64187815, -23.467039], [-46.64283648, -23.46749827], [-46.6430346, -23.46760662], [-46.64319336, -23.46770994], [-46.64334899, -23.46786122], [-46.64353946, -23.46809424], [-46.64355905, -23.46811431], [-46.64374679, -23.46836232], [-46.6439824, -23.46863773], [-46.64414922, -23.46878615], [-46.6443775, -23.46894349], [-46.64451682, -23.46900664], [-46.64487846, -23.46914821], [-46.64513566, -23.46922303], [-46.64533704, -23.46924339], [-46.64564405, -23.46926833]]]]}}]}