{"type": "FeatureCollection", "features": [{"type": "Feature", "properties": {"name": "Parque Estadual Nascentes do Paranapanema"}, "geometry": {"type": "MultiPolygon", "coordinates": [[[[-48.20089547, -24.2621661], [-48.20161085, -24.26234414], [-48.20268881, -24.26238754], [-48.20358705, -24.26242761], [-48.20422334, -24.26269839], [-48.20500752, -24.26325448], [-48.20573524, -24.26345627], [-48.20645476, -24.26344597], [-48.20738278, -24.26329814], [-48.20808178, -24.26305193], [-48.20873506, -24.26254582], [-48.2094104, -24.26220494], [-48.21031122, -24.26212729], [-48.21136352, -24.26217015], [-48.21279947, -24.2622907], [-48.21490665, -24.26225867], [-48.21662558, -24.26236082], [-48.21777906, -24.26247614], [-48.21835272, -24.26267505], [-48.21878158, -24.26303616], [-48.21923304, -24.26353901], [-48.21971223, -24.26394814], [-48.22037526, -24.26417223], [-48.22106758, -24.26423199], [-48.22148896, -24.26416097], [-48.22220207, -24.26404078], [-48.22289949, -24.26386512], [-48.22385986, -24.26341164], [-48.22494861, -24.26296051], [-48.22577697, -24.26266946], [-48.22637066, -24.26253899], [-48.22683289, -24.26254743], [-48.22734135, -24.26279222], [-48.22771836, -24.26317591], [-48.22842716, -24.26365986], [-48.22888479, -24.26388017], [-48.2294487, -24.26393754], [-48.22998949, -24.26387678], [-48.23042962, -24.26371991], [-48.23101252, -24.26349502], [-48.23181571, -24.26317994], [-48.23225328, -24.26314081], [-48.23263643, -24.263242], [-48.2331495, -24.26327489], [-48.23382072, -24.26312226], [-48.23462035, -24.26297194], [-48.23549344, -24.26298782], [-48.23628847, -24.2630494], [-48.23684984, -24.26322446], [-48.23769115, -24.26352236], [-48.23856119, -24.26367949], [-48.23933311, -24.26362286], [-48.23969566, -24.26348814], [-48.24011367, -24.26316601], [-48.24081157, -24.2629667], [-48.24158705, -24.26274528], [-48.24205689, -24.26240054], [-48.24224885, -24.26183879], [-48.24221121, -24.26120221], [-48.24230756, -24.260309], [-48.24260222, -24.25974913], [-48.24310472, -24.25936043], [-48.24386397, -24.25905223], [-48.24428978, -24.25908294], [-48.24471559, -24.25911365], [-48.24591332, -24.25941135], [-48.24680716, -24.25984155], [-48.24821149, -24.25986698], [-48.24927164, -24.25956418], [-48.25013882, -24.25894473], [-48.25073695, -24.25865409], [-48.25110369, -24.25841955], [-48.25156935, -24.25817174], [-48.25183846, -24.2578902], [-48.25220882, -24.25767835], [-48.25255031, -24.25766192], [-48.25279422, -24.2577869], [-48.25301752, -24.25810748], [-48.25317053, -24.25863779], [-48.25333543, -24.25937935], [-48.25355158, -24.26003139], [-48.2538206, -24.26051859], [-48.2542556, -24.26093342], [-48.25480498, -24.26138047], [-48.25537242, -24.26175246], [-48.25572654, -24.26210554], [-48.25591632, -24.26245564], [-48.25606079, -24.26300089], [-48.25620095, -24.26336517], [-48.25655443, -24.26374837], [-48.25676258, -24.26400837], [-48.25697073, -24.26426838], [-48.25717275, -24.26481464], [-48.25726036, -24.26532872], [-48.25725834, -24.26618783], [-48.25729892, -24.26659553], [-48.2575712, -24.26693205], [-48.25808907, -24.26731824], [-48.25857533, -24.26764354], [-48.25896041, -24.2680876], [-48.25928762, -24.26854569], [-48.25950932, -24.2689416], [-48.25979482, -24.26942909], [-48.26009707, -24.2699018], [-48.2604348, -24.27025456], [-48.26080796, -24.27048738], [-48.26121693, -24.27058521], [-48.26174127, -24.27067001], [-48.26215023, -24.27076782], [-48.26242578, -24.27095367], [-48.26260043, -24.27124319], [-48.2627551, -24.27169818], [-48.26290913, -24.27218329], [-48.2631421, -24.27282055], [-48.26339765, -24.27317184], [-48.26382048, -24.27339048], [-48.26426168, -24.27351902], [-48.26495008, -24.27362185], [-48.26572226, -24.27365081], [-48.26608983, -24.27376293], [-48.266299, -24.27397772], [-48.26645432, -24.27440256], [-48.26665702, -24.2749187], [-48.26694256, -24.27540618], [-48.26731449, -24.27569927], [-48.26787106, -24.27581475], [-48.26869194, -24.27587476], [-48.26948124, -24.27587385], [-48.27054738, -24.27599855], [-48.27123481, -24.27614655], [-48.27192033, -24.27638497], [-48.27231788, -24.27663326], [-48.27271544, -24.27688157], [-48.27352346, -24.27754423], [-48.27482863, -24.27841176], [-48.27541169, -24.27882917], [-48.27627257, -24.27932695], [-48.27707028, -24.27970301], [-48.27791634, -24.28012515], [-48.27881397, -24.2804427], [-48.27953081, -24.28075701], [-48.28017997, -24.28116054], [-48.28087228, -24.28166661], [-48.28093271, -24.28139744], [-48.28102952, -24.28121971], [-48.28127012, -24.2810512], [-48.28143272, -24.28099634], [-48.28193229, -24.28087512], [-48.28243523, -24.28049478], [-48.28279517, -24.28021989], [-48.28301003, -24.28013711], [-48.28338827, -24.28012227], [-48.28408123, -24.27978822], [-48.28480851, -24.27891431], [-48.28497727, -24.27870055], [-48.28524371, -24.27838038], [-48.28546175, -24.27814593], [-48.28569921, -24.27808484], [-48.28602913, -24.27811236], [-48.28655895, -24.27816091], [-48.28668999, -24.27813309], [-48.28709609, -24.2779368], [-48.28752783, -24.27772248], [-48.28790942, -24.27745121], [-48.28828132, -24.27707881], [-48.28857827, -24.27676048], [-48.28896387, -24.27644227], [-48.28922015, -24.2763171], [-48.28976787, -24.27624919], [-48.29112809, -24.27622836], [-48.29193196, -24.27612014], [-48.29274871, -24.27595686], [-48.29318711, -24.27588699], [-48.29340683, -24.27583491], [-48.29361788, -24.27564918], [-48.29386865, -24.27525224], [-48.29390833, -24.27506359], [-48.29387807, -24.2742284], [-48.29374903, -24.27358088], [-48.29359417, -24.27307869], [-48.29345976, -24.27273002], [-48.29318353, -24.27237845], [-48.29288154, -24.2721352], [-48.29234419, -24.27186546], [-48.29192293, -24.27168435], [-48.29148389, -24.27153482], [-48.29110299, -24.2713664], [-48.29095542, -24.27125877], [-48.29084931, -24.2710898], [-48.29072163, -24.27085308], [-48.29069868, -24.27040613], [-48.29061331, -24.27019475], [-48.29040317, -24.26979], [-48.28999461, -24.26903648], [-48.28947465, -24.26835956], [-48.28906835, -24.26806289], [-48.28862838, -24.26788717], [-48.28799648, -24.26763806], [-48.28734312, -24.2672571], [-48.28669186, -24.26679037], [-48.28606428, -24.2663029], [-48.28488563, -24.26552669], [-48.28438719, -24.26497167], [-48.28414558, -24.26454791], [-48.28386399, -24.26387218], [-48.28378447, -24.26309109], [-48.28388822, -24.26224614], [-48.2838763, -24.26168273], [-48.28379124, -24.26129077], [-48.28331084, -24.26054527], [-48.28308193, -24.26019465], [-48.28304778, -24.25999326], [-48.28304214, -24.25982532], [-48.28317946, -24.25955012], [-48.28335894, -24.25939778], [-48.28407345, -24.25906466], [-48.28448049, -24.25886115], [-48.28461876, -24.25860762], [-48.28461471, -24.25805596], [-48.28457032, -24.25747084], [-48.28472461, -24.2570503], [-48.28508248, -24.25680067], [-48.28592282, -24.25660044], [-48.28637201, -24.25652157], [-48.28690153, -24.25607624], [-48.28703292, -24.25581097], [-48.2870542, -24.25542186], [-48.28678728, -24.25481568], [-48.28656744, -24.25433325], [-48.28647456, -24.25390156], [-48.28644402, -24.25327401], [-48.28636686, -24.25287123], [-48.28611271, -24.25228854], [-48.2860108, -24.25192066], [-48.28557441, -24.25196249], [-48.28506428, -24.25248549], [-48.28479933, -24.25267475], [-48.28460039, -24.25276929], [-48.28435226, -24.25282765], [-48.28337249, -24.25278572], [-48.28263563, -24.25267188], [-48.28244051, -24.25268516], [-48.282095, -24.25282465], [-48.28159846, -24.25311742], [-48.2812946, -24.25319827], [-48.28089167, -24.25326094], [-48.2805279, -24.2534636], [-48.28025508, -24.25376118], [-48.27992269, -24.25397291], [-48.27963144, -24.25405377], [-48.27954713, -24.25404463], [-48.27903244, -24.2537505], [-48.2787042, -24.25367783], [-48.27836285, -24.25371799], [-48.27770453, -24.25394733], [-48.27746075, -24.2539786], [-48.27713427, -24.2539601], [-48.27629893, -24.25366552], [-48.27606759, -24.25361554], [-48.27583248, -24.25361071], [-48.27553203, -24.25366898], [-48.27527401, -24.2537544], [-48.27496504, -24.25393907], [-48.2746908, -24.25415538], [-48.27417805, -24.25456096], [-48.27394671, -24.25470059], [-48.27354211, -24.25483546], [-48.2724982, -24.2550507], [-48.27215203, -24.25521274], [-48.2718378, -24.25541093], [-48.27134248, -24.25587522], [-48.2710199, -24.25609597], [-48.27079389, -24.2561724], [-48.27042826, -24.25618994], [-48.27006481, -24.25600886], [-48.26954427, -24.25517748], [-48.26917972, -24.25436889], [-48.26900299, -24.25405715], [-48.2688328, -24.25387633], [-48.26791753, -24.25317981], [-48.26760483, -24.25283628], [-48.26720201, -24.25228946], [-48.26701088, -24.25212216], [-48.26656948, -24.25200415], [-48.26652393, -24.25200409], [-48.26625311, -24.25201273], [-48.26600824, -24.2519582], [-48.26586712, -24.25188126], [-48.26583416, -24.25172321], [-48.26593272, -24.25149311], [-48.26601351, -24.25139843], [-48.26608897, -24.25117733], [-48.26610108, -24.25093357], [-48.26601831, -24.25074836], [-48.26588126, -24.25063079], [-48.26570417, -24.25053573], [-48.26514927, -24.25038596], [-48.26484884, -24.25025461], [-48.26469829, -24.25011445], [-48.26454753, -24.24992011], [-48.26443304, -24.24968855], [-48.26415876, -24.24952869], [-48.26381212, -24.2492138], [-48.26355878, -24.24904769], [-48.26344158, -24.24891291], [-48.26343207, -24.24885137], [-48.26346788, -24.24878794], [-48.26373538, -24.24866098], [-48.26427418, -24.24859667], [-48.26452518, -24.24850552], [-48.26452107, -24.24832946], [-48.26428519, -24.24808244], [-48.26373742, -24.24782981], [-48.26345007, -24.24778041], [-48.26263397, -24.24779878], [-48.26253101, -24.24735592], [-48.26291319, -24.24692596], [-48.26382087, -24.24661544], [-48.26422569, -24.24647256], [-48.26498788, -24.24434051], [-48.2648002, -24.24432235], [-48.26432247, -24.24394017], [-48.26422693, -24.2433669], [-48.2643583, -24.2430086], [-48.26471659, -24.24250699], [-48.26524209, -24.24231589], [-48.26582307, -24.24200415], [-48.26588702, -24.24093049], [-48.26705785, -24.2385498], [-48.27241191, -24.22356892], [-48.27220077, -24.22097524], [-48.27205814, -24.22086503], [-48.27151029, -24.21988268], [-48.27050904, -24.21684119], [-48.27043347, -24.21608553], [-48.27066016, -24.21561325], [-48.27083785, -24.21554864], [-48.27107577, -24.21546212], [-48.27181254, -24.21553768], [-48.27253041, -24.21531098], [-48.27403795, -24.21467992], [-48.27469523, -24.21419208], [-48.27877758, -24.21467459], [-48.28081554, -24.21620026], [-48.28082899, -24.21621033], [-48.28251321, -24.21747113], [-48.28729529, -24.2155069], [-48.28828594, -24.21479693], [-48.28907296, -24.21404489], [-48.28907807, -24.21414349], [-48.28913391, -24.2140281], [-48.28964961, -24.21342644], [-48.29003639, -24.2122661], [-48.29059507, -24.21170742], [-48.29128267, -24.21101981], [-48.29171243, -24.21024625], [-48.29170703, -24.21024799], [-48.2916618, -24.21012976], [-48.29121574, -24.20954863], [-48.29109876, -24.20943561], [-48.29084399, -24.20930617], [-48.2906767, -24.20925901], [-48.29037252, -24.2092532], [-48.2901302, -24.20934498], [-48.28951133, -24.20976042], [-48.28918719, -24.20992343], [-48.28869007, -24.20990744], [-48.28853961, -24.20980251], [-48.28840701, -24.20960821], [-48.28842114, -24.2093816], [-48.28850513, -24.20917585], [-48.28877057, -24.2087762], [-48.288971, -24.20839002], [-48.28930252, -24.20790288], [-48.28946409, -24.20782454], [-48.2895999, -24.20784999], [-48.28973461, -24.2079549], [-48.28982121, -24.20797849], [-48.28995019, -24.20796601], [-48.29009697, -24.207903], [-48.29028533, -24.20768474], [-48.29030166, -24.20730283], [-48.29034415, -24.20720086], [-48.29045064, -24.20708542], [-48.29064573, -24.20697732], [-48.29066891, -24.20697128], [-48.29027865, -24.20491867], [-48.29013766, -24.20534165], [-48.28996095, -24.20549627], [-48.2894971, -24.20543001], [-48.28890071, -24.20474527], [-48.28845894, -24.2043256], [-48.28799508, -24.20406054], [-48.28781837, -24.20372921], [-48.28786255, -24.20330954], [-48.28808343, -24.20211677], [-48.28810551, -24.20182962], [-48.28788463, -24.20160874], [-48.2871778, -24.20096818], [-48.28711153, -24.20065894], [-48.28722197, -24.20037179], [-48.28870189, -24.19895814], [-48.28934884, -24.19791583], [-48.28927362, -24.19786792], [-48.28910274, -24.19760766], [-48.2889325, -24.19693567], [-48.28878053, -24.19653548], [-48.28849059, -24.19625069], [-48.28869465, -24.19605593], [-48.28917557, -24.19569629], [-48.28938169, -24.19544283], [-48.28939068, -24.19535436], [-48.28958318, -24.19499705], [-48.28966926, -24.19470462], [-48.28966772, -24.19442472], [-48.28951582, -24.19398841], [-48.28936233, -24.1933011], [-48.28936658, -24.19309524], [-48.28943694, -24.19278834], [-48.28959582, -24.1925258], [-48.28968095, -24.19247666], [-48.28953993, -24.19230038], [-48.28956531, -24.1919704], [-48.28926071, -24.19199578], [-48.28860074, -24.1924273], [-48.28773769, -24.19288421], [-48.28738232, -24.19280806], [-48.28720464, -24.19255423], [-48.28723002, -24.19237654], [-48.28748385, -24.19189425], [-48.2874077, -24.19176733], [-48.28705233, -24.19138658], [-48.28717925, -24.19092968], [-48.28728078, -24.19085353], [-48.28756, -24.19062507], [-48.2878646, -24.19052354], [-48.28824536, -24.19065046], [-48.28849919, -24.19059969], [-48.28844843, -24.19029509], [-48.28837227, -24.18986356], [-48.2883919, -24.18947098], [-48.28839766, -24.18935589], [-48.28860072, -24.18912744], [-48.28928608, -24.18879745], [-48.28976837, -24.18869592], [-48.28977075, -24.18868138], [-48.28971485, -24.18844604], [-48.2895328, -24.18788955], [-48.28923698, -24.18712977], [-48.28896574, -24.18637042], [-48.28873151, -24.18562979], [-48.28850843, -24.18492004], [-48.28842143, -24.18456741], [-48.28831663, -24.18407998], [-48.28827425, -24.18375792], [-48.28826988, -24.18349972], [-48.28825098, -24.18323043], [-48.28827693, -24.18288703], [-48.28834077, -24.18256686], [-48.28837772, -24.18235452], [-48.28837554, -24.18217849], [-48.28836255, -24.18200226], [-48.28832554, -24.18184456], [-48.28825549, -24.18166822], [-48.28814918, -24.18143799], [-48.28810302, -24.18129457], [-48.28809735, -24.18119068], [-48.28810736, -24.18108977], [-48.28817291, -24.18087433], [-48.28824284, -24.18059128], [-48.28829586, -24.18036388], [-48.28831575, -24.18021442], [-48.2882966, -24.17995685], [-48.28825929, -24.17972063], [-48.28820849, -24.1794246], [-48.28803222, -24.17882759], [-48.28794582, -24.17849392], [-48.287807, -24.17798693], [-48.28776339, -24.17776955], [-48.28775041, -24.1774065], [-48.28773862, -24.17712651], [-48.28770465, -24.17696525], [-48.2876994, -24.17684151], [-48.28774968, -24.17679006], [-48.28783626, -24.17674286], [-48.28801635, -24.17669372], [-48.28825739, -24.17664657], [-48.28838037, -24.17660002], [-48.28853194, -24.17655037], [-48.28864697, -24.17650729], [-48.28870085, -24.17647124], [-48.28869427, -24.17641066], [-48.28863495, -24.17623812], [-48.28854673, -24.17599016], [-48.28848565, -24.17576163], [-48.28846491, -24.17553292], [-48.28843503, -24.1751777], [-48.28847443, -24.17494284], [-48.28856246, -24.17464115], [-48.28861613, -24.17442911], [-48.28863015, -24.17432466], [-48.28862354, -24.17426498], [-48.28858937, -24.17415968], [-48.28843986, -24.17401893], [-48.28828838, -24.17387815], [-48.28774137, -24.17355433], [-48.28735241, -24.1734206], [-48.28703597, -24.17328033], [-48.28676475, -24.1730839], [-48.28672645, -24.17298755], [-48.28649194, -24.17272615], [-48.28640733, -24.17254053], [-48.28635578, -24.17232662], [-48.28634705, -24.17199523], [-48.28627108, -24.17177366], [-48.28614821, -24.17153591], [-48.28594426, -24.17131838], [-48.28589054, -24.17120731], [-48.28592512, -24.17106082], [-48.28608331, -24.17079107], [-48.28616906, -24.17055072], [-48.28618673, -24.17008713], [-48.28613721, -24.16977758], [-48.28613292, -24.16974772], [-48.28613111, -24.16974047], [-48.28592744, -24.16936562], [-48.28562158, -24.16913206], [-48.28528707, -24.16878393], [-48.28488801, -24.1685487], [-48.28455049, -24.16834309], [-48.28421538, -24.16802346], [-48.28381814, -24.16770273], [-48.28345257, -24.16735404], [-48.2832722, -24.16706568], [-48.28318737, -24.16669343], [-48.28350131, -24.16664036], [-48.28407659, -24.16637082], [-48.28443437, -24.16610554], [-48.28485247, -24.16568609], [-48.28534918, -24.16494493], [-48.28562459, -24.16443449], [-48.28578556, -24.16403302], [-48.28584034, -24.16334987], [-48.28601425, -24.16308041], [-48.28612668, -24.16304243], [-48.28582746, -24.16269618], [-48.2854651, -24.16224839], [-48.28505055, -24.16171032], [-48.28474944, -24.16134304], [-48.28445275, -24.16104624], [-48.28408585, -24.16067418], [-48.28387506, -24.16048955], [-48.28380768, -24.16043053], [-48.28371983, -24.16035358], [-48.28335721, -24.16001138], [-48.28303745, -24.15964286], [-48.28288739, -24.15939018], [-48.28281081, -24.15919748], [-48.28278055, -24.15909315], [-48.2827572, -24.15884905], [-48.28269141, -24.15865745], [-48.28266865, -24.15859359], [-48.28191704, -24.15791345], [-48.28155393, -24.15764163], [-48.28132951, -24.15727752], [-48.28118645, -24.15683363], [-48.28080262, -24.15605423], [-48.28044894, -24.15570947], [-48.28020702, -24.15538205], [-48.27948065, -24.15484653], [-48.27933971, -24.15467434], [-48.27929477, -24.15404268], [-48.279275, -24.15400081], [-48.27923917, -24.15397399], [-48.27918277, -24.1539432], [-48.27911783, -24.15389782], [-48.2789909, -24.15376108], [-48.27877687, -24.15350997], [-48.27851801, -24.15314704], [-48.27825627, -24.15278046], [-48.27813534, -24.15254635], [-48.27810494, -24.15244924], [-48.27809013, -24.15235872], [-48.27812188, -24.15229972], [-48.27818377, -24.1522566], [-48.27826185, -24.15223904], [-48.27854671, -24.15221073], [-48.27887747, -24.15219768], [-48.27907649, -24.15218228], [-48.27913929, -24.15214278], [-48.27920955, -24.15207635], [-48.27924374, -24.15199483], [-48.27921271, -24.15192749], [-48.2791645, -24.1518815], [-48.27903189, -24.15182679], [-48.27874479, -24.1517287], [-48.2780913, -24.15151487], [-48.27765907, -24.15135012], [-48.27732498, -24.15119524], [-48.27726899, -24.1511455], [-48.27718952, -24.151043], [-48.27694067, -24.15057917], [-48.27663029, -24.15009528], [-48.27645803, -24.14982325], [-48.2763571, -24.14962019], [-48.27631487, -24.14947774], [-48.27630978, -24.14934678], [-48.2762994, -24.14914082], [-48.27627573, -24.14891205], [-48.27625133, -24.14871758], [-48.27620172, -24.14855243], [-48.27611252, -24.14835228], [-48.27596172, -24.14818172], [-48.27570027, -24.14794149], [-48.27551553, -24.14784071], [-48.27522862, -24.1477345], [-48.27480681, -24.14758888], [-48.27451814, -24.14750492], [-48.27062401, -24.148377], [-48.26964718, -24.14863935], [-48.26888995, -24.14890973], [-48.26837376, -24.14909777], [-48.26807526, -24.14934087], [-48.26797844, -24.1496497], [-48.26810672, -24.14998327], [-48.2684588, -24.15040366], [-48.26874277, -24.15084354], [-48.26887018, -24.1512185], [-48.26891045, -24.15144697], [-48.26886093, -24.15165313], [-48.26872252, -24.15179558], [-48.26835591, -24.15205817], [-48.26785132, -24.15244251], [-48.2670743, -24.15290479], [-48.26572766, -24.153626], [-48.26506429, -24.1540489], [-48.26435536, -24.15449167], [-48.26376097, -24.15485369], [-48.26346113, -24.15515887], [-48.26325283, -24.15540358], [-48.26300074, -24.1555854], [-48.26257086, -24.15563979], [-48.26212018, -24.155611], [-48.26162704, -24.15545721], [-48.26093443, -24.15513421], [-48.26068941, -24.15498487], [-48.26044483, -24.15481485], [-48.26022325, -24.15462453], [-48.26000211, -24.15441351], [-48.25982564, -24.154224], [-48.25958327, -24.15395049], [-48.25927368, -24.15365507], [-48.25889421, -24.15346191], [-48.25855676, -24.15341443], [-48.25817332, -24.15340754], [-48.25778899, -24.15344204], [-48.25735867, -24.15351711], [-48.25683812, -24.15359057], [-48.25618269, -24.15364089], [-48.25575369, -24.15365387], [-48.25525792, -24.15362424], [-48.25478248, -24.1536985], [-48.25428095, -24.15393792], [-48.25389087, -24.15424146], [-48.25359012, -24.15458801], [-48.25313059, -24.15497312], [-48.2528959, -24.1551658], [-48.25261343, -24.15544265], [-48.25236854, -24.15578755], [-48.25224573, -24.15611267], [-48.25214876, -24.15633647], [-48.25198228, -24.15653927], [-48.25180306, -24.15669675], [-48.25151226, -24.15678662], [-48.25090237, -24.15681704], [-48.2505627, -24.15687302], [-48.25020136, -24.15688721], [-48.24986524, -24.15677763], [-48.24957467, -24.15664816], [-48.24928765, -24.15635313], [-48.2488233, -24.15590996], [-48.24816038, -24.15525617], [-48.24760803, -24.1547079], [-48.24729935, -24.15437106], [-48.24716846, -24.15416165], [-48.24704111, -24.15378668], [-48.24700222, -24.15349612], [-48.24696509, -24.15312278], [-48.24702116, -24.15257883], [-48.24709044, -24.15221357], [-48.24719294, -24.15196746], [-48.24733137, -24.15172454], [-48.2474428, -24.15154329], [-48.24750755, -24.1513894], [-48.24751147, -24.15120621], [-48.24743892, -24.15100755], [-48.24733837, -24.15068151], [-48.24710354, -24.15016979], [-48.24692893, -24.14971554], [-48.24663001, -24.14901443], [-48.24619051, -24.14806376], [-48.24587704, -24.1469662], [-48.24585163, -24.14674042], [-48.24615329, -24.14623525], [-48.24628322, -24.14581558], [-48.24651791, -24.1452787], [-48.24675452, -24.14503075], [-48.24675575, -24.14503076], [-48.24675963, -24.14493144], [-48.24671563, -24.14477787], [-48.24672419, -24.14413679], [-48.24662641, -24.14380255], [-48.24640527, -24.14332817], [-48.24636106, -24.14295789], [-48.24615446, -24.14227585], [-48.24602387, -24.14205894], [-48.24570941, -24.14183723], [-48.24548653, -24.14164275], [-48.24530688, -24.14135352], [-48.24515547, -24.14075734], [-48.24518606, -24.14050908], [-48.24525528, -24.1403286], [-48.24538757, -24.14028818], [-48.24548481, -24.14024769], [-48.24554765, -24.14018459], [-48.24565515, -24.13991839], [-48.24561133, -24.13967452], [-48.24543601, -24.13937176], [-48.24547264, -24.1391822], [-48.24562179, -24.13900636], [-48.2460497, -24.13873163], [-48.24638703, -24.13855156], [-48.24649856, -24.13842984], [-48.24670759, -24.13812768], [-48.24674034, -24.13804195], [-48.24678783, -24.13796978], [-48.24688752, -24.13759973], [-48.24701639, -24.13741483], [-48.24713688, -24.1371035], [-48.24715627, -24.13692294], [-48.24713626, -24.13676941], [-48.24685412, -24.13603307], [-48.24685753, -24.13585248], [-48.24693862, -24.13556367], [-48.24696559, -24.13527928], [-48.24689638, -24.13479158], [-48.24689318, -24.13419112], [-48.24694859, -24.13382551], [-48.24692553, -24.13365391], [-48.24654729, -24.13368493], [-48.24604323, -24.1335803], [-48.24594488, -24.13355758], [-48.24549688, -24.13339886], [-48.24517619, -24.13323132], [-48.24494285, -24.13305036], [-48.24464452, -24.13276547], [-48.24443712, -24.13252135], [-48.24411899, -24.13230414], [-48.24397521, -24.13224522], [-48.24378893, -24.13221784], [-48.24317768, -24.1322214], [-48.24290666, -24.13213067], [-48.24290053, -24.13212164], [-48.24199647, -24.13086511], [-48.24175649, -24.13062093], [-48.24133344, -24.13028617], [-48.24110881, -24.13005556], [-48.24092493, -24.12973924], [-48.24087049, -24.12958565], [-48.24076312, -24.12945455], [-48.24066303, -24.12938216], [-48.24063292, -24.12936856], [-48.24042338, -24.12929148], [-48.23992347, -24.12928165], [-48.23971391, -24.1292136], [-48.23905186, -24.1287701], [-48.23847417, -24.12827255], [-48.23813728, -24.12790631], [-48.23802182, -24.12814992], [-48.23776128, -24.12837524], [-48.23751759, -24.12846966], [-48.23704396, -24.12854565], [-48.23675047, -24.12863547], [-48.23638176, -24.12882901], [-48.23611813, -24.12906335], [-48.235846, -24.12955502], [-48.23542931, -24.13007805], [-48.23526646, -24.13033965], [-48.23516992, -24.13066004], [-48.23516383, -24.131265], [-48.23509166, -24.13138227], [-48.23507053, -24.1314951], [-48.23466839, -24.13211749], [-48.23458677, -24.13235212], [-48.23455981, -24.13261845], [-48.23448393, -24.13274474], [-48.23422339, -24.13296102], [-48.23406313, -24.13315941], [-48.23397855, -24.13333083], [-48.23391474, -24.13357001], [-48.23394111, -24.13392671], [-48.23406852, -24.13418426], [-48.23437449, -24.13464526], [-48.23075892, -24.13448132], [-48.23022586, -24.13474681], [-48.22976519, -24.13478217], [-48.22873379, -24.13453666], [-48.22811063, -24.13433697], [-48.22812558, -24.13455371], [-48.22804886, -24.13478834], [-48.22808223, -24.13501865], [-48.22829312, -24.13534858], [-48.22846373, -24.13552494], [-48.22853656, -24.13570113], [-48.22850991, -24.13580493], [-48.22842861, -24.135868], [-48.22823662, -24.13593089], [-48.22803432, -24.13592152], [-48.22797081, -24.13600719], [-48.22792515, -24.13608387], [-48.22795184, -24.13626902], [-48.22790224, -24.13647661], [-48.22771383, -24.13659368], [-48.22767065, -24.13666133], [-48.22769687, -24.13677424], [-48.22784088, -24.13702731], [-48.22904734, -24.13832053], [-48.22926318, -24.13863692], [-48.2293457, -24.13888988], [-48.22929698, -24.13896203], [-48.22922248, -24.13900706], [-48.22911235, -24.13903396], [-48.22898323, -24.1390202], [-48.22881362, -24.13896123], [-48.22836333, -24.13871669], [-48.22821885, -24.13869839], [-48.22782765, -24.13873837], [-48.22766575, -24.13881936], [-48.22753014, -24.13898167], [-48.22740857, -24.13919366], [-48.22732632, -24.13942377], [-48.22718201, -24.13963121], [-48.22699299, -24.13974376], [-48.22682932, -24.13978863], [-48.22631945, -24.13981938], [-48.22626145, -24.13991409], [-48.22625816, -24.14002244], [-48.22648715, -24.14052847], [-48.22679191, -24.14158994], [-48.22160725, -24.14360829], [-48.21875338, -24.14196455], [-48.21817135, -24.14149402], [-48.21794005, -24.14122725], [-48.21765882, -24.14072111], [-48.21756262, -24.14054939], [-48.21750958, -24.14032356], [-48.21749051, -24.14002555], [-48.21247652, -24.14188521], [-48.20895956, -24.13942128], [-48.20507271, -24.13615703], [-48.20529725, -24.13726355], [-48.20552285, -24.1381669], [-48.20555039, -24.1385191], [-48.20552287, -24.13873124], [-48.20533032, -24.13905144], [-48.20513548, -24.13928585], [-48.20476208, -24.1396283], [-48.20449599, -24.13982646], [-48.20423376, -24.13994337], [-48.2036, -24.14010024], [-48.20345549, -24.14009546], [-48.20316539, -24.14001818], [-48.20295413, -24.13988236], [-48.20272585, -24.1396562], [-48.20220166, -24.13891483], [-48.20197085, -24.13872479], [-48.20172274, -24.13857084], [-48.20134243, -24.13840761], [-48.20108549, -24.13835297], [-48.2008248, -24.13832991], [-48.20060084, -24.13837917], [-48.20041239, -24.13850523], [-48.2002274, -24.13873514], [-48.20008273, -24.13908703], [-48.19997626, -24.13968729], [-48.19984313, -24.1401024], [-48.19975673, -24.1402422], [-48.19967605, -24.14029623], [-48.19948937, -24.1404539], [-48.19928742, -24.14056188], [-48.1991581, -24.14064291], [-48.19906446, -24.14071948], [-48.19897446, -24.14081413], [-48.19892128, -24.14094947], [-48.19885652, -24.14131504], [-48.19881145, -24.14139622], [-48.19861426, -24.14157645], [-48.19849604, -24.14164395], [-48.19808882, -24.14168835], [-48.197829, -24.14182782], [-48.19771036, -24.14208043], [-48.19765481, -24.14245504], [-48.19758676, -24.14263551], [-48.19722427, -24.14303665], [-48.19707828, -24.14342464], [-48.19693143, -24.14364107], [-48.19658715, -24.14387068], [-48.19586144, -24.14415828], [-48.19549568, -24.14436527], [-48.19481826, -24.14450396], [-48.19443844, -24.14467029], [-48.1939116, -24.14512981], [-48.19379021, -24.14523793], [-48.19328825, -24.14556656], [-48.19286456, -24.1463739], [-48.19256731, -24.14673903], [-48.19193648, -24.146941], [-48.19157083, -24.14709381], [-48.19080339, -24.14760252], [-48.19036502, -24.1478184], [-48.19009896, -24.14798494], [-48.18956049, -24.14840829], [-48.18887752, -24.14881783], [-48.18849609, -24.14914216], [-48.18810203, -24.14934006], [-48.18747728, -24.14956911], [-48.18699977, -24.14995195], [-48.18683658, -24.15004193], [-48.18599791, -24.1502209], [-48.18554777, -24.15046383], [-48.18535002, -24.15060792], [-48.18534203, -24.1506079], [-48.18491314, -24.15070188], [-48.18426728, -24.15074127], [-48.18407117, -24.15070929], [-48.18353095, -24.15054119], [-48.18338277, -24.15052285], [-48.18320632, -24.15049993], [-48.18307528, -24.15051774], [-48.18279026, -24.15063005], [-48.18252451, -24.15065662], [-48.18225826, -24.15063353], [-48.18201076, -24.15075043], [-48.18163161, -24.15114247], [-48.18138771, -24.15129549], [-48.18083724, -24.1523644], [-48.18069541, -24.15252665], [-48.18029517, -24.15272903], [-48.18003884, -24.15293169], [-48.17993548, -24.15294954], [-48.179651, -24.15309346], [-48.1791434, -24.15317824], [-48.17887471, -24.15314611], [-48.1786154, -24.15304627], [-48.17839698, -24.15282011], [-48.1782554, -24.15260764], [-48.17780953, -24.15233588], [-48.17747583, -24.15196501], [-48.17689487, -24.15081713], [-48.1766499, -24.15039329], [-48.17608665, -24.15009511], [-48.17541062, -24.15012344], [-48.17514772, -24.15024481], [-48.17472397, -24.15050582], [-48.17429594, -24.15101513], [-48.17417641, -24.15136703], [-48.17403681, -24.15161958], [-48.17368423, -24.15195296], [-48.17342687, -24.15206983], [-48.17308599, -24.15213687], [-48.17284795, -24.15214542], [-48.1722097, -24.15208545], [-48.17197219, -24.15213012], [-48.17172482, -24.15192646], [-48.17140113, -24.15174973], [-48.17128811, -24.1516863], [-48.17101197, -24.1514284], [-48.17058829, -24.15088579], [-48.17036023, -24.1503255], [-48.17021139, -24.15007238], [-48.16961241, -24.14954295], [-48.16925725, -24.1494113], [-48.16848117, -24.14938264], [-48.16826951, -24.14942284], [-48.16764896, -24.14942158], [-48.16736783, -24.14919527], [-48.1671075, -24.1485085], [-48.167042, -24.14812914], [-48.16710023, -24.14770036], [-48.16703153, -24.14762798], [-48.16688889, -24.14735681], [-48.16674219, -24.14723913], [-48.16615126, -24.14694898], [-48.16605237, -24.14689911], [-48.16523156, -24.14630149], [-48.16496987, -24.14617906], [-48.16458511, -24.14608797], [-48.16458449, -24.14608797], [-48.16429608, -24.14607835], [-48.16404071, -24.14613651], [-48.16371133, -24.14628482], [-48.16339276, -24.14653247], [-48.16321391, -24.14648696], [-48.16302646, -24.14643691], [-48.16288762, -24.14637341], [-48.16287964, -24.14636888], [-48.1624667, -24.14623259], [-48.16215344, -24.14607392], [-48.16196256, -24.14591551], [-48.1617726, -24.14563521], [-48.1616135, -24.14530982], [-48.16151764, -24.14502971], [-48.16133577, -24.1447133], [-48.16096328, -24.14438295], [-48.1606902, -24.14414311], [-48.16038701, -24.14364586], [-48.15989443, -24.14313918], [-48.15951074, -24.1428675], [-48.15918576, -24.14272686], [-48.15819431, -24.14251711], [-48.1580283, -24.14250322], [-48.15754011, -24.14246156], [-48.15728849, -24.14249715], [-48.15662141, -24.14242803], [-48.15636272, -24.14234171], [-48.1560753, -24.14218308], [-48.15576046, -24.14192508], [-48.15564149, -24.1417939], [-48.15556682, -24.14164927], [-48.15550348, -24.14140535], [-48.15567325, -24.14065174], [-48.15565782, -24.14043049], [-48.15559975, -24.14029041], [-48.15535759, -24.13998741], [-48.15529175, -24.13975702], [-48.15528747, -24.13950419], [-48.15541456, -24.13909813], [-48.1558163, -24.13853915], [-48.15578122, -24.13830431], [-48.15558443, -24.1380601], [-48.15553047, -24.13799678], [-48.15546082, -24.13781605], [-48.15459005, -24.13707379], [-48.15449014, -24.13694265], [-48.15433507, -24.13673916], [-48.15432286, -24.13645922], [-48.15425315, -24.13630105], [-48.15409195, -24.13609303], [-48.15370352, -24.13575812], [-48.15351467, -24.13554101], [-48.1534842, -24.13542808], [-48.15348236, -24.13469668], [-48.15345134, -24.13456118], [-48.15344951, -24.13455214], [-48.15329401, -24.13427641], [-48.15297295, -24.13381523], [-48.15256334, -24.13334934], [-48.15237235, -24.13300581], [-48.1521285, -24.13265314], [-48.15199237, -24.13249935], [-48.15171706, -24.13218273], [-48.15162888, -24.13203807], [-48.15158308, -24.13191156], [-48.15150953, -24.13181659], [-48.15146345, -24.13155915], [-48.15151521, -24.13103103], [-48.15148869, -24.13081878], [-48.15142638, -24.13065612], [-48.15124921, -24.13044355], [-48.15088709, -24.13017189], [-48.15070146, -24.13013989], [-48.15052997, -24.13011243], [-48.15042625, -24.13003094], [-48.15043071, -24.12997226], [-48.15047207, -24.12990914], [-48.1505374, -24.12985059], [-48.15076565, -24.12980593], [-48.15086602, -24.12975197], [-48.15094806, -24.12965282], [-48.15097601, -24.12954001], [-48.15091816, -24.12931866], [-48.15092883, -24.12923291], [-48.15108761, -24.12893979], [-48.15132198, -24.12866489], [-48.15148464, -24.12829502], [-48.15189049, -24.1278083], [-48.15191421, -24.12766839], [-48.15185986, -24.12751929], [-48.15170776, -24.12736094], [-48.15136545, -24.12728346], [-48.15030345, -24.12754305], [-48.15017678, -24.12754277], [-48.14985537, -24.12722605], [-48.14955179, -24.12667008], [-48.1492091, -24.1262585], [-48.14905659, -24.12602341], [-48.14881369, -24.12554883], [-48.14857889, -24.12526841], [-48.14855809, -24.12522773], [-48.14852811, -24.12516898], [-48.14797627, -24.12407521], [-48.14794929, -24.12404355], [-48.14722392, -24.12324287], [-48.14703542, -24.12289934], [-48.14704137, -24.12273682], [-48.14714552, -24.12264675], [-48.14762337, -24.12237689], [-48.14774235, -24.12225525], [-48.14773419, -24.12207916], [-48.14760789, -24.12193893], [-48.14734212, -24.12175325], [-48.14715357, -24.12166706], [-48.14692057, -24.1216485], [-48.14633077, -24.12169688], [-48.14609224, -24.1216783], [-48.14587354, -24.12160108], [-48.14566673, -24.12144261], [-48.14550796, -24.12125265], [-48.14543284, -24.12105383], [-48.14536015, -24.12062928], [-48.14532736, -24.11999263], [-48.14515022, -24.11977553], [-48.14491922, -24.11969828], [-48.14464934, -24.11967963], [-48.14428182, -24.11961111], [-48.14331883, -24.11940584], [-48.14288448, -24.11926493], [-48.14249078, -24.11909702], [-48.14212613, -24.11887048], [-48.14184516, -24.11862607], [-48.1417932, -24.11850857], [-48.14178526, -24.11825121], [-48.14183591, -24.11816103], [-48.14203869, -24.11797636], [-48.14232664, -24.11790476], [-48.14246336, -24.11781928], [-48.14252198, -24.11773814], [-48.14254162, -24.11751696], [-48.14250656, -24.11728663], [-48.1425349, -24.11679006], [-48.14265267, -24.11618985], [-48.14266425, -24.11599574], [-48.14262769, -24.11586473], [-48.14243719, -24.11558891], [-48.14214691, -24.11537608], [-48.14194971, -24.11531244], [-48.14166126, -24.11510864], [-48.14161474, -24.11502727], [-48.14161615, -24.11495955], [-48.14175314, -24.11477023], [-48.1427169, -24.11395517], [-48.1430254, -24.11354048], [-48.14303694, -24.11335991], [-48.1430023, -24.11320182], [-48.14282436, -24.11329624], [-48.14257476, -24.11328666], [-48.14217602, -24.11317292], [-48.14096049, -24.11292193], [-48.14060006, -24.11273603], [-48.1404554, -24.11256867], [-48.14009181, -24.11241436], [-48.13972921, -24.11235487], [-48.13947321, -24.11220531], [-48.13909675, -24.11180266], [-48.13894634, -24.11171655], [-48.13870306, -24.11163926], [-48.13858622, -24.11164803], [-48.13833263, -24.11175131], [-48.13821708, -24.11173751], [-48.13805501, -24.11164234], [-48.1378288, -24.11138901], [-48.13768596, -24.11123067], [-48.13756046, -24.11102271], [-48.1374953, -24.11078328], [-48.13731776, -24.11049394], [-48.13686019, -24.11007756], [-48.13660102, -24.10996862], [-48.13636196, -24.10992746], [-48.13561833, -24.1098039], [-48.13510255, -24.10978017], [-48.13408367, -24.10981401], [-48.13334222, -24.1097988], [-48.13302621, -24.10979357], [-48.13286151, -24.10976611], [-48.13264785, -24.10965276], [-48.13246106, -24.10937694], [-48.13246415, -24.10914217], [-48.13253988, -24.10887146], [-48.1327325, -24.10857391], [-48.1328903, -24.10819502], [-48.1329703, -24.1077076], [-48.13292811, -24.10738695], [-48.13258196, -24.10716043], [-48.13180828, -24.10724447], [-48.13122941, -24.10736506], [-48.13078371, -24.107346], [-48.13025711, -24.10723193], [-48.12998163, -24.10724937], [-48.12980723, -24.10739796], [-48.12967945, -24.10758729], [-48.12962697, -24.10766844], [-48.12935568, -24.10863851], [-48.12899116, -24.10974833], [-48.12888611, -24.11017248], [-48.12884372, -24.11084058], [-48.12880663, -24.11091724], [-48.12848793, -24.11099327], [-48.1282894, -24.11097024], [-48.12815433, -24.1108977], [-48.12796421, -24.11072119], [-48.12772159, -24.1104046], [-48.12752672, -24.10993913], [-48.12698061, -24.10885432], [-48.12679915, -24.10865977], [-48.12664682, -24.10860524], [-48.12653735, -24.10861402], [-48.12644682, -24.10867251], [-48.12636251, -24.10915089], [-48.12635072, -24.10941723], [-48.1263409, -24.10963844], [-48.12641098, -24.11009459], [-48.12656012, -24.11064574], [-48.12656421, -24.11094824], [-48.12645037, -24.11120984], [-48.1262967, -24.11142169], [-48.12574537, -24.11202992], [-48.12490094, -24.1127955], [-48.12379356, -24.11370946], [-48.12343824, -24.11390729], [-48.12324878, -24.11393845], [-48.12316205, -24.1139518], [-48.12298443, -24.1139243], [-48.12270441, -24.11379724], [-48.12219017, -24.11343035], [-48.12184706, -24.11343858], [-48.12174053, -24.11349703], [-48.12163818, -24.11360063], [-48.12161657, -24.11376117], [-48.12166154, -24.11390561], [-48.12199337, -24.11449402], [-48.12188144, -24.11473449], [-48.12178626, -24.11513608], [-48.12168329, -24.11524421], [-48.12158222, -24.11532974], [-48.12143875, -24.11540166], [-48.12133598, -24.11543754], [-48.12103563, -24.11554068], [-48.12080542, -24.11563495], [-48.12056024, -24.11578216], [-48.12052827, -24.11580135], [-48.12042162, -24.11590043], [-48.12027737, -24.11603553], [-48.12027035, -24.11604504], [-48.12019405, -24.11614822], [-48.12014711, -24.11622485], [-48.12009528, -24.11636287], [-48.12008951, -24.11637822], [-48.12007793, -24.11646367], [-48.12004054, -24.11673929], [-48.1200609, -24.11687269], [-48.12013355, -24.117349], [-48.12018202, -24.11805794], [-48.12018855, -24.11809562], [-48.12020078, -24.11816635], [-48.1202275, -24.11831762], [-48.12023589, -24.11836508], [-48.12041035, -24.11887114], [-48.12041405, -24.11898222], [-48.12042001, -24.11916011], [-48.12024225, -24.11962471], [-48.120068, -24.11993132], [-48.11984252, -24.1202006], [-48.11980767, -24.12024222], [-48.11949073, -24.12056233], [-48.11942414, -24.12062962], [-48.11922495, -24.12094831], [-48.11921846, -24.12095871], [-48.11917385, -24.12114775], [-48.11908532, -24.12152274], [-48.1190939, -24.12168303], [-48.11910228, -24.12183881], [-48.11918087, -24.12232208], [-48.11917476, -24.12252524], [-48.11920496, -24.12272396], [-48.11926988, -24.12298652], [-48.11931441, -24.12316666], [-48.11931107, -24.12326598], [-48.11926339, -24.12338775], [-48.11917821, -24.12350043], [-48.11894984, -24.12358569], [-48.11882062, -24.1235898], [-48.11881826, -24.12358989], [-48.11867155, -24.12352758], [-48.11799526, -24.12324032], [-48.11733639, -24.12313043], [-48.11689905, -24.12318357], [-48.11659894, -24.12326704], [-48.11659322, -24.12326864], [-48.11634384, -24.12338996], [-48.1162933, -24.12343498], [-48.11612316, -24.12358808], [-48.11585724, -24.12390801], [-48.11545921, -24.12420053], [-48.11499517, -24.12477732], [-48.11462593, -24.12510151], [-48.11443997, -24.12519588], [-48.11416986, -24.12525845], [-48.11415708, -24.12525816], [-48.11394112, -24.1252534], [-48.11351211, -24.12514256], [-48.11346491, -24.12513037], [-48.11345468, -24.12513012], [-48.11325526, -24.12512536], [-48.11302579, -24.12516544], [-48.11290195, -24.12525094], [-48.11283003, -24.12539035], [-48.11280426, -24.12544033], [-48.11284222, -24.12571129], [-48.1128954, -24.1258243], [-48.11306391, -24.12603688], [-48.11334684, -24.12622717], [-48.1138346, -24.12643785], [-48.1139039, -24.12646779], [-48.11397988, -24.12651621], [-48.11419546, -24.12665359], [-48.1144152, -24.12679382], [-48.11445816, -24.12682125], [-48.11450041, -24.1268443], [-48.11498189, -24.12710692], [-48.11513419, -24.127239], [-48.11523769, -24.12732875], [-48.11534737, -24.12746445], [-48.11543966, -24.12766331], [-48.11544141, -24.12767803], [-48.11545948, -24.1278304], [-48.11544423, -24.12794015], [-48.11543125, -24.12803349], [-48.11542766, -24.12805506], [-48.1154275, -24.12805606], [-48.11539535, -24.12813299], [-48.11534269, -24.12825902], [-48.11519403, -24.12851453], [-48.11476558, -24.12925091], [-48.1146078, -24.12946834], [-48.11457914, -24.12950781], [-48.11414746, -24.12994924], [-48.11382079, -24.13043605], [-48.11325292, -24.13054307], [-48.1131152, -24.13053371], [-48.11256047, -24.13033374], [-48.11164854, -24.12990268], [-48.11163931, -24.12990073], [-48.11117286, -24.12980222], [-48.11107566, -24.12981553], [-48.1104671, -24.12974184], [-48.10987347, -24.12946411], [-48.10975903, -24.12941058], [-48.10944738, -24.12922805], [-48.10940297, -24.12920204], [-48.1093005, -24.12910356], [-48.10913926, -24.12894858], [-48.10895688, -24.12864566], [-48.10890987, -24.12853165], [-48.10884878, -24.12838355], [-48.10876549, -24.12824602], [-48.10868721, -24.12811679], [-48.10858731, -24.1279528], [-48.10855501, -24.12789976], [-48.10836385, -24.12743879], [-48.10819398, -24.12728038], [-48.10796415, -24.12722564], [-48.10739838, -24.12724233], [-48.10714643, -24.12718756], [-48.10681826, -24.12711452], [-48.10645529, -24.12717685], [-48.10633682, -24.12732105], [-48.10634248, -24.12735664], [-48.10635555, -24.12743848], [-48.10646442, -24.1276419], [-48.10675425, -24.12799927], [-48.10706089, -24.12827993], [-48.1074481, -24.12877747], [-48.10746332, -24.12883169], [-48.10743414, -24.12895171], [-48.10742164, -24.12900315], [-48.10734063, -24.12916097], [-48.107306, -24.12922861], [-48.10708951, -24.12945382], [-48.10673505, -24.12997669], [-48.1065571, -24.13029465], [-48.10649029, -24.13041402], [-48.10643921, -24.13064415], [-48.10647444, -24.13143884], [-48.10656878, -24.13156548], [-48.10673067, -24.13193609], [-48.10763125, -24.13333782], [-48.10785347, -24.13379787], [-48.1078605, -24.13381242], [-48.10792627, -24.13403832], [-48.10787094, -24.13425038], [-48.10786037, -24.13426567], [-48.10776843, -24.13439911], [-48.10747766, -24.1345745], [-48.10718956, -24.13468215], [-48.10700959, -24.1348262], [-48.10690494, -24.13507424], [-48.1068649, -24.13531344], [-48.10688683, -24.13539023], [-48.10693731, -24.13547936], [-48.10695596, -24.1355123], [-48.10709891, -24.13563004], [-48.10721437, -24.13567997], [-48.1072257, -24.13568079], [-48.10740804, -24.13569399], [-48.10818739, -24.13562361], [-48.10836471, -24.13566925], [-48.10838219, -24.13567375], [-48.10846065, -24.13571055], [-48.10861434, -24.13578265], [-48.10876942, -24.13593805], [-48.10884919, -24.136018], [-48.10929997, -24.13666017], [-48.10947709, -24.13708949], [-48.1095087, -24.1374372], [-48.10933843, -24.1378386], [-48.1091132, -24.13810895], [-48.10873373, -24.1383428], [-48.10840673, -24.13842268], [-48.10831279, -24.13844563], [-48.10824227, -24.13853422], [-48.108198, -24.13858983], [-48.10819779, -24.13859137], [-48.10819738, -24.13859434], [-48.10819495, -24.13867003], [-48.10819333, -24.13872075], [-48.10831564, -24.13917702], [-48.10834106, -24.13947518], [-48.10836265, -24.13972793], [-48.108322, -24.13991522], [-48.10830094, -24.14001221], [-48.10820577, -24.14024506], [-48.1081387, -24.14040911], [-48.10813567, -24.14041789], [-48.10813248, -24.14042717], [-48.10780935, -24.14095913], [-48.10772645, -24.14112598], [-48.10748972, -24.14158868], [-48.10740116, -24.14176177], [-48.10725649, -24.14224901], [-48.10710177, -24.14261479], [-48.10697415, -24.14291651], [-48.10648258, -24.14341194], [-48.10612756, -24.14389867], [-48.10585947, -24.14409667], [-48.10579295, -24.14413264], [-48.10559585, -24.14424051], [-48.10551319, -24.14432609], [-48.10538731, -24.14439199], [-48.10537584, -24.14439799], [-48.10535395, -24.14441493], [-48.10489324, -24.14477155], [-48.1043227, -24.14513134], [-48.1043221, -24.14513134], [-48.10419205, -24.14526772], [-48.10409448, -24.14537006], [-48.10388923, -24.14573978], [-48.10358723, -24.14660587], [-48.10337379, -24.1470478], [-48.10326349, -24.14721673], [-48.10308838, -24.14748502], [-48.10287104, -24.14778247], [-48.10269117, -24.14809805], [-48.10237412, -24.14884673], [-48.10197346, -24.14957712], [-48.10191953, -24.14972598], [-48.10181638, -24.14987923], [-48.10172598, -24.15001134], [-48.10132288, -24.15060037], [-48.10120082, -24.15070392], [-48.10043064, -24.15135341], [-48.10034136, -24.15142867], [-48.09978276, -24.1516982], [-48.09936732, -24.1517965], [-48.09933249, -24.15179808], [-48.0990856, -24.15180934], [-48.09894218, -24.15185415], [-48.09884605, -24.15191712], [-48.09882666, -24.15195125], [-48.09871808, -24.15214254], [-48.09865847, -24.15233652], [-48.0986521, -24.15262545], [-48.09872276, -24.15286038], [-48.09873452, -24.15301376], [-48.09873697, -24.15304552], [-48.09870484, -24.15314351], [-48.09866747, -24.15325753], [-48.09862943, -24.1533094], [-48.09850877, -24.15347385], [-48.09840809, -24.15352806], [-48.09834184, -24.15356374], [-48.09827329, -24.15357255], [-48.09782501, -24.15363018], [-48.09760089, -24.15371993], [-48.09748127, -24.15381895], [-48.09741429, -24.1539126], [-48.0973491, -24.15400373], [-48.0971653, -24.15439605], [-48.09703816, -24.15454473], [-48.09682785, -24.15465095], [-48.09673573, -24.15469747], [-48.09670444, -24.15470969], [-48.09624128, -24.15489038], [-48.09610068, -24.15501644], [-48.09578658, -24.15558001], [-48.09573541, -24.15579491], [-48.0957318, -24.15581012], [-48.09567603, -24.15594541], [-48.09561737, -24.15602654], [-48.09559377, -24.15608808], [-48.09541842, -24.15654523], [-48.09539177, -24.15703275], [-48.09545222, -24.15718099], [-48.09559632, -24.15753439], [-48.0956071, -24.15761079], [-48.09561861, -24.15769246], [-48.09558707, -24.15795875], [-48.0954922, -24.15822036], [-48.09554617, -24.15859845], [-48.09557538, -24.15880296], [-48.09555499, -24.15890334], [-48.09553231, -24.15901505], [-48.09529522, -24.15932147], [-48.09510057, -24.15942482], [-48.09482555, -24.15945122], [-48.09457774, -24.15943254], [-48.09456187, -24.15943579], [-48.09438142, -24.15947268], [-48.09423687, -24.15952941], [-48.09411849, -24.15957588], [-48.09360098, -24.15986353], [-48.09354728, -24.15987553], [-48.09326124, -24.15993943], [-48.09305423, -24.1600563], [-48.09297011, -24.16016891], [-48.09288256, -24.16028611], [-48.09277524, -24.16059735], [-48.09241353, -24.16102535], [-48.09239923, -24.16109667], [-48.09239543, -24.1611156], [-48.09239714, -24.16112093], [-48.09241859, -24.16118789], [-48.0924983, -24.16126934], [-48.09269128, -24.16132401], [-48.09279325, -24.16136942], [-48.09286574, -24.16139667], [-48.09293386, -24.16144651], [-48.09295607, -24.16156288], [-48.09295627, -24.16156395], [-48.09295426, -24.16158751], [-48.09294545, -24.16169032], [-48.09292167, -24.16175214], [-48.09291074, -24.16178053], [-48.09280935, -24.16187361], [-48.09280773, -24.16187508], [-48.09273247, -24.16195166], [-48.09259631, -24.16203257], [-48.0924542, -24.16207722], [-48.09241099, -24.1620908], [-48.09228985, -24.16208147], [-48.09226861, -24.16207567], [-48.09217309, -24.16204958], [-48.09188749, -24.1619089], [-48.09173457, -24.16183177], [-48.09167341, -24.16181522], [-48.09165037, -24.16180898], [-48.09157476, -24.16179977], [-48.09147216, -24.16175437], [-48.09130821, -24.16166367], [-48.09117686, -24.16154447], [-48.09115855, -24.16152786], [-48.09094064, -24.16116612], [-48.09076252, -24.16108442], [-48.09071204, -24.16108363], [-48.09042241, -24.16107906], [-48.09038431, -24.16105329], [-48.09026834, -24.16097482], [-48.09011891, -24.16077887], [-48.09001653, -24.16064462], [-48.08994137, -24.1604819], [-48.08988068, -24.16020637], [-48.08985965, -24.16017813], [-48.08983351, -24.16014304], [-48.08976784, -24.16009772], [-48.08974326, -24.16008906], [-48.08965171, -24.1600568], [-48.08956185, -24.16007462], [-48.08935372, -24.16015537], [-48.08923295, -24.16023181], [-48.08921376, -24.16023679], [-48.08906059, -24.16027653], [-48.08893208, -24.16026717], [-48.0889075, -24.16026169], [-48.08883004, -24.16024435], [-48.0886477, -24.16013101], [-48.08849512, -24.15994101], [-48.08839448, -24.15986402], [-48.08758882, -24.16025024], [-48.08747988, -24.16027706], [-48.08696629, -24.16028478], [-48.08680581, -24.16033512], [-48.08666647, -24.16037883], [-48.08650562, -24.16048679], [-48.08641094, -24.16067163], [-48.08639205, -24.16082058], [-48.08642637, -24.16105679], [-48.08648785, -24.16147995], [-48.08648461, -24.16166122], [-48.08648342, -24.16172825], [-48.08640689, -24.16181384], [-48.08638902, -24.16182055], [-48.08613163, -24.16191698], [-48.08593728, -24.16191649], [-48.08538687, -24.16175232], [-48.08525025, -24.16171159], [-48.08521623, -24.16171076], [-48.0850436, -24.16170655], [-48.0848079, -24.16175109], [-48.08425584, -24.16173067], [-48.0841523, -24.16172684], [-48.08409939, -24.16172053], [-48.0838043, -24.16168533], [-48.08354142, -24.16166559], [-48.08349316, -24.16166195], [-48.08345897, -24.16165284], [-48.08333951, -24.16162093], [-48.08324681, -24.16158146], [-48.08322218, -24.16157098], [-48.08320862, -24.16155403], [-48.08314253, -24.16147144], [-48.08308507, -24.16134941], [-48.08302976, -24.16113256], [-48.08303237, -24.16098352], [-48.0830372, -24.16070821], [-48.08302001, -24.16065942], [-48.08300854, -24.16062686], [-48.08299653, -24.16059295], [-48.08298292, -24.16055456], [-48.08298102, -24.16055225], [-48.08290816, -24.16046408], [-48.08281003, -24.16039047], [-48.08275721, -24.16035083], [-48.0826705, -24.16032572], [-48.08252123, -24.16028249], [-48.08221055, -24.16030879], [-48.08125611, -24.16066753], [-48.08084569, -24.16072064], [-48.08066724, -24.16066058], [-48.08056182, -24.1606251], [-48.08046628, -24.16055545], [-48.08041269, -24.16051637], [-48.08026386, -24.16031283], [-48.08015986, -24.16028901], [-48.08012433, -24.16028087], [-48.08002396, -24.16032124], [-48.0799635, -24.16037316], [-48.07992961, -24.16040225], [-48.07969976, -24.16072353], [-48.07956208, -24.16091598], [-48.07942712, -24.1609969], [-48.07908238, -24.16109534], [-48.07883521, -24.16106761], [-48.07864698, -24.16099522], [-48.07858701, -24.16097216], [-48.07855173, -24.16093172], [-48.07848834, -24.16085904], [-48.07847392, -24.1608159], [-48.07845665, -24.16076415], [-48.07849935, -24.16058214], [-48.07852332, -24.1604799], [-48.07864665, -24.16032714], [-48.0787561, -24.16019156], [-48.07897065, -24.16002508], [-48.07905904, -24.15988534], [-48.07905934, -24.15978602], [-48.07900414, -24.15973171], [-48.07888559, -24.15968174], [-48.07874781, -24.15968138], [-48.07870882, -24.15968557], [-48.07854294, -24.15970343], [-48.07838907, -24.15973915], [-48.07823896, -24.15974778], [-48.07794471, -24.15984283], [-48.07792004, -24.15985079], [-48.07789141, -24.15985501], [-48.07764868, -24.15989074], [-48.07748894, -24.15986347], [-48.07746056, -24.15985865], [-48.07744511, -24.15984803], [-48.07725618, -24.15971815], [-48.07711456, -24.15957332], [-48.07696889, -24.15927903], [-48.07687066, -24.15908058], [-48.07669731, -24.15885439], [-48.07642237, -24.15865504], [-48.07630869, -24.15861863], [-48.07623411, -24.15857143], [-48.07590048, -24.15836023], [-48.07580066, -24.15823001], [-48.07571669, -24.15812048], [-48.0756292, -24.15777713], [-48.07563959, -24.15766978], [-48.07565016, -24.15756048], [-48.07571542, -24.15731886], [-48.07573789, -24.15723565], [-48.07575728, -24.15720099], [-48.07583622, -24.15705984], [-48.0758783, -24.15700758], [-48.07601033, -24.15684359], [-48.07601345, -24.15676778], [-48.07601698, -24.15668108], [-48.07597993, -24.15659882], [-48.07596201, -24.15655903], [-48.07591955, -24.15653102], [-48.07581776, -24.15646385], [-48.07567707, -24.15641835], [-48.07567399, -24.15641834], [-48.07546784, -24.15642943], [-48.07543408, -24.15643125], [-48.07508265, -24.15651161], [-48.07437069, -24.15681674], [-48.07397615, -24.15711367], [-48.07381539, -24.15715475], [-48.07346896, -24.15724329], [-48.07338325, -24.15734318], [-48.07336462, -24.1573649], [-48.07332658, -24.15753637], [-48.07337897, -24.15785132], [-48.07342499, -24.15812804], [-48.07338596, -24.15821824], [-48.07323124, -24.15830109], [-48.07320976, -24.15831259], [-48.07302579, -24.1583392], [-48.07298446, -24.15833842], [-48.07274163, -24.15833394], [-48.07242956, -24.15825999], [-48.07229851, -24.15822893], [-48.0722157, -24.15817721], [-48.07204438, -24.15807025], [-48.07159851, -24.15766277], [-48.07144528, -24.15757971], [-48.07143948, -24.15757656], [-48.07142383, -24.15757279], [-48.07126985, -24.15753549], [-48.07101155, -24.15755306], [-48.07095057, -24.15755723], [-48.07080702, -24.15766463], [-48.07060779, -24.15781367], [-48.07058045, -24.1578884], [-48.07050048, -24.15810684], [-48.07057407, -24.15877067], [-48.07061501, -24.15885206], [-48.07072432, -24.15906604], [-48.07073972, -24.15909617], [-48.07083155, -24.15919062], [-48.07121057, -24.15958049], [-48.07122298, -24.15962555], [-48.07123795, -24.15967988], [-48.07122542, -24.15991764], [-48.07122224, -24.15997781], [-48.07109956, -24.16046507], [-48.07107239, -24.16098098], [-48.07105249, -24.16135885], [-48.07074542, -24.16199461], [-48.07073159, -24.16201975], [-48.07042315, -24.16258067], [-48.07021494, -24.16307221], [-48.06991934, -24.16357708], [-48.07030862, -24.16418759], [-48.07054593, -24.16442297], [-48.07069395, -24.16449561], [-48.07126246, -24.16463254], [-48.0716703, -24.16477873], [-48.07173186, -24.16480081], [-48.07192881, -24.16495934], [-48.07196617, -24.16501998], [-48.07203467, -24.16513117], [-48.07204647, -24.16527695], [-48.07205185, -24.16534341], [-48.07198457, -24.16562315], [-48.07179523, -24.16597931], [-48.07159887, -24.1662271], [-48.07136688, -24.16664635], [-48.07132931, -24.16681662], [-48.0713151, -24.16688097], [-48.07143549, -24.16702192], [-48.07145422, -24.16704387], [-48.07147382, -24.16705631], [-48.0715328, -24.16709374], [-48.07160539, -24.16709678], [-48.07187598, -24.16710818], [-48.07193256, -24.16713046], [-48.07197981, -24.16714908], [-48.07214372, -24.16732834], [-48.07219496, -24.16738442], [-48.07228837, -24.16756858], [-48.0723692, -24.16772798], [-48.07237591, -24.16791685], [-48.07238108, -24.1680621], [-48.07235808, -24.16817915], [-48.07233232, -24.16831027], [-48.07227157, -24.1684926], [-48.0721144, -24.16896433], [-48.07210659, -24.16936699], [-48.07210339, -24.16953313], [-48.07217616, -24.16966878], [-48.07223196, -24.16973455], [-48.07237963, -24.16990858], [-48.07245833, -24.17004748], [-48.07246161, -24.17005327], [-48.07251628, -24.17023297], [-48.07255234, -24.17035147], [-48.07255793, -24.1704399], [-48.0725752, -24.1707127], [-48.07283044, -24.17105473], [-48.0728925, -24.1711379], [-48.07288188, -24.17125399], [-48.07286894, -24.17139517], [-48.07279257, -24.17153128], [-48.07269946, -24.17169722], [-48.07268644, -24.17194783], [-48.07268376, -24.17199965], [-48.07281554, -24.17243621], [-48.07282561, -24.17246956], [-48.07297843, -24.17317875], [-48.0729925, -24.17359865], [-48.07289075, -24.1738783], [-48.07289787, -24.17408237], [-48.07290147, -24.17418531], [-48.07290259, -24.17422596], [-48.07295491, -24.1743192], [-48.07305734, -24.17450174], [-48.07325593, -24.17473071], [-48.07330068, -24.17478229], [-48.07334863, -24.17481744], [-48.07347376, -24.17490916], [-48.07353049, -24.17493734], [-48.07369302, -24.17501807], [-48.07381241, -24.17505563], [-48.07405498, -24.17513189], [-48.07419766, -24.17514129], [-48.07455065, -24.17536794], [-48.07480458, -24.17560336], [-48.07509904, -24.17596962], [-48.07514283, -24.1760241], [-48.07525928, -24.17609548], [-48.07563831, -24.17632788], [-48.07583087, -24.17651799], [-48.07594406, -24.17671693], [-48.07596587, -24.17694538], [-48.07597206, -24.17701045], [-48.07594487, -24.17706809], [-48.07588909, -24.17718631], [-48.07588776, -24.17718805], [-48.07562846, -24.17752874], [-48.07550845, -24.17774062], [-48.07546129, -24.17787593], [-48.07542744, -24.17807899], [-48.07543168, -24.1780904], [-48.07548968, -24.17824621], [-48.07555046, -24.17836117], [-48.07556857, -24.17839539], [-48.07571455, -24.17853202], [-48.07582495, -24.17863534], [-48.07628151, -24.17893077], [-48.07637135, -24.1789889], [-48.07657605, -24.17926964], [-48.07699799, -24.17984829], [-48.07708481, -24.17991775], [-48.07717349, -24.17998871], [-48.07722456, -24.17999783], [-48.07725035, -24.18000244], [-48.0773526, -24.18004949], [-48.07755626, -24.18014318], [-48.07774319, -24.18030382], [-48.07776179, -24.18031979], [-48.07796274, -24.18058667], [-48.07816237, -24.1810838], [-48.07828304, -24.18125115], [-48.07831361, -24.18128097], [-48.07838055, -24.18134621], [-48.07867195, -24.18141017], [-48.0789125, -24.18140177], [-48.07907256, -24.18135702], [-48.07936428, -24.18117339], [-48.07943683, -24.18112772], [-48.07962158, -24.18106499], [-48.07969041, -24.18105337], [-48.07985853, -24.18102498], [-48.08013341, -24.18105277], [-48.08041859, -24.18113476], [-48.08062331, -24.18137908], [-48.08065079, -24.18145138], [-48.0806634, -24.18154622], [-48.08067418, -24.18204738], [-48.08070948, -24.18217386], [-48.08076087, -24.18226429], [-48.08081109, -24.18231392], [-48.08083876, -24.18234125], [-48.08086604, -24.18235319], [-48.08093215, -24.18238212], [-48.08106301, -24.18243663], [-48.08112038, -24.18246788], [-48.08113793, -24.18247745], [-48.08118364, -24.18251823], [-48.08119375, -24.18252725], [-48.08122423, -24.18256836], [-48.08125747, -24.18261319], [-48.08130198, -24.18274423], [-48.0813417, -24.18323191], [-48.08131449, -24.18368783], [-48.08132666, -24.18372863], [-48.08149655, -24.18429776], [-48.08149147, -24.18437642], [-48.08148106, -24.18453699], [-48.08145803, -24.18462723], [-48.08123566, -24.18485409], [-48.08108283, -24.18501001], [-48.0805514, -24.18578966], [-48.08040186, -24.18601049], [-48.08030188, -24.18623256], [-48.08014605, -24.18657868], [-48.08005036, -24.18684962], [-48.07993258, -24.18718309], [-48.0799131, -24.18733689], [-48.07987144, -24.18766599], [-48.07987875, -24.18782427], [-48.07988125, -24.18787819], [-48.0798987, -24.18796742], [-48.07997755, -24.18837054], [-48.08016858, -24.18866448], [-48.08040923, -24.18892968], [-48.08088718, -24.18945637], [-48.08175035, -24.1900455], [-48.08195357, -24.19026429], [-48.08198152, -24.19029438], [-48.08202145, -24.19040282], [-48.08203642, -24.19044351], [-48.08199105, -24.19100319], [-48.08304834, -24.1926654], [-48.08308906, -24.19247409], [-48.08321265, -24.19205774], [-48.08328999, -24.19189265], [-48.08332329, -24.19182162], [-48.08337476, -24.19174177], [-48.0835089, -24.19153368], [-48.08367602, -24.19136542], [-48.08379441, -24.19128005], [-48.08394909, -24.19116852], [-48.08431761, -24.19105645], [-48.08436076, -24.19105314], [-48.08462805, -24.19103261], [-48.0848709, -24.19108147], [-48.08515353, -24.19119878], [-48.08548297, -24.19137746], [-48.08565845, -24.19150797], [-48.08584285, -24.19164515], [-48.08603362, -24.19186537], [-48.08624604, -24.19226252], [-48.08625162, -24.19227293], [-48.08657901, -24.19258512], [-48.08672198, -24.19272541], [-48.08691293, -24.19291277], [-48.08705026, -24.19304888], [-48.08715154, -24.19314925], [-48.08727435, -24.19324552], [-48.08737579, -24.19332501], [-48.08767297, -24.19349492], [-48.087753, -24.19351695], [-48.08810999, -24.19361519], [-48.08836992, -24.19364994], [-48.08894047, -24.1936085], [-48.08932452, -24.19354907], [-48.08960951, -24.19349383], [-48.0896763, -24.19348089], [-48.08991215, -24.19349261], [-48.09002545, -24.19352269], [-48.09018694, -24.19356555], [-48.09054256, -24.19367712], [-48.09043917, -24.19385518], [-48.09049312, -24.19380772], [-48.09090048, -24.19375364], [-48.09146044, -24.19376434], [-48.09226789, -24.1936276], [-48.09327638, -24.19346652], [-48.09386548, -24.1934978], [-48.09420776, -24.19359011], [-48.09443075, -24.19379751], [-48.09441884, -24.1939575], [-48.09431775, -24.19417214], [-48.0940188, -24.1944425], [-48.09337559, -24.19487103], [-48.09284155, -24.19530168], [-48.09258952, -24.19581785], [-48.09257861, -24.19629852], [-48.09272375, -24.19664195], [-48.09310951, -24.19696991], [-48.09336336, -24.19733543], [-48.09339932, -24.19767677], [-48.0934694, -24.19843954], [-48.09349625, -24.19918143], [-48.09354722, -24.1998236], [-48.09377286, -24.2004691], [-48.09392094, -24.20068232], [-48.09406903, -24.20089556], [-48.09451006, -24.20115333], [-48.09528323, -24.20129944], [-48.095937, -24.20137203], [-48.096352, -24.20135514], [-48.09718347, -24.20167964], [-48.09810664, -24.20186868], [-48.09922565, -24.20181543], [-48.10050854, -24.20159942], [-48.10131877, -24.20151466], [-48.10216905, -24.20159097], [-48.10284502, -24.20175455], [-48.10346661, -24.201815], [-48.1041828, -24.20166833], [-48.10501097, -24.20150477], [-48.10588898, -24.20132108], [-48.10665777, -24.20113532], [-48.10729646, -24.200907], [-48.10820215, -24.20046333], [-48.10908421, -24.20009937], [-48.10994126, -24.19987519], [-48.11088339, -24.19975281], [-48.11189968, -24.199732], [-48.1123201, -24.19970876], [-48.11270899, -24.19968725], [-48.11356287, -24.19960325], [-48.11450364, -24.19954092], [-48.11498991, -24.19928965], [-48.11532511, -24.19895535], [-48.11562072, -24.19843998], [-48.11589854, -24.1977439], [-48.11615812, -24.19688719], [-48.1164373, -24.19613104], [-48.11669282, -24.1954546], [-48.1171631, -24.19494251], [-48.11760658, -24.19465035], [-48.11819792, -24.19458139], [-48.11865646, -24.19459006], [-48.11924467, -24.19466133], [-48.12004677, -24.19493697], [-48.12063274, -24.19510835], [-48.12117547, -24.19525889], [-48.12184519, -24.19559215], [-48.12231749, -24.19596176], [-48.12287488, -24.19643316], [-48.1233904, -24.19682363], [-48.1237745, -24.19698617], [-48.12459224, -24.1970517], [-48.12557826, -24.19692004], [-48.12648517, -24.19666164], [-48.12730965, -24.19642671], [-48.12832012, -24.19642073], [-48.1291117, -24.19643565], [-48.12996921, -24.19629723], [-48.13079239, -24.19576601], [-48.13169128, -24.19525694], [-48.13254919, -24.19474709], [-48.13321043, -24.19448403], [-48.13405715, -24.19447491], [-48.13514895, -24.19449545], [-48.13558454, -24.19455375], [-48.1363978, -24.19481951], [-48.13693001, -24.19505332], [-48.13764669, -24.19514357], [-48.13822267, -24.19502916], [-48.1388839, -24.19476605], [-48.13951895, -24.19445236], [-48.14020692, -24.19421481], [-48.1408347, -24.1942266], [-48.14134942, -24.19441159], [-48.14172372, -24.19476929], [-48.14217155, -24.19550407], [-48.14234809, -24.19615862], [-48.14247898, -24.19705649], [-48.14253295, -24.19766496], [-48.14265714, -24.19821834], [-48.14303954, -24.19882667], [-48.14321651, -24.19923985], [-48.14342889, -24.19973568], [-48.14346368, -24.20001185], [-48.14349848, -24.20028804], [-48.14345723, -24.20091346], [-48.14325056, -24.20161091], [-48.1428985, -24.20256706], [-48.1425591, -24.20322604], [-48.14202621, -24.203892], [-48.14132438, -24.20424258], [-48.14075404, -24.20456976], [-48.14022476, -24.20503573], [-48.13985649, -24.20562995], [-48.13965254, -24.20620224], [-48.13936838, -24.20669783], [-48.13909339, -24.207394], [-48.13866602, -24.20818749], [-48.13854004, -24.20893655], [-48.13863637, -24.20951445], [-48.13895277, -24.21002136], [-48.13943295, -24.21053132], [-48.13997276, -24.210817], [-48.14054324, -24.21095296], [-48.14149925, -24.21094587], [-48.14248144, -24.21098936], [-48.14297226, -24.21102361], [-48.1438163, -24.21113965], [-48.14441129, -24.21140128], [-48.14519457, -24.2117917], [-48.14584027, -24.21222962], [-48.14629264, -24.21276409], [-48.14649929, -24.21329397], [-48.14645637, -24.21399451], [-48.14627919, -24.21459233], [-48.14607804, -24.21503941], [-48.14560054, -24.21563161], [-48.14506901, -24.21619771], [-48.14462159, -24.21666524], [-48.14458761, -24.21696518], [-48.14474245, -24.21736885], [-48.14492574, -24.21772295], [-48.14502489, -24.21817567], [-48.14501484, -24.21862634], [-48.14478637, -24.21907291], [-48.14444927, -24.21949239], [-48.14405701, -24.21993589], [-48.14377281, -24.22043151], [-48.14389873, -24.22101381], [-48.14417964, -24.22168225], [-48.14443073, -24.22221451], [-48.14482899, -24.22277963], [-48.14527823, -24.22327038], [-48.14566442, -24.22363934], [-48.14601747, -24.22402278], [-48.14641608, -24.22457284], [-48.14666852, -24.22504482], [-48.14684002, -24.22550159], [-48.1469534, -24.22590449], [-48.14690205, -24.22628564], [-48.14670098, -24.22653756], [-48.14635981, -24.22672711], [-48.14576436, -24.2268968], [-48.14510484, -24.22698993], [-48.1446103, -24.22705601], [-48.14419487, -24.22725921], [-48.14382503, -24.22762908], [-48.14368182, -24.22815391], [-48.14366568, -24.22887708], [-48.14373202, -24.22958671], [-48.14395127, -24.23007314], [-48.14429958, -24.23066748], [-48.14473242, -24.23115792], [-48.14521587, -24.231589], [-48.14541702, -24.23173054], [-48.14576607, -24.23197614], [-48.14634493, -24.23232619], [-48.14692959, -24.23259622], [-48.14772067, -24.23282299], [-48.14833415, -24.23295225], [-48.14887588, -24.23284465], [-48.14916875, -24.23237914], [-48.14923196, -24.23192597], [-48.1491143, -24.23136546], [-48.14883769, -24.23110122], [-48.14845788, -24.2308586], [-48.14823524, -24.23047763], [-48.14809119, -24.23002748], [-48.14815302, -24.22955763], [-48.14844695, -24.22904503], [-48.14883725, -24.22881685], [-48.14937685, -24.22880341], [-48.14978442, -24.22895235], [-48.15045082, -24.22901192], [-48.15109415, -24.22895333], [-48.15162903, -24.22915176], [-48.15213563, -24.22946736], [-48.15267263, -24.22957164], [-48.15333796, -24.2296783], [-48.15369159, -24.22994396], [-48.15391425, -24.23032493], [-48.15403213, -24.23079815], [-48.15417308, -24.23138954], [-48.15447117, -24.23184258], [-48.15495547, -24.23218827], [-48.15569394, -24.23228934], [-48.15664379, -24.2323071], [-48.15728138, -24.23250742], [-48.15787472, -24.23296597], [-48.1586056, -24.23359193], [-48.15908236, -24.2340954], [-48.15968125, -24.23488375], [-48.16023297, -24.23548281], [-48.16091199, -24.23613134], [-48.16167275, -24.23656945], [-48.16245972, -24.2369845], [-48.163199, -24.23723379], [-48.16393932, -24.23743599], [-48.1646026, -24.23763677], [-48.16511555, -24.23766988], [-48.16557661, -24.23772558], [-48.16580404, -24.23789467], [-48.16595072, -24.23822711], [-48.1662227, -24.23870318], [-48.16641766, -24.23917782], [-48.16656335, -24.23955734], [-48.16683742, -24.23993926], [-48.16725267, -24.2403238], [-48.1676216, -24.24106075], [-48.168143, -24.24187117], [-48.16856747, -24.24242072], [-48.16927122, -24.24311679], [-48.16982352, -24.24369228], [-48.17037585, -24.24426777], [-48.1710581, -24.24477504], [-48.17179536, -24.24511845], [-48.17243358, -24.24529518], [-48.17307387, -24.24537774], [-48.17420406, -24.24537519], [-48.17486846, -24.24552885], [-48.17537362, -24.24591504], [-48.17602923, -24.24646889], [-48.1765852, -24.24687956], [-48.17742677, -24.24715424], [-48.17796921, -24.24730888], [-48.17891484, -24.24722897], [-48.17960703, -24.2472889], [-48.18054115, -24.2474276], [-48.18080905, -24.2475126], [-48.18107695, -24.2475976], [-48.18159619, -24.24793812], [-48.18220043, -24.24849097], [-48.18270563, -24.24887715], [-48.18294285, -24.24896125], [-48.18326634, -24.24907594], [-48.18405968, -24.24920837], [-48.18479959, -24.24943405], [-48.18530843, -24.24965543], [-48.18560981, -24.24996717], [-48.18563638, -24.2500138], [-48.18603021, -24.25070502], [-48.18629202, -24.25111182], [-48.18680445, -24.25150665], [-48.18739441, -24.25174294], [-48.18808612, -24.2518264], [-48.18872231, -24.25209722], [-48.18929992, -24.25269666], [-48.18997919, -24.2533451], [-48.19073603, -24.2539714], [-48.19137121, -24.25428932], [-48.19218819, -24.25451635], [-48.19338268, -24.25451483], [-48.1944611, -24.25453474], [-48.19579833, -24.25446524], [-48.19659122, -24.25462117], [-48.19704928, -24.25481803], [-48.1972978, -24.25519942], [-48.19744321, -24.2555946], [-48.19751594, -24.25579219], [-48.19760781, -24.25628846], [-48.19782703, -24.25683418], [-48.19820135, -24.25733564], [-48.1987523, -24.25798167], [-48.19917644, -24.25855471], [-48.19942031, -24.25914797], [-48.19953683, -24.25969179], [-48.19954497, -24.26049267], [-48.19966252, -24.2609894], [-48.19985968, -24.26136986], [-48.20031363, -24.26175503], [-48.20089547, -24.2621661]]]]}}]}