{"type": "FeatureCollection", "features": [{"type": "Feature", "properties": {"name": "Parque Estadual Rio do Peixe"}, "geometry": {"type": "MultiPolygon", "coordinates": [[[[-51.63030181, -21.68252476], [-51.63120677, -21.6822135], [-51.63222936, -21.68173403], [-51.63311078, -21.68152072], [-51.63406556, -21.68065293], [-51.63397052, -21.6800722], [-51.63446377, -21.67972001], [-51.63491571, -21.67960091], [-51.63671695, -21.67805006], [-51.63772486, -21.67794337], [-51.63864402, -21.67787652], [-51.63956298, -21.67759319], [-51.64019488, -21.67860893], [-51.64120637, -21.6782084], [-51.64088303, -21.67747655], [-51.64196191, -21.6773234], [-51.64228595, -21.67433232], [-51.64196507, -21.6726981], [-51.64627902, -21.6707871], [-51.64692257, -21.67059353], [-51.64779058, -21.6698779], [-51.6490066, -21.66905251], [-51.64865953, -21.66762172], [-51.64868273, -21.6669171], [-51.6501621, -21.66681682], [-51.65105768, -21.66619863], [-51.65229695, -21.66554549], [-51.65306918, -21.66477093], [-51.65262159, -21.66446934], [-51.65318217, -21.66202514], [-51.65464514, -21.66320087], [-51.65607307, -21.6634338], [-51.65763974, -21.66321863], [-51.66188905, -21.66113069], [-51.6985503, -21.64310992], [-51.71969964, -21.61664144], [-51.76710574, -21.61398242], [-51.77443721, -21.61324331], [-51.78176493, -21.61222288], [-51.78535385, -21.60691478], [-51.77939231, -21.60409345], [-51.78038982, -21.60390048], [-51.78034018, -21.60342494], [-51.78595738, -21.59702314], [-51.79315823, -21.596308], [-51.79281953, -21.59267169], [-51.78875928, -21.59282644], [-51.79030812, -21.59145029], [-51.79244893, -21.58752294], [-51.79461228, -21.58645473], [-51.7911345, -21.58089237], [-51.79007765, -21.5815706], [-51.78796711, -21.57413047], [-51.78740374, -21.57448453], [-51.78448559, -21.56376678], [-51.78459549, -21.56269795], [-51.76055977, -21.55901567], [-51.76033862, -21.55918251], [-51.76026167, -21.55922179], [-51.76017846, -21.55924762], [-51.7600872, -21.55927759], [-51.76000479, -21.55932495], [-51.75993496, -21.55938757], [-51.7598809, -21.55946259], [-51.75984115, -21.55953957], [-51.75980754, -21.55961907], [-51.75972372, -21.55985003], [-51.75964626, -21.56008292], [-51.7595672, -21.56034998], [-51.75949885, -21.56061962], [-51.7594413, -21.56089145], [-51.75943564, -21.56095107], [-51.75944126, -21.5610107], [-51.75945798, -21.56106847], [-51.75947823, -21.56109902], [-51.75950971, -21.56111963], [-51.75953708, -21.56113868], [-51.75955247, -21.56116716], [-51.7595545, -21.56119019], [-51.75954894, -21.56121271], [-51.75945692, -21.56141803], [-51.75935809, -21.56162056], [-51.75926058, -21.56178626], [-51.75914274, -21.56193996], [-51.75900624, -21.56207951], [-51.75885301, -21.56220293], [-51.75868522, -21.56230847], [-51.75860805, -21.5623608], [-51.75854279, -21.56242578], [-51.75849178, -21.5625011], [-51.75845685, -21.56258406], [-51.75843925, -21.56267169], [-51.7584396, -21.56276084], [-51.75845627, -21.56281526], [-51.75849246, -21.56286063], [-51.75854347, -21.56289109], [-51.7586027, -21.56290269], [-51.75865609, -21.56291486], [-51.75869929, -21.56294662], [-51.75872456, -21.56299228], [-51.75872734, -21.56304361], [-51.75870944, -21.56311636], [-51.75868186, -21.5631864], [-51.75865433, -21.56325634], [-51.75863648, -21.56332897], [-51.75861921, -21.5634415], [-51.75860671, -21.56355459], [-51.75859231, -21.56374301], [-51.75858272, -21.5639317], [-51.75858701, -21.56413264], [-51.75861509, -21.5643319], [-51.75864575, -21.56442297], [-51.75869841, -21.56450476], [-51.75872641, -21.56452705], [-51.7587616, -21.56453705], [-51.75879813, -21.56453307], [-51.75882993, -21.5645158], [-51.75886574, -21.56449444], [-51.75890698, -21.56448499], [-51.75894928, -21.56448844], [-51.75898815, -21.56450444], [-51.75904498, -21.56454814], [-51.75909025, -21.5646024], [-51.75912179, -21.56466458], [-51.75913806, -21.5647317], [-51.75915873, -21.5649654], [-51.75916416, -21.56519983], [-51.75915433, -21.56543415], [-51.75912927, -21.56566746], [-51.75910513, -21.56581568], [-51.75907447, -21.56596284], [-51.75901896, -21.56618831], [-51.75895702, -21.56641232], [-51.75890198, -21.56655956], [-51.75882555, -21.5666982], [-51.75872921, -21.56682551], [-51.75861484, -21.56693903], [-51.75848468, -21.56703653], [-51.75834126, -21.56711612], [-51.75818738, -21.56717623], [-51.75802605, -21.56721569], [-51.75786042, -21.56723375], [-51.75774307, -21.56724933], [-51.75763098, -21.56728537], [-51.75752817, -21.56734055], [-51.75743836, -21.56741291], [-51.75736477, -21.56749982], [-51.75731005, -21.56759817], [-51.75727617, -21.56770441], [-51.75726434, -21.56781473], [-51.75727499, -21.56792515], [-51.75730775, -21.5680317], [-51.75738207, -21.56817948], [-51.75747616, -21.56831705], [-51.75758845, -21.56844211], [-51.7576981, -21.56856459], [-51.75778949, -21.56869953], [-51.75786104, -21.56884458], [-51.75794313, -21.56905365], [-51.75801889, -21.5692648], [-51.75803601, -21.56932518], [-51.75804655, -21.56938686], [-51.75805046, -21.56948318], [-51.75803991, -21.56957906], [-51.75800785, -21.56971162], [-51.75796191, -21.56984056], [-51.757921, -21.56992304], [-51.75786933, -21.57000006], [-51.75777674, -21.57011075], [-51.75767484, -21.57021404], [-51.75758468, -21.57028616], [-51.75748371, -21.5703444], [-51.75737434, -21.57038738], [-51.75714897, -21.57044837], [-51.75691923, -21.57049289], [-51.7566865, -21.57052068], [-51.75658309, -21.57052111], [-51.75648107, -21.57050538], [-51.75638328, -21.57047394], [-51.75629248, -21.57042766], [-51.75621121, -21.57036784], [-51.75614177, -21.57029618], [-51.75609013, -21.57024842], [-51.75602648, -21.57021571], [-51.75595569, -21.57020055], [-51.75588317, -21.57020409], [-51.75581446, -21.57022607], [-51.7557548, -21.57026481], [-51.75569666, -21.57033049], [-51.75565915, -21.57040822], [-51.75562999, -21.57053879], [-51.75562471, -21.57067209], [-51.75564248, -21.57084755], [-51.7556778, -21.57102068], [-51.75573036, -21.57118993], [-51.7557997, -21.57135382], [-51.75588519, -21.57151088], [-51.75610683, -21.57185813], [-51.75634328, -21.57219672], [-51.75659417, -21.5725261], [-51.75685908, -21.57284573], [-51.75713759, -21.57315508], [-51.757161, -21.57317993], [-51.75718453, -21.57320469], [-51.75719627, -21.5732171], [-51.7572079, -21.57322961], [-51.75733197, -21.57338029], [-51.75743756, -21.57354282], [-51.75752338, -21.57371524], [-51.75758838, -21.57389545], [-51.75763178, -21.57408126], [-51.75764772, -21.57417997], [-51.75772732, -21.57444044], [-51.75571216, -21.57588448], [-51.75342222, -21.57715989], [-51.75235806, -21.57538197], [-51.74429526, -21.56805156], [-51.73345656, -21.57565004], [-51.7249436, -21.58125372], [-51.72498901, -21.58137721], [-51.71964733, -21.58468501], [-51.71220652, -21.58939335], [-51.70521567, -21.59250924], [-51.70114389, -21.59461085], [-51.70001158, -21.59255025], [-51.68106005, -21.60132861], [-51.67578998, -21.6103681], [-51.66888983, -21.61524114], [-51.65224002, -21.62703085], [-51.65058052, -21.62815689], [-51.64757345, -21.63011925], [-51.64790522, -21.63056693], [-51.64224434, -21.63687125], [-51.63453237, -21.6454529], [-51.6348214, -21.64572531], [-51.63233275, -21.64853971], [-51.63248617, -21.64876191], [-51.63252107, -21.64884995], [-51.63253474, -21.64894296], [-51.6325401, -21.64899193], [-51.63256209, -21.64903665], [-51.63259835, -21.64907234], [-51.63264499, -21.64909518], [-51.6327128, -21.64911566], [-51.63278083, -21.64913546], [-51.63284774, -21.64915494], [-51.63291442, -21.6491751], [-51.63297996, -21.64919533], [-51.63304548, -21.64921563], [-51.63310182, -21.64923316], [-51.63315813, -21.64925076], [-51.63326382, -21.64928824], [-51.63336603, -21.64933337], [-51.63344759, -21.64937781], [-51.63352431, -21.64942923], [-51.6335761, -21.64948213], [-51.63360741, -21.64954761], [-51.6336388, -21.64961337], [-51.63369069, -21.64966659], [-51.63373525, -21.6496988], [-51.63378075, -21.64972984], [-51.63390808, -21.64981332], [-51.6340363, -21.6498956], [-51.63418663, -21.64998462], [-51.63434273, -21.6500645], [-51.63441756, -21.65010591], [-51.63448595, -21.65015611], [-51.6345115, -21.65018728], [-51.63452319, -21.65022499], [-51.63453783, -21.6502931], [-51.63456695, -21.65035701], [-51.63462042, -21.65042762], [-51.63468925, -21.65048543], [-51.63476974, -21.650551], [-51.63483534, -21.65062975], [-51.63485882, -21.65067827], [-51.63486699, -21.65073097], [-51.6348592, -21.65078372], [-51.63483606, -21.65083238], [-51.63482143, -21.65087031], [-51.63482487, -21.6509105], [-51.63484576, -21.65094578], [-51.63488037, -21.65096984], [-51.63497324, -21.6509979], [-51.63507048, -21.65100563], [-51.63533105, -21.6510088], [-51.63559041, -21.65103245], [-51.63597928, -21.65109191], [-51.63636484, -21.65116786], [-51.6367463, -21.65126016], [-51.63712287, -21.65136861], [-51.63749376, -21.65149299], [-51.63766142, -21.65154412], [-51.63783383, -21.65157877], [-51.63800916, -21.65159654], [-51.63818551, -21.65159727], [-51.63836099, -21.65158093], [-51.63839247, -21.65157625], [-51.63842387, -21.65157119], [-51.63847837, -21.65156185], [-51.6385328, -21.65155214], [-51.63887107, -21.65148035], [-51.63920399, -21.65138928], [-51.6395303, -21.65127928], [-51.63984877, -21.65115075], [-51.64017256, -21.6510199], [-51.6405042, -21.65090755], [-51.64084249, -21.65081413], [-51.64118619, -21.65073996], [-51.64142175, -21.6507003], [-51.64165871, -21.65066879], [-51.64242028, -21.65058506], [-51.64318282, -21.65050954], [-51.64384041, -21.65045542], [-51.64449919, -21.65041607], [-51.6451588, -21.6503915], [-51.64581884, -21.65038172], [-51.64596508, -21.6503887], [-51.64610962, -21.65041062], [-51.64625072, -21.65044722], [-51.64638668, -21.65049804], [-51.64641664, -21.65051309], [-51.64644453, -21.65053127], [-51.64646202, -21.65054179], [-51.64648133, -21.65054901], [-51.64651643, -21.6505491], [-51.64654612, -21.65053158], [-51.64657541, -21.65051452], [-51.64660991, -21.6505152], [-51.64663881, -21.65053391], [-51.64665165, -21.65056451], [-51.64666452, -21.6505967], [-51.6466937, -21.65061761], [-51.64671909, -21.65062522], [-51.64674531, -21.65062973], [-51.6467518, -21.65063037], [-51.6467583, -21.65063086], [-51.64692051, -21.65057213], [-51.64905675, -21.65380927], [-51.64302537, -21.6547784], [-51.64574533, -21.65748222], [-51.63672272, -21.65866525], [-51.63811773, -21.66112731], [-51.63558176, -21.66398896], [-51.63565312, -21.66035282], [-51.63045381, -21.66081745], [-51.6326476, -21.66689633], [-51.62363198, -21.66727749], [-51.62476753, -21.66983093], [-51.62275203, -21.66959851], [-51.63030181, -21.68252476]]]]}}]}