{"type": "FeatureCollection", "features": [{"type": "Feature", "properties": {"name": "Parque Estadual Ilha Anchieta"}, "geometry": {"type": "MultiPolygon", "coordinates": [[[[-45.07721494, -23.5614446], [-45.07764044, -23.56150326], [-45.07783736, -23.56146675], [-45.07800445, -23.561398], [-45.07813381, -23.56131941], [-45.07826256, -23.56124082], [-45.07842253, -23.56116287], [-45.07877931, -23.56105294], [-45.0790904, -23.56093301], [-45.07924213, -23.56084135], [-45.07950809, -23.56063915], [-45.07965221, -23.56048408], [-45.07972809, -23.56036371], [-45.07977365, -23.56010719], [-45.07981126, -23.5598008], [-45.07984919, -23.55958025], [-45.0799475, -23.5594197], [-45.08004636, -23.55933595], [-45.08017577, -23.55927995], [-45.0803201, -23.55921523], [-45.08042596, -23.55914519], [-45.08047134, -23.55901966], [-45.08048634, -23.55878507], [-45.08047874, -23.55862229], [-45.08045616, -23.55844564], [-45.08041017, -23.55820074], [-45.0803801, -23.55790648], [-45.08043296, -23.55757783], [-45.08051603, -23.55734016], [-45.08062236, -23.55710298], [-45.08078946, -23.55693484], [-45.08093323, -23.556843], [-45.0812221, -23.55675422], [-45.08154102, -23.55663897], [-45.08171545, -23.55657037], [-45.08182962, -23.55643725], [-45.08188256, -23.55630284], [-45.08189005, -23.55605003], [-45.08184444, -23.55581417], [-45.08175274, -23.55560896], [-45.08156267, -23.55522099], [-45.08147895, -23.55491656], [-45.08145628, -23.55464505], [-45.08149398, -23.55443353], [-45.081589, -23.55428194], [-45.08168096, -23.55417998], [-45.08189023, -23.55403983], [-45.08201697, -23.55394311], [-45.08210881, -23.55384567], [-45.08212591, -23.55372406], [-45.08207812, -23.55360109], [-45.0819902, -23.55349082], [-45.08181123, -23.55334701], [-45.08156209, -23.5531927], [-45.08127821, -23.55305572], [-45.08112194, -23.55298467], [-45.08104473, -23.5527391], [-45.08102232, -23.55258053], [-45.08106759, -23.55240982], [-45.08112042, -23.55227993], [-45.08117363, -23.55220877], [-45.08120398, -23.55209648], [-45.08116615, -23.55199178], [-45.0811277, -23.55188708], [-45.08111113, -23.55181445], [-45.08117369, -23.55176156], [-45.08127193, -23.5516778], [-45.08141636, -23.55155887], [-45.08151482, -23.55146608], [-45.08154511, -23.55138089], [-45.08153756, -23.55124069], [-45.08149984, -23.55113148], [-45.08143107, -23.55099], [-45.08130982, -23.55086548], [-45.08094466, -23.5505235], [-45.08053454, -23.55016703], [-45.08012427, -23.5497428], [-45.07996463, -23.54953615], [-45.07988852, -23.54939451], [-45.0798507, -23.54919043], [-45.07975175, -23.5487592], [-45.07964523, -23.54833685], [-45.07947788, -23.54797193], [-45.0793335, -23.54774302], [-45.07908265, -23.54748477], [-45.07874806, -23.54722023], [-45.07851289, -23.54707072], [-45.07838313, -23.54691891], [-45.07827686, -23.54675856], [-45.07818573, -23.54658047], [-45.07816405, -23.54641739], [-45.07820097, -23.54628716], [-45.07825369, -23.54616179], [-45.07832961, -23.546064], [-45.07838321, -23.54600189], [-45.07850458, -23.54602252], [-45.07865612, -23.54606185], [-45.07887682, -23.54615233], [-45.07908901, -23.54621553], [-45.07936298, -23.54620775], [-45.07955271, -23.54608978], [-45.07968896, -23.54597972], [-45.07977257, -23.54581885], [-45.07981796, -23.54559394], [-45.07981764, -23.54545842], [-45.07979495, -23.54533597], [-45.07969625, -23.54516675], [-45.079567, -23.54496978], [-45.0795215, -23.54482878], [-45.07955163, -23.54462614], [-45.07959706, -23.5444735], [-45.07972603, -23.54428649], [-45.07980926, -23.5440669], [-45.07988482, -23.54376131], [-45.0798847, -23.54302498], [-45.07988448, -23.5425642], [-45.07992178, -23.54202291], [-45.07999752, -23.54163601], [-45.08012661, -23.54129541], [-45.08021785, -23.54109857], [-45.08046024, -23.54083264], [-45.08062765, -23.54065095], [-45.08084765, -23.54049748], [-45.08107549, -23.54039838], [-45.08121985, -23.54035624], [-45.08130283, -23.54029475], [-45.08146986, -23.54010402], [-45.08166749, -23.53991393], [-45.08175815, -23.53983905], [-45.08192516, -23.53979739], [-45.0821762, -23.53972588], [-45.08238879, -23.53964905], [-45.08264684, -23.53959123], [-45.08284406, -23.53959087], [-45.08304934, -23.53963585], [-45.08323882, -23.53967597], [-45.08340638, -23.53966143], [-45.08347461, -23.53962673], [-45.08354235, -23.53953781], [-45.08361877, -23.53934517], [-45.08367873, -23.53907539], [-45.08376278, -23.53894615], [-45.08382317, -23.53885708], [-45.08383836, -23.53881222], [-45.08383827, -23.53866767], [-45.08382281, -23.5385002], [-45.08377732, -23.53825982], [-45.08373132, -23.53806461], [-45.08363296, -23.53783215], [-45.08354149, -23.5376676], [-45.08339743, -23.53752453], [-45.0832453, -23.5374355], [-45.08304804, -23.53736359], [-45.08289585, -23.53730166], [-45.08285033, -23.53726005], [-45.08283509, -23.53718293], [-45.082835, -23.53703837], [-45.08288037, -23.53686315], [-45.08296398, -23.53665259], [-45.0829868, -23.53662145], [-45.0830014, -23.53642751], [-45.08293325, -23.53628604], [-45.0829331, -23.5361189], [-45.08299404, -23.53600724], [-45.08303173, -23.5358951], [-45.08303185, -23.5358409], [-45.08298628, -23.5357767], [-45.08287177, -23.53565232], [-45.08268954, -23.53556717], [-45.08240146, -23.53550238], [-45.08201389, -23.53539935], [-45.08180884, -23.53529565], [-45.08164169, -23.53517016], [-45.08140588, -23.53499806], [-45.08094299, -23.53472178], [-45.08061621, -23.53443934], [-45.08044123, -23.53425948], [-45.08026641, -23.534048], [-45.0801828, -23.53388813], [-45.08013758, -23.533711], [-45.08014452, -23.53343107], [-45.08016002, -23.53320101], [-45.08021233, -23.53274585], [-45.08028795, -23.53236347], [-45.08036379, -23.53192237], [-45.08039421, -23.53168359], [-45.08037115, -23.53140302], [-45.08034831, -23.53116312], [-45.08037823, -23.53087012], [-45.08046925, -23.53058293], [-45.08059854, -23.53033268], [-45.08068951, -23.52997321], [-45.08071943, -23.52968021], [-45.08078012, -23.52945562], [-45.08090128, -23.52928651], [-45.08108337, -23.52910513], [-45.08151606, -23.52867154], [-45.08160689, -23.52851535], [-45.08164491, -23.52833997], [-45.08161429, -23.52806828], [-45.08151543, -23.52788099], [-45.08135614, -23.52771049], [-45.08129545, -23.52761435], [-45.08129547, -23.52746527], [-45.08127237, -23.52701305], [-45.08122628, -23.52672297], [-45.08110484, -23.5264584], [-45.0810209, -23.52626238], [-45.08089194, -23.52607897], [-45.080702, -23.52593493], [-45.08057297, -23.52587801], [-45.08039836, -23.52585626], [-45.08017817, -23.52591938], [-45.07998056, -23.52605977], [-45.07975317, -23.52633958], [-45.07959376, -23.5266434], [-45.07941942, -23.52715471], [-45.07929096, -23.52739594], [-45.07918405, -23.52748403], [-45.07909341, -23.52750923], [-45.07897204, -23.52753829], [-45.0788809, -23.52750927], [-45.07869072, -23.52747364], [-45.07859222, -23.52749415], [-45.07855438, -23.52753852], [-45.07853167, -23.52761484], [-45.07855424, -23.5277418], [-45.07860769, -23.52788297], [-45.07867605, -23.5280651], [-45.07873702, -23.5282245], [-45.0786987, -23.52843601], [-45.0785851, -23.52869562], [-45.07837262, -23.52886732], [-45.07806138, -23.52899628], [-45.07779589, -23.52905844], [-45.0773479, -23.52907158], [-45.07711252, -23.52908017], [-45.07696049, -23.52913569], [-45.07683912, -23.52921445], [-45.07672552, -23.52937468], [-45.07668013, -23.52959959], [-45.07668041, -23.52998357], [-45.07674852, -23.53032381], [-45.07690855, -23.53071116], [-45.07729623, -23.53145115], [-45.07788926, -23.53248006], [-45.07813207, -23.5330363], [-45.07832212, -23.53364563], [-45.07838328, -23.53404445], [-45.07839913, -23.53449201], [-45.07831586, -23.53500975], [-45.07825561, -23.53568608], [-45.07818734, -23.53596924], [-45.07809605, -23.53614349], [-45.07795186, -23.53625338], [-45.07767878, -23.53637411], [-45.07748856, -23.53643786], [-45.07727653, -23.53654181], [-45.07720062, -23.5365899], [-45.07698767, -23.53682935], [-45.07681329, -23.53706961], [-45.07666752, -23.5372924], [-45.0764946, -23.53742428], [-45.07637338, -23.5375211], [-45.07614526, -23.53765633], [-45.07589483, -23.53772784], [-45.07571252, -23.53776917], [-45.07538619, -23.53783908], [-45.07515095, -23.53791543], [-45.07505245, -23.53793594], [-45.07467996, -23.53816298], [-45.07418698, -23.53843266], [-45.07373886, -23.53862196], [-45.07335142, -23.53873575], [-45.07310895, -23.53880743], [-45.07283546, -23.5389688], [-45.07269916, -23.53905627], [-45.07252452, -23.53913389], [-45.07235723, -23.53916198], [-45.07212945, -23.53923397], [-45.071803, -23.53930839], [-45.07143108, -23.53941347], [-45.07116513, -23.53944399], [-45.07083096, -23.53945952], [-45.07045111, -23.53941535], [-45.07013237, -23.53932731], [-45.06980591, -23.53918037], [-45.06951723, -23.53906585], [-45.06907696, -23.5389391], [-45.06873468, -23.53888669], [-45.06849951, -23.53888624], [-45.06808971, -23.53891371], [-45.06738335, -23.53897106], [-45.06653257, -23.53904793], [-45.06610018, -23.53904782], [-45.06551556, -23.53896317], [-45.06520411, -23.53890237], [-45.0649852, -23.53883902], [-45.06482401, -23.53874526], [-45.0647968, -23.53873113], [-45.06456591, -23.5385591], [-45.06439844, -23.53839745], [-45.06420101, -23.53813578], [-45.06405716, -23.53791138], [-45.06391988, -23.53766906], [-45.06371517, -23.53738013], [-45.06350233, -23.53712265], [-45.06333499, -23.53690679], [-45.06300825, -23.53662432], [-45.06277281, -23.53638894], [-45.06256787, -23.53610905], [-45.06237984, -23.53588823], [-45.06233948, -23.5357383], [-45.06216459, -23.53530996], [-45.06205811, -23.53498698], [-45.06200518, -23.53480064], [-45.06191373, -23.53468577], [-45.06172406, -23.53455527], [-45.06153417, -23.53443379], [-45.0612986, -23.53430232], [-45.06113128, -23.53403676], [-45.0610404, -23.53367797], [-45.06101756, -23.53336578], [-45.06101705, -23.53318959], [-45.06103217, -23.53304988], [-45.0611461, -23.53275414], [-45.06126743, -23.53248115], [-45.06135108, -23.53222092], [-45.06135099, -23.53212605], [-45.06135833, -23.5321262], [-45.06132822, -23.53195842], [-45.06126689, -23.53178998], [-45.06119109, -23.5316122], [-45.06113016, -23.53140311], [-45.0611076, -23.53127614], [-45.06112249, -23.53114545], [-45.06117564, -23.53092974], [-45.0612589, -23.53066046], [-45.06131185, -23.5303544], [-45.06131175, -23.53008788], [-45.06128152, -23.52992461], [-45.06120549, -23.52980555], [-45.06112222, -23.52968181], [-45.06106856, -23.52954967], [-45.06104595, -23.52940012], [-45.06100782, -23.52925927], [-45.06095487, -23.52917232], [-45.06077246, -23.5289968], [-45.06064324, -23.5288495], [-45.06057484, -23.52869446], [-45.06055227, -23.52861719], [-45.06055195, -23.52835969], [-45.06056687, -23.52812962], [-45.06055944, -23.52781324], [-45.06050575, -23.52760882], [-45.06045292, -23.52746766], [-45.06031634, -23.5273699], [-45.06011104, -23.52730231], [-45.05998174, -23.52723181], [-45.05987543, -23.52714824], [-45.05976902, -23.5270195], [-45.05966283, -23.52688173], [-45.05956414, -23.52681188], [-45.05932132, -23.52677511], [-45.05916919, -23.52678543], [-45.05907057, -23.52686014], [-45.05894907, -23.52694339], [-45.05879755, -23.52717509], [-45.05869092, -23.5273987], [-45.05858478, -23.52750486], [-45.05847888, -23.52755231], [-45.05840251, -23.52761845], [-45.05834216, -23.52773011], [-45.05823555, -23.52790402], [-45.05808405, -23.52803633], [-45.05798522, -23.52807038], [-45.05787921, -23.52807265], [-45.05775759, -23.52803845], [-45.05762818, -23.52797246], [-45.05743824, -23.52787808], [-45.0571576, -23.5277863], [-45.05691461, -23.52773145], [-45.05652751, -23.52770969], [-45.05616275, -23.52772454], [-45.05593543, -23.52777844], [-45.05576075, -23.52783346], [-45.05541154, -23.52796157], [-45.05525216, -23.52801692], [-45.05507754, -23.52804483], [-45.05498584, -23.52803837], [-45.05482683, -23.52798079], [-45.05469766, -23.52785607], [-45.05460665, -23.52777283], [-45.05447731, -23.52767974], [-45.05432553, -23.52762682], [-45.05417374, -23.5276236], [-45.05403673, -23.52766587], [-45.05396882, -23.5277367], [-45.05392299, -23.52783059], [-45.05391549, -23.52798403], [-45.05387738, -23.52813681], [-45.05380178, -23.52822103], [-45.0536572, -23.52827217], [-45.05348258, -23.52830009], [-45.05331555, -23.52826944], [-45.05311079, -23.52822895], [-45.05216154, -23.52796033], [-45.05175148, -23.52785224], [-45.05138692, -23.52778577], [-45.05122744, -23.52779593], [-45.05109855, -23.52785644], [-45.05102241, -23.52791355], [-45.0509847, -23.52802568], [-45.05091611, -23.5281236], [-45.05080268, -23.52820251], [-45.05074948, -23.52822396], [-45.05071908, -23.52826397], [-45.0506964, -23.52836288], [-45.05068882, -23.52854341], [-45.05071938, -23.52869313], [-45.0508025, -23.52887108], [-45.05087121, -23.52906227], [-45.05085609, -23.52920199], [-45.05082719, -23.52925558], [-45.05075701, -23.52929475], [-45.05069646, -23.52931605], [-45.05063591, -23.52933735], [-45.05053736, -23.52933525], [-45.05044594, -23.52934235], [-45.05036986, -23.52937235], [-45.05033207, -23.52938962], [-45.05028687, -23.52943383], [-45.0502485, -23.52952336], [-45.05013501, -23.52962937], [-45.05002114, -23.52967664], [-45.04983867, -23.52969987], [-45.04965643, -23.52971406], [-45.04949716, -23.52976489], [-45.04939848, -23.529817], [-45.04935265, -23.52991089], [-45.04921658, -23.53011128], [-45.04913303, -23.53019533], [-45.04904162, -23.53032439], [-45.0489126, -23.53056107], [-45.04876872, -23.53082906], [-45.04853318, -23.53111316], [-45.04833619, -23.53127612], [-45.04815353, -23.53138065], [-45.04799207, -23.53144498], [-45.04788773, -23.5314789], [-45.04773638, -23.53145761], [-45.04763769, -23.53138775], [-45.04753099, -23.53129513], [-45.04741684, -23.53120687], [-45.04729541, -23.53109136], [-45.0471359, -23.53102924], [-45.04693897, -23.53104312], [-45.0468246, -23.53108586], [-45.04665778, -23.53121783], [-45.04643025, -23.53135303], [-45.04630085, -23.531409], [-45.04610353, -23.53141384], [-45.04604255, -23.53140351], [-45.04597463, -23.53135237], [-45.04592912, -23.53131075], [-45.04587589, -23.53125992], [-45.045792, -23.53118586], [-45.04568591, -23.53114294], [-45.0455646, -23.53114488], [-45.04542781, -23.53117811], [-45.04526833, -23.53131024], [-45.04514708, -23.53145673], [-45.0450252, -23.5316529], [-45.04501795, -23.53169792], [-45.04494947, -23.5319133], [-45.04489656, -23.53219225], [-45.04489637, -23.53239553], [-45.0449572, -23.53250976], [-45.04513243, -23.53265353], [-45.04528393, -23.53286455], [-45.04535987, -23.53306042], [-45.04533735, -23.53329936], [-45.04526171, -23.53348296], [-45.04523141, -23.53369012], [-45.04527701, -23.53377692], [-45.04540595, -23.53391067], [-45.04568692, -23.53416058], [-45.0458011, -23.53432112], [-45.04584628, -23.53449826], [-45.04583875, -23.53452972], [-45.04579348, -23.53460104], [-45.04569442, -23.5346441], [-45.04553348, -23.53466327], [-45.04536796, -23.5345965], [-45.04513288, -23.53451922], [-45.04495046, -23.53439337], [-45.04474512, -23.53425348], [-45.04461644, -23.53418298], [-45.04438858, -23.53416005], [-45.04426715, -23.5341665], [-45.04416847, -23.53421861], [-45.04409219, -23.53432992], [-45.04400168, -23.53454483], [-45.04390301, -23.53471891], [-45.04380398, -23.53478456], [-45.04372418, -23.5347919], [-45.04362949, -23.53475826], [-45.04353046, -23.53470194], [-45.04342415, -23.53461836], [-45.04332571, -23.53448978], [-45.04315839, -23.53432359], [-45.04294579, -23.53410675], [-45.04277877, -23.53390443], [-45.04259635, -23.53377857], [-45.04248998, -23.5337221], [-45.04233074, -23.53367353], [-45.04221684, -23.53364852], [-45.04188279, -23.53365947], [-45.04174579, -23.53365203], [-45.04167758, -23.53363703], [-45.04156356, -23.53349456], [-45.04140398, -23.53333757], [-45.04128282, -23.53323561], [-45.04107012, -23.53314524], [-45.04078132, -23.53313457], [-45.04057641, -23.53319797], [-45.04044714, -23.5333217], [-45.04037866, -23.5334151], [-45.04034892, -23.53359968], [-45.0403485, -23.53381199], [-45.04028818, -23.53394623], [-45.04018925, -23.53405705], [-45.04005279, -23.53407673], [-45.03987791, -23.53404138], [-45.03973402, -23.53401573], [-45.03968054, -23.53402362], [-45.03951351, -23.53411493], [-45.03942247, -23.53425303], [-45.03939193, -23.53446921], [-45.03952869, -23.53477931], [-45.03972625, -23.53500939], [-45.03992383, -23.53518978], [-45.04008376, -23.5354552], [-45.0401823, -23.53575093], [-45.04030394, -23.53615105], [-45.04029619, -23.53619154], [-45.04024326, -23.53647049], [-45.0402131, -23.53674541], [-45.04022845, -23.53689029], [-45.04034234, -23.53708697], [-45.04047904, -23.53766811], [-45.04059309, -23.53800482], [-45.04075246, -23.53829282], [-45.04098798, -23.5385237], [-45.04117053, -23.53871732], [-45.04126161, -23.53889544], [-45.04130619, -23.53902288], [-45.04128416, -23.53914438], [-45.04121611, -23.53939139], [-45.04111747, -23.53958805], [-45.04101852, -23.53974857], [-45.04099615, -23.54000558], [-45.04104933, -23.54020548], [-45.04111754, -23.54075805], [-45.04128481, -23.54107331], [-45.04149755, -23.54135792], [-45.04183202, -23.54172192], [-45.04221952, -23.54197412], [-45.0426446, -23.54216838], [-45.04303165, -23.54243863], [-45.0435102, -23.54267469], [-45.04386011, -23.54286284], [-45.04415588, -23.54303628], [-45.04436115, -23.5430813], [-45.04450553, -23.5430392], [-45.04457366, -23.54300903], [-45.04470263, -23.54292143], [-45.04478608, -23.54284189], [-45.0448927, -23.54271767], [-45.04496057, -23.54262425], [-45.0450445, -23.54259893], [-45.04512052, -23.54259604], [-45.04517745, -23.54259725], [-45.04519641, -23.54264734], [-45.0452419, -23.54273866], [-45.04526489, -23.54284756], [-45.04533292, -23.54306584], [-45.04543924, -23.54314942], [-45.04562917, -23.54317153], [-45.04598605, -23.54317912], [-45.04619123, -23.54317897], [-45.04641888, -23.54321092], [-45.04666187, -23.54331547], [-45.04700362, -23.54346278], [-45.04723146, -23.54358508], [-45.04726228, -23.54362639], [-45.0473303, -23.5437227], [-45.0473989, -23.54391841], [-45.047414, -23.5441717], [-45.04744484, -23.54428529], [-45.04758878, -23.54438322], [-45.0477483, -23.54444533], [-45.0478853, -23.54450246], [-45.04800681, -23.54459087], [-45.0481359, -23.54479238], [-45.04821191, -23.54496114], [-45.04830306, -23.54528381], [-45.04849276, -23.54548661], [-45.04883472, -23.54567457], [-45.04897138, -23.54574524], [-45.04910048, -23.54577508], [-45.04921423, -23.54578202], [-45.04929023, -23.54582881], [-45.04934345, -23.54592932], [-45.04934387, -23.54601064], [-45.04929832, -23.5460684], [-45.04920709, -23.54611615], [-45.04910066, -23.54620876], [-45.04906283, -23.5463254], [-45.04908544, -23.54642527], [-45.04916175, -23.54655789], [-45.04930568, -23.54665581], [-45.04938159, -23.54665743], [-45.04942746, -23.54663582], [-45.04944992, -23.54654595], [-45.04945765, -23.54638349], [-45.04943494, -23.54623845], [-45.04948824, -23.5461402], [-45.04956378, -23.54608308], [-45.04961721, -23.54605259], [-45.04973892, -23.5460597], [-45.04992856, -23.54611793], [-45.05034613, -23.54622167], [-45.05071833, -23.54622958], [-45.05115137, -23.54618006], [-45.0514853, -23.54610132], [-45.0516824, -23.54598354], [-45.05184239, -23.54585593], [-45.05196374, -23.54575461], [-45.05210768, -23.54568087], [-45.05222188, -23.54566975], [-45.05232783, -23.54569458], [-45.05242565, -23.54575087], [-45.05250248, -23.54583833], [-45.0526241, -23.54592223], [-45.05276828, -23.54596143], [-45.05292021, -23.54596013], [-45.05305679, -23.54593593], [-45.05322397, -23.54591238], [-45.05339103, -23.54594303], [-45.05351256, -23.54598175], [-45.0536646, -23.54597594], [-45.05382428, -23.54593415], [-45.05396825, -23.54593269], [-45.05412784, -23.5459677], [-45.05424196, -23.54603337], [-45.05437089, -23.54609483], [-45.05451492, -23.54606627], [-45.05466698, -23.54601077], [-45.0548419, -23.54599641], [-45.05510767, -23.54604722], [-45.05527463, -23.5460327], [-45.0553959, -23.54600817], [-45.05554065, -23.54602479], [-45.05569233, -23.54608222], [-45.05590496, -23.54612738], [-45.05608728, -23.54613577], [-45.05625396, -23.54610768], [-45.05649697, -23.54599087], [-45.05667163, -23.54591326], [-45.05678567, -23.54588406], [-45.05694493, -23.54593261], [-45.05700613, -23.5459836], [-45.05708183, -23.54611621], [-45.05712017, -23.54629771], [-45.05717318, -23.54640725], [-45.05726437, -23.54645888], [-45.05741742, -23.54646212], [-45.05747713, -23.54644984], [-45.05762149, -23.54645742], [-45.05773545, -23.54650501], [-45.05779598, -23.54658309], [-45.057834, -23.54672845], [-45.05783396, -23.54687752], [-45.05784189, -23.54697707], [-45.05792545, -23.54706467], [-45.05806952, -23.54710838], [-45.05818358, -23.54720115], [-45.05825192, -23.54738329], [-45.05827498, -23.54751478], [-45.05821422, -23.54766708], [-45.05812295, -23.54786391], [-45.05810816, -23.54799008], [-45.05816896, -23.54808172], [-45.05827489, -23.54820594], [-45.05838915, -23.54838905], [-45.05859417, -23.54859216], [-45.05870048, -23.54872542], [-45.05876882, -23.54890756], [-45.05891359, -23.54904615], [-45.05905764, -23.54918924], [-45.05914157, -23.54933558], [-45.05921727, -23.54951787], [-45.05933169, -23.54971906], [-45.05952142, -23.54987216], [-45.05974186, -23.55007107], [-45.05997708, -23.55036517], [-45.06022063, -23.55071816], [-45.06049392, -23.55100855], [-45.06085109, -23.55125101], [-45.06129171, -23.55141394], [-45.06167881, -23.55151248], [-45.06200575, -23.55164138], [-45.06214217, -23.55177075], [-45.06224123, -23.55199871], [-45.0622791, -23.552126], [-45.06238521, -23.5522186], [-45.06259049, -23.55231329], [-45.06277279, -23.55242105], [-45.06287417, -23.55248192], [-45.06291732, -23.55261835], [-45.06297063, -23.55286342], [-45.06305439, -23.55309106], [-45.06319092, -23.55326561], [-45.06335035, -23.55333223], [-45.06352542, -23.55343531], [-45.06370724, -23.55366051], [-45.06379902, -23.55386122], [-45.06383676, -23.55404271], [-45.0639053, -23.55414354], [-45.06403402, -23.55421402], [-45.06426242, -23.55424144], [-45.06458858, -23.55435225], [-45.06482424, -23.5545063], [-45.06495322, -23.55464004], [-45.06502181, -23.55476345], [-45.06511312, -23.5550816], [-45.06518136, -23.55526825], [-45.06533354, -23.55542958], [-45.06564484, -23.55557169], [-45.0659717, -23.5556057], [-45.0663743, -23.55562325], [-45.06676123, -23.55558175], [-45.0670197, -23.555533], [-45.06745225, -23.5555286], [-45.067688, -23.55555617], [-45.06789307, -23.55565988], [-45.06809028, -23.55580861], [-45.06836378, -23.55601767], [-45.06861465, -23.55612687], [-45.06875912, -23.55617961], [-45.06890326, -23.5562459], [-45.069025, -23.55637496], [-45.06921503, -23.5565416], [-45.06947315, -23.55660578], [-45.06974674, -23.55663866], [-45.06993651, -23.55674205], [-45.07011907, -23.55696274], [-45.0703472, -23.55724764], [-45.07059021, -23.55745153], [-45.07085561, -23.55754297], [-45.07110662, -23.55754827], [-45.07131946, -23.55751211], [-45.07156241, -23.55742237], [-45.07167569, -23.55732538], [-45.07173682, -23.55723181], [-45.07178834, -23.55705672], [-45.07189583, -23.55694606], [-45.07200209, -23.55688506], [-45.07218454, -23.55683922], [-45.07236664, -23.55685662], [-45.07263267, -23.55689837], [-45.07284543, -23.556939], [-45.07306531, -23.55703851], [-45.07323298, -23.55716853], [-45.07349117, -23.55742695], [-45.07384843, -23.55774167], [-45.07405359, -23.55798993], [-45.07439564, -23.55839919], [-45.07496541, -23.55896233], [-45.07532256, -23.55923187], [-45.07552035, -23.559358], [-45.07574015, -23.55958399], [-45.07588482, -23.55982646], [-45.07603665, -23.56020008], [-45.07614352, -23.56050951], [-45.07627267, -23.56066131], [-45.07642455, -23.56073679], [-45.07656172, -23.56091134], [-45.076706, -23.56114476], [-45.07696428, -23.56132638], [-45.07721494, -23.5614446]]]]}}]}