{"type": "FeatureCollection", "features": [{"type": "Feature", "properties": {"name": "Parque Estadual Morro Grande"}, "geometry": {"type": "MultiPolygon", "coordinates": [[[[-46.99305033, -23.80390395], [-46.9933549, -23.8037707], [-46.99358333, -23.80355179], [-46.99387838, -23.80325674], [-46.99429438, -23.80285025], [-46.9945683, -23.80259224], [-46.99491979, -23.80239934], [-46.99529376, -23.80229345], [-46.99548649, -23.80227204], [-46.99574347, -23.8022649], [-46.99596476, -23.80233628], [-46.99622888, -23.80248619], [-46.99653583, -23.80265037], [-46.99681423, -23.80275745], [-46.99704703, -23.80279195], [-46.99727546, -23.80277767], [-46.9977565, -23.8025433], [-46.9979421, -23.80236484], [-46.99819194, -23.80203647], [-46.99839895, -23.80185087], [-46.99856314, -23.80170811], [-46.99877729, -23.80157962], [-46.99899858, -23.80150823], [-46.99920559, -23.80145826], [-46.99954109, -23.80141543], [-46.99994084, -23.80141543], [-47.00019069, -23.80151537], [-47.00029776, -23.801651], [-47.00057616, -23.8019294], [-47.00080459, -23.80197936], [-47.00102823, -23.80196748], [-47.0011829, -23.8018961], [-47.00128551, -23.80177445], [-47.00132292, -23.80159984], [-47.00138717, -23.8012572], [-47.0014399, -23.80102282], [-47.00146846, -23.80083722], [-47.00154421, -23.80067899], [-47.00172981, -23.80037204], [-47.00194761, -23.79996305], [-47.00223226, -23.79958801], [-47.0025178, -23.79940241], [-47.00284366, -23.79930882], [-47.00306745, -23.79914543], [-47.00336013, -23.79888844], [-47.0037456, -23.79863146], [-47.00394548, -23.79841731], [-47.00419532, -23.79818174], [-47.00470928, -23.79803898], [-47.00535174, -23.79792476], [-47.00578718, -23.79781769], [-47.0062369, -23.79761067], [-47.00637966, -23.79741794], [-47.00641981, -23.79725698], [-47.00636539, -23.79700391], [-47.00627973, -23.79681118], [-47.00623413, -23.79658632], [-47.00628172, -23.7962056], [-47.00640069, -23.79580109], [-47.00662565, -23.79523843], [-47.00664378, -23.79481957], [-47.00669375, -23.79444123], [-47.00677941, -23.79412714], [-47.00691504, -23.79388444], [-47.00702926, -23.79379164], [-47.00721652, -23.79370003], [-47.00740688, -23.79350967], [-47.00748302, -23.79330028], [-47.00749254, -23.7930433], [-47.00756868, -23.79282439], [-47.00769241, -23.7926721], [-47.00792084, -23.79253885], [-47.00822541, -23.79239609], [-47.00892022, -23.79210103], [-47.00936755, -23.79199634], [-47.00958646, -23.79167273], [-47.00975779, -23.79147285], [-47.00991007, -23.79137768], [-47.01007526, -23.79133912], [-47.01022339, -23.79138043], [-47.01047288, -23.79154279], [-47.011171, -23.79187958], [-47.01148033, -23.79192717], [-47.01180155, -23.79192717], [-47.01211088, -23.79196286], [-47.01236978, -23.79195682], [-47.01271765, -23.79197476], [-47.01306267, -23.79198666], [-47.0133601, -23.79201045], [-47.01413343, -23.79205804], [-47.01429926, -23.79203962], [-47.01462214, -23.79172542], [-47.01491151, -23.79150839], [-47.01518581, -23.79122777], [-47.01543246, -23.79096013], [-47.01577851, -23.79062459], [-47.01603462, -23.79042335], [-47.01628512, -23.79029264], [-47.01649235, -23.79023912], [-47.01669509, -23.79020008], [-47.01702059, -23.79019629], [-47.01725853, -23.79018201], [-47.01743461, -23.79015346], [-47.01759166, -23.79008683], [-47.01768739, -23.79000354], [-47.01770521, -23.78999376], [-47.01797453, -23.78972444], [-47.0182142, -23.78938115], [-47.01846787, -23.78911021], [-47.01858529, -23.78905062], [-47.01887657, -23.78895897], [-47.0189765, -23.7889209], [-47.01901481, -23.78889513], [-47.0190203, -23.78884338], [-47.01895183, -23.78866731], [-47.01873768, -23.7882628], [-47.01841646, -23.78776312], [-47.01805954, -23.78722774], [-47.01766693, -23.78669236], [-47.01726242, -23.78634734], [-47.01698878, -23.78595473], [-47.01667586, -23.78548532], [-47.01651876, -23.78522915], [-47.01640454, -23.78489602], [-47.01633073, -23.78434566], [-47.01630322, -23.78401696], [-47.01625226, -23.7836587], [-47.01609997, -23.78329703], [-47.01589058, -23.78303053], [-47.01569209, -23.78294546], [-47.01541876, -23.78290915], [-47.01501474, -23.78289506], [-47.01452704, -23.78283594], [-47.01412101, -23.78276091], [-47.01385962, -23.78268499], [-47.01357841, -23.78258857], [-47.01317182, -23.7825856], [-47.01250223, -23.78284969], [-47.01206441, -23.78319233], [-47.01194067, -23.78329703], [-47.01177887, -23.78329703], [-47.01165514, -23.78315426], [-47.01118876, -23.78231669], [-47.01102696, -23.78201212], [-47.01078901, -23.78160285], [-47.01037261, -23.78114219], [-47.00998, -23.78081382], [-47.00965163, -23.78058539], [-47.00921619, -23.78034269], [-47.00906628, -23.7801785], [-47.00905915, -23.77994294], [-47.0093304, -23.77918627], [-47.00931613, -23.7788579], [-47.00930899, -23.77858665], [-47.00915194, -23.77811551], [-47.00885927, -23.77761583], [-47.00866653, -23.77738026], [-47.00833817, -23.77709829], [-47.00821682, -23.77686273], [-47.00817399, -23.77661288], [-47.0081954, -23.7760775], [-47.0083879, -23.77554357], [-47.00864512, -23.77509955], [-47.00904487, -23.77454989], [-47.00916123, -23.77440142], [-47.00923047, -23.77419297], [-47.00926616, -23.77386461], [-47.00939465, -23.77365759], [-47.00965163, -23.77350055], [-47.01002283, -23.77345058], [-47.01051538, -23.77335064], [-47.01094368, -23.77318646], [-47.01161469, -23.77285809], [-47.01182884, -23.7726368], [-47.01193591, -23.77241551], [-47.01201578, -23.77214782], [-47.01178601, -23.77118057], [-47.01160041, -23.77071658], [-47.0113934, -23.77044532], [-47.01128632, -23.77021689], [-47.0113006, -23.76997419], [-47.01187405, -23.76944595], [-47.01211176, -23.76933317], [-47.01239862, -23.76934763], [-47.01290673, -23.76932459], [-47.01314944, -23.76923179], [-47.01307806, -23.76906047], [-47.01239277, -23.76896767], [-47.0120073, -23.76866786], [-47.01179924, -23.76838012], [-47.01155539, -23.76771441], [-47.01138194, -23.76707547], [-47.01135057, -23.76668339], [-47.01137198, -23.76611946], [-47.01145764, -23.76557694], [-47.01162183, -23.76518433], [-47.01164324, -23.76497018], [-47.01159879, -23.76465355], [-47.01156472, -23.764342], [-47.01141481, -23.76366386], [-47.01122208, -23.76307851], [-47.01115783, -23.76265021], [-47.01125515, -23.76223048], [-47.01131464, -23.76192115], [-47.01131464, -23.7617189], [-47.01114355, -23.76161514], [-47.01079837, -23.76153139], [-47.01053153, -23.76147002], [-47.01025839, -23.76140099], [-47.01000141, -23.76135816], [-47.00915908, -23.76130105], [-47.00875933, -23.76124394], [-47.00841669, -23.76112259], [-47.00824537, -23.7609013], [-47.00813116, -23.76058007], [-47.00807405, -23.76033737], [-47.00801061, -23.75982486], [-47.00790461, -23.75960453], [-47.0076857, -23.75940465], [-47.00743159, -23.75923449], [-47.00700329, -23.75890612], [-47.00693629, -23.75878806], [-47.00689797, -23.75869088], [-47.00685962, -23.75861628], [-47.00680378, -23.75857722], [-47.00668718, -23.75855342], [-47.00642923, -23.75859632], [-47.0063374, -23.75859863], [-47.00625715, -23.75856451], [-47.00622557, -23.75851297], [-47.0062565, -23.75845586], [-47.00646896, -23.75833185], [-47.00668684, -23.75818497], [-47.00681957, -23.75802456], [-47.00687516, -23.75786338], [-47.00691085, -23.75763257], [-47.00691904, -23.75737054], [-47.00691843, -23.75698725], [-47.00695321, -23.75670172], [-47.00707694, -23.75634956], [-47.00711501, -23.75602596], [-47.00711751, -23.75577951], [-47.00717461, -23.75535121], [-47.00734643, -23.75482498], [-47.00726314, -23.75437289], [-47.00717986, -23.75401597], [-47.00706459, -23.75363464], [-47.00696273, -23.75335144], [-47.00695321, -23.75312302], [-47.00706089, -23.75290952], [-47.0073244, -23.75262809], [-47.00750524, -23.75234255], [-47.00758128, -23.75195079], [-47.00750298, -23.75146793], [-47.00746015, -23.75109673], [-47.00753153, -23.75063988], [-47.00760292, -23.75032579], [-47.00768858, -23.74985465], [-47.00766002, -23.74946918], [-47.00761719, -23.74912654], [-47.00743159, -23.7484127], [-47.00714606, -23.74769886], [-47.00681769, -23.74689936], [-47.00663873, -23.74664122], [-47.00657211, -23.74638424], [-47.00669035, -23.74612868], [-47.00692427, -23.74579413], [-47.00698138, -23.74560378], [-47.00700041, -23.74531824], [-47.00694192, -23.7450216], [-47.00683197, -23.74475785], [-47.00654779, -23.74424001], [-47.006585, -23.74398654], [-47.00674631, -23.74367281], [-47.0070604, -23.74335873], [-47.00815971, -23.74298753], [-47.0083339, -23.74286819], [-47.00843097, -23.74261633], [-47.00835958, -23.74180256], [-47.00822999, -23.74142511], [-47.0081239, -23.7412733], [-47.00810777, -23.74106916], [-47.00816702, -23.74079615], [-47.00825715, -23.74055946], [-47.00832663, -23.74022753], [-47.00834091, -23.73974212], [-47.00821242, -23.73898545], [-47.00798399, -23.73841438], [-47.00788405, -23.7381336], [-47.00774128, -23.73792897], [-47.00754617, -23.73784331], [-47.00731298, -23.7377862], [-47.00704648, -23.7377624], [-47.00678474, -23.73775289], [-47.00657535, -23.73783379], [-47.00648922, -23.73793635], [-47.00639261, -23.73809458], [-47.00629933, -23.73822878], [-47.00619464, -23.73830016], [-47.00607566, -23.73832396], [-47.00600904, -23.73824306], [-47.00597097, -23.73810029], [-47.005921, -23.7377398], [-47.0058897, -23.7372911], [-47.00570411, -23.73697701], [-47.00536146, -23.73659154], [-47.00507593, -23.73633456], [-47.00489033, -23.7360633], [-47.0044192, -23.7356921], [-47.00384373, -23.73546979], [-47.00376521, -23.73541983], [-47.00372951, -23.73534844], [-47.00374957, -23.73521475], [-47.00393653, -23.73497725], [-47.00403372, -23.73472128], [-47.00410511, -23.73425015], [-47.00427533, -23.73393014], [-47.00451328, -23.73359702], [-47.0045647, -23.73347819], [-47.00458466, -23.73327579], [-47.00451328, -23.73306164], [-47.00426215, -23.73263687], [-47.00387668, -23.73219429], [-47.00354831, -23.7318231], [-47.00293001, -23.73155796], [-47.00278908, -23.73146828], [-47.00272407, -23.73134605], [-47.00266315, -23.73118064], [-47.00260605, -23.73089511], [-47.00268078, -23.73026722], [-47.00265876, -23.73000893], [-47.00245888, -23.72971626], [-47.00219476, -23.7295378], [-47.00198061, -23.72936648], [-47.0017736, -23.72921657], [-47.00148806, -23.72898814], [-47.00131674, -23.72874544], [-47.0012168, -23.72850273], [-47.00117837, -23.72826818], [-47.00114982, -23.72781133], [-47.00116409, -23.72734019], [-47.00117837, -23.7266787], [-47.00126532, -23.72576859], [-47.0013367, -23.7252808], [-47.00137239, -23.72493578], [-47.00143333, -23.72477055], [-47.00152706, -23.72465024], [-47.001765, -23.72451937], [-47.00212064, -23.72442773], [-47.00242045, -23.72439918], [-47.00310573, -23.72429924], [-47.00402549, -23.72399589], [-47.00431926, -23.723771], [-47.00438241, -23.72341292], [-47.00462036, -23.7226515], [-47.00465605, -23.72203284], [-47.00489033, -23.72121546], [-47.00504866, -23.72092639], [-47.00515574, -23.72072413], [-47.00518693, -23.7205827], [-47.00519288, -23.72048157], [-47.00515719, -23.72038044], [-47.00494899, -23.72016629], [-47.0046619, -23.71998766], [-47.00383385, -23.71948797], [-47.00340663, -23.71926915], [-47.00318305, -23.71908803], [-47.00304577, -23.7189421], [-47.00302222, -23.71885104], [-47.00303801, -23.71874918], [-47.00314856, -23.71854571], [-47.0038053, -23.71777476], [-47.00450486, -23.71738929], [-47.0051221, -23.71712282], [-47.00536035, -23.7169494], [-47.00554886, -23.71675968], [-47.00587543, -23.71613769], [-47.00601819, -23.71565228], [-47.00624662, -23.71510976], [-47.0063837, -23.71465278], [-47.00634801, -23.71445053], [-47.00622904, -23.71429586], [-47.00600371, -23.71416377], [-47.00583643, -23.71405792], [-47.00570556, -23.71387946], [-47.00546761, -23.71364151], [-47.00518103, -23.71334865], [-47.00485954, -23.71304821], [-47.00462279, -23.71283628], [-47.00398288, -23.7125579], [-47.00358812, -23.71219274], [-47.00333567, -23.71180184], [-47.00307135, -23.71148277], [-47.00280247, -23.71122306], [-47.00248838, -23.71103033], [-47.00221712, -23.71090184], [-47.00199379, -23.71077426], [-47.00168175, -23.71067341], [-47.00134624, -23.71048781], [-47.00101788, -23.71035932], [-47.00056102, -23.71023083], [-46.9999257, -23.71005951], [-46.99946171, -23.70992388], [-46.9991619, -23.70973828], [-46.99877029, -23.70941995], [-46.99856835, -23.70910722], [-46.9985123, -23.70881029], [-46.99850803, -23.70855378], [-46.99845265, -23.70832516], [-46.99829815, -23.70811073], [-46.99805545, -23.70792513], [-46.99791432, -23.70773011], [-46.99785808, -23.70744417], [-46.997886, -23.70723358], [-46.99791335, -23.70698479], [-46.99796202, -23.70677393], [-46.997985, -23.70623852], [-46.9980217, -23.70592272], [-46.99805753, -23.70554958], [-46.99806541, -23.70511538], [-46.99807759, -23.7048231], [-46.9980294, -23.70438417], [-46.99804564, -23.70408773], [-46.99805414, -23.70374986], [-46.99815255, -23.70348689], [-46.99835054, -23.7029849], [-46.99882639, -23.70214072], [-46.99895982, -23.70192655], [-46.99911268, -23.70174302], [-46.99933715, -23.70149167], [-46.99967502, -23.70119108], [-47.00013593, -23.70079335], [-47.00035147, -23.70063767], [-47.00045318, -23.70050258], [-47.00050725, -23.70012645], [-47.00065868, -23.6996877], [-47.00081142, -23.69944862], [-47.00086335, -23.69921008], [-47.00074299, -23.69898219], [-47.00051888, -23.69868617], [-47.00029853, -23.69852657], [-47.00019289, -23.69840371], [-47.00009427, -23.69806099], [-47.0000246, -23.69757455], [-46.99960291, -23.69714044], [-46.99936007, -23.69686647], [-46.99909575, -23.69654499], [-46.99884122, -23.69618517], [-46.9986602, -23.69588173], [-46.99837251, -23.69538855], [-46.9980892, -23.69518199], [-46.99705556, -23.69476532], [-46.99663188, -23.69446381], [-46.99630669, -23.69423701], [-46.99612001, -23.69397472], [-46.99577989, -23.69344399], [-46.9955203, -23.69274978], [-46.99535671, -23.69205657], [-46.99518629, -23.69187132], [-46.9949266, -23.69169098], [-46.99483142, -23.69147683], [-46.9948027, -23.69127791], [-46.99476301, -23.69071464], [-46.99480488, -23.69021927], [-46.99488392, -23.68984341], [-46.9949842, -23.68943698], [-46.99509295, -23.68921015], [-46.99526451, -23.68889261], [-46.99543755, -23.68851511], [-46.99565967, -23.6882664], [-46.9959357, -23.68799528], [-46.99620165, -23.68774341], [-46.99648792, -23.68751932], [-46.99703178, -23.68706381], [-46.99747045, -23.68657081], [-46.99754401, -23.68643237], [-46.99756954, -23.68626375], [-46.99751055, -23.68579629], [-46.99734724, -23.68529195], [-46.99721781, -23.68496872], [-46.99712813, -23.68453032], [-46.99697632, -23.68408422], [-46.99675125, -23.6836274], [-46.99644344, -23.6831727], [-46.99613664, -23.68278487], [-46.99596328, -23.68247177], [-46.99595, -23.68228083], [-46.99600847, -23.68203163], [-46.99613911, -23.68175283], [-46.99624184, -23.68145775], [-46.99638945, -23.68115716], [-46.99653018, -23.68085912], [-46.99660793, -23.68051411], [-46.99658152, -23.68014178], [-46.99647212, -23.67977053], [-46.99642598, -23.67946534], [-46.99661494, -23.67892779], [-46.99671403, -23.67862073], [-46.9967104, -23.67838189], [-46.99669567, -23.67809541], [-46.99658787, -23.67782924], [-46.99646883, -23.67750588], [-46.99641231, -23.67720083], [-46.99640476, -23.67670404], [-46.99635891, -23.67641796], [-46.99612127, -23.67579991], [-46.99599243, -23.6755149], [-46.99582283, -23.67527819], [-46.99571518, -23.67502158], [-46.99565867, -23.67471652], [-46.99557163, -23.67435877], [-46.99543184, -23.674127], [-46.99531217, -23.67389158], [-46.99504549, -23.67346927], [-46.99458863, -23.67301241], [-46.99438325, -23.67289688], [-46.99419266, -23.67274522], [-46.99415803, -23.67268147], [-46.99417176, -23.67260471], [-46.99424884, -23.67249514], [-46.99460291, -23.67208442], [-46.99501464, -23.67159644], [-46.99513876, -23.67141198], [-46.99516454, -23.67130376], [-46.99514808, -23.67121086], [-46.99513677, -23.67112026], [-46.99510273, -23.67090143], [-46.99503919, -23.67073861], [-46.99493919, -23.67055858], [-46.99483402, -23.67044264], [-46.99465291, -23.67046681], [-46.99446731, -23.67045254], [-46.99429599, -23.67033832], [-46.99403047, -23.66993712], [-46.99387964, -23.66971904], [-46.9937797, -23.66953344], [-46.99368783, -23.66922329], [-46.99358789, -23.66862366], [-46.9935013, -23.66824853], [-46.99345847, -23.66772743], [-46.99324525, -23.66728165], [-46.99299448, -23.6669779], [-46.99273036, -23.66676375], [-46.99250907, -23.66663526], [-46.9922316, -23.66652498], [-46.99151776, -23.66641076], [-46.99106711, -23.66639969], [-46.99071036, -23.66638774], [-46.99061026, -23.66635686], [-46.99053887, -23.66629976], [-46.99046312, -23.66622476], [-46.99041553, -23.66598681], [-46.99032924, -23.66573465], [-46.99028546, -23.66559662], [-46.99022478, -23.66553595], [-46.99006153, -23.66553988], [-46.98979648, -23.66555736], [-46.98956106, -23.66553281], [-46.98933962, -23.66543601], [-46.98924775, -23.66526862], [-46.98913717, -23.6648399], [-46.98914493, -23.66438206], [-46.9892306, -23.66386809], [-46.98922108, -23.66340172], [-46.98936384, -23.66281161], [-46.98945902, -23.66240235], [-46.98961131, -23.66186935], [-46.9896589, -23.66145056], [-46.98964906, -23.66129666], [-46.98962289, -23.66113403], [-46.98957538, -23.66102012], [-46.9894219, -23.66085236], [-46.98930412, -23.66071674], [-46.98923631, -23.66055969], [-46.98922917, -23.66034554], [-46.98925415, -23.66000647], [-46.98921132, -23.65962099], [-46.98913637, -23.65933189], [-46.98899003, -23.65898211], [-46.98883656, -23.65875725], [-46.98872591, -23.65867159], [-46.98855817, -23.65861745], [-46.98822979, -23.65866445], [-46.98806204, -23.6586823], [-46.98783004, -23.65872513], [-46.98761984, -23.65872846], [-46.9874052, -23.65872552], [-46.9871983, -23.65865374], [-46.98702137, -23.65851344], [-46.98689135, -23.6584039], [-46.98688421, -23.65840033], [-46.98675929, -23.65819689], [-46.98659867, -23.65791492], [-46.98648803, -23.65759369], [-46.98643092, -23.65732243], [-46.98640951, -23.65685487], [-46.98645947, -23.65645512], [-46.98657726, -23.65588048], [-46.98666292, -23.65553427], [-46.98680212, -23.65519163], [-46.98684495, -23.6550096], [-46.98682237, -23.65483426], [-46.9867127, -23.65467847], [-46.98638452, -23.65446351], [-46.98595622, -23.6542565], [-46.98574207, -23.65408161], [-46.98563499, -23.65392099], [-46.98551364, -23.65358906], [-46.98531376, -23.65308223], [-46.98527807, -23.65296802], [-46.98526517, -23.65283903], [-46.98523792, -23.65280367], [-46.98505436, -23.65270767], [-46.98458889, -23.65253804], [-46.98429195, -23.65245226], [-46.98381152, -23.65232224], [-46.98349901, -23.6522791], [-46.98317671, -23.65227303], [-46.98289798, -23.6523626], [-46.98257019, -23.65257519], [-46.98243515, -23.65262653], [-46.98186845, -23.65270903], [-46.98153494, -23.65277779], [-46.98081136, -23.65298885], [-46.98060394, -23.65295095], [-46.98017965, -23.65270556], [-46.97997664, -23.65262571], [-46.97980999, -23.65261022], [-46.97964222, -23.65263356], [-46.97940946, -23.65272632], [-46.9791742, -23.65281154], [-46.9790075, -23.65284951], [-46.97883394, -23.65294848], [-46.97866607, -23.65310847], [-46.97850458, -23.6532931], [-46.97830955, -23.65343503], [-46.97812072, -23.65352734], [-46.97784826, -23.65357813], [-46.97740261, -23.6536275], [-46.9771358, -23.65358111], [-46.97639341, -23.65308142], [-46.97575306, -23.65264578], [-46.97547411, -23.65250062], [-46.97529679, -23.65246156], [-46.97510643, -23.65252105], [-46.974809, -23.65279468], [-46.97446605, -23.65328129], [-46.97410913, -23.65392375], [-46.97375221, -23.65446627], [-46.97351219, -23.65466256], [-46.97327536, -23.65474466], [-46.97270429, -23.65461617], [-46.9723902, -23.65445913], [-46.97187624, -23.65431636], [-46.97124806, -23.65417359], [-46.97014875, -23.65417359], [-46.96838445, -23.65381785], [-46.96785032, -23.65371611], [-46.96719346, -23.65350258], [-46.96680799, -23.65327416], [-46.96597994, -23.65288868], [-46.96519471, -23.65247466], [-46.96461301, -23.65206895], [-46.96431307, -23.65189899], [-46.96402041, -23.65188448], [-46.96344934, -23.6522771], [-46.96298535, -23.65251504], [-46.96258084, -23.65265781], [-46.96210495, -23.65280058], [-46.96145059, -23.6531575], [-46.96109368, -23.65335975], [-46.96093901, -23.65370477], [-46.96105445, -23.65420215], [-46.96115439, -23.6544734], [-46.96133229, -23.65484771], [-46.96149591, -23.65525743], [-46.96168919, -23.65584744], [-46.96180095, -23.65651961], [-46.96174673, -23.65706591], [-46.96145865, -23.65756026], [-46.96086935, -23.65837363], [-46.96016341, -23.6593263], [-46.95981839, -23.6598022], [-46.95957627, -23.66015962], [-46.95948119, -23.66061243], [-46.95911992, -23.661013], [-46.95898558, -23.66120608], [-46.95871194, -23.66138454], [-46.95841451, -23.66144403], [-46.9580219, -23.66142023], [-46.9575817, -23.66131315], [-46.95691425, -23.66110008], [-46.95602058, -23.66104783], [-46.95508887, -23.66082143], [-46.95309641, -23.66046845], [-46.95264432, -23.66043275], [-46.95225171, -23.66045655], [-46.95190959, -23.66067366], [-46.95154976, -23.66102762], [-46.95109585, -23.6614484], [-46.95079877, -23.66191487], [-46.95055714, -23.66215197], [-46.95036782, -23.66224375], [-46.95013622, -23.66225467], [-46.94970792, -23.6621238], [-46.94914651, -23.66188423], [-46.94864682, -23.66164628], [-46.9482437, -23.66151806], [-46.94746411, -23.66116975], [-46.94692712, -23.66101594], [-46.94611409, -23.66089109], [-46.94534532, -23.66087593], [-46.94476949, -23.66093595], [-46.94394144, -23.6609949], [-46.94354702, -23.6608726], [-46.94281866, -23.66062985], [-46.94218064, -23.66045952], [-46.9418951, -23.66028106], [-46.94159767, -23.66006691], [-46.94114557, -23.65950774], [-46.94068158, -23.65886528], [-46.94033655, -23.65853216], [-46.93993205, -23.65830611], [-46.93958702, -23.65825852], [-46.93917062, -23.65824662], [-46.93888508, -23.65823473], [-46.93843347, -23.65811975], [-46.93811854, -23.6579347], [-46.93782146, -23.65760417], [-46.93746559, -23.65734108], [-46.93709665, -23.6571883], [-46.93657329, -23.65715073], [-46.93419683, -23.65757548], [-46.93353843, -23.65786115], [-46.93301495, -23.65818476], [-46.93279604, -23.65846078], [-46.93272615, -23.65884157], [-46.9327199, -23.65926027], [-46.93278652, -23.6595934], [-46.93272942, -23.66001218], [-46.9326152, -23.66042145], [-46.93246355, -23.66068863], [-46.93223419, -23.66101798], [-46.93201558, -23.66117336], [-46.93173004, -23.66117336], [-46.93146354, -23.66107818], [-46.93103524, -23.66073554], [-46.93074019, -23.66046904], [-46.93037851, -23.66022158], [-46.93004539, -23.66008833], [-46.92975033, -23.66004074], [-46.92931251, -23.66005026], [-46.92875096, -23.6601264], [-46.9283988, -23.66021206], [-46.92813399, -23.6603794], [-46.92765641, -23.66111625], [-46.92720907, -23.66212515], [-46.92682539, -23.66284094], [-46.92649263, -23.66339606], [-46.92614307, -23.66394305], [-46.92599143, -23.66429603], [-46.92581525, -23.66461515], [-46.92546644, -23.66515877], [-46.92517225, -23.66545639], [-46.92505469, -23.66571617], [-46.92491647, -23.66599483], [-46.9248772, -23.66616071], [-46.92495248, -23.6665103], [-46.92514283, -23.66708137], [-46.92544827, -23.6678073], [-46.92553307, -23.66817593], [-46.92543789, -23.66841387], [-46.92513483, -23.66868614], [-46.92474308, -23.6688041], [-46.92449237, -23.66897167], [-46.92433354, -23.66912826], [-46.92421397, -23.6693857], [-46.9240777, -23.66992026], [-46.9241348, -23.67042471], [-46.92424902, -23.67075783], [-46.9244013, -23.67105288], [-46.92457225, -23.67125001], [-46.92473357, -23.67134537], [-46.92497151, -23.67141199], [-46.92542837, -23.67132633], [-46.92585572, -23.67132838], [-46.92631206, -23.67145899], [-46.92658302, -23.67160266], [-46.92676243, -23.67188073], [-46.92679503, -23.67221], [-46.92678942, -23.67254462], [-46.92688249, -23.67288262], [-46.92696074, -23.67311569], [-46.92770822, -23.67392952], [-46.92791636, -23.6743667], [-46.92797813, -23.67639183], [-46.92818767, -23.67730692], [-46.92881585, -23.67932471], [-46.92970889, -23.68098759], [-46.92988358, -23.68127505], [-46.93002343, -23.68164611], [-46.93000204, -23.68192689], [-46.92987422, -23.6820889], [-46.92967404, -23.68218809], [-46.92918205, -23.68220768], [-46.92873283, -23.68220115], [-46.92849508, -23.68223275], [-46.92823893, -23.68232339], [-46.92801979, -23.68258642], [-46.92791997, -23.68286067], [-46.9278262, -23.68307552], [-46.92756805, -23.68326111], [-46.92687893, -23.68358549], [-46.92669354, -23.6837422], [-46.92650704, -23.68402685], [-46.92628973, -23.68419684], [-46.92586143, -23.68454186], [-46.92560055, -23.68480617], [-46.92544827, -23.68512977], [-46.9252008, -23.68574843], [-46.92511341, -23.68620611], [-46.92511341, -23.68667248], [-46.925161, -23.68716741], [-46.92528473, -23.68771944], [-46.92545692, -23.68817054], [-46.92573056, -23.68851556], [-46.9259923, -23.68893197], [-46.92630163, -23.68932458], [-46.92659906, -23.68969339], [-46.9268608, -23.69007411], [-46.92711065, -23.69030016], [-46.9273367, -23.69043103], [-46.92763413, -23.69040723], [-46.92798185, -23.69028521], [-46.92838366, -23.69003841], [-46.92881196, -23.68963391], [-46.92923941, -23.68936173], [-46.92965667, -23.6892175], [-46.93016826, -23.68905094], [-46.93046569, -23.68911042], [-46.93082154, -23.689342], [-46.93125143, -23.68968782], [-46.93158261, -23.68979523], [-46.93193913, -23.68990623], [-46.93223851, -23.68993545], [-46.932752, -23.68991929], [-46.93324399, -23.689854], [-46.93359338, -23.68988011], [-46.93386434, -23.68998459], [-46.93419696, -23.69028042], [-46.93449894, -23.69059183], [-46.93461303, -23.69083342], [-46.93461303, -23.69121213], [-46.93468724, -23.69144183], [-46.93484727, -23.6916445], [-46.93543765, -23.69196503], [-46.9357325, -23.6920022], [-46.93679318, -23.69169003], [-46.93729155, -23.69166467], [-46.93779068, -23.69169079], [-46.93827805, -23.69158431], [-46.93900687, -23.69155387], [-46.9392999, -23.69152845], [-46.93942912, -23.69159399], [-46.93951478, -23.69173675], [-46.939531, -23.69188147], [-46.93945456, -23.69223726], [-46.93951161, -23.69253761], [-46.93957902, -23.6926933], [-46.93970386, -23.69284476], [-46.93980031, -23.69307163], [-46.93980745, -23.69326437], [-46.93964327, -23.69359987], [-46.93956865, -23.69381737], [-46.93954013, -23.69404589], [-46.93958291, -23.6943593], [-46.93973978, -23.69461394], [-46.93998934, -23.69494041], [-46.94021038, -23.69525381], [-46.94031021, -23.69548234], [-46.94030058, -23.6957651], [-46.94021038, -23.6959655], [-46.93985849, -23.69633968], [-46.93965884, -23.69664002], [-46.93953524, -23.6969377], [-46.93961606, -23.69734517], [-46.93968987, -23.69754557], [-46.93978214, -23.6978932], [-46.94024722, -23.69820148], [-46.94054551, -23.69841394], [-46.94100899, -23.69879263], [-46.94145728, -23.69918763], [-46.94197872, -23.69994828], [-46.94213559, -23.70025514], [-46.94214985, -23.70049018], [-46.94214272, -23.70085581], [-46.94209994, -23.70131284], [-46.94201187, -23.70188939], [-46.94191312, -23.70218231], [-46.94175233, -23.70237611], [-46.94142873, -23.70252839], [-46.94116223, -23.70267116], [-46.94090389, -23.7027555], [-46.94061432, -23.70284261], [-46.9402578, -23.70292096], [-46.93996795, -23.70294507], [-46.93991438, -23.70313644], [-46.93965818, -23.703527], [-46.93957578, -23.70385258], [-46.93954013, -23.70410068], [-46.93962569, -23.70445976], [-46.93981571, -23.70474904], [-46.94001786, -23.70500165], [-46.94004639, -23.70520404], [-46.93999647, -23.70553701], [-46.93989635, -23.70580253], [-46.93980395, -23.70617683], [-46.9396731, -23.70649874], [-46.93959004, -23.706784], [-46.93953442, -23.70704088], [-46.93959717, -23.70734546], [-46.93964175, -23.70768513], [-46.93961371, -23.70792645], [-46.93949735, -23.7083117], [-46.93931909, -23.70874912], [-46.93926917, -23.70892539], [-46.939303, -23.709049], [-46.93933204, -23.70929107], [-46.93932528, -23.7095716], [-46.93922695, -23.70972797], [-46.93897976, -23.70998041], [-46.93860898, -23.71017191], [-46.93836179, -23.71036341], [-46.9382477, -23.71055492], [-46.9382477, -23.71072901], [-46.93825721, -23.71111201], [-46.93830475, -23.71148631], [-46.93839982, -23.71209563], [-46.93838045, -23.71252127], [-46.93830224, -23.71284715], [-46.93805756, -23.71321417], [-46.93780494, -23.7134451], [-46.93755251, -23.71350088], [-46.93727895, -23.71351199], [-46.9368518, -23.7136494], [-46.93630813, -23.71351199], [-46.93622247, -23.71357861], [-46.93608908, -23.71360331], [-46.93584239, -23.71360587], [-46.93537653, -23.71357105], [-46.93497723, -23.71364069], [-46.9348387, -23.71381069], [-46.93462479, -23.71421545], [-46.93448286, -23.71458076], [-46.93435926, -23.71496376], [-46.93436877, -23.71533805], [-46.93446384, -23.71569492], [-46.93465399, -23.71601698], [-46.93490117, -23.71637386], [-46.93511715, -23.71667046], [-46.93521145, -23.71689435], [-46.93524364, -23.71707138], [-46.93509936, -23.71717636], [-46.93482334, -23.71719539], [-46.93457588, -23.71727153], [-46.93430938, -23.71737623], [-46.93388283, -23.7175985], [-46.93355115, -23.71766209], [-46.93335535, -23.71769664], [-46.93305302, -23.71770936], [-46.93270501, -23.71767079], [-46.93258312, -23.71835151], [-46.93206022, -23.71941776], [-46.93181134, -23.71962922], [-46.93131153, -23.71996177], [-46.93084806, -23.72019025], [-46.93040598, -23.7204329], [-46.93001448, -23.72059537], [-46.92976008, -23.72072082], [-46.92939704, -23.72083738], [-46.92904012, -23.72102773], [-46.92865438, -23.72130523], [-46.92843629, -23.72151799], [-46.92817959, -23.72167466], [-46.92790388, -23.72170077], [-46.92764719, -23.72170077], [-46.92747606, -23.7217704], [-46.92739792, -23.72197069], [-46.92722344, -23.72224656], [-46.92680383, -23.72250845], [-46.92628461, -23.72284495], [-46.92603504, -23.7230843], [-46.92590144, -23.72325549], [-46.92576051, -23.72355348], [-46.9256365, -23.72386141], [-46.92564938, -23.72418052], [-46.92569697, -23.72456123], [-46.92575646, -23.72520369], [-46.92568508, -23.72576286], [-46.9255661, -23.72634583], [-46.92549392, -23.72663278], [-46.92557797, -23.72696813], [-46.92582686, -23.72732591], [-46.92601722, -23.72783987], [-46.92628372, -23.72818251], [-46.92649311, -23.72871551], [-46.92658829, -23.72921044], [-46.92673714, -23.72983518], [-46.92683272, -23.7299154], [-46.92689003, -23.73000556], [-46.926985, -23.73030563], [-46.92713687, -23.73049039], [-46.92737631, -23.73068304], [-46.92788844, -23.73095229], [-46.92809211, -23.73107594], [-46.92846277, -23.73129155], [-46.92867917, -23.73144736], [-46.92899954, -23.73164184], [-46.92934739, -23.73189138], [-46.92976141, -23.73220547], [-46.93020399, -23.73246245], [-46.93066085, -23.7326766], [-46.93123266, -23.73287513], [-46.93150392, -23.73309642], [-46.93172848, -23.73337338], [-46.93198933, -23.73377456], [-46.93233197, -23.73434563], [-46.93248901, -23.73468828], [-46.93268889, -23.73526649], [-46.9327167, -23.73561761], [-46.9329023, -23.73620296], [-46.93283092, -23.73663126], [-46.9328031, -23.73683693], [-46.93282452, -23.7370368], [-46.93287375, -23.73720233], [-46.93315288, -23.73771495], [-46.93331707, -23.73808615], [-46.93360789, -23.73839337], [-46.93386672, -23.73870719], [-46.93404921, -23.73903757], [-46.93405946, -23.73926398], [-46.93398556, -23.73944593], [-46.9337882, -23.73977794], [-46.9335162, -23.74014335], [-46.93335276, -23.74040612], [-46.93317654, -23.74054048], [-46.93281738, -23.74077732], [-46.93257691, -23.7409783], [-46.93242463, -23.74114011], [-46.9322884, -23.74142826], [-46.93227412, -23.74168524], [-46.9321962, -23.74215852], [-46.93204569, -23.74248474], [-46.93168878, -23.74271317], [-46.93133186, -23.74314147], [-46.93098921, -23.74371254], [-46.93068859, -23.7439961], [-46.93068597, -23.74400412], [-46.93061802, -23.74406946], [-46.93040533, -23.74431307], [-46.93031139, -23.74452761], [-46.93028272, -23.74467518], [-46.93027538, -23.74491179], [-46.93030298, -23.74513724], [-46.93038959, -23.74546858], [-46.93054453, -23.74577108], [-46.93071011, -23.74630935], [-46.93065141, -23.74667337], [-46.93041814, -23.74708186], [-46.93021901, -23.74726611], [-46.92994775, -23.74743743], [-46.92967649, -23.74758733], [-46.92938382, -23.74770869], [-46.92921253, -23.74778728], [-46.92911213, -23.74791412], [-46.92904757, -23.748224], [-46.92895698, -23.74856047], [-46.92861927, -23.74893784], [-46.9283773, -23.74911495], [-46.92814268, -23.74938063], [-46.92792045, -23.74955039], [-46.92759134, -23.74989438], [-46.92744931, -23.75007863], [-46.92734224, -23.75020712], [-46.9273351, -23.75029278], [-46.92742076, -23.75039986], [-46.92754925, -23.75076392], [-46.92773485, -23.75099234], [-46.92796328, -23.75109942], [-46.92831496, -23.75118868], [-46.92919108, -23.75136354], [-46.92947662, -23.75141351], [-46.92971218, -23.75139209], [-46.92994061, -23.75139923], [-46.93007624, -23.75146348], [-46.93022917, -23.7516291], [-46.93034036, -23.75192747], [-46.93039033, -23.75220587], [-46.93034036, -23.75253423], [-46.93036891, -23.75271983], [-46.93046036, -23.75294632], [-46.93053651, -23.75335558], [-46.93066159, -23.75345865], [-46.93078902, -23.75360256], [-46.93092571, -23.75380844], [-46.93099709, -23.75402259], [-46.93101777, -23.75436301], [-46.93108915, -23.75463427], [-46.93115414, -23.75490061], [-46.93117481, -23.75530527], [-46.93109703, -23.75562158], [-46.93107561, -23.75597137], [-46.93098995, -23.75643536], [-46.93093285, -23.75690649], [-46.93091783, -23.75724691], [-46.93080435, -23.75735621], [-46.93049885, -23.75756731], [-46.93025688, -23.75777171], [-46.93005482, -23.75791301], [-46.9298899, -23.7581178], [-46.92976141, -23.75844616], [-46.92967575, -23.75886019], [-46.92966221, -23.75901946], [-46.92971811, -23.75921319], [-46.92990074, -23.75946327], [-46.93041174, -23.76020443], [-46.93063229, -23.76043063], [-46.9309614, -23.7608326], [-46.93113272, -23.76109672], [-46.93121124, -23.76138226], [-46.93130404, -23.76162496], [-46.93143179, -23.76176551], [-46.93168878, -23.76209388], [-46.93183942, -23.76235308], [-46.93205357, -23.76261006], [-46.93241763, -23.76280994], [-46.93260323, -23.76302409], [-46.93264606, -23.76319541], [-46.93270316, -23.76355233], [-46.93274526, -23.76389275], [-46.9331743, -23.76425903], [-46.93340273, -23.76453029], [-46.93350266, -23.76472302], [-46.93364469, -23.76492068], [-46.93374537, -23.76502284], [-46.93395952, -23.76514419], [-46.9343157, -23.76530615], [-46.93460911, -23.76540831], [-46.93490179, -23.76542258], [-46.93531581, -23.76537975], [-46.93557993, -23.76537262], [-46.9357946, -23.76539773], [-46.93593685, -23.76552966], [-46.93603679, -23.76587944], [-46.93605271, -23.76617222], [-46.93599396, -23.76635057], [-46.93588037, -23.76649348], [-46.93577267, -23.76671463], [-46.93574338, -23.76691942], [-46.93571556, -23.76727856], [-46.93564344, -23.76757615], [-46.93549276, -23.7679132], [-46.93534437, -23.76818514], [-46.93510092, -23.76848273], [-46.9348341, -23.76904526], [-46.93466622, -23.76936297], [-46.93462063, -23.76962379], [-46.93448062, -23.76989121], [-46.93437281, -23.77006745], [-46.93426647, -23.77038376], [-46.93423792, -23.7708192], [-46.93428715, -23.77115248], [-46.93438354, -23.77163012], [-46.93445016, -23.77186807], [-46.93455701, -23.77232062], [-46.9346165, -23.77264185], [-46.93472357, -23.77295118], [-46.93496747, -23.77327836], [-46.93524706, -23.7735282], [-46.93555639, -23.77375425], [-46.93575269, -23.77393271], [-46.93596784, -23.7740619], [-46.93631566, -23.77417139], [-46.93658216, -23.77424753], [-46.93679155, -23.77436174], [-46.93693432, -23.77450451], [-46.93706757, -23.77464728], [-46.93720082, -23.7748186], [-46.93730552, -23.77502799], [-46.93748636, -23.77532305], [-46.93770527, -23.77559906], [-46.93796225, -23.77593219], [-46.93816562, -23.77628363], [-46.93821923, -23.77652229], [-46.93816977, -23.77673527], [-46.93807932, -23.77690872], [-46.93785089, -23.77705625], [-46.93774144, -23.77715142], [-46.93768909, -23.77734178], [-46.93770812, -23.77752262], [-46.9378033, -23.77776532], [-46.93798414, -23.77817459], [-46.93804601, -23.77836495], [-46.93812923, -23.7785025], [-46.9381276, -23.77850502], [-46.93828395, -23.7785791], [-46.93863802, -23.77867333], [-46.93885978, -23.77867904], [-46.93907415, -23.77873345], [-46.93941848, -23.7789779], [-46.93977064, -23.77943475], [-46.93987534, -23.77969174], [-46.93990389, -23.77998679], [-46.93988485, -23.78039606], [-46.93984678, -23.78086243], [-46.93981823, -23.78131929], [-46.93979919, -23.78169048], [-46.93984678, -23.78206168], [-46.93967951, -23.7824255], [-46.93939397, -23.78298229], [-46.93916554, -23.7840245], [-46.93906561, -23.78449563], [-46.93913699, -23.78485255], [-46.93929403, -23.78515236], [-46.93999359, -23.7856806], [-46.94027913, -23.78599469], [-46.94052184, -23.78639444], [-46.94087875, -23.78660859], [-46.94124995, -23.78665142], [-46.94170681, -23.78662287], [-46.94193524, -23.78665142], [-46.94216366, -23.78679419], [-46.94234926, -23.78715111], [-46.94250631, -23.78739381], [-46.9426348, -23.78757941], [-46.9428775, -23.78755086], [-46.94319159, -23.78739381], [-46.94350568, -23.78717966], [-46.94387114, -23.78684265], [-46.94402818, -23.78642862], [-46.94425661, -23.78621447], [-46.94451359, -23.78624303], [-46.9447563, -23.78651428], [-46.94501328, -23.78675699], [-46.94525599, -23.78688548], [-46.94557008, -23.78688548], [-46.94594127, -23.78679982], [-46.94644096, -23.78682837], [-46.9467836, -23.78682837], [-46.94719763, -23.78684265], [-46.94756882, -23.7868141], [-46.94785436, -23.78668561], [-46.94813989, -23.78658567], [-46.94836832, -23.78641435], [-46.94860367, -23.78626833], [-46.94879403, -23.7861553], [-46.94887731, -23.78620884], [-46.94883567, -23.7863754], [-46.94874936, -23.78663519], [-46.94866911, -23.7868275], [-46.94865386, -23.78704252], [-46.94872265, -23.7872915], [-46.9488616, -23.78756481], [-46.94888921, -23.78785067], [-46.94887731, -23.78806482], [-46.94877024, -23.78831467], [-46.94868696, -23.78845743], [-46.94843971, -23.78879857], [-46.94839687, -23.78901272], [-46.94840737, -23.78921886], [-46.94849065, -23.78952224], [-46.94875239, -23.78995649], [-46.94894275, -23.79025987], [-46.94923423, -23.79051567], [-46.94943649, -23.79074766], [-46.949609, -23.79111648], [-46.94972202, -23.79144961], [-46.94981125, -23.79167565], [-46.94992428, -23.79182437], [-46.95007894, -23.79199688], [-46.95028248, -23.79219525], [-46.95053217, -23.79251686], [-46.95071063, -23.79264536], [-46.95089623, -23.79268462], [-46.95106041, -23.79265963], [-46.95118533, -23.79262394], [-46.95136022, -23.79259182], [-46.95148514, -23.79255613], [-46.95162791, -23.79254899], [-46.95177425, -23.7925704], [-46.95190988, -23.79262394], [-46.95205264, -23.79263465], [-46.95216686, -23.79263108], [-46.95232033, -23.79259182], [-46.9525095, -23.7925133], [-46.95275934, -23.79245262], [-46.95309378, -23.79239551], [-46.95333291, -23.79239194], [-46.95366842, -23.79235268], [-46.95396466, -23.7923277], [-46.95438582, -23.79222776], [-46.95466422, -23.79219564], [-46.95483554, -23.79219207], [-46.95493548, -23.79222062], [-46.95514606, -23.79225274], [-46.95534237, -23.79225274], [-46.95587418, -23.79222419], [-46.95609547, -23.79225631], [-46.95632033, -23.79229914], [-46.95659801, -23.79238124], [-46.95705843, -23.79242764], [-46.95745105, -23.79243834], [-46.95773658, -23.79242764], [-46.95796144, -23.79242407], [-46.95810778, -23.79244905], [-46.95831479, -23.79252043], [-46.95872525, -23.79275957], [-46.95892155, -23.79281668], [-46.95904647, -23.79280597], [-46.95914641, -23.79273815], [-46.95920352, -23.79263108], [-46.95918567, -23.79251686], [-46.95912857, -23.79240622], [-46.95902863, -23.7922813], [-46.95892512, -23.79221705], [-46.95882161, -23.79213496], [-46.95879663, -23.79203859], [-46.95877878, -23.79189583], [-46.95878057, -23.79168346], [-46.9588234, -23.79142648], [-46.95888408, -23.79085005], [-46.95891263, -23.79065018], [-46.95895546, -23.79046101], [-46.95901971, -23.79029326], [-46.95909109, -23.79007911], [-46.95930524, -23.78961868], [-46.95939804, -23.78943665], [-46.95946942, -23.78924392], [-46.95956579, -23.78904404], [-46.95966216, -23.78891198], [-46.95974425, -23.78875672], [-46.95981207, -23.78857112], [-46.95987631, -23.78837125], [-46.95994056, -23.78827488], [-46.96004763, -23.78819279], [-46.96031532, -23.78802147], [-46.96048307, -23.78793938], [-46.9606187, -23.78786799], [-46.96070079, -23.78776449], [-46.96076861, -23.7875896], [-46.96080073, -23.78747181], [-46.96087212, -23.78733261], [-46.9609435, -23.78722197], [-46.96104344, -23.78714702], [-46.96131826, -23.78704708], [-46.96147174, -23.78695428], [-46.96163057, -23.78687219], [-46.96182687, -23.78678653], [-46.96229087, -23.78662235], [-46.96251573, -23.78653668], [-46.96269062, -23.78652241], [-46.96284766, -23.78653312], [-46.96305825, -23.78656881], [-46.963226, -23.7865581], [-46.96357578, -23.78652955], [-46.96378886, -23.78644745], [-46.96400301, -23.78635466], [-46.96414221, -23.78620475], [-46.96425642, -23.78605127], [-46.96428855, -23.78591921], [-46.9643171, -23.7857122], [-46.96435636, -23.78554445], [-46.9644099, -23.78545522], [-46.96455623, -23.78531067], [-46.96471685, -23.78516433], [-46.96485605, -23.7850751], [-46.96499525, -23.78505369], [-46.96523795, -23.78505012], [-46.96547709, -23.7850287], [-46.96571265, -23.78501799], [-46.96594822, -23.78496446], [-46.96610883, -23.78482169], [-46.96627302, -23.78462895], [-46.96634797, -23.78445763], [-46.96635511, -23.78431486], [-46.96633369, -23.78406859], [-46.96630871, -23.78382945], [-46.96624803, -23.78361887], [-46.96612668, -23.78335475], [-46.96594822, -23.78306921], [-46.9658233, -23.78289789], [-46.96569481, -23.78280866], [-46.96556275, -23.78275096], [-46.96524163, -23.78253663], [-46.96514575, -23.78247851], [-46.96505295, -23.78240713], [-46.96495658, -23.78229292], [-46.96483523, -23.78216799], [-46.96474243, -23.78208947], [-46.9646532, -23.78195027], [-46.96452828, -23.78155052], [-46.96440335, -23.78119717], [-46.96429628, -23.7809973], [-46.96422133, -23.78079742], [-46.96419991, -23.78067607], [-46.96406428, -23.78048334], [-46.96399647, -23.78029774], [-46.96390724, -23.78006574], [-46.96383942, -23.77980876], [-46.96378232, -23.77964101], [-46.96369665, -23.77940544], [-46.96363955, -23.77920735], [-46.96357887, -23.77892538], [-46.96353247, -23.77856846], [-46.96350392, -23.77817228], [-46.96351106, -23.77794386], [-46.96355032, -23.77780109], [-46.96363241, -23.77766546], [-46.96375733, -23.77752269], [-46.96391081, -23.77742275], [-46.96402859, -23.77738349], [-46.96412139, -23.77739777], [-46.96423203, -23.77743346], [-46.96439979, -23.77741205], [-46.96461751, -23.77741562], [-46.96494551, -23.77745131], [-46.96548446, -23.77749771], [-46.96585209, -23.777487], [-46.96602698, -23.77742632], [-46.96626255, -23.77727999], [-46.96662303, -23.77700337], [-46.96674082, -23.77681064], [-46.96681934, -23.77661076], [-46.96689429, -23.77644301], [-46.96702278, -23.77630024], [-46.96714414, -23.77612535], [-46.96723337, -23.77592905], [-46.96731189, -23.77581483], [-46.96747607, -23.77554714], [-46.96764739, -23.77534727], [-46.96776875, -23.77521878], [-46.96792222, -23.7751857], [-46.96812781, -23.77519522], [-46.96833529, -23.77521235], [-46.96851613, -23.77521997], [-46.96867603, -23.77524471], [-46.9688721, -23.77525994], [-46.96906627, -23.77529421], [-46.96918238, -23.77533037], [-46.96925472, -23.77540081], [-46.96930992, -23.77546934], [-46.96938226, -23.77552264], [-46.96952503, -23.77561401], [-46.96963353, -23.77570728], [-46.9697229, -23.77581103], [-46.96987281, -23.77595379], [-46.97013693, -23.77606801], [-46.9703368, -23.77618936], [-46.97056523, -23.77639637], [-46.9708008, -23.77655342], [-46.97097926, -23.77673902], [-46.97112202, -23.7768104], [-46.97148608, -23.77683181], [-46.97182872, -23.77678898], [-46.972028, -23.7767991], [-46.97221003, -23.77682765], [-46.9723992, -23.77687048], [-46.97250985, -23.77693116], [-46.97260978, -23.7770418], [-46.97262049, -23.77713817], [-46.97251341, -23.77732377], [-46.97237422, -23.7775986], [-46.97226, -23.77774136], [-46.9722136, -23.77792339], [-46.97214579, -23.77809828], [-46.9721208, -23.77827674], [-46.97209582, -23.7786872], [-46.97213508, -23.77877643], [-46.97225289, -23.77884422], [-46.97247415, -23.77891206], [-46.97269187, -23.77895132], [-46.97289889, -23.77895132], [-46.9734771, -23.77894061], [-46.97401604, -23.77889778], [-46.9746585, -23.77886566], [-46.97527954, -23.77885852], [-46.97559363, -23.7788728], [-46.97587167, -23.77889778], [-46.97610366, -23.77893704], [-46.97628212, -23.77900486], [-46.97640705, -23.77909052], [-46.97646058, -23.77916904], [-46.97650698, -23.77932252], [-46.97652126, -23.77950454], [-46.97649984, -23.77972227], [-46.97646415, -23.77984719], [-46.97649628, -23.77998282], [-46.9765855, -23.78009703], [-46.97671756, -23.78020054], [-46.97719941, -23.78036115], [-46.97745996, -23.78047893], [-46.97772765, -23.78057887], [-46.97790611, -23.7806681], [-46.97806672, -23.78077875], [-46.97824875, -23.78093222], [-46.97833084, -23.7810857], [-46.97834155, -23.78123203], [-46.97833798, -23.78133911], [-46.97834155, -23.78148545], [-46.97847361, -23.78182095], [-46.97855927, -23.78199584], [-46.97875914, -23.78219571], [-46.97890905, -23.78227424], [-46.97908751, -23.78232777], [-46.97936162, -23.78238131], [-46.97965073, -23.78242771], [-46.97988272, -23.7824527], [-46.98013971, -23.78251694], [-46.98040026, -23.7826026], [-46.98069636, -23.78270817], [-46.98101773, -23.78280962], [-46.98116406, -23.782881], [-46.98139249, -23.78299878], [-46.98159594, -23.78312014], [-46.98166018, -23.7832522], [-46.98168517, -23.78338426], [-46.98167803, -23.78347349], [-46.98170658, -23.78359841], [-46.98179224, -23.78370191], [-46.98194929, -23.78380899], [-46.98208135, -23.78390536], [-46.98220984, -23.78401243], [-46.98234904, -23.78415877], [-46.98240614, -23.78432295], [-46.98240257, -23.78448], [-46.98238116, -23.78464061], [-46.98238116, -23.78486904], [-46.98241351, -23.78498407], [-46.98250251, -23.78509568], [-46.98267383, -23.78521347], [-46.98280232, -23.78533482], [-46.98289869, -23.78552042], [-46.98292368, -23.78566318], [-46.98292011, -23.78586306], [-46.982863, -23.78609863], [-46.98278805, -23.7863449], [-46.98265599, -23.78659117], [-46.98249537, -23.78684459], [-46.98227765, -23.78712298], [-46.98211704, -23.7873407], [-46.98202781, -23.78752273], [-46.98189575, -23.78765836], [-46.98175298, -23.7877583], [-46.98161735, -23.78778328], [-46.98151384, -23.78782611], [-46.98136037, -23.78791534], [-46.98121046, -23.78803313], [-46.98113551, -23.78811879], [-46.9811248, -23.7881759], [-46.98109268, -23.78830796], [-46.98102487, -23.78846857], [-46.98096776, -23.78865774], [-46.98096419, -23.78885404], [-46.9809285, -23.78905392], [-46.98087139, -23.78919668], [-46.98078216, -23.78931804], [-46.98071435, -23.78947151], [-46.98064653, -23.78964283], [-46.98056087, -23.78975705], [-46.98037884, -23.7898784], [-46.98021466, -23.79001403], [-46.98005761, -23.79014966], [-46.97993983, -23.79028529], [-46.97991143, -23.79037029], [-46.97992912, -23.79052442], [-46.98001478, -23.79065648], [-46.9801754, -23.79084922], [-46.98034672, -23.79101697], [-46.98043238, -23.79114189], [-46.98057872, -23.79130965], [-46.98071078, -23.79146669], [-46.98089637, -23.79166656], [-46.98110696, -23.79188072], [-46.98125329, -23.79198601], [-46.98155667, -23.79212877], [-46.98209919, -23.7921145], [-46.9822955, -23.79211807], [-46.98230264, -23.79216804], [-46.98214916, -23.7923001], [-46.98199569, -23.79237148], [-46.98189218, -23.79241074], [-46.98172086, -23.79243216], [-46.9815424, -23.79244643], [-46.98138535, -23.79246428], [-46.98120689, -23.79247499], [-46.98108554, -23.79247856], [-46.98094634, -23.79252139], [-46.9808383, -23.79256702], [-46.98075361, -23.79267486], [-46.98073219, -23.79276766], [-46.98073933, -23.79294612], [-46.98078216, -23.79319239], [-46.98084997, -23.79333873], [-46.98088567, -23.79348864], [-46.9808821, -23.79376346], [-46.98089281, -23.79406506], [-46.98092493, -23.79424709], [-46.98097133, -23.7944541], [-46.98103557, -23.79459687], [-46.98117477, -23.79478247], [-46.9814032, -23.79498234], [-46.98149243, -23.7951037], [-46.98155667, -23.79528929], [-46.9816459, -23.79551058], [-46.98176012, -23.79566049], [-46.9818315, -23.79576043], [-46.98193892, -23.7959635], [-46.98207778, -23.79620658], [-46.98226694, -23.79638147], [-46.98239788, -23.79654706], [-46.98272506, -23.79684449], [-46.98309387, -23.79711813], [-46.98335561, -23.79723115], [-46.98354597, -23.79732633], [-46.98371848, -23.79749884], [-46.98387909, -23.79771894], [-46.98403971, -23.79790335], [-46.98416463, -23.7979093], [-46.98441447, -23.79762376], [-46.98466432, -23.79746315], [-46.9849677, -23.79736797], [-46.9851997, -23.79734417], [-46.98544638, -23.79732373], [-46.98569622, -23.79735229], [-46.98595017, -23.7973967], [-46.98618437, -23.79747488], [-46.98634779, -23.79755238], [-46.9864846, -23.79771894], [-46.9865203, -23.79779032], [-46.98662737, -23.79776653], [-46.98684152, -23.79773679], [-46.98704378, -23.79777248], [-46.98744829, -23.79793904], [-46.98795987, -23.79818293], [-46.9882811, -23.79840303], [-46.98845956, -23.79859339], [-46.98857258, -23.79873616], [-46.98879268, -23.79911092], [-46.98887001, -23.79937266], [-46.98884622, -23.79967605], [-46.98884027, -23.79993779], [-46.98875685, -23.80014653], [-46.9886622, -23.8004113], [-46.98859761, -23.8006723], [-46.98856068, -23.80092526], [-46.98855699, -23.80110088], [-46.98870979, -23.80122032], [-46.98895963, -23.80126791], [-46.98916188, -23.80126791], [-46.98938793, -23.80131549], [-46.98968537, -23.80144637], [-46.98991142, -23.80156534], [-46.9902612, -23.80172952], [-46.99039683, -23.80182232], [-46.99049676, -23.80196509], [-46.99054673, -23.80215782], [-46.99066095, -23.8023577], [-46.99085368, -23.80255757], [-46.99103214, -23.80266465], [-46.99122488, -23.80275745], [-46.99132481, -23.80284311], [-46.99141048, -23.80297874], [-46.9915941, -23.80314252], [-46.99174639, -23.80326626], [-46.9920224, -23.80346613], [-46.99229842, -23.80362793], [-46.99252685, -23.80375167], [-46.99280287, -23.8038754], [-46.99305033, -23.80390395]]]]}}]}