{"type": "FeatureCollection", "features": [{"type": "Feature", "properties": {"name": "Refúgio de Vida Silvestre Aimorés"}, "geometry": {"type": "MultiPolygon", "coordinates": [[[[-49.01470697, -22.36125614], [-49.02982366, -22.35014221], [-49.02988761, -22.35007354], [-49.02934096, -22.34949346], [-49.02767488, -22.34758753], [-49.02720225, -22.34705901], [-49.02642367, -22.34617026], [-49.02528603, -22.34488051], [-49.02451573, -22.34413521], [-49.02407949, -22.34374282], [-49.0237801, -22.34348113], [-49.02325904, -22.34305945], [-49.02271403, -22.34247432], [-49.02217989, -22.34242171], [-49.02184887, -22.34185379], [-49.01535342265784, -22.346613609949554], [-49.01526662, -22.34561478], [-49.01512235, -22.34492011], [-49.01499903, -22.34456022], [-49.01498011, -22.34408213], [-49.01502456, -22.34366455], [-49.01507306, -22.34296031], [-49.01495769, -22.34203903], [-49.01467961, -22.34172501], [-49.01459836, -22.34111475], [-49.01441017, -22.34080184], [-49.01409341, -22.34049929], [-49.01402196, -22.34010419], [-49.01358626, -22.34003911], [-49.01352562, -22.3397875], [-49.01346161, -22.33886684], [-49.01352768, -22.33873624], [-49.01400544, -22.33855096], [-49.01455905, -22.33845023], [-49.01496958, -22.33847915], [-49.01568368, -22.33792642], [-49.01566241, -22.33761556], [-49.01564265, -22.33719719], [-49.01569805, -22.33691116], [-49.01575499, -22.33651762], [-49.01571327, -22.33583617], [-49.01586024, -22.3354318], [-49.01589184, -22.33501405], [-49.01596297, -22.33431438], [-49.01551007, -22.3337954], [-49.01431168, -22.33245706], [-49.01257228, -22.33051476], [-49.01085408, -22.3285297], [-49.01044453, -22.32879704], [-49.00794966, -22.33014739], [-49.00614767, -22.33117172], [-49.00412413, -22.33224109], [-49.0031255, -22.33275442], [-49.00118334, -22.33398049], [-49.0006039, -22.33452961], [-49.00040123, -22.33469435], [-49.00024785, -22.33464467], [-49.0002137, -22.3348784], [-49.00009962, -22.33495345], [-48.99995575, -22.33495645], [-48.99977094, -22.33494939], [-48.99964412, -22.33483792], [-48.99954443, -22.33498482], [-48.99947947, -22.33521816], [-48.99923148, -22.33567862], [-48.99903047, -22.33608709], [-48.99894227, -22.33614812], [-48.99878459, -22.33639943], [-48.99850446, -22.33667895], [-48.99787653, -22.33740126], [-48.99744317, -22.33796521], [-48.99729323, -22.33832108], [-48.99720319, -22.33851111], [-48.9971441, -22.33869196], [-48.99713319, -22.33888782], [-48.99714425, -22.3390408], [-48.99720445, -22.33914188], [-48.99709092, -22.3391787], [-48.99707593, -22.33950824], [-48.9970046, -22.33982752], [-48.99698935, -22.34017616], [-48.99699819, -22.34063501], [-48.99703251, -22.34075012], [-48.9970943, -22.34080712], [-48.99713297, -22.34090905], [-48.9971881, -22.3410053], [-48.9977554, -22.34156662], [-48.99857175, -22.34231261], [-48.99940757, -22.34313528], [-49.00057834, -22.34424402], [-49.00161326, -22.34515515], [-49.00180509, -22.34539166], [-49.00201885, -22.34589127], [-49.00205776, -22.34604466], [-49.00217575, -22.34605568], [-49.00224034, -22.34620939], [-49.00590932, -22.34864865], [-49.00601062, -22.34875024], [-49.00742122, -22.34961819], [-49.00753327, -22.34968647], [-49.00765525, -22.34977876], [-49.00766422, -22.34986966], [-49.00765821, -22.34993171], [-49.00772875, -22.35002815], [-49.0078191, -22.3501774], [-49.00789903, -22.35033607], [-49.00797904, -22.35048997], [-49.00801309, -22.35062418], [-49.00813222, -22.35091714], [-49.00822635, -22.3516559], [-49.00818930206184, -22.35186272848931], [-49.0081893, -22.35186273], [-49.00811991, -22.35221744], [-49.00797012, -22.35263611], [-49.00779992, -22.35304497], [-49.00763012, -22.35342517], [-49.00757537, -22.35379626], [-49.00758557, -22.35438988], [-49.00772558, -22.35465921], [-49.00781287, -22.35502345], [-49.00818304, -22.35572567], [-49.00836252, -22.35611016], [-49.00840958, -22.35643138], [-49.0083755, -22.35666033], [-49.00832581, -22.35690343], [-49.00827607, -22.35713171], [-49.00832888, -22.35771929], [-49.00836324, -22.35788349], [-49.00846921, -22.35801859], [-49.00929047, -22.35843009], [-49.00941834, -22.35846989], [-49.01113871, -22.35996283], [-49.01128744, -22.36034217], [-49.01151628, -22.36050745], [-49.0142502, -22.36117656], [-49.01470697, -22.36125614]], [[-49.01163444, -22.349338505], [-49.01507958, -22.34681427], [-49.01507972627174, -22.346814172813055], [-49.01507958, -22.34681428], [-49.01163444, -22.349338505]]], [[[-48.94358785, -22.31103018], [-48.94352428, -22.31116317], [-48.94341836, -22.31138163], [-48.94355102, -22.31144065], [-48.94370352, -22.31154771], [-48.94400963, -22.31168539], [-48.94467111, -22.31210472], [-48.94483003, -22.31221215], [-48.94497106, -22.31230748], [-48.94747354, -22.31162095], [-48.94743867, -22.3115599], [-48.94733231, -22.3114582], [-48.94915424, -22.30749605], [-48.95368495, -22.29803087], [-48.94360407, -22.29759424], [-48.94351286, -22.29751656], [-48.94308099, -22.29685166], [-48.94225123, -22.29460483], [-48.94211051, -22.29369515], [-48.94182687, -22.29062381], [-48.94171582, -22.28768845], [-48.9398001, -22.28597258], [-48.93898871, -22.28598139], [-48.938241, -22.28515], [-48.93804774, -22.28502331], [-48.93751228, -22.28442398], [-48.93494781, -22.28074066], [-48.93455049, -22.28052536], [-48.93434502, -22.2805323], [-48.92979839, -22.28246218], [-48.92939517, -22.28264817], [-48.92902078, -22.28296833], [-48.92839505, -22.28361976], [-48.9276385, -22.28478559], [-48.92604117, -22.28586421], [-48.92595709, -22.28593424], [-48.92578125, -22.28608069], [-48.92577961, -22.28608128], [-48.92585144, -22.29020464], [-48.92610795, -22.29439378], [-48.92630078, -22.29802782], [-48.92516492, -22.30027859], [-48.9250356, -22.30052072], [-48.92694413, -22.30122392], [-48.92643517, -22.30230689], [-48.92699485, -22.30265809], [-48.93000977, -22.30548365], [-48.93258643, -22.30792835], [-48.93497615, -22.30888368], [-48.93530164, -22.3089036], [-48.93908372, -22.31038176], [-48.93910571, -22.31039035], [-48.9396937, -22.30903115], [-48.94042955, -22.30927942], [-48.94120522, -22.3096142], [-48.94057959, -22.31095377], [-48.94057537, -22.31096136], [-48.94056857, -22.31097864], [-48.9417273, -22.31144717], [-48.94230278, -22.31041179], [-48.94358785, -22.31103018]]], [[[-49.02627019, -22.29038982], [-49.02626609, -22.28995014], [-49.02663856, -22.28975397], [-49.02681097, -22.28990898], [-49.02697319, -22.28997352], [-49.02718941, -22.29001871], [-49.02791445, -22.28811609], [-49.02520987, -22.28610356], [-49.0248727, -22.28606252], [-49.02388339, -22.28701361], [-49.02170737, -22.28987551], [-49.02195111, -22.29006963], [-49.02192344, -22.29011833], [-49.02604999, -22.29049412], [-49.02615721, -22.29050256], [-49.02627019, -22.29038982]]], [[[-49.00523816, -22.29687038], [-49.00547515, -22.29681595], [-49.00571186, -22.29678063], [-49.00697471, -22.2963898], [-49.00690804, -22.2954998], [-49.00587841, -22.29532229], [-49.00724212, -22.28878047], [-49.01683953, -22.28966919], [-49.01706037, -22.28941735], [-49.02359741, -22.28181316], [-49.02227435, -22.28096557], [-49.02219243, -22.28021911], [-49.02008689, -22.27878854], [-49.01900217, -22.27779091], [-49.01834589, -22.27481062], [-49.02048628, -22.27303042], [-49.02073672, -22.27276918], [-49.02078255, -22.27273268], [-49.02048186, -22.27261681], [-49.02035237, -22.27251489], [-49.02029299, -22.27235647], [-49.02029632, -22.27211997], [-49.02026965, -22.27182576], [-49.02024998, -22.27158181], [-49.02012211, -22.27136521], [-49.01998613, -22.27117719], [-49.01985755, -22.27101076], [-49.01973587, -22.27090176], [-49.01962128, -22.27083585], [-49.01952468, -22.27081703], [-49.01931333, -22.27100911], [-49.01883959, -22.27110846], [-49.01836854, -22.27101669], [-49.01796908, -22.27094492], [-49.01772242, -22.27096102], [-49.01737796, -22.27135822], [-49.0170292, -22.27206119], [-49.01677808, -22.27239262], [-49.01597986, -22.27292763], [-49.01428148, -22.27348519], [-49.0138209, -22.27383783], [-49.01297282, -22.27426708], [-49.011623, -22.27459462], [-49.01092405, -22.2746434], [-49.0101662, -22.27450031], [-49.00932324, -22.27456643], [-49.00867744, -22.27470645], [-49.0072973, -22.27478051], [-49.00677193, -22.2747717], [-49.00589767, -22.27427591], [-49.00545836, -22.2741176], [-49.00516415, -22.2738655], [-49.00488939, -22.27369009], [-49.00448886, -22.27369472], [-49.00410641, -22.27387161], [-49.00340285, -22.27424524], [-49.00314908, -22.27548455], [-49.00289168, -22.27625551], [-49.0024938, -22.27679537], [-49.00137167, -22.27771815], [-49.00060485, -22.27820568], [-49.00031289, -22.27851746], [-49.00004296, -22.2787244], [-48.9994731, -22.27908054], [-48.99908846, -22.2794103], [-48.99787517, -22.2809627], [-48.99739893, -22.28123398], [-48.99736459, -22.28148204], [-48.99735969, -22.28182604], [-48.99732698, -22.28195943], [-48.99709328, -22.28178452], [-48.99692819, -22.28183983], [-48.99704636, -22.2821949], [-48.99684006, -22.28225925], [-48.99660487, -22.28218945], [-48.99632942, -22.2820618], [-48.99616772, -22.28204282], [-48.99603317, -22.28195302], [-48.9956173, -22.28231105], [-48.99574887, -22.28244648], [-48.99583787, -22.2826865], [-48.99582379, -22.28295393], [-48.99601465, -22.28325255], [-48.99548025, -22.28400096], [-48.99514279, -22.28390122], [-48.99483408, -22.28394519], [-48.9944809, -22.28422754], [-48.99413317, -22.28412767], [-48.99386104, -22.28448748], [-48.99221277, -22.2841326], [-48.99066005, -22.28355907], [-48.99037186, -22.28288651], [-48.98936768, -22.28129716], [-48.98839166, -22.28123662], [-48.98682349, -22.28112227], [-48.98661773, -22.28043161], [-48.98652012, -22.28007678], [-48.98631533, -22.28003602], [-48.98631738, -22.27989269], [-48.98721152, -22.27877654], [-48.98853497, -22.27561951], [-48.98864091, -22.27467467], [-48.98885389, -22.27414212], [-48.98934749, -22.27337411], [-48.98959839, -22.27306183], [-48.98821691, -22.27201256], [-48.98645281, -22.27517529], [-48.98623044, -22.27592543], [-48.98610642, -22.27669802], [-48.98604044, -22.27700302], [-48.98577953, -22.27729605], [-48.98540732, -22.27747302], [-48.98502471, -22.27765941], [-48.98467262, -22.2778653], [-48.98435638, -22.27834165], [-48.98337239, -22.27974144], [-48.98136411, -22.28158009], [-48.98162038, -22.28161195], [-48.9824787, -22.28190933], [-48.98313539, -22.28194617], [-48.98427175, -22.28218965], [-48.98454705, -22.28232687], [-48.98499401, -22.28266692], [-48.98548232, -22.28298836], [-48.98605222, -22.28334904], [-48.98627413, -22.28362895], [-48.98644879, -22.28383617], [-48.98748335, -22.2845232], [-48.98761491, -22.28465863], [-48.98842457, -22.28764091], [-48.98843074, -22.28792769], [-48.98908281, -22.28828939], [-48.98932088, -22.28815854], [-48.98975335, -22.28807788], [-48.99016405, -22.28808297], [-48.99047331, -22.28800079], [-48.99151253, -22.28786074], [-48.99208545, -22.28797509], [-48.99242471, -22.28798671], [-48.99274055, -22.28816265], [-48.99301341, -22.28847185], [-48.99338309, -22.2891932], [-48.99369934, -22.28934047], [-48.99417838, -22.28959487], [-48.99481266, -22.28976518], [-48.99553841, -22.29000352], [-48.99597338, -22.29046763], [-48.99627801, -22.29071032], [-48.99657537, -22.29074267], [-48.9967283, -22.29082101], [-48.99718654, -22.29109427], [-48.99736164, -22.29136039], [-48.99750517, -22.29179587], [-48.99734845, -22.29228602], [-48.99742967, -22.29276976], [-48.99768351, -22.29297359], [-48.99819106, -22.2933908], [-48.99944778, -22.29384593], [-48.99816602, -22.29599926], [-48.99599146, -22.29927947], [-48.9975599, -22.29887944], [-49.00450558, -22.29710985], [-49.00523816, -22.29687038]]]]}}]}