{"type": "FeatureCollection", "features": [{"type": "Feature", "properties": {"name": "Reserva Particular do Patrimônio Natural Vuturussu"}, "geometry": {"type": "MultiPolygon", "coordinates": [[[[-46.86142793, -23.45107107], [-46.86255752, -23.45060024], [-46.86184217, -23.4490778], [-46.86044867, -23.44902698], [-46.85758932, -23.45075619], [-46.85651909, -23.45018877], [-46.85657665, -23.44971367], [-46.85855869, -23.44954361], [-46.86091769, -23.44810695], [-46.85852008, -23.44297264], [-46.85683185, -23.44605678], [-46.85469905, -23.44979406], [-46.85430346, -23.45021521], [-46.85425989, -23.45045213], [-46.85338898, -23.45107948], [-46.85422416, -23.45210526], [-46.86143306, -23.45203746], [-46.86142793, -23.45107107]]], [[[-46.86793399, -23.45166709], [-46.86855695, -23.45168889], [-46.86930721, -23.45154816], [-46.8699623, -23.45148107], [-46.87029903, -23.45137329], [-46.87077304, -23.45131225], [-46.87149169, -23.45140846], [-46.8717404, -23.45146562], [-46.87182985, -23.45143754], [-46.87238047, -23.45113151], [-46.87266604, -23.45046378], [-46.87308822, -23.44983756], [-46.87333945, -23.44905348], [-46.87361011, -23.4488207], [-46.87366927, -23.44881051], [-46.87365714, -23.44872731], [-46.87364927, -23.44863431], [-46.87367371, -23.44831392], [-46.8736682, -23.44811001], [-46.87362025, -23.44782651], [-46.87354992, -23.44753082], [-46.87340079, -23.44706045], [-46.87335985, -23.44699548], [-46.87323514, -23.44688971], [-46.87319394, -23.44686916], [-46.87302223, -23.44674743], [-46.87298047, -23.44670134], [-46.87270196, -23.44688283], [-46.87263891, -23.44691646], [-46.87251678, -23.44693752], [-46.87246752, -23.4469354], [-46.87242375, -23.44707282], [-46.87242224, -23.44757651], [-46.87236879, -23.44808877], [-46.87213834, -23.44835538], [-46.87071808, -23.45032922], [-46.87021482, -23.45066854], [-46.86979779, -23.45093269], [-46.8694173, -23.45099034], [-46.86913417, -23.45117252], [-46.86893711, -23.45135656], [-46.86872778, -23.45129541], [-46.8679382, -23.45121511], [-46.86750595, -23.45100954], [-46.8675729, -23.4508499], [-46.8680997, -23.45048584], [-46.86811535, -23.45036682], [-46.86884556, -23.44867685], [-46.86887282, -23.44865955], [-46.86891884, -23.44845222], [-46.86887714, -23.44816675], [-46.86900989, -23.44784994], [-46.86901087, -23.44724458], [-46.86927852, -23.44695838], [-46.86931891, -23.44687934], [-46.86920191, -23.44652127], [-46.86914285, -23.44622608], [-46.86929528, -23.4459307], [-46.86935764, -23.44586991], [-46.86930799, -23.44576991], [-46.8691297, -23.44553502], [-46.86906399, -23.4452818], [-46.86920819, -23.44480539], [-46.86941196, -23.44440303], [-46.86932238, -23.44427516], [-46.86933891, -23.44420534], [-46.86947737, -23.44396747], [-46.86940789, -23.4437794], [-46.86942989, -23.44362572], [-46.86929877, -23.44343234], [-46.86931696, -23.44329903], [-46.86923188, -23.4432549], [-46.86908122, -23.44297371], [-46.86903286, -23.44288878], [-46.86806967, -23.44462119], [-46.86688918, -23.4515186], [-46.86710779, -23.45150949], [-46.8670606, -23.45167529], [-46.86703195, -23.45180223], [-46.86723238, -23.45202458], [-46.86764795, -23.45185807], [-46.86793399, -23.45166709]]], [[[-46.8742832, -23.44663269], [-46.87443706, -23.44646018], [-46.87441163, -23.44626734], [-46.87444737, -23.44610221], [-46.874603, -23.44585393], [-46.87478126, -23.44571128], [-46.87486577, -23.44556281], [-46.87511013, -23.44532565], [-46.87570276, -23.4450592], [-46.87591823, -23.44494626], [-46.87601938, -23.44475561], [-46.87594711, -23.44433669], [-46.87595416, -23.44421236], [-46.8759156, -23.44369931], [-46.87583762, -23.44347938], [-46.87647342, -23.44374055], [-46.87709442, -23.44316141], [-46.87706857, -23.44312597], [-46.87702867, -23.44308644], [-46.87698452, -23.44305077], [-46.87659501, -23.44325853], [-46.87604386, -23.44339175], [-46.87561304, -23.44327964], [-46.87573151, -23.44223023], [-46.87579803, -23.44213769], [-46.87574383, -23.44197952], [-46.87572571, -23.44187481], [-46.87573006, -23.44176721], [-46.87573967, -23.44165062], [-46.87579838, -23.44124123], [-46.87583689, -23.44103652], [-46.87588624, -23.44089272], [-46.87591984, -23.44081186], [-46.87595696, -23.4406757], [-46.87595889, -23.44053526], [-46.87590192, -23.44031228], [-46.87581636, -23.44019241], [-46.87565595, -23.44002521], [-46.87557023, -23.43991481], [-46.87549085, -23.43978944], [-46.87534494, -23.43972023], [-46.87505076, -23.43933811], [-46.87473574, -23.43929674], [-46.87474494, -23.43907432], [-46.87544146, -23.43866116], [-46.87546404, -23.43856273], [-46.87550717, -23.43847038], [-46.87554832, -23.43841842], [-46.87559838, -23.43837366], [-46.87583136, -23.43820535], [-46.87591411, -23.43812598], [-46.87596506, -23.43802631], [-46.87599513, -23.4379315], [-46.87604771, -23.43759406], [-46.8760892, -23.43744114], [-46.87616244, -23.43721552], [-46.87637285, -23.4366062], [-46.87638589, -23.43649696], [-46.8763684, -23.43638828], [-46.87626479, -23.43620243], [-46.87620637, -23.43615392], [-46.87600409, -23.43602885], [-46.87587109, -23.4359314], [-46.87582882, -23.43589696], [-46.87560499, -23.43569405], [-46.87524232, -23.43537523], [-46.8750634, -23.43526217], [-46.8744105, -23.43497194], [-46.87399966, -23.43478256], [-46.87388072, -23.43471698], [-46.87378537, -23.43462422], [-46.8737094, -23.43448978], [-46.87342081, -23.43387191], [-46.87321135, -23.43348742], [-46.87316019, -23.43335674], [-46.87310361, -23.43317502], [-46.87306245, -23.43300422], [-46.87303805, -23.43277959], [-46.87302906, -23.43248163], [-46.87298467, -23.43228983], [-46.87291516, -23.43214908], [-46.87286486, -23.43203763], [-46.872824, -23.43192263], [-46.87280956, -23.4318353], [-46.87280959, -23.43174699], [-46.87283011, -23.43161311], [-46.87286042, -23.4315071], [-46.87285916, -23.43141781], [-46.87283619, -23.43135732], [-46.87280097, -23.43130203], [-46.87264987, -23.43109309], [-46.87255603, -23.43101737], [-46.87248319, -23.43097996], [-46.87240147, -23.43096496], [-46.87230252, -23.43097093], [-46.87223688, -23.43098616], [-46.87204624, -23.43107523], [-46.87182586, -23.43119968], [-46.8716271, -23.43128929], [-46.87157976, -23.43133934], [-46.87145734, -23.43158253], [-46.87119211, -23.43181606], [-46.87116723, -23.43184949], [-46.87115889, -23.43188923], [-46.87116057, -23.43199477], [-46.87111171, -23.43225667], [-46.87100003, -23.43258868], [-46.8708948, -23.43266263], [-46.87081875, -23.43268972], [-46.87074358, -23.43270254], [-46.87061582, -23.43271247], [-46.87051263, -23.43270928], [-46.87017289, -23.4325994], [-46.87011236, -23.43259543], [-46.87009899, -23.43260489], [-46.87004974, -23.43272792], [-46.86995648, -23.43284597], [-46.86982749, -23.43294242], [-46.86969295, -23.4329992], [-46.86953284, -23.43302613], [-46.86934657, -23.43303631], [-46.8692563, -23.4330196], [-46.86916494, -23.43297374], [-46.86908987, -23.43290277], [-46.86900154, -23.4328082], [-46.86892403, -23.43275224], [-46.86887453, -23.43273234], [-46.86858395, -23.43266656], [-46.86848993, -23.43289117], [-46.86836992, -23.43302778], [-46.86827033, -23.43306437], [-46.86821542, -23.43314719], [-46.86815435, -23.43323028], [-46.86812855, -23.43327411], [-46.86806166, -23.43342354], [-46.86801924, -23.43353872], [-46.86800201, -23.43362913], [-46.86797467, -23.43369592], [-46.86795509, -23.43372992], [-46.86776518, -23.43382303], [-46.86772573, -23.43383615], [-46.86767057, -23.4338453], [-46.86759867, -23.43381229], [-46.86751868, -23.43378165], [-46.86743394, -23.43371918], [-46.86736117, -23.4337215], [-46.8671774, -23.43380596], [-46.86715323, -23.43388291], [-46.86713268, -23.4339246], [-46.86716354, -23.43398274], [-46.86727327, -23.43401231], [-46.86738764, -23.43405221], [-46.8675, -23.43409583], [-46.86760554, -23.43431471], [-46.86770554, -23.4344188], [-46.86775168, -23.43458187], [-46.86770238, -23.43477849], [-46.86769783, -23.43489322], [-46.86768975, -23.43493133], [-46.86763129, -23.4349984], [-46.86759648, -23.43502807], [-46.86746509, -23.43517701], [-46.86741851, -23.43520456], [-46.86629447, -23.43503561], [-46.86522957, -23.43488942], [-46.86417105, -23.43475858], [-46.86350553, -23.43513034], [-46.86325858, -23.43533609], [-46.86268017, -23.43548503], [-46.86226266, -23.43576172], [-46.86247734, -23.43455162], [-46.86147503, -23.43442352], [-46.86135216, -23.4345803], [-46.86128006, -23.43473521], [-46.86125728, -23.43482803], [-46.86128491, -23.43515169], [-46.86115946, -23.43583691], [-46.86113686, -23.43819184], [-46.85857533, -23.44287175], [-46.85882373, -23.44340488], [-46.86101684, -23.44249943], [-46.86123921, -23.44225596], [-46.86136742, -23.4422286], [-46.86136304, -23.44218875], [-46.86133372, -23.44214973], [-46.86136392, -23.44203442], [-46.86139219, -23.44196392], [-46.8614208, -23.44193161], [-46.8615138, -23.44189195], [-46.86154016, -23.44178915], [-46.86160922, -23.44177279], [-46.86166387, -23.44168509], [-46.86185409, -23.44155045], [-46.86204845, -23.44141828], [-46.86211122, -23.44136525], [-46.86222721, -23.4413524], [-46.86230965, -23.44133408], [-46.86240786, -23.4413237], [-46.86258015, -23.44127153], [-46.86267189, -23.44123269], [-46.86291427, -23.44116108], [-46.8630977, -23.44114932], [-46.86324545, -23.44117509], [-46.86339583, -23.44110278], [-46.86351094, -23.44102077], [-46.86359308, -23.4409741], [-46.86368137, -23.44094081], [-46.86374717, -23.44092241], [-46.86384768, -23.44086676], [-46.86395491, -23.44082277], [-46.86399925, -23.4408161], [-46.86423181, -23.44085396], [-46.8644109, -23.44086744], [-46.86448278, -23.44085051], [-46.864562, -23.44081209], [-46.8646359, -23.44079188], [-46.86469133, -23.4407598], [-46.86472479, -23.44071732], [-46.86478411, -23.44062749], [-46.86482164, -23.44056121], [-46.86488765, -23.44047446], [-46.86493791, -23.4403944], [-46.86502903, -23.44027015], [-46.86507142, -23.4402225], [-46.86513713, -23.44018316], [-46.86523217, -23.44018437], [-46.86536178, -23.44020134], [-46.86548113, -23.44021914], [-46.86556206, -23.44023976], [-46.86561305, -23.44022596], [-46.8657047, -23.44021575], [-46.86579407, -23.44017567], [-46.86614255, -23.44065531], [-46.86680695, -23.44025187], [-46.86671792, -23.43965427], [-46.86712325, -23.43924967], [-46.86759752, -23.43931452], [-46.86761321, -23.44038841], [-46.86821062, -23.44048961], [-46.86805383, -23.43998086], [-46.86810901, -23.43924862], [-46.86773258, -23.43899488], [-46.86755506, -23.43861857], [-46.86633658, -23.4395316], [-46.86623749, -23.43995239], [-46.86593346, -23.43991305], [-46.86601759, -23.43925568], [-46.86678805, -23.43877457], [-46.86687302, -23.43856055], [-46.8663898, -23.43836677], [-46.86669606, -23.43823128], [-46.86703533, -23.43836248], [-46.86750629, -23.43794094], [-46.86804594, -23.43753348], [-46.86805878, -23.43731896], [-46.8678471, -23.43720004], [-46.86794106, -23.43645623], [-46.86859116, -23.43693767], [-46.86944935, -23.43686482], [-46.8693826, -23.43664141], [-46.86932484, -23.43651452], [-46.8691737, -23.43615686], [-46.86895844, -23.43567906], [-46.86872389, -23.43518587], [-46.86857261, -23.43492934], [-46.86847923, -23.43471194], [-46.86842019, -23.43456375], [-46.8683976, -23.43443977], [-46.86838919, -23.43434263], [-46.86840038, -23.43420551], [-46.86841644, -23.4340743], [-46.8684392, -23.43397362], [-46.86848017, -23.43384653], [-46.86854704, -23.43369557], [-46.86870984, -23.43346995], [-46.86879054, -23.43338474], [-46.86908091, -23.43326108], [-46.86928009, -23.43324262], [-46.87126805, -23.43322007], [-46.87134359, -23.43251142], [-46.87138986, -23.43237759], [-46.87142813, -23.43231609], [-46.87148232, -23.43225169], [-46.87154322, -23.43217086], [-46.87159907, -23.4318212], [-46.87255691, -23.43146857], [-46.87271071, -23.43279941], [-46.87296544, -23.43293189], [-46.87302235, -23.43297066], [-46.87307203, -23.43317703], [-46.87306079, -23.43326105], [-46.87306695, -23.43331587], [-46.87324301, -23.43362266], [-46.87344388, -23.4342451], [-46.87342231, -23.43428365], [-46.87322464, -23.43441605], [-46.87291402, -23.43461617], [-46.87277824, -23.43470981], [-46.87254664, -23.43481616], [-46.872601, -23.43493091], [-46.87244131, -23.43508452], [-46.87229717, -23.43520318], [-46.87224826, -23.43525316], [-46.87222175, -23.43529547], [-46.87221308, -23.43533331], [-46.87221802, -23.43539908], [-46.87224464, -23.4354338], [-46.87237233, -23.43552978], [-46.87269951, -23.43575494], [-46.87275815, -23.43578422], [-46.8728428, -23.43580478], [-46.87303117, -23.43581101], [-46.87316457, -23.43577789], [-46.8732476, -23.43576733], [-46.8736318, -23.43572596], [-46.87374062, -23.43571843], [-46.87379692, -23.43572064], [-46.87392533, -23.43574276], [-46.87434267, -23.43587933], [-46.8742622, -23.43626631], [-46.87410869, -23.43652478], [-46.87407763, -23.43656425], [-46.87402722, -23.4366044], [-46.87395232, -23.43660178], [-46.87384343, -23.43656923], [-46.87377249, -23.43655599], [-46.87357918, -23.43654667], [-46.87347005, -23.43655267], [-46.87331413, -23.43658542], [-46.87314341, -23.43663668], [-46.87301446, -23.43668762], [-46.87292746, -23.43672939], [-46.87248011, -23.43699788], [-46.8721433, -23.43722884], [-46.87201121, -23.43731413], [-46.87178266, -23.4374357], [-46.87171195, -23.43749461], [-46.87166373, -23.43755857], [-46.87164395, -23.43762753], [-46.87164961, -23.43770918], [-46.87167923, -23.43782566], [-46.87169834, -23.43793126], [-46.87171249, -23.43809534], [-46.87173546, -23.43852424], [-46.87175869, -23.43861706], [-46.87189522, -23.43890266], [-46.87197943, -23.4390658], [-46.87241957, -23.43984068], [-46.87258755, -23.44020473], [-46.87264368, -23.44034085], [-46.87267916, -23.44039325], [-46.87272584, -23.44043441], [-46.87288611, -23.44052991], [-46.87296807, -23.44054735], [-46.87308976, -23.4404881], [-46.87326898, -23.44036549], [-46.87340081, -23.4402896], [-46.87353597, -23.44022811], [-46.8736853, -23.44016473], [-46.87387024, -23.44012838], [-46.87398676, -23.44011226], [-46.87412417, -23.44011973], [-46.87420141, -23.4405032], [-46.87439069, -23.44071926], [-46.87408602, -23.44086315], [-46.87401929, -23.44087099], [-46.87381242, -23.44093479], [-46.87355204, -23.44111092], [-46.87337524, -23.44120343], [-46.87318454, -23.44126188], [-46.87287803, -23.44133085], [-46.87282511, -23.44136065], [-46.87269554, -23.44158262], [-46.87270251, -23.44162633], [-46.8727191, -23.44167832], [-46.87274849, -23.44173594], [-46.87278115, -23.44177564], [-46.87280461, -23.44181518], [-46.87281433, -23.44185235], [-46.87280334, -23.44190558], [-46.8727044, -23.44200311], [-46.87272584, -23.44225324], [-46.8728646, -23.44275236], [-46.87260833, -23.44287327], [-46.8728634, -23.44329181], [-46.87276568, -23.44346869], [-46.87290047, -23.4440819], [-46.87292583, -23.44417993], [-46.87296673, -23.44439462], [-46.87298936, -23.44453476], [-46.87300138, -23.44467258], [-46.87299127, -23.44494757], [-46.87297243, -23.44518003], [-46.8729845, -23.44530757], [-46.87300338, -23.4453766], [-46.87303021, -23.44543994], [-46.87318978, -23.44570656], [-46.87322426, -23.44577874], [-46.87324219, -23.44585591], [-46.87325684, -23.44597926], [-46.87335696, -23.4464857], [-46.87339677, -23.44662302], [-46.87347569, -23.44682686], [-46.87356974, -23.4471461], [-46.87368268, -23.44749934], [-46.87375498, -23.44780322], [-46.87377143, -23.44790045], [-46.87408289, -23.44727927], [-46.8742832, -23.44663269]]], [[[-46.87617294, -23.44001674], [-46.87615425, -23.43999665], [-46.87608033, -23.43994516], [-46.87604137, -23.43990987], [-46.87597456, -23.43983618], [-46.87592913, -23.4397719], [-46.87588754, -23.43972355], [-46.87584104, -23.43959805], [-46.87582725, -23.43950792], [-46.87580272, -23.43943471], [-46.87580227, -23.43934], [-46.87581057, -23.43919362], [-46.8757862, -23.43891589], [-46.87573525, -23.43882115], [-46.87572976, -23.43877237], [-46.87572993, -23.43873561], [-46.87571255, -23.43868968], [-46.87572404, -23.43865821], [-46.87573772, -23.43856649], [-46.87572781, -23.43852995], [-46.87576578, -23.43843278], [-46.87577961, -23.43837997], [-46.87567063, -23.43845903], [-46.87560892, -23.43852415], [-46.87557559, -23.43859643], [-46.87555826, -23.43867149], [-46.87549522, -23.43934983], [-46.8755302, -23.43958851], [-46.87559375, -23.43973728], [-46.87567123, -23.4398596], [-46.8757439, -23.43995354], [-46.87591354, -23.44013047], [-46.87622201, -23.44013109], [-46.87628565, -23.44011877], [-46.87617294, -23.44001674]]]]}}]}