{"type": "FeatureCollection", "features": [{"type": "Feature", "properties": {"name": "Reserva Particular do Patrimônio Natural Serra da Bocaina"}, "geometry": {"type": "MultiPolygon", "coordinates": [[[[-44.60422064, -22.67213158], [-44.60435789, -22.67206525], [-44.60449316, -22.6719439], [-44.60488965, -22.67054674], [-44.60546898, -22.66842146], [-44.60410681, -22.66787273], [-44.60291565, -22.66722921], [-44.60250649, -22.66697525], [-44.60221085, -22.6667428], [-44.60078209, -22.66836133], [-44.59952234, -22.66959264], [-44.60012236, -22.66975666], [-44.60050198, -22.67006276], [-44.60083775, -22.67042259], [-44.6011868, -22.67083341], [-44.60177115, -22.67153922], [-44.6020207, -22.6714187], [-44.60226243, -22.67130629], [-44.6024589, -22.67129639], [-44.60268755, -22.67136679], [-44.60288365, -22.67144975], [-44.60315494, -22.6715525], [-44.60340427, -22.67153894], [-44.60352807, -22.67151259], [-44.60376017, -22.67143304], [-44.60391814, -22.67143984], [-44.60403523, -22.67151114], [-44.60409234, -22.6716569], [-44.60406706, -22.67202144], [-44.6041039, -22.67210753], [-44.60422064, -22.67213158]]]]}}]}