{"type": "FeatureCollection", "features": [{"type": "Feature", "properties": {"name": "Reserva Particular do Patrimônio Natural Mosquito"}, "geometry": {"type": "MultiPolygon", "coordinates": [[[[-51.57487305, -22.6807312], [-51.5756316, -22.68090837], [-51.57605353, -22.68066154], [-51.57647594, -22.68052919], [-51.57682641, -22.68005367], [-51.57710407, -22.67902238], [-51.57857287, -22.67626963], [-51.57762077, -22.67615859], [-51.57629096, -22.67843657], [-51.57310646, -22.67970724], [-51.5720612, -22.67838632], [-51.5718582, -22.67617927], [-51.56934357, -22.67322818], [-51.56761586, -22.67305442], [-51.56680873, -22.67390768], [-51.56658589, -22.67542938], [-51.56535211, -22.67538468], [-51.56466062, -22.67435682], [-51.56386384, -22.66912639], [-51.56471862, -22.6626963], [-51.56461179, -22.65811758], [-51.56364254, -22.65808829], [-51.5637659, -22.66240529], [-51.5628729, -22.66379851], [-51.56144414, -22.66344373], [-51.56054181, -22.66254743], [-51.56031682, -22.65921202], [-51.55938267, -22.65914987], [-51.55938612, -22.66000026], [-51.55928298, -22.66063842], [-51.55955684, -22.66299243], [-51.5628414, -22.66471444], [-51.56360127, -22.67386994], [-51.56498928, -22.67715218], [-51.57015039, -22.68082985], [-51.57069603, -22.68066437], [-51.5710807, -22.68067163], [-51.57109422, -22.68065316], [-51.57135399, -22.68078867], [-51.57176292, -22.68090145], [-51.57224355, -22.68112493], [-51.57242069, -22.6812153], [-51.57302541, -22.68140833], [-51.57397407, -22.68068536], [-51.57487305, -22.6807312]]], [[[-51.55264812, -22.68518957], [-51.55313878, -22.68411086], [-51.55309791, -22.68243212], [-51.5526613, -22.67996283], [-51.5524143, -22.67795219], [-51.55772451, -22.67848813], [-51.55809579, -22.67322847], [-51.55774926, -22.67194676], [-51.55697615, -22.67068237], [-51.54758294, -22.66905171], [-51.54739764, -22.66536197], [-51.54739355, -22.66433248], [-51.54640361, -22.66430418], [-51.54637293, -22.66517541], [-51.54640486, -22.66892903], [-51.53556193, -22.66747682], [-51.53499727, -22.66709858], [-51.53468677, -22.66624434], [-51.53391843, -22.66615187], [-51.5371572, -22.66078762], [-51.54209039, -22.65240825], [-51.54331085, -22.65032927], [-51.54334118, -22.64936301], [-51.54236835, -22.64931879], [-51.54233771, -22.65020586], [-51.53690837, -22.65823844], [-51.53207603, -22.66634806], [-51.53134078, -22.66598622], [-51.53025014, -22.66640163], [-51.53001237, -22.66670335], [-51.52806538, -22.66632966], [-51.49958738, -22.66230543], [-51.4985205, -22.66223451], [-51.49737257, -22.66186686], [-51.4954262, -22.66192239], [-51.49430432, -22.6613814], [-51.49059727, -22.66121956], [-51.48702208, -22.66063651], [-51.48357454, -22.6606082], [-51.49070222, -22.68385991], [-51.49072988, -22.6839511], [-51.49244139, -22.68411143], [-51.49260537, -22.68471161], [-51.4939008, -22.68491787], [-51.49464707, -22.68542615], [-51.49535839, -22.68521371], [-51.49584562, -22.68569275], [-51.49730365, -22.68610872], [-51.49914923, -22.68628318], [-51.50157808, -22.686636], [-51.50293608, -22.68624129], [-51.50377708, -22.68608848], [-51.50416461, -22.68584698], [-51.50574993, -22.68566177], [-51.50668394, -22.68439737], [-51.50785279, -22.6853848], [-51.50856409, -22.6851723], [-51.50937226, -22.68489942], [-51.51108592, -22.68441341], [-51.51134418, -22.68423238], [-51.51030356, -22.68291418], [-51.50968571, -22.68213524], [-51.50942434, -22.68147532], [-51.50929266, -22.68087504], [-51.50883987, -22.68096659], [-51.50777124, -22.68081981], [-51.50696044, -22.68037186], [-51.50627877, -22.67983339], [-51.50556563, -22.6795353], [-51.50462494, -22.67896761], [-51.50358858, -22.67879066], [-51.50303761, -22.67858215], [-51.50203351, -22.67837506], [-51.50122296, -22.67798715], [-51.50063919, -22.67765859], [-51.50024983, -22.6773895], [-51.49931091, -22.67730232], [-51.49850092, -22.67706457], [-51.49800926, -22.67535412], [-51.49904319, -22.67487035], [-51.49991594, -22.67456728], [-51.50053076, -22.67453533], [-51.50117848, -22.67465344], [-51.50176017, -22.67441134], [-51.50237367, -22.67401897], [-51.50344059, -22.67371527], [-51.50444454, -22.67389232], [-51.50526038, -22.6744492], [-51.50536377, -22.67471813], [-51.50647354, -22.6748255], [-51.50783909, -22.67486869], [-51.50852289, -22.67516745], [-51.50915362, -22.67495955], [-51.50995654, -22.67516289], [-51.51016199, -22.67533646], [-51.51040022, -22.67514564], [-51.51104796, -22.67492184], [-51.51142285, -22.67476225], [-51.51184865, -22.67452332], [-51.51309531, -22.67472523], [-51.51338687, -22.67510442], [-51.51434252, -22.67506968], [-51.51437511, -22.67465777], [-51.51476311, -22.67343695], [-51.51684546, -22.67347776], [-51.5169177, -22.67453871], [-51.51700334, -22.67461763], [-51.51717389, -22.6745854], [-51.51810176, -22.67624545], [-51.51806894, -22.676594], [-51.51869995, -22.67646525], [-51.5191267, -22.67647971], [-51.51970651, -22.67635112], [-51.52109106, -22.67690097], [-51.5217074, -22.6774058], [-51.52218625, -22.67765765], [-51.52247784, -22.67803683], [-51.523282, -22.67855687], [-51.52459313, -22.67774482], [-51.52500709, -22.67888384], [-51.52553679, -22.67904048], [-51.52608314, -22.6790862], [-51.52649343, -22.67925908], [-51.52719593, -22.6799695], [-51.52772406, -22.67971435], [-51.52791126, -22.67957118], [-51.52893739, -22.68010631], [-51.52975895, -22.68070545], [-51.53016846, -22.68067242], [-51.53054401, -22.68068702], [-51.53098747, -22.68060635], [-51.5310886, -22.68027341], [-51.53130902, -22.67989255], [-51.5310675, -22.67922814], [-51.53091085, -22.67843673], [-51.53048068, -22.67753536], [-51.53054384, -22.67620471], [-51.53205977, -22.67540776], [-51.53349789, -22.67655919], [-51.5338935, -22.67734979], [-51.53408333, -22.67788767], [-51.53493609, -22.67772644], [-51.53552413, -22.67972013], [-51.53591786, -22.68001974], [-51.53612403, -22.6803675], [-51.53629545, -22.68055699], [-51.53655417, -22.68125301], [-51.53733856, -22.68106032], [-51.53756316, -22.68175646], [-51.53768399, -22.6821045], [-51.5379919, -22.68227769], [-51.53847042, -22.68243447], [-51.53915488, -22.68287564], [-51.53990438, -22.68249299], [-51.54026523, -22.68310948], [-51.54052225, -22.68336203], [-51.54076071, -22.68323451], [-51.54101437, -22.68263179], [-51.54138731, -22.68198116], [-51.54167622, -22.68166341], [-51.54174331, -22.68136225], [-51.54232026, -22.68050502], [-51.54265962, -22.67999704], [-51.54457258, -22.68033899], [-51.54471288, -22.68128882], [-51.54469938, -22.68219166], [-51.54482148, -22.68285646], [-51.54507976, -22.68342577], [-51.54578306, -22.68431033], [-51.54585284, -22.68469021], [-51.54628055, -22.68494217], [-51.54664087, -22.6854161], [-51.54691497, -22.68566858], [-51.54761453, -22.68560283], [-51.54843784, -22.68661367], [-51.54876259, -22.68672343], [-51.55020184, -22.68809644], [-51.55071201, -22.68761953], [-51.55212192, -22.68591996], [-51.55264812, -22.68518957]]], [[[-51.58704158, -22.67283211], [-51.58639013, -22.67205755], [-51.58368316, -22.67056368], [-51.57886182, -22.66717266], [-51.57622442, -22.66289645], [-51.57589649, -22.66197031], [-51.5749795, -22.66224929], [-51.57530773, -22.66325062], [-51.57710449, -22.66670281], [-51.58049541, -22.67032464], [-51.58406707, -22.67194073], [-51.58630173, -22.67343914], [-51.58629873, -22.67342721], [-51.58672079, -22.67321672], [-51.58704158, -22.67283211]]], [[[-51.59656394, -22.67029067], [-51.59324995, -22.66581677], [-51.5903974, -22.66184235], [-51.58952984, -22.66104354], [-51.58466775, -22.66073554], [-51.58429213, -22.66131335], [-51.59459004, -22.66972157], [-51.59497104, -22.67039684], [-51.59534923, -22.6704205], [-51.59578283, -22.67076976], [-51.59607979, -22.6707436], [-51.59656394, -22.67029067]]], [[[-51.50180467, -22.65524313], [-51.5017209, -22.65392394], [-51.50096809, -22.65322992], [-51.50068822, -22.65227786], [-51.51669851, -22.64639947], [-51.52193882, -22.64337709], [-51.52520634, -22.64080082], [-51.52647306, -22.64163965], [-51.5297895, -22.64155542], [-51.52982561, -22.64067567], [-51.52883836, -22.64064228], [-51.52726094, -22.64116059], [-51.52639186, -22.64105349], [-51.5261516, -22.64017465], [-51.5279914, -22.63599034], [-51.53158197, -22.63535541], [-51.53418883, -22.6356033], [-51.53880692, -22.63522134], [-51.53884297, -22.63434159], [-51.5377376, -22.63438195], [-51.53284443, -22.63509466], [-51.53118432, -22.6346237], [-51.53287869, -22.63373844], [-51.53830985, -22.62924884], [-51.53882039, -22.62855075], [-51.53806812, -22.6280035], [-51.53751809, -22.62870172], [-51.53417481, -22.63197486], [-51.53303195, -22.63252844], [-51.53236358, -22.63326368], [-51.5316536, -22.6334493], [-51.53035504, -22.63458979], [-51.52889474, -22.63474122], [-51.5273055, -22.6321442], [-51.52729558, -22.62954198], [-51.5263084, -22.62950857], [-51.52616206, -22.63255112], [-51.52687986, -22.63441799], [-51.52763325, -22.63525849], [-51.52500641, -22.64014175], [-51.52252708, -22.64231228], [-51.51689334, -22.64570247], [-51.50044877, -22.65158223], [-51.49992985, -22.65004449], [-51.49976501, -22.64813913], [-51.49857577, -22.64686003], [-51.49880766, -22.64546655], [-51.4983325, -22.64510151], [-51.49774088, -22.64528661], [-51.49733757, -22.64294216], [-51.49772859, -22.64187806], [-51.49731976, -22.63799427], [-51.49790172, -22.63513364], [-51.49770166, -22.63440123], [-51.49816423, -22.63128442], [-51.49887199, -22.63047588], [-51.49938089, -22.6292648], [-51.49870944, -22.62919359], [-51.49737419, -22.63117691], [-51.49667339, -22.63392795], [-51.49711061, -22.63473293], [-51.49442524, -22.63459463], [-51.49253071, -22.63478371], [-51.48948805, -22.63409665], [-51.48648258, -22.63274968], [-51.48536986, -22.63070057], [-51.48413167, -22.62663598], [-51.4844834, -22.62560867], [-51.48428303, -22.62476018], [-51.48344078, -22.62476272], [-51.48341679, -22.62542863], [-51.48353959, -22.62667442], [-51.48422334, -22.63026421], [-51.48521695, -22.63213044], [-51.48723649, -22.63381029], [-51.49000431, -22.63493806], [-51.49391458, -22.63532923], [-51.49715246, -22.63539253], [-51.49629305, -22.6379608], [-51.4966896, -22.63843604], [-51.49689664, -22.64111096], [-51.49689928, -22.64184398], [-51.49500281, -22.64151998], [-51.49133267, -22.64208104], [-51.48935867, -22.64216038], [-51.48742571, -22.64267939], [-51.48647806, -22.64268227], [-51.48648116, -22.6435619], [-51.48742881, -22.64355902], [-51.49018955, -22.64263431], [-51.4955968, -22.64199462], [-51.49678306, -22.64246741], [-51.4965884, -22.6432377], [-51.49723033, -22.64605787], [-51.49841981, -22.64741028], [-51.4992159, -22.64916708], [-51.4993826, -22.65158555], [-51.50093286, -22.65440288], [-51.50081838, -22.65550278], [-51.50014919, -22.65609129], [-51.50030848, -22.65645731], [-51.50003378, -22.65693463], [-51.49969098, -22.66041758], [-51.49878774, -22.66181315], [-51.49942012, -22.66195779], [-51.50032362, -22.66063552], [-51.50062665, -22.65707939], [-51.50180467, -22.65524313]]], [[[-51.50504706, -22.62094718], [-51.50516477, -22.61882082], [-51.50722596, -22.61630972], [-51.50921813, -22.61210967], [-51.51197516, -22.61119808], [-51.51454568, -22.61075301], [-51.51727063, -22.6096667], [-51.5184886, -22.60823573], [-51.52303802, -22.60854132], [-51.52573115, -22.6073676], [-51.52841846, -22.60467944], [-51.53242289, -22.60195776], [-51.53301671, -22.60140245], [-51.53686222, -22.59818608], [-51.53748261, -22.5964075], [-51.53631785, -22.59530471], [-51.53587921, -22.59542267], [-51.53515603, -22.59495911], [-51.53497123, -22.59583342], [-51.53475483, -22.59664959], [-51.52827135, -22.59078816], [-51.52720468, -22.59070429], [-51.52711392, -22.59157829], [-51.52991292, -22.59357858], [-51.53400692, -22.59790437], [-51.53043672, -22.59931412], [-51.51879299, -22.60575927], [-51.51331047, -22.60755341], [-51.51358412, -22.60522268], [-51.51246937, -22.60065389], [-51.51404445, -22.59403788], [-51.51713532, -22.59024193], [-51.51745047, -22.59064864], [-51.5167413, -22.59391273], [-51.51674423, -22.59469905], [-51.51743772, -22.59562876], [-51.51831831, -22.59626663], [-51.51872594, -22.59623619], [-51.51837734, -22.59527625], [-51.51727448, -22.59391101], [-51.5180834, -22.59216101], [-51.51970817, -22.59052486], [-51.51992006, -22.58848555], [-51.52041901, -22.58772672], [-51.52046817, -22.58411528], [-51.51943324, -22.58411863], [-51.51940526, -22.58502154], [-51.5178349, -22.58441502], [-51.51773755, -22.58354163], [-51.51673431, -22.58363223], [-51.51676925, -22.58459319], [-51.51348125, -22.5859434], [-51.51272479, -22.58492651], [-51.51128291, -22.58513496], [-51.50952012, -22.58336404], [-51.510071, -22.57966363], [-51.51088767, -22.58001052], [-51.51141757, -22.57913513], [-51.51056945, -22.57875922], [-51.51259634, -22.57563658], [-51.51365195, -22.57558952], [-51.51364835, -22.57461875], [-51.50729442, -22.57506608], [-51.50704056, -22.57425142], [-51.50607944, -22.57440978], [-51.50616618, -22.57526379], [-51.50118738, -22.57442511], [-51.50097509, -22.57353265], [-51.49997216, -22.5736911], [-51.50014269, -22.57459825], [-51.50119123, -22.57838102], [-51.50113957, -22.58143913], [-51.49967065, -22.58284163], [-51.49656359, -22.58221055], [-51.49426872, -22.58067409], [-51.49125612, -22.58012998], [-51.48734842, -22.58366581], [-51.48606822, -22.58527148], [-51.48532349, -22.58754535], [-51.4856079, -22.58815609], [-51.48476111, -22.58815865], [-51.48476458, -22.58914883], [-51.48576818, -22.5891458], [-51.49873651, -22.59341631], [-51.49849095, -22.59490236], [-51.4990339, -22.59760914], [-51.4935212, -22.59972306], [-51.49248605, -22.59969711], [-51.4924581, -22.60065827], [-51.49352463, -22.60068412], [-51.50029238, -22.59868279], [-51.50524472, -22.60635582], [-51.50521729, -22.60743347], [-51.50623509, -22.61127453], [-51.50367768, -22.61533071], [-51.49587644, -22.60926824], [-51.49493386, -22.6088343], [-51.4944349, -22.60965129], [-51.49525191, -22.6100565], [-51.50333888, -22.61705004], [-51.5010898, -22.61967817], [-51.49797508, -22.62586199], [-51.49797791, -22.62664831], [-51.4991119, -22.62792621], [-51.49964501, -22.6278663], [-51.50373355, -22.622058], [-51.50504706, -22.62094718]], [[-51.50650663, -22.60513646], [-51.50468144, -22.60217048], [-51.50193645, -22.59850701], [-51.50007574, -22.59694177], [-51.50037885, -22.59056201], [-51.51244442, -22.5955778], [-51.51148701, -22.60127825], [-51.51246566, -22.60682109], [-51.50856193, -22.60967273], [-51.50825467, -22.60927621], [-51.50814961, -22.60842477], [-51.50650663, -22.60513646]]]]}}]}