{"type": "FeatureCollection", "features": [{"type": "Feature", "properties": {"name": "Reserva Particular do Patrimônio Natural Sítio Solar da Montanha"}, "geometry": {"type": "MultiPolygon", "coordinates": [[[[-46.54877346, -23.22086692], [-46.54889312, -23.22077052], [-46.54900291, -23.22080482], [-46.5491529, -23.22080274], [-46.54934268, -23.2207271], [-46.54941587, -23.2206909], [-46.54936757, -23.22061698], [-46.54934425, -23.22058573], [-46.54932017, -23.22044985], [-46.54936242, -23.22034063], [-46.54938448, -23.22026304], [-46.54939481, -23.22023894], [-46.54912927, -23.21998211], [-46.54859018, -23.22023381], [-46.548533, -23.2202376], [-46.54819014, -23.22007754], [-46.54811283, -23.21997557], [-46.54809198, -23.21990665], [-46.54812811, -23.21975721], [-46.54816917, -23.21949657], [-46.54809274, -23.21931342], [-46.54804798, -23.21914537], [-46.54812033, -23.21879125], [-46.54774958, -23.21862476], [-46.54761113, -23.2187953], [-46.54760842, -23.21880945], [-46.54758938, -23.21885676], [-46.54755959, -23.21891718], [-46.54752982, -23.21896444], [-46.54749174, -23.21903869], [-46.5475346, -23.21912114], [-46.54758725, -23.21917147], [-46.5476069, -23.21919289], [-46.5477043, -23.21930125], [-46.54783088, -23.21943547], [-46.54787189, -23.21950096], [-46.54802867, -23.21980237], [-46.54805023, -23.21983867], [-46.54801224, -23.21987387], [-46.54802291, -23.2199936], [-46.5480414, -23.22007245], [-46.54807361, -23.22012653], [-46.5481209, -23.22017113], [-46.54827102, -23.2202861], [-46.54845133, -23.22041091], [-46.54857463, -23.22051904], [-46.54862298, -23.22056466], [-46.54867041, -23.22066951], [-46.54875273, -23.22078809], [-46.54877346, -23.22086692]]]]}}]}