{"type": "FeatureCollection", "features": [{"type": "Feature", "properties": {"name": "Reserva Particular do Patrimônio Natural Trilhas do Cerrado"}, "geometry": {"type": "MultiPolygon", "coordinates": [[[[-48.51993921, -21.29219918], [-48.52008694, -21.29125757], [-48.51999223, -21.29114571], [-48.51963216, -21.29099335], [-48.51961844, -21.29097913], [-48.5195383, -21.29098286], [-48.51946233, -21.29086085], [-48.51942333, -21.29073261], [-48.51932565, -21.29057432], [-48.5192525, -21.29046239], [-48.51920552, -21.29029098], [-48.51929678, -21.29026447], [-48.52012359, -21.28945527], [-48.5200933, -21.28913145], [-48.51936551, -21.28940234], [-48.51919944, -21.2893989], [-48.51909886, -21.2892937], [-48.51887428, -21.28893744], [-48.5185685, -21.28861698], [-48.51792381, -21.28942197], [-48.51735109, -21.29031862], [-48.51993921, -21.29219918]]]]}}]}