{"type": "FeatureCollection", "features": [{"type": "Feature", "properties": {"name": "Reserva Particular do Patrimônio Natural Chácara Santa Inêz"}, "geometry": {"type": "MultiPolygon", "coordinates": [[[[-44.32179786, -22.69853023], [-44.32262072, -22.69843453], [-44.32308569, -22.69794354], [-44.3233487, -22.69722054], [-44.32313571, -22.69628252], [-44.32433044, -22.69523862], [-44.32425443, -22.69471662], [-44.32419275, -22.69458944], [-44.32310966, -22.69488739], [-44.32324628, -22.69531642], [-44.32213086, -22.6956351], [-44.32199167, -22.69519232], [-44.32176006, -22.69525151], [-44.32175127, -22.69539672], [-44.32145506, -22.69528752], [-44.32155832, -22.69584947], [-44.32144159, -22.69594789], [-44.32163938, -22.69619263], [-44.32182172, -22.69621463], [-44.32215106, -22.69643617], [-44.32232743, -22.69662255], [-44.32259679, -22.6966675], [-44.3227253, -22.69708494], [-44.32274321, -22.69724472], [-44.32247071, -22.69726353], [-44.32250868, -22.69714355], [-44.32241068, -22.6970565], [-44.32224764, -22.69700947], [-44.32185639, -22.69787384], [-44.32151352, -22.69812523], [-44.32164969, -22.69827115], [-44.32175574, -22.69840439], [-44.32179786, -22.69853023]]]]}}]}