{"type": "FeatureCollection", "features": [{"type": "Feature", "properties": {"name": "Reserva Particular do Patrimônio Natural Fazenda Mata Nativa"}, "geometry": {"type": "MultiPolygon", "coordinates": [[[[-47.46277567, -24.62686371], [-47.46404985, -24.6267532], [-47.46541731, -24.62640043], [-47.47194636, -24.62274526], [-47.47204375, -24.62251602], [-47.47178194, -24.62269425], [-47.47143782, -24.62279351], [-47.47111315, -24.62263223], [-47.47068716, -24.6220835], [-47.4704449, -24.62150783], [-47.47001661, -24.61932506], [-47.46941955, -24.61666171], [-47.46897739, -24.61497162], [-47.46853806, -24.61327436], [-47.46818935, -24.61197248], [-47.46800719, -24.61181155], [-47.46682223, -24.61160507], [-47.46474777, -24.6112506], [-47.46200976, -24.61073981], [-47.45886576, -24.61020229], [-47.45677938, -24.60985675], [-47.45571784, -24.60972533], [-47.45519425, -24.60971384], [-47.45454373, -24.60972897], [-47.45477154, -24.61081344], [-47.45477834, -24.61191461], [-47.45446804, -24.61298719], [-47.45399634, -24.61358601], [-47.4533175, -24.61397275], [-47.45214375, -24.61432568], [-47.45097708, -24.61468824], [-47.45010351, -24.61546392], [-47.44955022, -24.61644757], [-47.44921646, -24.61751484], [-47.44915066, -24.61862694], [-47.449657, -24.62155516], [-47.45002996, -24.62373359], [-47.45779774, -24.62274363], [-47.46127329, -24.62650507], [-47.46277567, -24.62686371]]]]}}]}