{"type": "FeatureCollection", "features": [{"type": "Feature", "properties": {"name": "Reserva Particular do Patrimônio Natural Botujuru - Serra do Itapety"}, "geometry": {"type": "MultiPolygon", "coordinates": [[[[-46.17659081, -23.48907651], [-46.17664361, -23.48889423], [-46.17685339, -23.48814604], [-46.17694513, -23.4879358], [-46.17708278, -23.48755459], [-46.17711906, -23.4873966], [-46.17713309, -23.48709154], [-46.1771101, -23.48688164], [-46.17698165, -23.48635485], [-46.17695019, -23.4861268], [-46.17685911, -23.4857701], [-46.17687117, -23.48565152], [-46.17695075, -23.48548492], [-46.17695495, -23.48542658], [-46.17688809, -23.48506904], [-46.17689779, -23.4846144], [-46.17699861, -23.48441622], [-46.17711089, -23.484021], [-46.17719576, -23.48372228], [-46.17751271, -23.48306033], [-46.17759216, -23.48282015], [-46.17762604, -23.48224848], [-46.17759846, -23.48188744], [-46.1776039, -23.48152087], [-46.17760407, -23.48140522], [-46.17765879, -23.48109135], [-46.17750969, -23.48053012], [-46.17745117, -23.48009711], [-46.17751717, -23.47986392], [-46.17772045, -23.47908591], [-46.1778704, -23.47826742], [-46.17846364, -23.47736609], [-46.17933125, -23.47662726], [-46.17976459, -23.47576713], [-46.18043026, -23.47473216], [-46.17983303, -23.47396957], [-46.17988739, -23.47324049], [-46.18015523, -23.47288177], [-46.18144099, -23.47379822], [-46.18242749, -23.47397103], [-46.18409604, -23.47450643], [-46.18477805, -23.47444613], [-46.18522084, -23.47489702], [-46.18601634, -23.47479532], [-46.18676305, -23.47447173], [-46.18778011, -23.47500736], [-46.18876004, -23.47526314], [-46.18900817, -23.47560604], [-46.18945075, -23.47573855], [-46.18923004, -23.47299935], [-46.18925998, -23.47292071], [-46.18935621, -23.47247445], [-46.18935745, -23.47231477], [-46.18935036, -23.47222526], [-46.1888406, -23.47193995], [-46.18836631, -23.47165831], [-46.18782573, -23.47141063], [-46.18774004, -23.47136046], [-46.18759888, -23.47127076], [-46.18750932, -23.47119574], [-46.18736311, -23.47106499], [-46.18698487, -23.4705758], [-46.18686765, -23.47048867], [-46.1867595, -23.47045944], [-46.18656777, -23.47046365], [-46.18615509, -23.47043981], [-46.18572605, -23.47033704], [-46.1855688, -23.47027119], [-46.18541985, -23.47022518], [-46.1851226, -23.47014485], [-46.18495381, -23.4700903], [-46.18467135, -23.46995874], [-46.18449668, -23.46986323], [-46.18409349, -23.46967733], [-46.1836823, -23.46961684], [-46.18326932, -23.46946671], [-46.18273185, -23.46918889], [-46.1822376, -23.4689886], [-46.1821076, -23.46889474], [-46.18163267, -23.46857833], [-46.18036922, -23.46794993], [-46.18027003, -23.46825765], [-46.1797502, -23.47022819], [-46.1796451, -23.47129268], [-46.17963042, -23.47204387], [-46.17914987, -23.47298117], [-46.17809682, -23.47219025], [-46.17771965, -23.47198962], [-46.17729598, -23.47174113], [-46.17716199, -23.47165645], [-46.17660741, -23.47142134], [-46.17599951, -23.47127185], [-46.17499795, -23.47114562], [-46.17465143, -23.47113331], [-46.17400742, -23.47117972], [-46.17383416, -23.47106427], [-46.1729408, -23.47103161], [-46.17218672, -23.47191975], [-46.17167487, -23.47178615], [-46.17031249, -23.47205567], [-46.16949212, -23.47178615], [-46.16866874, -23.47091458], [-46.16759153, -23.46965574], [-46.16609723, -23.46906524], [-46.16501948, -23.46885353], [-46.16380448, -23.46822498], [-46.16307804, -23.4682614], [-46.16245051, -23.46836368], [-46.15988839, -23.46877851], [-46.15963636, -23.46882155], [-46.15914668, -23.46890124], [-46.15905769, -23.46891572], [-46.15897337, -23.46885607], [-46.15892325, -23.46891511], [-46.15885407, -23.46898091], [-46.15874802, -23.46904089], [-46.15859394, -23.46913611], [-46.15851242, -23.46920904], [-46.15847749, -23.46925019], [-46.15845895, -23.4692978], [-46.15847207, -23.46947461], [-46.15847404, -23.46956945], [-46.15843749, -23.46967714], [-46.15839144, -23.46975452], [-46.1579531, -23.47025451], [-46.15780715, -23.47044509], [-46.15772678, -23.47053536], [-46.1576315, -23.47060872], [-46.15738683, -23.47069224], [-46.15721407, -23.47073015], [-46.15708254, -23.47073823], [-46.15697593, -23.4707088], [-46.15690296, -23.47067337], [-46.15669853, -23.47049188], [-46.15662804, -23.47044797], [-46.15656616, -23.47042058], [-46.15650533, -23.4704119], [-46.15645187, -23.47042585], [-46.15637774, -23.47049289], [-46.15634749, -23.47057142], [-46.15633854, -23.47067004], [-46.15630576, -23.47076798], [-46.15623227, -23.47085487], [-46.15614184, -23.47091305], [-46.15601175, -23.47094032], [-46.15579713, -23.47095355], [-46.15571072, -23.470983], [-46.15566253, -23.47102145], [-46.15561555, -23.47117147], [-46.15555464, -23.47123397], [-46.1554307, -23.4713142], [-46.15537755, -23.47137777], [-46.15538137, -23.47147367], [-46.15541487, -23.47160617], [-46.15543032, -23.47170993], [-46.15540444, -23.47183754], [-46.15521368, -23.4721045], [-46.15497437, -23.47240616], [-46.15486367, -23.47251351], [-46.15475047, -23.4725833], [-46.15457704, -23.47262869], [-46.15443856, -23.47264782], [-46.15432151, -23.47268627], [-46.15422421, -23.47276543], [-46.15417597, -23.47284218], [-46.15410189, -23.47310464], [-46.15408947, -23.47318528], [-46.15408164, -23.47340779], [-46.15406241, -23.4734978], [-46.15399947, -23.47360656], [-46.1538567, -23.47379451], [-46.153631, -23.47407041], [-46.1534497, -23.47423063], [-46.15336135, -23.4743098], [-46.15331171, -23.47439479], [-46.15316845, -23.47477256], [-46.15309169, -23.47490651], [-46.15288559, -23.4751194], [-46.15260797, -23.47531961], [-46.15251277, -23.47544698], [-46.15246615, -23.47555205], [-46.15236133, -23.47574283], [-46.15220046, -23.47592907], [-46.15198641, -23.47612594], [-46.15183151, -23.47627918], [-46.15168661, -23.47652407], [-46.15151521, -23.47685281], [-46.1554805, -23.47820451], [-46.15548484, -23.47819429], [-46.15548244, -23.4781616], [-46.15550646, -23.47812581], [-46.15553549, -23.47810462], [-46.1556079, -23.47798652], [-46.15589297, -23.47783819], [-46.15589147, -23.47783565], [-46.15576737, -23.47762511], [-46.15588593, -23.47756495], [-46.15597362, -23.47736039], [-46.1559725, -23.47733925], [-46.15599481, -23.47731229], [-46.15610699, -23.4773012], [-46.15612788, -23.47726933], [-46.15619585, -23.4772528], [-46.15627375, -23.47707806], [-46.15631091, -23.47704279], [-46.15632002, -23.4770263], [-46.15648583, -23.47702666], [-46.15654083, -23.47681195], [-46.15656385, -23.47679358], [-46.15665834, -23.47671819], [-46.15666989, -23.47670897], [-46.15666997, -23.47670137], [-46.15683942, -23.47667867], [-46.1568402, -23.47652507], [-46.15685775, -23.47651369], [-46.15686449, -23.47639904], [-46.15687178, -23.47639388], [-46.15695714, -23.47623227], [-46.15696685, -23.47621388], [-46.15696896, -23.47620988], [-46.15695852, -23.47616133], [-46.15700889, -23.47608621], [-46.15695658, -23.47588056], [-46.15701426, -23.47581089], [-46.15730551, -23.4757502], [-46.15730552, -23.47574997], [-46.1573151, -23.4756058], [-46.1574486, -23.4755848], [-46.15756935, -23.47538124], [-46.15762566, -23.47534048], [-46.15766913, -23.47528509], [-46.15791078, -23.4752774], [-46.15794188, -23.47532627], [-46.15797938, -23.47537116], [-46.15802267, -23.47541137], [-46.15807109, -23.47544626], [-46.15812386, -23.47547528], [-46.15818015, -23.47549797], [-46.15823909, -23.47551398], [-46.15829973, -23.47552305], [-46.15836113, -23.47552505], [-46.15842231, -23.47551994], [-46.15848232, -23.4755078], [-46.15854021, -23.47548882], [-46.15859507, -23.4754633], [-46.15864603, -23.47543165], [-46.15869229, -23.47539436], [-46.15873312, -23.47535202], [-46.15876788, -23.47530529], [-46.15893179, -23.47539564], [-46.15892901, -23.47540108], [-46.15892831, -23.47540195], [-46.15892393, -23.47540623], [-46.15891906, -23.47540998], [-46.15891512, -23.47541266], [-46.15891427, -23.47541395], [-46.15891278, -23.47541572], [-46.15890503, -23.47542242], [-46.15890239, -23.4754241], [-46.15889996, -23.47542617], [-46.15889276, -23.47542982], [-46.15889163, -23.47543053], [-46.15889124, -23.47543077], [-46.15888626, -23.47543491], [-46.158885, -23.47543581], [-46.15887857, -23.47543838], [-46.15887123, -23.4754423], [-46.15887057, -23.4754425], [-46.15885678, -23.47544934], [-46.15884327, -23.47544889], [-46.15882434, -23.47545355], [-46.15880395, -23.47545414], [-46.15879869, -23.475455], [-46.15879504, -23.47545547], [-46.15878704, -23.47545748], [-46.15877982, -23.47545779], [-46.15877235, -23.47546062], [-46.15875715, -23.47546059], [-46.15874876, -23.4754646], [-46.15874752, -23.47546507], [-46.15872888, -23.47546909], [-46.15872738, -23.47546911], [-46.15872127, -23.47546912], [-46.15871449, -23.47547114], [-46.15871337, -23.47547152], [-46.15871308, -23.4754716], [-46.15871027, -23.47547285], [-46.15870967, -23.47547295], [-46.15870897, -23.47547333], [-46.15870836, -23.47547337], [-46.15870772, -23.47547382], [-46.1586998, -23.47547336], [-46.15869925, -23.47547389], [-46.15868868, -23.47547672], [-46.15868819, -23.47547732], [-46.15868323, -23.4754793], [-46.15868284, -23.47547997], [-46.15867599, -23.47548409], [-46.15867568, -23.47548477], [-46.15867549, -23.47548549], [-46.15865636, -23.47551171], [-46.15864016, -23.47551816], [-46.15863022, -23.47552245], [-46.15862183, -23.47552986], [-46.15861451, -23.47553299], [-46.15860836, -23.47554306], [-46.15860172, -23.47554673], [-46.15859756, -23.47555181], [-46.15859703, -23.47555237], [-46.15858586, -23.47556399], [-46.15858573, -23.47556435], [-46.15858387, -23.47557353], [-46.15858304, -23.47557421], [-46.15857498, -23.47559747], [-46.15857362, -23.47559836], [-46.15856458, -23.47560381], [-46.15856074, -23.47560758], [-46.15855279, -23.47562289], [-46.15854295, -23.47564256], [-46.15852707, -23.47565723], [-46.15852668, -23.47565751], [-46.1585265, -23.47565829], [-46.15852564, -23.47565906], [-46.15852551, -23.47565943], [-46.15852535, -23.4756598], [-46.15852483, -23.47566037], [-46.15852463, -23.47566071], [-46.15851899, -23.47566858], [-46.1585174, -23.47567053], [-46.15851342, -23.47567522], [-46.15851276, -23.47567587], [-46.15851126, -23.475677], [-46.15850078, -23.4756865], [-46.15849398, -23.47570002], [-46.15848008, -23.4757299], [-46.15847932, -23.47573173], [-46.15847761, -23.47573406], [-46.15847752, -23.47573422], [-46.15847537, -23.47573696], [-46.15847457, -23.47573777], [-46.15843685, -23.47577776], [-46.15843503, -23.47577917], [-46.15843305, -23.47578043], [-46.15842838, -23.47578351], [-46.15841628, -23.47579644], [-46.15841335, -23.47580014], [-46.15840721, -23.47581428], [-46.15840636, -23.47581575], [-46.15840229, -23.47582248], [-46.15838906, -23.4758535], [-46.15838793, -23.47585498], [-46.15838707, -23.47585589], [-46.15838612, -23.47585673], [-46.15837165, -23.47587585], [-46.15837056, -23.47587664], [-46.15836913, -23.475878], [-46.15836788, -23.47587872], [-46.15836726, -23.47587946], [-46.15836671, -23.47588025], [-46.15836539, -23.47588086], [-46.15836495, -23.4758817], [-46.15835424, -23.47588633], [-46.15835379, -23.47588746], [-46.15835321, -23.47588955], [-46.15835091, -23.47589043], [-46.15832956, -23.47591962], [-46.15840378, -23.47601503], [-46.15841295, -23.47601417], [-46.15846025, -23.47611207], [-46.15846326, -23.47611231], [-46.15847154, -23.47611193], [-46.15847428, -23.47611279], [-46.15848042, -23.47611313], [-46.15849968, -23.47611783], [-46.15850136, -23.4761181], [-46.1585155, -23.47612236], [-46.15855448, -23.47613811], [-46.1585704, -23.47614088], [-46.15857799, -23.47614061], [-46.15859196, -23.47614361], [-46.15860151, -23.47614745], [-46.15861057, -23.47614848], [-46.15861093, -23.47614857], [-46.1586254, -23.47615572], [-46.15863217, -23.47615928], [-46.15863773, -23.4761605], [-46.15864635, -23.47616072], [-46.1586673, -23.47616804], [-46.1586686, -23.47616826], [-46.15866986, -23.47616862], [-46.15867878, -23.4761711], [-46.15867996, -23.47617164], [-46.15868266, -23.47617261], [-46.15869377, -23.47617841], [-46.15870055, -23.47618213], [-46.15870142, -23.47618262], [-46.15870719, -23.4761849], [-46.15870789, -23.47618519], [-46.15872523, -23.47618993], [-46.15874219, -23.476197], [-46.15877381, -23.47620896], [-46.15877416, -23.47620906], [-46.15877487, -23.47620921], [-46.15878486, -23.47621012], [-46.15878785, -23.47621082], [-46.15880648, -23.47621892], [-46.15881746, -23.47622452], [-46.15882048, -23.47622553], [-46.15883215, -23.47622861], [-46.1588419, -23.47623291], [-46.15884544, -23.4762341], [-46.15848769, -23.47678634], [-46.15843425, -23.47676086], [-46.15837782, -23.47674161], [-46.15831926, -23.4767289], [-46.15825945, -23.4767229], [-46.15819929, -23.47672372], [-46.1581397, -23.47673134], [-46.15808157, -23.47674564], [-46.15802578, -23.47676641], [-46.15797318, -23.47679334], [-46.15792455, -23.47682602], [-46.15788064, -23.47686395], [-46.1578421, -23.47690656], [-46.15780952, -23.47695322], [-46.15778339, -23.4770032], [-46.1577641, -23.47705577], [-46.15775195, -23.47711012], [-46.15774712, -23.47716543], [-46.15774968, -23.47722088], [-46.15775959, -23.47727561], [-46.15777671, -23.47732882], [-46.15780077, -23.47737968], [-46.15783142, -23.47742743], [-46.15784188, -23.47748305], [-46.15785978, -23.47753702], [-46.15788485, -23.47758852], [-46.15788263, -23.47765868], [-46.15788348, -23.47772868], [-46.15788281, -23.47775556], [-46.15787055, -23.47779244], [-46.15781588, -23.47791426], [-46.15782903, -23.4779962], [-46.15782447, -23.47806949], [-46.15781768, -23.47821469], [-46.15781648, -23.4782383], [-46.1578114, -23.47825309], [-46.15779691, -23.47830996], [-46.15776884, -23.47839622], [-46.15779382, -23.4785091], [-46.15779322, -23.47851793], [-46.15777574, -23.47861691], [-46.15779416, -23.47877632], [-46.15781823, -23.4788089], [-46.15780284, -23.47889756], [-46.15782031, -23.47892507], [-46.15784018, -23.47904442], [-46.15848744, -23.47928851], [-46.15868553, -23.47936321], [-46.16038632, -23.48000458], [-46.16039859, -23.47997153], [-46.16046066, -23.47988549], [-46.16057774, -23.479881], [-46.16081466, -23.47965255], [-46.16078738, -23.47954727], [-46.16088371, -23.47936815], [-46.16087653, -23.47930905], [-46.16093831, -23.4791946], [-46.16090813, -23.47912106], [-46.16094803, -23.47902632], [-46.16094062, -23.47899606], [-46.16097892, -23.47890397], [-46.16092777, -23.47865236], [-46.16081432, -23.47850712], [-46.16078022, -23.47847454], [-46.16077194, -23.47845769], [-46.16076759, -23.47845117], [-46.16076489, -23.47843376], [-46.16080483, -23.47841579], [-46.16084283, -23.47839455], [-46.16087858, -23.47837022], [-46.16093335, -23.47835435], [-46.16095698, -23.47829641], [-46.16098668, -23.478257], [-46.1610606, -23.47819215], [-46.16104261, -23.47813848], [-46.16105144, -23.47810321], [-46.1610976, -23.47808915], [-46.16116332, -23.47808856], [-46.1613043, -23.4779974], [-46.16131131, -23.47798797], [-46.16139422, -23.47792634], [-46.16184465, -23.479894], [-46.16200986, -23.4806168], [-46.16707575, -23.48252694], [-46.16828846, -23.48339739], [-46.16856669, -23.48306761], [-46.16861672, -23.48309913], [-46.16867058, -23.48312472], [-46.16872746, -23.48314397], [-46.16878648, -23.48315659], [-46.16884674, -23.48316239], [-46.1688559, -23.48317046], [-46.16896118, -23.48326975], [-46.16908911, -23.4832902], [-46.16919648, -23.48331065], [-46.16933042, -23.48324623], [-46.16934912, -23.48324503], [-46.16939593, -23.48323729], [-46.16940502, -23.4832365], [-46.16952725, -23.48324908], [-46.16956701, -23.48324336], [-46.16983162, -23.48328762], [-46.1699913, -23.48323936], [-46.17004616, -23.48322943], [-46.17012655, -23.48319369], [-46.17015936, -23.48320891], [-46.17035363, -23.48321019], [-46.1703873, -23.48324043], [-46.17036727, -23.4832629], [-46.17038556, -23.4833306], [-46.17033238, -23.48341074], [-46.17026552, -23.48364599], [-46.17036102, -23.4840333], [-46.17050289, -23.48401962], [-46.17050717, -23.48420606], [-46.17054499, -23.48421947], [-46.17053488, -23.48423803], [-46.17048053, -23.48425011], [-46.17045901, -23.48443406], [-46.17020274, -23.48442241], [-46.17023599, -23.48473371], [-46.17020894, -23.48477583], [-46.17176891, -23.48589546], [-46.17182503, -23.48585418], [-46.17183554, -23.48583803], [-46.17184312, -23.48582054], [-46.17184757, -23.48580215], [-46.17184878, -23.48578334], [-46.1718467, -23.4857646], [-46.17184141, -23.48574641], [-46.17183302, -23.48572923], [-46.17182177, -23.4857135], [-46.17180793, -23.48569965], [-46.17179187, -23.48568801], [-46.171774, -23.48567889], [-46.17172226, -23.48565334], [-46.17167467, -23.48562167], [-46.17163206, -23.48558445], [-46.17159519, -23.48554234], [-46.17156471, -23.48549609], [-46.17154117, -23.4854465], [-46.17152498, -23.48539448], [-46.17151643, -23.48534093], [-46.17151568, -23.4852868], [-46.17152916, -23.48505548], [-46.17153496, -23.48501534], [-46.17154751, -23.48497653], [-46.17156649, -23.48494002], [-46.17159145, -23.4849067], [-46.17160825, -23.48488411], [-46.17162083, -23.4848593], [-46.17162885, -23.48483292], [-46.17163209, -23.48480569], [-46.17163047, -23.48477834], [-46.17162402, -23.48475159], [-46.17161293, -23.48472618], [-46.17154538, -23.48471608], [-46.17147116, -23.48482939], [-46.17133736, -23.48481273], [-46.17126489, -23.48488685], [-46.17121495, -23.48487212], [-46.17105292, -23.48485339], [-46.17104644, -23.4848235], [-46.17115997, -23.48464933], [-46.17111907, -23.48462727], [-46.1711982, -23.48458498], [-46.17119465, -23.48453517], [-46.1712283, -23.48451788], [-46.17123097, -23.48429434], [-46.17124248, -23.48423695], [-46.17126565, -23.48422168], [-46.17125961, -23.48415152], [-46.17127784, -23.48406062], [-46.17125023, -23.4840425], [-46.17123481, -23.48386335], [-46.17107311, -23.48378185], [-46.1710349, -23.48365933], [-46.17107231, -23.48365013], [-46.17101839, -23.4834122], [-46.17103212, -23.48339942], [-46.17102927, -23.48334975], [-46.17103332, -23.48334291], [-46.17109416, -23.48334035], [-46.17115419, -23.48333084], [-46.17121248, -23.48331453], [-46.17126811, -23.48329167], [-46.17132024, -23.48326261], [-46.17136805, -23.48322781], [-46.17141081, -23.4831878], [-46.17144785, -23.4831432], [-46.1714786, -23.48309471], [-46.17150259, -23.48304307], [-46.17151944, -23.48298908], [-46.17152889, -23.48293358], [-46.17153079, -23.48287743], [-46.17152512, -23.48282149], [-46.17151197, -23.48276664], [-46.17149153, -23.48271372], [-46.17210728, -23.48247061], [-46.17211777, -23.48250146], [-46.17211869, -23.48252422], [-46.17212021, -23.48253295], [-46.17212614, -23.48256136], [-46.17212762, -23.48256587], [-46.17213226, -23.48257506], [-46.17213355, -23.48258542], [-46.17213469, -23.48258857], [-46.17213314, -23.48260868], [-46.17213438, -23.4826132], [-46.17213446, -23.48261381], [-46.17213455, -23.48262051], [-46.17213837, -23.4826438], [-46.17213829, -23.48264426], [-46.17213623, -23.48265041], [-46.17213693, -23.48265758], [-46.17213908, -23.48266228], [-46.17214595, -23.48267379], [-46.17215598, -23.48268321], [-46.17215708, -23.48268459], [-46.17216319, -23.48269542], [-46.17216778, -23.48270601], [-46.17217681, -23.48272518], [-46.17218121, -23.48274097], [-46.17218356, -23.48274692], [-46.17219866, -23.48277176], [-46.17220118, -23.48277744], [-46.17224091, -23.48284288], [-46.17224665, -23.48286432], [-46.17225524, -23.48287851], [-46.17226851, -23.48289399], [-46.17226875, -23.48289432], [-46.17227523, -23.48290124], [-46.17227964, -23.48290799], [-46.17228875, -23.48292574], [-46.17228912, -23.48292652], [-46.17229081, -23.48293219], [-46.1722925, -23.48294284], [-46.17231558, -23.4829747], [-46.17231784, -23.48298045], [-46.17233224, -23.48300012], [-46.17235824, -23.48302485], [-46.17236129, -23.48303115], [-46.1723637, -23.48303962], [-46.17239777, -23.4830798], [-46.17240673, -23.48310345], [-46.17244926, -23.48314016], [-46.17247929, -23.48316], [-46.17248801, -23.48316667], [-46.17249204, -23.48316787], [-46.17251438, -23.48318133], [-46.17251699, -23.48318381], [-46.17251847, -23.48318559], [-46.17252032, -23.48318851], [-46.17256362, -23.48321912], [-46.1725854, -23.48324048], [-46.17259282, -23.48324395], [-46.17259827, -23.48324552], [-46.17264867, -23.48325147], [-46.17265549, -23.48325136], [-46.17267221, -23.48324855], [-46.17274677, -23.4832587], [-46.17276894, -23.48325097], [-46.1727807, -23.48325105], [-46.17280728, -23.48323731], [-46.17282076, -23.48323574], [-46.17278479, -23.48328456], [-46.17286138, -23.48332481], [-46.17284316, -23.48343271], [-46.17285584, -23.48345277], [-46.17283359, -23.48349459], [-46.17281054, -23.48356971], [-46.17277701, -23.48364618], [-46.17273644, -23.48373558], [-46.17271572, -23.4838872], [-46.17264238, -23.48392626], [-46.17260426, -23.48400643], [-46.17252069, -23.48408683], [-46.172514, -23.48421442], [-46.17250542, -23.48426702], [-46.17246024, -23.48439113], [-46.17239895, -23.4844285], [-46.17233071, -23.48451054], [-46.1722032, -23.48466182], [-46.17200843, -23.48472546], [-46.17198587, -23.48476045], [-46.17192735, -23.48475854], [-46.171796, -23.48475356], [-46.17172277, -23.48474261], [-46.17172924, -23.48478128], [-46.17172929, -23.48482041], [-46.1717229, -23.4848591], [-46.17171024, -23.48489644], [-46.17169159, -23.48493159], [-46.17166738, -23.48496372], [-46.17165117, -23.48498536], [-46.17163885, -23.48500907], [-46.1716307, -23.48503426], [-46.17162694, -23.48506033], [-46.17161345, -23.48529165], [-46.17161454, -23.485339], [-46.17162329, -23.48538566], [-46.17163949, -23.48543059], [-46.17166279, -23.48547278], [-46.17169266, -23.48551129], [-46.17172844, -23.48554526], [-46.17176931, -23.48557391], [-46.17181437, -23.48559661], [-46.17184599, -23.48561274], [-46.1718744, -23.48563333], [-46.17189889, -23.48565785], [-46.1719188, -23.48568567], [-46.17193363, -23.48571606], [-46.171943, -23.48574826], [-46.17194667, -23.48578142], [-46.17194454, -23.48581469], [-46.17193667, -23.48584722], [-46.17192326, -23.48587817], [-46.17190465, -23.48590675], [-46.17187719, -23.48597317], [-46.1727419, -23.48659379], [-46.17304332, -23.48681918], [-46.17374945, -23.48734719], [-46.17375603, -23.48828085], [-46.17475279, -23.48809743], [-46.17652245, -23.48942064], [-46.17659081, -23.48907651]]], [[[-46.15101279, -23.4776783], [-46.15103503, -23.47752478], [-46.15112158, -23.47729708], [-46.15114504, -23.47724907], [-46.15114952, -23.47723988], [-46.15129737, -23.47693722], [-46.15136761, -23.4768025], [-46.15140986, -23.47672146], [-46.15141679, -23.47670818], [-46.15154717, -23.4764581], [-46.15168543, -23.47622444], [-46.15169321, -23.47621129], [-46.15170346, -23.47619396], [-46.15171282, -23.47618471], [-46.15171483, -23.47618616], [-46.15171709, -23.47618727], [-46.15171953, -23.476188], [-46.15172206, -23.47618833], [-46.15172462, -23.47618824], [-46.15172713, -23.47618775], [-46.1517295, -23.47618687], [-46.15173167, -23.47618562], [-46.15173357, -23.47618404], [-46.15173515, -23.47618218], [-46.15173635, -23.47618009], [-46.15173714, -23.47617785], [-46.1517375, -23.47617551], [-46.15173741, -23.47617315], [-46.15173688, -23.47617084], [-46.15173592, -23.47616865], [-46.15173456, -23.47616664], [-46.15173285, -23.47616489], [-46.15173713, -23.47616066], [-46.15174715, -23.47615075], [-46.15175716, -23.47614084], [-46.15187379, -23.47602547], [-46.15198456, -23.47592359], [-46.15208352, -23.47583257], [-46.15222883, -23.47566433], [-46.15232357, -23.47549191], [-46.1523742, -23.47537781], [-46.15240521, -23.47533632], [-46.1524926, -23.47521938], [-46.15277807, -23.47501352], [-46.15296212, -23.47482341], [-46.15299201, -23.47477124], [-46.15302446, -23.47471462], [-46.15316793, -23.4743363], [-46.15318402, -23.47430876], [-46.15318449, -23.47430795], [-46.15323278, -23.47422527], [-46.15323488, -23.47422166], [-46.15334094, -23.47412664], [-46.15351354, -23.4739741], [-46.15371817, -23.47372395], [-46.15372999, -23.4737095], [-46.15386574, -23.4735308], [-46.15391323, -23.47344874], [-46.15392549, -23.47339137], [-46.15393244, -23.47319374], [-46.15393288, -23.47318121], [-46.15393318, -23.47317274], [-46.15394805, -23.47307618], [-46.15402975, -23.47278672], [-46.15410147, -23.47267261], [-46.15411814, -23.47265904], [-46.15424053, -23.47255948], [-46.15440033, -23.47250699], [-46.15454392, -23.47248716], [-46.15468395, -23.47245051], [-46.15476216, -23.47240229], [-46.15478063, -23.47238439], [-46.15479554, -23.47236992], [-46.15485392, -23.47231332], [-46.155085, -23.47202202], [-46.15521248, -23.47184362], [-46.15522171, -23.47183069], [-46.15525627, -23.47178233], [-46.15527167, -23.47170638], [-46.15526067, -23.47163247], [-46.15522538, -23.47149291], [-46.15521893, -23.47133088], [-46.15522439, -23.47132436], [-46.15532121, -23.47120854], [-46.15545006, -23.47112514], [-46.15547508, -23.47109946], [-46.15552487, -23.47094023], [-46.15559497, -23.4708843], [-46.15562975, -23.47085655], [-46.15576409, -23.47081076], [-46.15598904, -23.4707969], [-46.15607731, -23.47077839], [-46.15612329, -23.47074881], [-46.15616457, -23.47070001], [-46.15616952, -23.47068521], [-46.15618385, -23.47064238], [-46.15619309, -23.4705407], [-46.15624224, -23.47041308], [-46.15637075, -23.47029684], [-46.15649555, -23.47026428], [-46.15661303, -23.47028105], [-46.15670618, -23.47032228], [-46.1567974, -23.47037911], [-46.15699558, -23.47055505], [-46.15703542, -23.47057439], [-46.15710035, -23.47059231], [-46.15711854, -23.4705912], [-46.15719058, -23.47058677], [-46.15734136, -23.47055369], [-46.15755183, -23.47048184], [-46.15757169, -23.47046654], [-46.15761508, -23.47043314], [-46.15768249, -23.47035743], [-46.15772833, -23.47029757], [-46.15782809, -23.4701673], [-46.15805787, -23.46990521], [-46.15822305, -23.46971679], [-46.15826085, -23.46967368], [-46.15829266, -23.46962023], [-46.15831693, -23.46954871], [-46.15831553, -23.46948093], [-46.15830043, -23.46927747], [-46.15833848, -23.46917972], [-46.15833859, -23.46917943], [-46.15839569, -23.46911218], [-46.15849502, -23.4690233], [-46.15866345, -23.46891922], [-46.15875537, -23.46886723], [-46.15878754, -23.46883664], [-46.15880504, -23.46882], [-46.15882493, -23.46879656], [-46.15884907, -23.46876812], [-46.158818, -23.46874613], [-46.15859891, -23.46859111], [-46.15810895, -23.46822405], [-46.15808661, -23.46820732], [-46.1578193, -23.46800706], [-46.1577889, -23.46798428], [-46.1577585, -23.46796151], [-46.15735005, -23.46765551], [-46.15722693, -23.46734365], [-46.15721671, -23.46731776], [-46.15701923, -23.46681749], [-46.15668634, -23.46598285], [-46.15667558, -23.46595586], [-46.15662653, -23.46583289], [-46.15661301, -23.46579899], [-46.15657771, -23.46578335], [-46.15645617, -23.46572951], [-46.15642514, -23.46571576], [-46.15550546, -23.4653083], [-46.15452975, -23.46560679], [-46.15444755, -23.46560746], [-46.15441606, -23.46560772], [-46.15440736, -23.4656078], [-46.15439267, -23.46560792], [-46.15437799, -23.46560803], [-46.15435968, -23.46560819], [-46.154345, -23.46560831], [-46.15433031, -23.46560842], [-46.15430403, -23.46560864], [-46.15425387, -23.46560906], [-46.15318878, -23.46561785], [-46.15307696, -23.46561877], [-46.15283224, -23.46532977], [-46.15244777, -23.46487573], [-46.1512544, -23.46525147], [-46.15070397, -23.4645223], [-46.15068159, -23.46449266], [-46.15067694, -23.46452853], [-46.15063033, -23.4648885], [-46.15052036, -23.46573766], [-46.15053859, -23.46630707], [-46.15055416, -23.46679336], [-46.15066571, -23.46933081], [-46.15073566, -23.4716991], [-46.15079431, -23.47317241], [-46.15084937, -23.47399699], [-46.15084942, -23.47399775], [-46.15086116, -23.47417359], [-46.15086212, -23.47418794], [-46.15090978, -23.47490161], [-46.15092056, -23.47506304], [-46.1509314, -23.47522542], [-46.15093825, -23.47544922], [-46.15093884, -23.4754685], [-46.15094268, -23.47559386], [-46.15094964, -23.47582102], [-46.15095287, -23.4759266], [-46.15095443, -23.47597766], [-46.15096361, -23.47627724], [-46.15097264, -23.47657241], [-46.1509756, -23.47666886], [-46.15098298, -23.4769098], [-46.15098835, -23.47708519], [-46.15099011, -23.47714269], [-46.15099734, -23.47737884], [-46.15099778, -23.4773934], [-46.15100202, -23.47753186], [-46.1510065, -23.477678], [-46.15100761, -23.47771411], [-46.15101279, -23.4776783]]]]}}]}