{"type": "FeatureCollection", "features": [{"type": "Feature", "properties": {"name": "Reserva Particular do Patrimônio Natural Reserva Gigante do Itaguaré"}, "geometry": {"type": "MultiPolygon", "coordinates": [[[[-45.09292038, -22.50723307], [-45.10810892, -22.49209002], [-45.10691777, -22.49166775], [-45.1060769, -22.49137524], [-45.10457087, -22.49095334], [-45.10355473, -22.49053085], [-45.10297058, -22.49031052], [-45.10259668, -22.49004859], [-45.102395, -22.48983525], [-45.10195305, -22.48956974], [-45.10169865, -22.48946475], [-45.10124364, -22.48914053], [-45.10088445, -22.48891446], [-45.1004747, -22.4886623], [-45.10008969, -22.48835358], [-45.0997853, -22.48820444], [-45.09959832, -22.48802143], [-45.09907864, -22.48738115], [-45.09887969, -22.48718614], [-45.09833052, -22.48634721], [-45.09792636, -22.48575139], [-45.09760225, -22.4853381], [-45.0970917, -22.48507941], [-45.09650197, -22.48489303], [-45.0960978, -22.48481612], [-45.09547221, -22.48393667], [-45.09521696, -22.48483615], [-45.09457221, -22.48478748], [-45.09433615, -22.48474163], [-45.0940136, -22.48475004], [-45.09373533, -22.48468137], [-45.09354137, -22.48451001], [-45.09329336, -22.48433806], [-45.09305362, -22.48418055], [-45.09286309, -22.48403919], [-45.09247474, -22.48391809], [-45.09219975, -22.48380975], [-45.09196218, -22.48369], [-45.09172334, -22.48355336], [-45.09148834, -22.48350832], [-45.09103893, -22.48335726], [-45.09068475, -22.48330226], [-45.0904658, -22.48326724], [-45.09023081, -22.48322112], [-45.08999476, -22.4831881], [-45.08945418, -22.48321532], [-45.08869774, -22.48332107], [-45.08843775, -22.48340279], [-45.08813972, -22.48344975], [-45.08787971, -22.48349696], [-45.08761335, -22.48364915], [-45.08734803, -22.48376421], [-45.08713141, -22.48387192], [-45.08684745, -22.48403387], [-45.08659943, -22.48413781], [-45.08636444, -22.48425393], [-45.08611746, -22.48431278], [-45.08578194, -22.48456356], [-45.08546223, -22.48477251], [-45.08519279, -22.48498947], [-45.08494498, -22.48512836], [-45.0847311, -22.48527365], [-45.08454832, -22.48539887], [-45.08439663, -22.48614191], [-45.08436558, -22.48639921], [-45.08436384, -22.48658025], [-45.0845025, -22.48725972], [-45.08446689, -22.48754115], [-45.0845672, -22.48766468], [-45.08463107, -22.48847554], [-45.08478778, -22.48879192], [-45.08482804, -22.48913086], [-45.0848044, -22.48958302], [-45.08294304, -22.49471332], [-45.08511467, -22.4971371], [-45.08831415, -22.49973762], [-45.09209763, -22.50166607], [-45.09231727, -22.5028457], [-45.0925715, -22.50530244], [-45.09284379, -22.50712525], [-45.09292038, -22.50723307]]]]}}]}