{"type": "FeatureCollection", "features": [{"type": "Feature", "properties": {"name": "Reserva Particular do Patrimônio Natural Sítio Manacá"}, "geometry": {"type": "MultiPolygon", "coordinates": [[[[-45.26085812, -22.68204332], [-45.26571217, -22.68270833], [-45.26779251, -22.68055659], [-45.26858282, -22.67922788], [-45.268526, -22.67913316], [-45.26839412, -22.67905625], [-45.2682779, -22.67900978], [-45.2679004, -22.67895494], [-45.26667565, -22.67889245], [-45.26621878, -22.67891543], [-45.26557182, -22.67908309], [-45.26520679, -22.67916193], [-45.26472099, -22.67913516], [-45.26468815, -22.67913335], [-45.26468467, -22.67913316], [-45.26431275, -22.67911267], [-45.26388527, -22.67871478], [-45.26334619, -22.67848152], [-45.26297169, -22.67838254], [-45.26229939, -22.67827927], [-45.26133261, -22.67820237], [-45.26138589, -22.67850667], [-45.26202316, -22.67886985], [-45.26205025, -22.67939525], [-45.26219149, -22.67984124], [-45.26234527, -22.6801765], [-45.26212139, -22.68042645], [-45.2620995, -22.68048349], [-45.26272302, -22.68055075], [-45.26253998, -22.68111316], [-45.26154016, -22.6810012], [-45.26138301, -22.68064576], [-45.26190372, -22.68034737], [-45.26191539, -22.68031695], [-45.2620749, -22.68014065], [-45.26197118, -22.67991451], [-45.26181821, -22.67943151], [-45.26179569, -22.67899464], [-45.26132963, -22.67872904], [-45.26158533, -22.67949416], [-45.26105771, -22.68038065], [-45.26085812, -22.68204332]]]]}}]}