{"type": "FeatureCollection", "features": [{"type": "Feature", "properties": {"name": "Reserva Particular do Patrimônio Natural Olho D'água"}, "geometry": {"type": "MultiPolygon", "coordinates": [[[[-44.36235923, -22.8203879], [-44.36237911, -22.82038681], [-44.36245179, -22.82037048], [-44.36254939, -22.82029427], [-44.36272609, -22.8200359], [-44.36299249, -22.81974781], [-44.36300744, -22.81971815], [-44.36303351, -22.81945349], [-44.36313746, -22.81897677], [-44.36314604, -22.81876696], [-44.36296725, -22.81853129], [-44.3628909, -22.81837453], [-44.3628359, -22.81813213], [-44.3628359, -22.81800837], [-44.36295505, -22.8175935], [-44.36308779, -22.81719024], [-44.36310605, -22.81684796], [-44.36328482, -22.81649845], [-44.36342959, -22.8162545], [-44.36346739, -22.81610939], [-44.36354112, -22.8155499], [-44.36336997, -22.81522302], [-44.36318526, -22.81492103], [-44.36314342, -22.8144888], [-44.36330155, -22.81375999], [-44.36342119, -22.81338523], [-44.36341436, -22.81326253], [-44.36337072, -22.8129442], [-44.36341177, -22.81283335], [-44.3629804, -22.81285601], [-44.36267245, -22.81290501], [-44.36236603, -22.81291977], [-44.36213406, -22.81297485], [-44.3618344, -22.81296001], [-44.36164813, -22.81289034], [-44.36144956, -22.81274077], [-44.36134678, -22.81261172], [-44.3612982, -22.81258172], [-44.36125044, -22.81258306], [-44.36092511, -22.81268429], [-44.36059948, -22.81301324], [-44.36038632, -22.81315185], [-44.36075439, -22.81470949], [-44.36059724, -22.81864971], [-44.36063993, -22.81871077], [-44.36068667, -22.81884266], [-44.3606638, -22.81900246], [-44.36070903, -22.8190628], [-44.36089891, -22.81913393], [-44.36112336, -22.81919002], [-44.36133381, -22.8192802], [-44.36151634, -22.81940189], [-44.36181602, -22.81970697], [-44.3620871, -22.82021166], [-44.36235923, -22.8203879]]]]}}]}