{"type": "FeatureCollection", "features": [{"type": "Feature", "properties": {"name": "Reserva Particular do Patrimônio Natural São Judas Tadeu"}, "geometry": {"type": "MultiPolygon", "coordinates": [[[[-47.16979467, -23.94688997], [-47.17029389, -23.94656948], [-47.17045861, -23.94638895], [-47.17054057, -23.94620617], [-47.1690237, -23.94488729], [-47.17087621, -23.94309846], [-47.17114246, -23.94264584], [-47.17105395, -23.94223129], [-47.1704571, -23.94191587], [-47.17037093, -23.94184848], [-47.16816563, -23.94487881], [-47.16936334, -23.94660799], [-47.16979753, -23.94688636], [-47.16979467, -23.94688997]]]]}}]}