{"type": "FeatureCollection", "features": [{"type": "Feature", "properties": {"name": "Reserva Particular do Patrimônio Natural Hercules Florence 3, 4, 5 e 6"}, "geometry": {"type": "MultiPolygon", "coordinates": [[[[-46.06020215, -23.78821435], [-46.06045437, -23.78814747], [-46.06052517, -23.78808825], [-46.06061976, -23.78807718], [-46.06098075, -23.78807291], [-46.06146574, -23.7880764], [-46.06166906, -23.78815481], [-46.06196137, -23.78823806], [-46.06218494, -23.78824005], [-46.06224546, -23.78824058], [-46.06248173, -23.78815935], [-46.06254466, -23.78816072], [-46.06268567, -23.78827256], [-46.06277118, -23.78832003], [-46.06296657, -23.78832615], [-46.06325374, -23.78841659], [-46.06334827, -23.78850565], [-46.0634017, -23.78847209], [-46.06344699, -23.78820697], [-46.06350345, -23.78782933], [-46.06353185, -23.7877551], [-46.06361607, -23.78766828], [-46.0637448, -23.78760837], [-46.06398351, -23.78766322], [-46.06435714, -23.78780564], [-46.06437829, -23.78413373], [-46.06222084, -23.78352296], [-46.06100144, -23.78317773], [-46.05876829, -23.78254546], [-46.05816544, -23.78237477], [-46.05819314, -23.78246767], [-46.05821727, -23.78256205], [-46.0582378, -23.78265587], [-46.05825472, -23.78275094], [-46.05826799, -23.7828465], [-46.05828051, -23.78293669], [-46.05828354, -23.7830386], [-46.0582864, -23.78313482], [-46.0582858, -23.78313491], [-46.05827704, -23.78706576], [-46.05827456, -23.78818022], [-46.05827455, -23.78868416], [-46.0584896, -23.78866741], [-46.05887259, -23.78852683], [-46.05891797, -23.78850915], [-46.05894983, -23.7885237], [-46.05904073, -23.78866301], [-46.05907867, -23.78868758], [-46.05920164, -23.78867378], [-46.05942429, -23.7885165], [-46.05942568, -23.78852604], [-46.05948058, -23.78850968], [-46.05952594, -23.7886386], [-46.05964861, -23.78864617], [-46.05985445, -23.78868919], [-46.05992055, -23.78866985], [-46.06020215, -23.78821435]]], [[[-46.05670556, -23.78881515], [-46.05673842, -23.78898811], [-46.05685997, -23.78875806], [-46.05701235, -23.78862939], [-46.05710275, -23.78860794], [-46.05714065, -23.78862066], [-46.05723726, -23.78869292], [-46.0575463, -23.78874828], [-46.05770616, -23.78872146], [-46.05778376, -23.78871491], [-46.05778183, -23.78691484], [-46.05101758, -23.78487977], [-46.05071676, -23.78610542], [-46.04872493, -23.78721678], [-46.04932535, -23.78770443], [-46.05656304, -23.78987356], [-46.05656098, -23.78874709], [-46.05664768, -23.78875848], [-46.05670556, -23.78881515]]], [[[-46.05052472, -23.7853855], [-46.04557057, -23.7840142], [-46.04580116, -23.78330879], [-46.04306079, -23.78249218], [-46.04845904, -23.78698627], [-46.05040655, -23.78590163], [-46.05052472, -23.7853855]]], [[[-46.00910311, -23.77227879], [-46.00811374, -23.77530674], [-46.04370869, -23.7860123], [-46.04577957, -23.78512125], [-46.04237381, -23.78228565], [-46.00910311, -23.77227879]]], [[[-46.05645155, -23.7770511], [-46.05625997, -23.77698462], [-46.05620927, -23.77681027], [-46.05616195, -23.77644734], [-46.05609564, -23.77642373], [-46.05594373, -23.77642104], [-46.05581124, -23.77646422], [-46.05553333, -23.77653613], [-46.05520935, -23.77645168], [-46.05504163, -23.77669937], [-46.05479106, -23.77683307], [-46.05472996, -23.77679412], [-46.05446859, -23.7766818], [-46.05325539, -23.77810389], [-46.05661682, -23.78058629], [-46.05664288, -23.77701088], [-46.05659223, -23.77702722], [-46.05645155, -23.7770511]]]]}}]}