{"type": "FeatureCollection", "features": [{"type": "Feature", "properties": {"name": "Reserva Particular do Patrimônio Natural Vida em Abundância"}, "geometry": {"type": "MultiPolygon", "coordinates": [[[[-45.68300981, -22.67098245], [-45.68352422, -22.67089787], [-45.6840365, -22.67079668], [-45.68434113, -22.67074867], [-45.6847118, -22.67071141], [-45.6847032, -22.6693895], [-45.68453907, -22.66956229], [-45.68439853, -22.66962495], [-45.68421441, -22.66969249], [-45.68396738, -22.66979319], [-45.68298918, -22.67023747], [-45.68295312, -22.67026689], [-45.68296568, -22.67071913], [-45.68300981, -22.67098245]]]]}}]}