{"type": "FeatureCollection", "features": [{"type": "Feature", "properties": {"name": "Reserva Particular do Patrimônio Natural Transbaú I"}, "geometry": {"type": "MultiPolygon", "coordinates": [[[[-45.68298918, -22.67023747], [-45.68396738, -22.66979319], [-45.68421441, -22.66969249], [-45.68439853, -22.66962495], [-45.68453907, -22.66956229], [-45.6847032, -22.6693895], [-45.68432359, -22.66890043], [-45.68477061, -22.66832201], [-45.68399785, -22.66832793], [-45.68372847, -22.66854823], [-45.68350259, -22.66881107], [-45.68340429, -22.66900987], [-45.68303783, -22.6695051], [-45.68323509, -22.66967328], [-45.68328842, -22.6700641], [-45.68298918, -22.67023747]]]]}}]}