{"type": "FeatureCollection", "features": [{"type": "Feature", "properties": {"name": "Reserva de Desenvolvimento Sustentável Itapanhapima"}, "geometry": {"type": "MultiPolygon", "coordinates": [[[[-48.03478816, -25.15482661], [-48.03496856, -25.15479554], [-48.03577686, -25.15449558], [-48.03614582, -25.15439738], [-48.03639302, -25.15439808], [-48.03660099, -25.15445731], [-48.03665903, -25.15451611], [-48.03676609, -25.15473295], [-48.03682477, -25.15478725], [-48.03689225, -25.15480097], [-48.03722415, -25.15467108], [-48.03728572, -25.15460359], [-48.03729524, -25.15453595], [-48.03728927, -25.15446827], [-48.03725362, -25.15438697], [-48.03684038, -25.15383995], [-48.03614857, -25.15304404], [-48.0354166, -25.1520405], [-48.03516076, -25.15148491], [-48.03511984, -25.15131337], [-48.03515167, -25.15124579], [-48.03521252, -25.15120536], [-48.03537804, -25.15117425], [-48.03540782, -25.15116081], [-48.03544639, -25.1511158], [-48.03544846, -25.15105265], [-48.03535847, -25.15073662], [-48.03507655, -25.15001855], [-48.03481411, -25.14940429], [-48.03481622, -25.14933212], [-48.03488382, -25.14930975], [-48.03499826, -25.14936421], [-48.03510765, -25.14907578], [-48.03519821, -25.1484986], [-48.03516843, -25.14833161], [-48.03497277, -25.14793407], [-48.03490269, -25.14759554], [-48.03491081, -25.14739256], [-48.03502159, -25.14706356], [-48.03573932, -25.14624004], [-48.0361831, -25.14563228], [-48.0363202, -25.14539358], [-48.03641514, -25.14534873], [-48.03656074, -25.14534463], [-48.03676824, -25.14535424], [-48.03693278, -25.14542688], [-48.03704674, -25.14543622], [-48.03715083, -25.14543201], [-48.03730352, -25.14534672], [-48.03763008, -25.14495968], [-48.03767373, -25.14487409], [-48.03771531, -25.1446712], [-48.0376937, -25.14446814], [-48.03759043, -25.14422876], [-48.03739907, -25.14384477], [-48.03718424, -25.14362312], [-48.03713027, -25.14346056], [-48.03708376, -25.14329352], [-48.03715742, -25.14258096], [-48.03709842, -25.14244095], [-48.0368799, -25.14202981], [-48.03680705, -25.14159202], [-48.03669331, -25.14115412], [-48.03649527, -25.14073402], [-48.03632041, -25.14041774], [-48.03593447, -25.1398708], [-48.03585514, -25.13969915], [-48.03585804, -25.13957735], [-48.03592561, -25.13937905], [-48.03603117, -25.13930717], [-48.03595039, -25.13919867], [-48.03583786, -25.1391352], [-48.03560713, -25.1390353], [-48.03555251, -25.13888628], [-48.03557679, -25.13866981], [-48.03563803, -25.13851209], [-48.03587962, -25.13815187], [-48.03600751, -25.13788607], [-48.03608084, -25.13781861], [-48.03625316, -25.13778752], [-48.0366289, -25.13768933], [-48.0376971, -25.13762016], [-48.03813569, -25.13762139], [-48.03835811, -25.13761299], [-48.03864785, -25.13766343], [-48.03886439, -25.13774524], [-48.03909995, -25.13788124], [-48.0391915, -25.13810254], [-48.03927493, -25.13834638], [-48.0393237, -25.13894651], [-48.03936961, -25.13910904], [-48.03945458, -25.13926266], [-48.0395095, -25.13932597], [-48.03965283, -25.13943915], [-48.03998458, -25.13952579], [-48.04019697, -25.13955345], [-48.04037665, -25.13954493], [-48.04050198, -25.13948664], [-48.04060509, -25.13940572], [-48.04089039, -25.13912231], [-48.04095123, -25.13926684], [-48.04118658, -25.13946599], [-48.04143632, -25.13962458], [-48.04156964, -25.13976931], [-48.04160617, -25.13995888], [-48.04153018, -25.14063535], [-48.04148051, -25.14085175], [-48.04148811, -25.1409871], [-48.04153609, -25.14108648], [-48.04182199, -25.14136246], [-48.04217641, -25.14171081], [-48.04226907, -25.14178776], [-48.04236554, -25.14183765], [-48.04255953, -25.14181112], [-48.04270513, -25.14180702], [-48.04284441, -25.14183898], [-48.04293163, -25.14187532], [-48.04310796, -25.14212843], [-48.04320504, -25.14218284], [-48.04331964, -25.14218315], [-48.04384731, -25.14204026], [-48.04397431, -25.14204061], [-48.04429359, -25.14215428], [-48.0445328, -25.14231283], [-48.04477732, -25.14236764], [-48.04505322, -25.1424857], [-48.04555714, -25.14259085], [-48.04578197, -25.142605], [-48.04705063, -25.1428115], [-48.04764702, -25.14286728], [-48.04837283, -25.14294145], [-48.04895009, -25.14297462], [-48.04977706, -25.14299042], [-48.05044811, -25.14295165], [-48.05071809, -25.14298848], [-48.05127719, -25.1427058], [-48.05144672, -25.14257995], [-48.05223244, -25.14176556], [-48.05245397, -25.14146392], [-48.05322766, -25.14015778], [-48.05338559, -25.13997376], [-48.05355798, -25.13954567], [-48.05450237, -25.13774826], [-48.05480333, -25.13701825], [-48.05490983, -25.13684712], [-48.05524145, -25.13602246], [-48.05536849, -25.13544086], [-48.05539826, -25.13485899], [-48.05529936, -25.13403317], [-48.05534434, -25.13392365], [-48.05540368, -25.13369261], [-48.05453309, -25.13302969], [-48.0525992, -25.13234559], [-48.05269456, -25.13069014], [-48.05292561, -25.13040641], [-48.05332061, -25.12909095], [-48.05352567, -25.12857115], [-48.05396745, -25.12737616], [-48.05383953, -25.12597678], [-48.05363948, -25.12600769], [-48.05345374, -25.12598013], [-48.05318334, -25.12589368], [-48.0530013, -25.12587913], [-48.05264112, -25.12578341], [-48.05225605, -25.12571921], [-48.05191021, -25.12559195], [-48.05169626, -25.12547859], [-48.05115067, -25.12506657], [-48.05034141, -25.12421225], [-48.04985963, -25.12380891], [-48.04977511, -25.12382288], [-48.05000245, -25.1226281], [-48.04893494, -25.1217254], [-48.04846391, -25.12116462], [-48.04838287, -25.11781796], [-48.04543459, -25.11617856], [-48.04590531, -25.11339429], [-48.04390708, -25.11254575], [-48.04157012, -25.11235206], [-48.03983721, -25.11389806], [-48.03866606, -25.11391142], [-48.03728983, -25.11416499], [-48.03713544, -25.11403372], [-48.03653909, -25.11363956], [-48.03622275, -25.1134131], [-48.03607642, -25.11327735], [-48.03599833, -25.11311021], [-48.03595142, -25.11288], [-48.03585889, -25.11113386], [-48.03581869, -25.11093525], [-48.03568345, -25.11063712], [-48.03553255, -25.11038857], [-48.03540855, -25.11024386], [-48.0353486, -25.1102076], [-48.03526889, -25.11015324], [-48.03512042, -25.11010319], [-48.03503207, -25.11003979], [-48.03465321, -25.10962367], [-48.03455747, -25.10954671], [-48.03412155, -25.10933795], [-48.0339516, -25.1092292], [-48.0339405, -25.10921563], [-48.03368124, -25.10896226], [-48.03330525, -25.10843337], [-48.03321092, -25.10830679], [-48.03313001, -25.1082434], [-48.03301933, -25.10818895], [-48.03227624, -25.1079748], [-48.03195101, -25.10781598], [-48.03187008, -25.1077571], [-48.03170294, -25.10755362], [-48.03142214, -25.10708364], [-48.0313106, -25.10674046], [-48.03130749, -25.10656451], [-48.03138221, -25.10626697], [-48.03164883, -25.10545569], [-48.0317073, -25.10520322], [-48.03180195, -25.10469371], [-48.03189421, -25.10397667], [-48.03196759, -25.10371071], [-48.03208615, -25.10344939], [-48.03241598, -25.1028052], [-48.03265839, -25.10236829], [-48.0328021, -25.10199877], [-48.03285313, -25.10174627], [-48.03284547, -25.10145301], [-48.0328343, -25.10127704], [-48.03273606, -25.10102864], [-48.0326135, -25.10082979], [-48.03244572, -25.10063532], [-48.03228456, -25.10049501], [-48.0320566, -25.10033195], [-48.03155323, -25.10011397], [-48.03139883, -25.09999173], [-48.03127618, -25.09981995], [-48.03120628, -25.09961673], [-48.03117643, -25.09929183], [-48.0311954, -25.09881819], [-48.03146754, -25.09747909], [-48.03145633, -25.09731665], [-48.03137969, -25.09709086], [-48.03127271, -25.09686499], [-48.03121958, -25.09679777], [-48.03124346, -25.09678211], [-48.03111661, -25.09611868], [-48.03257557, -25.09563222], [-48.03332059, -25.09604821], [-48.03376377, -25.09605151], [-48.03402238, -25.09612443], [-48.03420735, -25.0961836], [-48.03431073, -25.09619743], [-48.03466877, -25.09616686], [-48.0351101, -25.09605082], [-48.03521625, -25.09597442], [-48.0352828, -25.0958934], [-48.03531642, -25.09583937], [-48.03536462, -25.09569062], [-48.03537036, -25.09546056], [-48.03526377, -25.09493693], [-48.03527659, -25.09480614], [-48.03529947, -25.09463478], [-48.03541754, -25.09433285], [-48.03543851, -25.094175], [-48.03541922, -25.09402156], [-48.0353672, -25.09377675], [-48.03563233, -25.09379568], [-48.03654935, -25.0937034], [-48.0384521, -25.09340579], [-48.03908689, -25.0925554], [-48.03937135, -25.0909468], [-48.04174978, -25.08984351], [-48.03965258, -25.08870589], [-48.03950625, -25.0889442], [-48.03921396, -25.08928571], [-48.03898534, -25.08948465], [-48.03696465, -25.08885291], [-48.03274399, -25.08568893], [-48.03085969, -25.08455661], [-48.03021053, -25.08291599], [-48.02665063, -25.08007493], [-48.02572175, -25.08076788], [-48.02509639, -25.08098635], [-48.02466924, -25.08217467], [-48.02466589, -25.08237344], [-48.02463855, -25.08257637], [-48.02456669, -25.08276113], [-48.02426917, -25.08302194], [-48.02369969, -25.08331804], [-48.0233799, -25.08357427], [-48.02325572, -25.08366865], [-48.02314869, -25.08381721], [-48.02307394, -25.08412377], [-48.0230573, -25.08427711], [-48.02306982, -25.08441249], [-48.02317432, -25.08463839], [-48.02435655, -25.08602229], [-48.02509932, -25.08682296], [-48.02542647, -25.08712617], [-48.02554154, -25.08733404], [-48.02558071, -25.08764543], [-48.02555879, -25.08789349], [-48.0255638, -25.08805592], [-48.02526536, -25.08893478], [-48.02516908, -25.08944129], [-48.02440835, -25.09052032], [-48.0242007, -25.09075432], [-48.02400258, -25.09092066], [-48.02375258, -25.09104626], [-48.02334595, -25.09115787], [-48.02303801, -25.0912066], [-48.02294825, -25.09119732], [-48.02288956, -25.09115654], [-48.02272318, -25.09092147], [-48.02266032, -25.09090765], [-48.02182565, -25.09260858], [-48.02337202, -25.09630665], [-48.02418039, -25.09930232], [-48.02459201, -25.10309219], [-48.02351295, -25.11109002], [-48.02316567, -25.11521048], [-48.02152962, -25.1203916], [-48.0199671, -25.12253745], [-48.01892336, -25.12357248], [-48.01878008, -25.12362619], [-48.01852927, -25.12378786], [-48.0179335, -25.12428236], [-48.01775692, -25.12447131], [-48.01763234, -25.12466944], [-48.01750416, -25.12500741], [-48.01742647, -25.12543124], [-48.01742066, -25.12567483], [-48.01744672, -25.12583732], [-48.01750392, -25.12595027], [-48.01781667, -25.12631659], [-48.01820658, -25.1265839], [-48.01920522, -25.12707404], [-48.02269427, -25.12854134], [-48.02512513, -25.12919348], [-48.0258973, -25.12944834], [-48.0262084, -25.12958457], [-48.02656264, -25.12978409], [-48.02757714, -25.13054038], [-48.0281416, -25.13103373], [-48.0287672, -25.13176183], [-48.02926122, -25.1323858], [-48.02944036, -25.13271112], [-48.02985751, -25.1337138], [-48.03007918, -25.13445879], [-48.03034851, -25.13539789], [-48.03055039, -25.13631425], [-48.03138282, -25.13995716], [-48.03164064, -25.14136539], [-48.03181914, -25.14296286], [-48.03188769, -25.14446979], [-48.03187817, -25.14579605], [-48.03204491, -25.14847616], [-48.0321274, -25.14971245], [-48.03219011, -25.15021337], [-48.03248414, -25.15136906], [-48.0327527, -25.15200589], [-48.03321109, -25.15256658], [-48.03343702, -25.15280631], [-48.03363317, -25.15305949], [-48.03384421, -25.1533082], [-48.0342469, -25.15367474], [-48.03429002, -25.15374704], [-48.03431077, -25.15383732], [-48.03429381, -25.15390494], [-48.03429044, -25.15434702], [-48.03432461, -25.1545005], [-48.03439673, -25.15460897], [-48.03454309, -25.15474923], [-48.03464638, -25.15479914], [-48.03478816, -25.15482661]]]]}}]}