{"type": "FeatureCollection", "features": [{"type": "Feature", "properties": {"name": "Reserva Particular do Patrimônio Natural Candeia"}, "geometry": {"type": "MultiPolygon", "coordinates": [[[[-44.42106972, -22.83659444], [-44.42494194, -22.83418667], [-44.42406694, -22.83435361], [-44.42399278, -22.83429167], [-44.42393028, -22.83421222], [-44.42388056, -22.83416917], [-44.4238125, -22.83413], [-44.42366361, -22.8341275], [-44.42358944, -22.83409694], [-44.42347417, -22.83413694], [-44.42322667, -22.83414333], [-44.42309389, -22.8341175], [-44.422955, -22.83414222], [-44.42287278, -22.83412861], [-44.42281833, -22.83412472], [-44.42260194, -22.83404972], [-44.42229861, -22.83418722], [-44.42201556, -22.83442472], [-44.4218475, -22.834365], [-44.42181778, -22.83436222], [-44.42181972, -22.83435194], [-44.42175361, -22.83281639], [-44.42099111, -22.83275556], [-44.4207275, -22.83267944], [-44.42023444, -22.83265472], [-44.41991306, -22.83253556], [-44.41968611, -22.83225861], [-44.41902222, -22.83206944], [-44.41855333, -22.83151556], [-44.41801139, -22.83048889], [-44.41767639, -22.83006056], [-44.41629028, -22.83034222], [-44.41606528, -22.83095], [-44.41605, -22.83119583], [-44.41466139, -22.83086111], [-44.41406278, -22.83210139], [-44.41336889, -22.83290917], [-44.41252917, -22.83417889], [-44.42106972, -22.83659444]]]]}}]}