{"type": "FeatureCollection", "features": [{"type": "Feature", "properties": {"name": "Reserva Particular do Patrimônio Natural Serrinha"}, "geometry": {"type": "MultiPolygon", "coordinates": [[[[-44.81389387, -22.47822967], [-44.81389476, -22.47822913], [-44.81675958, -22.47647052], [-44.81763778, -22.47437962], [-44.81875569, -22.47383503], [-44.81894878, -22.47484706], [-44.81943327, -22.4760401], [-44.8220097, -22.47637735], [-44.82310799, -22.47759121], [-44.82354592, -22.47726779], [-44.82429865, -22.47639321], [-44.82466134, -22.47571389], [-44.82460152, -22.47535591], [-44.82460096, -22.47535254], [-44.82471649, -22.4750055], [-44.82485602, -22.47483086], [-44.8249383, -22.47472854], [-44.82501643, -22.47458104], [-44.82510021, -22.47442368], [-44.82510006, -22.47442318], [-44.82508162, -22.47436376], [-44.82507766, -22.47430525], [-44.82507012, -22.47420396], [-44.82510346, -22.47407996], [-44.82503978, -22.47353617], [-44.82518768, -22.47315964], [-44.8252761, -22.47307398], [-44.82555742, -22.47298481], [-44.82562923, -22.47294475], [-44.82565602, -22.47266792], [-44.82565603, -22.47266786], [-44.82562623, -22.47257983], [-44.82529105, -22.4715893], [-44.82525197, -22.47152061], [-44.82513795, -22.47132021], [-44.82474343, -22.47038404], [-44.82461916, -22.47010192], [-44.82440367, -22.46961212], [-44.82436979, -22.46942535], [-44.82443099, -22.46883206], [-44.82446647, -22.46861997], [-44.82447625, -22.46856241], [-44.82451172, -22.46851653], [-44.82482115, -22.46811638], [-44.82488786, -22.46796738], [-44.82494266, -22.46765746], [-44.82493743, -22.46759411], [-44.82492878, -22.46748927], [-44.82384427, -22.46601164], [-44.82380141, -22.46552908], [-44.82380121, -22.46552858], [-44.82376765, -22.46544552], [-44.82373762, -22.46537183], [-44.82357786, -22.46514064], [-44.82338077, -22.46503861], [-44.8230596, -22.46490248], [-44.82259098, -22.46445758], [-44.82255417, -22.46440475], [-44.8222646, -22.46398926], [-44.82226227, -22.4639471], [-44.82225654, -22.4638148], [-44.82231629, -22.46367044], [-44.82254925, -22.46310762], [-44.82249144, -22.46283077], [-44.82248603, -22.46280484], [-44.82230506, -22.46255087], [-44.82223029, -22.46244594], [-44.82155943, -22.4609206], [-44.82140077, -22.46070341], [-44.82111285, -22.46030926], [-44.8211109, -22.4603001], [-44.82102822, -22.45991092], [-44.82102629, -22.45967206], [-44.82120644, -22.45887816], [-44.82120661, -22.45887754], [-44.82120347, -22.45887681], [-44.82150025, -22.45778372], [-44.8215402, -22.45755866], [-44.82164794, -22.45694889], [-44.82164832, -22.45686184], [-44.82164907, -22.45616665], [-44.82154619, -22.45585541], [-44.8213122, -22.45515617], [-44.82129879, -22.45500619], [-44.82131387, -22.45493008], [-44.82132432, -22.45487739], [-44.82138138, -22.45479343], [-44.82144128, -22.45476721], [-44.82222459, -22.45481397], [-44.8226937, -22.45476904], [-44.82306935, -22.45469339], [-44.82326046, -22.45462748], [-44.82335969, -22.45459325], [-44.82352767, -22.45445341], [-44.82353765, -22.45444503], [-44.82355442, -22.45417103], [-44.82358063, -22.4540735], [-44.8237049, -22.45361117], [-44.82376457, -22.45310489], [-44.82378574, -22.45292795], [-44.82479538, -22.45152685], [-44.82514397, -22.45116704], [-44.82558149, -22.45087725], [-44.82616186, -22.45060387], [-44.82651579, -22.45023946], [-44.82655997, -22.45019054], [-44.82692375, -22.44979197], [-44.82697128, -22.44973507], [-44.82716796, -22.44951728], [-44.82750204, -22.44924207], [-44.82818736, -22.44857591], [-44.8287033, -22.44833243], [-44.82912029, -22.44813508], [-44.82913994, -22.44794975], [-44.82915392, -22.4478116], [-44.82910296, -22.44760704], [-44.82909052, -22.44747645], [-44.82908719, -22.44744151], [-44.8291019, -22.44714923], [-44.82912223, -22.44711097], [-44.82917369, -22.44701416], [-44.82928303, -22.44674484], [-44.82934752, -22.44658436], [-44.82937316, -22.4465562], [-44.82958817, -22.44631825], [-44.82972922, -22.44620673], [-44.82982911, -22.44612673], [-44.82998032, -22.44597526], [-44.83015438, -22.44584409], [-44.83018888, -22.44580266], [-44.83018689, -22.44577123], [-44.83018552, -22.44574957], [-44.83001556, -22.44553482], [-44.82932268, -22.44507983], [-44.82924947, -22.44503932], [-44.82912741, -22.44472981], [-44.8291972, -22.44458165], [-44.82935532, -22.44440834], [-44.82948493, -22.44414351], [-44.82952562, -22.44406202], [-44.82960006, -22.44395615], [-44.82974145, -22.44375509], [-44.82988399, -22.44346691], [-44.82994821, -22.44333466], [-44.83011359, -22.44300126], [-44.83037442, -22.44231845], [-44.83051979, -22.44161393], [-44.83057316, -22.44135191], [-44.83065592, -22.44121805], [-44.83066553, -22.44120244], [-44.83075775, -22.44105183], [-44.83093194, -22.4408646], [-44.83201416, -22.44041911], [-44.83221289, -22.44024443], [-44.83242733, -22.43994524], [-44.83250348, -22.43930189], [-44.83252579, -22.43886886], [-44.83257856, -22.43784479], [-44.83258967, -22.43679909], [-44.83260485, -22.43672433], [-44.83261189, -22.43668962], [-44.83268465, -22.43654882], [-44.83294345, -22.43626611], [-44.83329912, -22.4360073], [-44.83329892, -22.43600829], [-44.83388661, -22.43572451], [-44.83423926, -22.4355262], [-44.83425672, -22.43551638], [-44.83436461, -22.43537564], [-44.83443026, -22.43528976], [-44.83441253, -22.43500131], [-44.83429556, -22.43473383], [-44.83413838, -22.43437444], [-44.83371502, -22.43392432], [-44.83365282, -22.43368585], [-44.83388882, -22.43281073], [-44.83400875, -22.43236598], [-44.83329921, -22.4319818], [-44.83329912, -22.43198173], [-44.83329689, -22.43198053], [-44.83283641, -22.43161259], [-44.83219727, -22.43352519], [-44.83165627, -22.43514599], [-44.83090488, -22.43670108], [-44.83015374, -22.43825669], [-44.82830363, -22.44029973], [-44.82674576, -22.44258432], [-44.82675212, -22.44257606], [-44.82650081, -22.44294467], [-44.82467456, -22.44704793], [-44.82201585, -22.45087843], [-44.82198719, -22.45091973], [-44.82189051, -22.45105902], [-44.81732967, -22.45383784], [-44.81720923, -22.45906882], [-44.81720922, -22.45906923], [-44.81801857, -22.46262155], [-44.81800005, -22.46297396], [-44.81787307, -22.46535886], [-44.81755799, -22.46744802], [-44.8171254, -22.47031622], [-44.81712384, -22.47031936], [-44.8171104, -22.47040826], [-44.81557862, -22.47343224], [-44.81507741, -22.47442166], [-44.81474279, -22.47617436], [-44.81449884, -22.47676499], [-44.81389395, -22.47822948], [-44.81389387, -22.47822967]]]]}}]}