{"type": "FeatureCollection", "features": [{"type": "Feature", "properties": {"name": "Reserva Biológica Mogi-Guaçu"}, "geometry": {"type": "MultiPolygon", "coordinates": [[[[-47.19470965, -22.26077906], [-47.19446033, -22.26042176], [-47.19428105, -22.2599105], [-47.1941549, -22.25948334], [-47.19410178, -22.25929079], [-47.19403538, -22.25912037], [-47.19394243, -22.25893003], [-47.19382955, -22.25880166], [-47.19359052, -22.2586578], [-47.19338469, -22.25846304], [-47.19316115, -22.25828708], [-47.19308811, -22.25821792], [-47.19292378, -22.25803533], [-47.19275612, -22.25785771], [-47.19259224, -22.25766928], [-47.19252373, -22.25757995], [-47.19246287, -22.25747703], [-47.19235553, -22.25724022], [-47.19231347, -22.25710189], [-47.192267, -22.25680642], [-47.19229356, -22.25653862], [-47.19229522, -22.25647443], [-47.19228747, -22.25639807], [-47.19227087, -22.25628133], [-47.19224597, -22.25585472], [-47.19223933, -22.25567822], [-47.19222052, -22.25548788], [-47.19218068, -22.25525216], [-47.1920999, -22.25500871], [-47.19204456, -22.25486153], [-47.19197153, -22.25473537], [-47.19184759, -22.25460922], [-47.19168381, -22.25450077], [-47.19149955, -22.25440504], [-47.1913994, -22.25436742], [-47.19125443, -22.25430323], [-47.19120132, -22.25429272], [-47.19115318, -22.25427833], [-47.19111057, -22.25425842], [-47.19107018, -22.25422909], [-47.1909905, -22.25414665], [-47.19094569, -22.25408412], [-47.19084941, -22.25392587], [-47.19078855, -22.25386169], [-47.1907144, -22.25380525], [-47.19062587, -22.25375435], [-47.19043, -22.25369902], [-47.19033151, -22.2536791], [-47.1901799, -22.25363373], [-47.19002719, -22.25357065], [-47.18995415, -22.25351642], [-47.18988222, -22.25344117], [-47.18978594, -22.25329399], [-47.18963821, -22.25310033], [-47.1895613, -22.25303062], [-47.18941854, -22.25294485], [-47.18928741, -22.25289505], [-47.18916236, -22.25281316], [-47.18899858, -22.2526693], [-47.1888857, -22.25258741], [-47.18872303, -22.25250442], [-47.18855925, -22.25244023], [-47.18848769, -22.25241625], [-47.18828628, -22.25229231], [-47.18820513, -22.25223255], [-47.18809594, -22.25213517], [-47.18797717, -22.25205181], [-47.18782593, -22.25199113], [-47.18767598, -22.25191624], [-47.18739951, -22.25175357], [-47.18714572, -22.25162225], [-47.1867857, -22.25142601], [-47.1865688, -22.25131535], [-47.18645888, -22.2512637], [-47.18634821, -22.25122387], [-47.18624272, -22.251201], [-47.18613722, -22.25118624], [-47.18604205, -22.25116485], [-47.18560751, -22.25108148], [-47.18550054, -22.25105713], [-47.18524675, -22.25098262], [-47.18501731, -22.25088966], [-47.18491698, -22.25085278], [-47.18482697, -22.2508122], [-47.1847532, -22.25077531], [-47.1846595, -22.25074359], [-47.18457245, -22.25072736], [-47.18427587, -22.25069711], [-47.18409734, -22.25065285], [-47.18390626, -22.25058497], [-47.18369895, -22.25049866], [-47.18362075, -22.25045439], [-47.1835337, -22.25041382], [-47.18339426, -22.2503061], [-47.18333672, -22.25023528], [-47.18326589, -22.25017479], [-47.18315523, -22.25011577], [-47.18298998, -22.25004347], [-47.18279373, -22.2499992], [-47.18270188, -22.2499649], [-47.182537, -22.24992395], [-47.18218915, -22.24985423], [-47.18206668, -22.24983726], [-47.18194717, -22.24981587], [-47.18174392, -22.24977492], [-47.18166424, -22.24975058], [-47.18165354, -22.24975095], [-47.18150046, -22.24971443], [-47.1812902, -22.24967164], [-47.18108769, -22.24963475], [-47.18093756, -22.24962258], [-47.18069262, -22.2496259], [-47.18046097, -22.24959491], [-47.17969592, -22.24947909], [-47.17953362, -22.24944441], [-47.17922118, -22.24935109], [-47.17905998, -22.24932047], [-47.17872209, -22.24928653], [-47.17852843, -22.24923711], [-47.17838679, -22.24918694], [-47.1783108, -22.24915005], [-47.17823333, -22.24910652], [-47.178088, -22.2490309], [-47.17786593, -22.24890659], [-47.17781134, -22.24887339], [-47.17775527, -22.24884536], [-47.17760772, -22.24878413], [-47.17752436, -22.24875388], [-47.17733549, -22.24869707], [-47.17699465, -22.24860264], [-47.17692161, -22.24858567], [-47.17684267, -22.24856354], [-47.17671136, -22.24854583], [-47.17656307, -22.24852075], [-47.17645683, -22.24849788], [-47.1763565, -22.24847206], [-47.17613953, -22.24848755], [-47.17575976, -22.24849121], [-47.17556335, -22.24849975], [-47.17538622, -22.24851806], [-47.1750271, -22.248606], [-47.17473647, -22.24869392], [-47.17446001, -22.24877308], [-47.17429687, -22.24883312], [-47.17418575, -22.24890273], [-47.17408317, -22.24897477], [-47.17398304, -22.24903705], [-47.17388657, -22.24909078], [-47.17380354, -22.24915916], [-47.17354955, -22.24931302], [-47.17319054, -22.24956457], [-47.17316612, -22.24956701], [-47.17311361, -22.2496012], [-47.17296052, -22.24971541], [-47.17280345, -22.24984054], [-47.1726585, -22.24997452], [-47.17244945, -22.25020307], [-47.17238216, -22.2503009], [-47.17228936, -22.25039249], [-47.17221014, -22.2504912], [-47.17210985, -22.25062633], [-47.17205002, -22.2506764], [-47.17187357, -22.25078874], [-47.17178626, -22.2508327], [-47.17141992, -22.25096946], [-47.17128804, -22.25102563], [-47.17117692, -22.25106654], [-47.17096323, -22.25111355], [-47.17082463, -22.25112638], [-47.17053461, -22.25111661], [-47.17027696, -22.25114775], [-47.17004251, -22.25114714], [-47.16985323, -22.25110623], [-47.16968106, -22.25104273], [-47.16934769, -22.25088887], [-47.16925244, -22.25085956], [-47.16919383, -22.25084735], [-47.16898929, -22.25084674], [-47.16873408, -22.25087361], [-47.16847643, -22.25087727], [-47.16785488, -22.25084064], [-47.16771323, -22.25083453], [-47.16758562, -22.25081682], [-47.16735605, -22.25079668], [-47.16647563, -22.25078935], [-47.16630651, -22.25077531], [-47.16606411, -22.25074905], [-47.16591025, -22.25074661], [-47.16558055, -22.25075882], [-47.16521055, -22.25074356], [-47.1648198, -22.25083636], [-47.16444125, -22.25088032], [-47.1640505, -22.25089375], [-47.16359624, -22.25097923], [-47.16331294, -22.2510293], [-47.1631484, -22.25107967], [-47.16259554, -22.25126864], [-47.16250853, -22.2512897], [-47.16240077, -22.25130771], [-47.16226431, -22.25130435], [-47.16193949, -22.25127444], [-47.16185524, -22.25128237], [-47.16176854, -22.25130374], [-47.16163666, -22.2513648], [-47.16146814, -22.25144783], [-47.16127765, -22.25151377], [-47.16098458, -22.25154797], [-47.1605694, -22.2515675], [-47.16002967, -22.25156995], [-47.15983918, -22.25156018], [-47.15965113, -22.25156995], [-47.15923839, -22.25156262], [-47.15870476, -22.25154552], [-47.15833232, -22.25155041], [-47.15805314, -22.25146524], [-47.15852282, -22.25059183], [-47.15731147, -22.25015345], [-47.15640296, -22.24990923], [-47.14931965, -22.24788053], [-47.14819506, -22.24954064], [-47.14787375, -22.25006086], [-47.14769014, -22.25046633], [-47.14741473, -22.2510095], [-47.14711637, -22.25156032], [-47.14694424, -22.25191223], [-47.14676828, -22.25223737], [-47.14635134, -22.25321278], [-47.14627867, -22.25343463], [-47.14623707, -22.2536345], [-47.14625046, -22.25381667], [-47.1462801, -22.25397589], [-47.14637382, -22.25434215], [-47.14648188, -22.25501824], [-47.14651343, -22.25529078], [-47.14651343, -22.25535677], [-47.14652491, -22.25540458], [-47.14654882, -22.2557125], [-47.14659902, -22.25619591], [-47.14661337, -22.25659563], [-47.14665831, -22.25680602], [-47.14671186, -22.25689591], [-47.14676924, -22.25693225], [-47.14686296, -22.2569858], [-47.14760173, -22.2569418], [-47.14873076, -22.25686755], [-47.14903284, -22.25684371], [-47.14969519, -22.25679917], [-47.1529256, -22.2566006], [-47.15562745, -22.25645729], [-47.15976469, -22.25627143], [-47.16112771, -22.25620325], [-47.16455255, -22.25605736], [-47.16931303, -22.25589255], [-47.17505016, -22.25568453], [-47.17680691, -22.25566062], [-47.18794097, -22.25912519], [-47.18865198, -22.2591745], [-47.18932019, -22.25919471], [-47.19142185, -22.25954741], [-47.19221654, -22.2597139], [-47.19417383, -22.26073061], [-47.1946324, -22.26078319], [-47.19470965, -22.26077906]]], [[[-47.14521219, -22.21464107], [-47.14533735, -22.21448528], [-47.14547827, -22.21433561], [-47.14565857, -22.21411942], [-47.14590802, -22.21379119], [-47.14620386, -22.21342533], [-47.14629051, -22.2133238], [-47.14663361, -22.21286604], [-47.14690669, -22.21245729], [-47.14707387, -22.21222797], [-47.14715352, -22.21208268], [-47.14719991, -22.21193126], [-47.14731632, -22.21160566], [-47.14744236, -22.21132908], [-47.14766642, -22.21086694], [-47.1477452, -22.21064287], [-47.14786773, -22.21026651], [-47.1479115, -22.21010196], [-47.1479964, -22.20984551], [-47.1481023, -22.20937462], [-47.14814607, -22.20913479], [-47.1481592, -22.20894486], [-47.14814519, -22.2088337], [-47.14812156, -22.20876981], [-47.14811193, -22.20869454], [-47.1480813, -22.20867966], [-47.14798064, -22.20819564], [-47.14795001, -22.20809498], [-47.14790624, -22.20796632], [-47.14779946, -22.20748142], [-47.14775307, -22.20719521], [-47.14773207, -22.20709543], [-47.14771106, -22.20701228], [-47.14767679, -22.2069117], [-47.14761229, -22.20669783], [-47.1475859, -22.20664205], [-47.14749925, -22.20636809], [-47.14745868, -22.20626363], [-47.14744586, -22.20621142], [-47.1474231, -22.20614927], [-47.14736883, -22.20602148], [-47.14728444, -22.20576118], [-47.14723929, -22.20560398], [-47.14720253, -22.2055007], [-47.1471579, -22.20540792], [-47.14704849, -22.20523812], [-47.14687431, -22.2050587], [-47.14673427, -22.20484951], [-47.14659204, -22.20454885], [-47.14654827, -22.20442107], [-47.14649576, -22.20429503], [-47.14642224, -22.20414448], [-47.14635397, -22.2040272], [-47.14624193, -22.20381889], [-47.14602278, -22.20343955], [-47.14588001, -22.20317819], [-47.14583445, -22.20311357], [-47.14579842, -22.20305121], [-47.14576098, -22.20297688], [-47.1456857, -22.2028561], [-47.14547914, -22.20256551], [-47.14527433, -22.20224691], [-47.14511853, -22.20197733], [-47.14494873, -22.20158171], [-47.14462138, -22.20089726], [-47.1445785, -22.20079223], [-47.14453998, -22.20068107], [-47.14448484, -22.20056553], [-47.1444297, -22.20046925], [-47.14429579, -22.20019005], [-47.14416975, -22.19991521], [-47.14412603, -22.19982601], [-47.14404196, -22.19966576], [-47.14385772, -22.19937386], [-47.14370848, -22.19909903], [-47.1435522, -22.19882768], [-47.14340739, -22.19852136], [-47.14319383, -22.19795769], [-47.14315532, -22.1978404], [-47.14311856, -22.19768286], [-47.14310455, -22.19743428], [-47.14311593, -22.19719096], [-47.14312381, -22.19710956], [-47.14313606, -22.19703516], [-47.1431694, -22.19690441], [-47.14325685, -22.19653276], [-47.14330017, -22.19642204], [-47.14333168, -22.19632051], [-47.14336494, -22.19619972], [-47.14349623, -22.19566931], [-47.14374656, -22.19525094], [-47.14391461, -22.19501112], [-47.14407828, -22.1947888], [-47.1437048, -22.19509718], [-47.14295806, -22.19591228], [-47.14168688, -22.19680318], [-47.1405469, -22.19748367], [-47.13959594, -22.19782241], [-47.13773387, -22.19817303], [-47.13929793, -22.20130769], [-47.14110885, -22.20548348], [-47.14253355, -22.20897688], [-47.1428884, -22.20976385], [-47.14508305, -22.21481476], [-47.14521219, -22.21464107]]]]}}]}