{"type": "FeatureCollection", "features": [{"type": "Feature", "properties": {"name": "Reserva Particular do Patrimônio Natural Kon Tiki"}, "geometry": {"type": "MultiPolygon", "coordinates": [[[[-47.42277212, -21.74414013], [-47.42401104, -21.74365301], [-47.42428716, -21.74354444], [-47.42532547, -21.74313268], [-47.42536384, -21.74311728], [-47.42577267, -21.74299326], [-47.42597332, -21.7429326], [-47.42647748, -21.74278018], [-47.42668695, -21.74271261], [-47.42695603, -21.74261992], [-47.4272215, -21.74252848], [-47.42740005, -21.74246698], [-47.42765694, -21.74237849], [-47.42772618, -21.74235399], [-47.42786724, -21.74230408], [-47.42826451, -21.74193468], [-47.42834701, -21.74185796], [-47.42851973, -21.7416881], [-47.42871779, -21.74149333], [-47.42889469, -21.74131936], [-47.42916232, -21.74105616], [-47.42951842, -21.74070815], [-47.42987104, -21.7403642], [-47.429963, -21.74027449], [-47.42996326, -21.7402485], [-47.429925, -21.74022783], [-47.4298661, -21.74006526], [-47.42964924, -21.73946677], [-47.42941837, -21.73964247], [-47.42898594, -21.73997156], [-47.42779064, -21.7408812], [-47.42719132, -21.74133626], [-47.42692448, -21.74153853], [-47.42681745, -21.74130935], [-47.42669106, -21.7410387], [-47.42657584, -21.74079199], [-47.42647045, -21.74056632], [-47.42642805, -21.74047552], [-47.42614618, -21.74057527], [-47.42634031, -21.74093007], [-47.42642358, -21.74108225], [-47.42645646, -21.74114235], [-47.42635851, -21.741191], [-47.42642511, -21.74140564], [-47.42643432, -21.7414353], [-47.4264588, -21.7414935], [-47.42648217, -21.74154906], [-47.42650734, -21.7416089], [-47.42653755, -21.74168071], [-47.42654942, -21.74170895], [-47.42658286, -21.74178844], [-47.42659327, -21.74181318], [-47.42689377, -21.74176994], [-47.42713417, -21.74176363], [-47.42723593, -21.74176095], [-47.42733513, -21.74175231], [-47.42752746, -21.74173555], [-47.42762427, -21.74174469], [-47.42787781, -21.74176985], [-47.42804417, -21.74178757], [-47.42817521, -21.74180153], [-47.42821372, -21.74180712], [-47.428227, -21.74181011], [-47.42824334, -21.7418138], [-47.42823955, -21.7418525], [-47.42777161, -21.7417949], [-47.42756661, -21.7417749], [-47.42753106, -21.74177143], [-47.42723953, -21.74179692], [-47.42700856, -21.74180283], [-47.42689978, -21.74180561], [-47.4265634, -21.74185383], [-47.42617665, -21.74188088], [-47.42592619, -21.74187455], [-47.42580555, -21.7418715], [-47.42550039, -21.74190133], [-47.42544373, -21.74190687], [-47.4246982, -21.74216374], [-47.42471576, -21.74221974], [-47.42434705, -21.74227064], [-47.42409552, -21.74218585], [-47.42408743, -21.742099], [-47.42407467, -21.74202999], [-47.42405422, -21.74195283], [-47.42404007, -21.74189945], [-47.4240358, -21.74182358], [-47.42417615, -21.74179606], [-47.42444927, -21.74143379], [-47.42510552, -21.74125316], [-47.42508164, -21.74106569], [-47.42506779, -21.74095703], [-47.42467038, -21.74105768], [-47.4243275, -21.74114453], [-47.42416468, -21.74118578], [-47.42404855, -21.74121522], [-47.4239488, -21.7412405], [-47.42390845, -21.74124335], [-47.42384323, -21.74137547], [-47.42378536, -21.74149272], [-47.42363006, -21.74160081], [-47.42335645, -21.74179123], [-47.42316185, -21.74192667], [-47.42308653, -21.74206233], [-47.4230082, -21.7422034], [-47.42299893, -21.74232501], [-47.42298737, -21.74247661], [-47.42297701, -21.74261252], [-47.42297113, -21.7426897], [-47.42287594, -21.74284953], [-47.42280617, -21.74296668], [-47.42264492, -21.74346537], [-47.42271308, -21.74382694], [-47.42277212, -21.74414013]]]]}}]}