{"type": "FeatureCollection", "features": [{"type": "Feature", "properties": {"name": "Reserva Particular do Patrimônio Natural Pousada Campos da Bocaina"}, "geometry": {"type": "MultiPolygon", "coordinates": [[[[-44.61616667, -22.71977778], [-44.61683326, -22.71999998], [-44.61738875, -22.7201944], [-44.61752763, -22.72022217], [-44.61799984, -22.7201944], [-44.6184998, -22.7204166], [-44.61894417, -22.72072211], [-44.61930525, -22.72086098], [-44.61949966, -22.72088876], [-44.61966626, -22.72094429], [-44.61994403, -22.72099984], [-44.62074954, -22.72111095], [-44.62086065, -22.72111095], [-44.62069404, -22.7209721], [-44.62069404, -22.72091655], [-44.62074954, -22.72091655], [-44.62072179, -22.7208888], [-44.62061075, -22.72091656], [-44.62058299, -22.72077773], [-44.62044412, -22.72055555], [-44.62041636, -22.72041672], [-44.62030528, -22.72036115], [-44.62024976, -22.72027786], [-44.620222, -22.72016681], [-44.62066636, -22.72000017], [-44.6206183, -22.71997374], [-44.62022583, -22.71997236], [-44.62006035, -22.71978205], [-44.61995282, -22.71964222], [-44.61951847, -22.72020596], [-44.61930791, -22.72009816], [-44.6190157, -22.71994856], [-44.61839802, -22.71963233], [-44.6177663, -22.71965703], [-44.61689463, -22.71911108], [-44.61678529, -22.71916765], [-44.61664722, -22.71927803], [-44.61642442, -22.7195004], [-44.61625604, -22.71966666], [-44.61616667, -22.71977778]]]]}}]}