{"type": "FeatureCollection", "features": [{"type": "Feature", "properties": {"name": "Reserva Particular do Patrimônio Natural Reserva Muriqui"}, "geometry": {"type": "MultiPolygon", "coordinates": [[[[-47.55622916, -24.01456114], [-47.55958409, -24.01340725], [-47.55903687, -24.01090602], [-47.55497922, -24.01084116], [-47.55497225, -24.01110999], [-47.55498207, -24.01119901], [-47.55498845, -24.01157647], [-47.55499769, -24.01185026], [-47.55498558, -24.01207269], [-47.55496715, -24.0122639], [-47.55501281, -24.012789], [-47.55502101, -24.01336257], [-47.55520414, -24.01357019], [-47.55553393, -24.01389911], [-47.55571206, -24.01409201], [-47.5559165, -24.01429828], [-47.55611522, -24.01445418], [-47.55622916, -24.01456114]]]]}}]}