{"type": "FeatureCollection", "features": [{"type": "Feature", "properties": {"name": "Reserva Extrativista Taquari"}, "geometry": {"type": "MultiPolygon", "coordinates": [[[[-48.02303801, -25.0912066], [-48.02334595, -25.09115787], [-48.02375258, -25.09104626], [-48.02400258, -25.09092066], [-48.0242007, -25.09075432], [-48.02440835, -25.09052032], [-48.02516908, -25.08944129], [-48.02526536, -25.08893478], [-48.0255638, -25.08805592], [-48.02555879, -25.08789349], [-48.02558071, -25.08764543], [-48.02554154, -25.08733404], [-48.02542647, -25.08712617], [-48.02509932, -25.08682296], [-48.02435655, -25.08602229], [-48.02317432, -25.08463839], [-48.02306982, -25.08441249], [-48.0230573, -25.08427711], [-48.02307394, -25.08412377], [-48.02314869, -25.08381721], [-48.02325572, -25.08366865], [-48.0233799, -25.08357427], [-48.02369969, -25.08331804], [-48.02426917, -25.08302194], [-48.02456669, -25.08276113], [-48.02463855, -25.08257637], [-48.02466589, -25.08237344], [-48.02466924, -25.08217467], [-48.02509639, -25.08098635], [-48.02456299, -25.08089864], [-48.02394694, -25.08073227], [-48.02361509, -25.08046892], [-48.02361051, -25.07949341], [-48.02368299, -25.07882747], [-48.02346321, -25.07859204], [-48.02262305, -25.07836983], [-48.02223114, -25.07825928], [-48.02195689, -25.07794575], [-48.0215192, -25.07739791], [-48.02113599, -25.07692818], [-48.02066641, -25.07653371], [-48.02036089, -25.07634789], [-48.01985444, -25.07631205], [-48.01941428, -25.07586683], [-48.01929146, -25.07511997], [-48.01936023, -25.07460798], [-48.01946463, -25.07378867], [-48.01993275, -25.07307935], [-48.02067262, -25.07278619], [-48.02121405, -25.07254038], [-48.02161464, -25.07229174], [-48.02206784, -25.07219816], [-48.02262999, -25.07226078], [-48.02315714, -25.07260506], [-48.02348835, -25.07289406], [-48.02379884, -25.07287463], [-48.02465075, -25.07260936], [-48.02524728, -25.07241598], [-48.02627007, -25.07207712], [-48.02711888, -25.07194012], [-48.02768723, -25.07174616], [-48.02836331, -25.07175971], [-48.02890225, -25.07161649], [-48.02901492, -25.07161875], [-48.02932665, -25.07154799], [-48.0298563, -25.07178961], [-48.03004605, -25.07210144], [-48.03010758, -25.07243915], [-48.03014387, -25.07271945], [-48.02982595, -25.07304678], [-48.02975722, -25.07355879], [-48.02992314, -25.07369045], [-48.03023301, -25.07369666], [-48.03056486, -25.07395999], [-48.031097, -25.07409899], [-48.0317217, -25.07390614], [-48.03175854, -25.07354752], [-48.03202445, -25.07303946], [-48.0321201, -25.07257933], [-48.03241108, -25.07220012], [-48.03292494, -25.07192804], [-48.03351836, -25.0718629], [-48.03443788, -25.07173445], [-48.03457715, -25.07175662], [-48.03476689, -25.07178217], [-48.03496328, -25.0717998], [-48.03516051, -25.07180569], [-48.03535776, -25.07179982], [-48.03555415, -25.0717822], [-48.03574886, -25.07175293], [-48.035937, -25.0717131], [-48.03616053, -25.07170734], [-48.03635692, -25.07168972], [-48.03718044, -25.0719361], [-48.03748537, -25.07214754], [-48.03781229, -25.07261611], [-48.03785875, -25.07302775], [-48.03807546, -25.07339144], [-48.03832096, -25.07373004], [-48.03879739, -25.07384223], [-48.0392255, -25.07361976], [-48.03956725, -25.07347256], [-48.04021517, -25.0734855], [-48.04097453, -25.07355199], [-48.04207441, -25.07352259], [-48.04244556, -25.07332463], [-48.04265509, -25.07281543], [-48.04290554, -25.07294877], [-48.04329314, -25.07323886], [-48.04376772, -25.073428], [-48.0451199, -25.07345495], [-48.0461034, -25.07357721], [-48.04725839, -25.07360021], [-48.04778809, -25.07384178], [-48.04834597, -25.07408391], [-48.04893386, -25.07424962], [-48.0490116, -25.07453353], [-48.04894849, -25.07481464], [-48.04908196, -25.07512532], [-48.04933242, -25.07525865], [-48.04938384, -25.07546503], [-48.04954979, -25.07559668], [-48.04974699, -25.0756006], [-48.04980825, -25.07539646], [-48.04959457, -25.0749045], [-48.04943232, -25.07461891], [-48.04935642, -25.07425803], [-48.04922603, -25.07381906], [-48.04920524, -25.07351061], [-48.04935594, -25.0731029], [-48.04933454, -25.07282012], [-48.04937255, -25.07241016], [-48.04963375, -25.07211207], [-48.05085671, -25.07202612], [-48.05110274, -25.07221355], [-48.05149354, -25.07263203], [-48.05183646, -25.07295828], [-48.05242978, -25.07328952], [-48.05281151, -25.07328163], [-48.05337347, -25.07346473], [-48.05414874, -25.07349923], [-48.05479959, -25.07347395], [-48.05530688, -25.07331209], [-48.0557631, -25.07353129], [-48.056238, -25.07384638], [-48.05658666, -25.07417807], [-48.05695947, -25.07437651], [-48.05751189, -25.0740818], [-48.05842983, -25.07429105], [-48.058866, -25.07447164], [-48.05913582, -25.07459162], [-48.0596121, -25.07484941], [-48.05986005, -25.07500716], [-48.06004509, -25.07516366], [-48.06052411, -25.07530689], [-48.06109768, -25.07550359], [-48.06108835, -25.07572502], [-48.06075201, -25.07604084], [-48.06036897, -25.07619449], [-48.06041017, -25.0765869], [-48.0604217, -25.07716299], [-48.06033485, -25.07762196], [-48.06012491, -25.07794028], [-48.05991551, -25.07823558], [-48.05972975, -25.07860045], [-48.05944231, -25.07898633], [-48.0591807, -25.0793497], [-48.05894271, -25.07978264], [-48.05860305, -25.08023659], [-48.05844091, -25.08067103], [-48.05813203, -25.08089525], [-48.05754672, -25.08104488], [-48.05703615, -25.08124205], [-48.05677618, -25.08153634], [-48.05646674, -25.08178358], [-48.05663875, -25.0819943], [-48.05663214, -25.08227059], [-48.05631664, -25.08277108], [-48.05641336, -25.08295728], [-48.0568937, -25.08296681], [-48.05724378, -25.083135], [-48.05752297, -25.08309448], [-48.05797308, -25.08331072], [-48.05851169, -25.08299892], [-48.05914758, -25.08285029], [-48.05970541, -25.08279225], [-48.05978731, -25.08254049], [-48.05959277, -25.08221415], [-48.05975546, -25.08175669], [-48.05986319, -25.08148241], [-48.05995059, -25.08100042], [-48.06009351, -25.08031222], [-48.06027818, -25.07999339], [-48.0605898, -25.07965405], [-48.06094868, -25.07945385], [-48.06146969, -25.07881921], [-48.06180603, -25.07850339], [-48.06203466, -25.07846185], [-48.06254631, -25.07821861], [-48.06303103, -25.07804393], [-48.06335968, -25.07805044], [-48.06381142, -25.07819759], [-48.06411698, -25.0781115], [-48.0644753, -25.07793432], [-48.06455664, -25.07770558], [-48.06428955, -25.0772396], [-48.06409445, -25.07693629], [-48.06369162, -25.07685921], [-48.06362292, -25.0765584], [-48.06330583, -25.0760684], [-48.06329429, -25.0754923], [-48.06325417, -25.07505385], [-48.06312063, -25.07429107], [-48.06261999, -25.07407384], [-48.06196272, -25.07406082], [-48.06161449, -25.07393247], [-48.06115424, -25.07380802], [-48.06085606, -25.07380212], [-48.06047928, -25.07396446], [-48.06017948, -25.07402645], [-48.05995665, -25.07398807], [-48.0597395, -25.07371206], [-48.05944538, -25.07353641], [-48.05929872, -25.07343162], [-48.05915531, -25.07319103], [-48.05901028, -25.07301834], [-48.05897869, -25.07277998], [-48.05850308, -25.07239695], [-48.0580226, -25.07221761], [-48.05807205, -25.07170915], [-48.05867002, -25.07165308], [-48.05914806, -25.07193426], [-48.05955481, -25.07207818], [-48.06034239, -25.07189001], [-48.06089985, -25.07196899], [-48.06133982, -25.07228337], [-48.06174576, -25.07246123], [-48.06239158, -25.07279031], [-48.06281612, -25.07292394], [-48.06311187, -25.07303169], [-48.063406, -25.07320733], [-48.06362963, -25.07321176], [-48.06393105, -25.07308187], [-48.06405016, -25.07277856], [-48.06435401, -25.07254684], [-48.06443585, -25.07224279], [-48.06473807, -25.07207896], [-48.06501275, -25.07150702], [-48.06489157, -25.07080899], [-48.06473805, -25.07051666], [-48.06518613, -25.07049156], [-48.06556127, -25.07039709], [-48.0659348, -25.07037052], [-48.06616005, -25.07030705], [-48.06653196, -25.07034837], [-48.0668674, -25.070355], [-48.06698407, -25.07015353], [-48.06721499, -25.06985243], [-48.06729681, -25.06954838], [-48.06726682, -25.06924212], [-48.06756257, -25.06934985], [-48.06785912, -25.06942364], [-48.06826587, -25.06956753], [-48.06889949, -25.06958006], [-48.06934837, -25.069521], [-48.06964896, -25.06942505], [-48.06987744, -25.06922578], [-48.0702542, -25.06906341], [-48.07059369, -25.0689003], [-48.07104337, -25.06880729], [-48.07127023, -25.06867592], [-48.0714979, -25.06851059], [-48.07154244, -25.06820581], [-48.07171395, -25.06784566], [-48.07223109, -25.06747221], [-48.07260703, -25.06734378], [-48.07283712, -25.06707661], [-48.07329406, -25.06667807], [-48.07401028, -25.06635257], [-48.07464227, -25.06643296], [-48.07538123, -25.06671923], [-48.07619232, -25.06710881], [-48.07685998, -25.06725783], [-48.07726835, -25.0673338], [-48.07756893, -25.06723783], [-48.07809315, -25.06714627], [-48.07865222, -25.06715728], [-48.07905253, -25.06757272], [-48.07964404, -25.06778814], [-48.07978829, -25.06799476], [-48.08007841, -25.06834011], [-48.07991885, -25.06877849], [-48.07987433, -25.06908328], [-48.08001295, -25.06952753], [-48.08030226, -25.06990683], [-48.08055672, -25.07018354], [-48.08095866, -25.07053108], [-48.08087768, -25.0708012], [-48.08116861, -25.07111259], [-48.08157861, -25.07112066], [-48.08191889, -25.07092357], [-48.08218543, -25.07069107], [-48.0825654, -25.07039288], [-48.08301508, -25.07029983], [-48.08307575, -25.07021994], [-48.08305807, -25.07018401], [-48.08301032, -25.07000794], [-48.08295322, -25.06984989], [-48.08288043, -25.06975948], [-48.08245926, -25.069402], [-48.08242673, -25.06930718], [-48.08242891, -25.06920342], [-48.08248371, -25.0690998], [-48.08257002, -25.06901881], [-48.08292849, -25.06882572], [-48.08297085, -25.06874011], [-48.0829637, -25.06864986], [-48.08293179, -25.06855504], [-48.08275271, -25.0684012], [-48.08255488, -25.06830144], [-48.08245375, -25.06816584], [-48.08240392, -25.06806195], [-48.08240618, -25.06793112], [-48.08244519, -25.06793122], [-48.08252824, -25.06790436], [-48.08261274, -25.06780532], [-48.08286166, -25.06739541], [-48.08294615, -25.06730088], [-48.08303729, -25.06726051], [-48.08247773, -25.06562522], [-48.08161792, -25.06397056], [-48.0797446, -25.06293286], [-48.07954923, -25.06274704], [-48.07868732, -25.06118331], [-48.07811417, -25.0600802], [-48.07712655, -25.05960582], [-48.07582429, -25.05976213], [-48.07511892, -25.06002119], [-48.07370385, -25.06072117], [-48.07211936, -25.060144], [-48.07064988, -25.05893218], [-48.07699667, -25.05349306], [-48.08186815, -25.05184274], [-48.08185461, -25.05140959], [-48.08233109, -25.05107695], [-48.08265874, -25.05102364], [-48.08318068, -25.05100691], [-48.08341076, -25.05073788], [-48.08350199, -25.05039416], [-48.08345292, -25.05024516], [-48.08330007, -25.05022672], [-48.08279779, -25.05049613], [-48.0817844, -25.05048454], [-48.081094, -25.0503013], [-48.08044937, -25.05017886], [-48.08014279, -25.05002017], [-48.07978736, -25.04984783], [-48.07966395, -25.04971667], [-48.07968257, -25.04950017], [-48.07985799, -25.04942843], [-48.07983695, -25.04922536], [-48.0796059, -25.04906686], [-48.07925818, -25.04863927], [-48.07902455, -25.04828036], [-48.07880287, -25.04809481], [-48.07847367, -25.04804886], [-48.07736115, -25.0476552], [-48.07601745, -25.04715537], [-48.07511808, -25.046973], [-48.07474103, -25.04667743], [-48.07454366, -25.04642657], [-48.07437131, -25.04607329], [-48.07403551, -25.04594319], [-48.07290496, -25.04598264], [-48.0723851, -25.04599297], [-48.07197472, -25.04614952], [-48.07152015, -25.04626404], [-48.07123099, -25.04607311], [-48.07082745, -25.04594166], [-48.06970327, -25.04571366], [-48.06933902, -25.04582996], [-48.06906756, -25.04584518], [-48.06886677, -25.04573831], [-48.0686002, -25.04554781], [-48.0684264, -25.04525625], [-48.06832279, -25.04486316], [-48.0683056, -25.04463643], [-48.06815389, -25.04436588], [-48.06788732, -25.04417539], [-48.06748282, -25.04408507], [-48.06719269, -25.04393527], [-48.06713131, -25.04366651], [-48.06686818, -25.04333201], [-48.06651227, -25.04309859], [-48.06597277, -25.04298502], [-48.06535917, -25.04313754], [-48.06425273, -25.04406239], [-48.06348399, -25.04408835], [-48.06304396, -25.04440831], [-48.06263614, -25.04456062], [-48.06141896, -25.04228804], [-48.06204269, -25.04200173], [-48.06282025, -25.0416055], [-48.06355018, -25.04131122], [-48.06412009, -25.0410961], [-48.06456169, -25.0409745], [-48.0648824, -25.04039084], [-48.06521078, -25.03988281], [-48.06547566, -25.03933469], [-48.06603685, -25.03839672], [-48.06603881, -25.03831444], [-48.06586551, -25.0380023], [-48.06569369, -25.03762844], [-48.06572852, -25.03711461], [-48.06578249, -25.03674521], [-48.06588505, -25.03623271], [-48.06641957, -25.03560526], [-48.06681713, -25.03503685], [-48.06718917, -25.03459142], [-48.06746649, -25.03432934], [-48.06780567, -25.03431546], [-48.06823957, -25.03411821], [-48.06868606, -25.0338697], [-48.06859577, -25.03378377], [-48.06855726, -25.03333492], [-48.06858496, -25.03217043], [-48.06801316, -25.03139739], [-48.06777908, -25.03089987], [-48.06837857, -25.03050842], [-48.06844371, -25.02983757], [-48.0684533, -25.02943447], [-48.06787735, -25.02914415], [-48.06722754, -25.02927585], [-48.06677553, -25.0296702], [-48.06666975, -25.02998177], [-48.06636521, -25.03037904], [-48.06581594, -25.03072666], [-48.06527306, -25.03080555], [-48.06535965, -25.03130016], [-48.06554776, -25.03166235], [-48.06544091, -25.03201871], [-48.06509253, -25.03219107], [-48.06434448, -25.03262437], [-48.06408481, -25.03320175], [-48.06377279, -25.03391253], [-48.06337204, -25.03421827], [-48.0626806, -25.03433902], [-48.06232474, -25.03482488], [-48.06217192, -25.0350459], [-48.06206292, -25.03549183], [-48.06182033, -25.0353526], [-48.0615243, -25.03539155], [-48.06122293, -25.03565444], [-48.06116416, -25.03605656], [-48.06165469, -25.03611108], [-48.06223501, -25.03652584], [-48.06262082, -25.03684714], [-48.062701, -25.03761048], [-48.06239429, -25.03809731], [-48.0617926, -25.0385783], [-48.06040754, -25.03890935], [-48.05956431, -25.03920632], [-48.05927148, -25.0391109], [-48.05877986, -25.03910116], [-48.05833206, -25.03931633], [-48.05797938, -25.03966782], [-48.05777524, -25.03997743], [-48.05743004, -25.0400154], [-48.05723767, -25.03983235], [-48.05688712, -25.04009426], [-48.05644574, -25.0400407], [-48.05620742, -25.03972231], [-48.05641797, -25.03914397], [-48.05618822, -25.03846728], [-48.05584302, -25.03850525], [-48.0556346, -25.03899401], [-48.05524559, -25.03880706], [-48.05476683, -25.03825986], [-48.05453387, -25.03771753], [-48.05414165, -25.03766494], [-48.05403048, -25.03820044], [-48.05436176, -25.03874472], [-48.05474006, -25.03937955], [-48.05488112, -25.0396512], [-48.0546727, -25.04013996], [-48.05491102, -25.04045835], [-48.05530752, -25.04033179], [-48.05544966, -25.04055865], [-48.05558965, -25.04087509], [-48.05621913, -25.04129085], [-48.05645424, -25.0417436], [-48.05629712, -25.04214376], [-48.05575526, -25.04217783], [-48.05574777, -25.04249134], [-48.05578944, -25.04280583], [-48.05553399, -25.04320404], [-48.05527319, -25.04382619], [-48.05448658, -25.04381058], [-48.05408685, -25.0440715], [-48.05392651, -25.04460602], [-48.05352677, -25.04486694], [-48.05356736, -25.04522622], [-48.05386128, -25.04527686], [-48.05440422, -25.04519802], [-48.05504656, -25.04507634], [-48.0556376, -25.04504325], [-48.05593365, -25.04500432], [-48.05622435, -25.04518932], [-48.05574334, -25.04679289], [-48.05500052, -25.0470022], [-48.05459971, -25.04730791], [-48.054574, -25.04838281], [-48.05475888, -25.04887937], [-48.05460603, -25.04910038], [-48.0541614, -25.04918118], [-48.05396474, -25.04917727], [-48.05394653, -25.04993866], [-48.05428855, -25.05003506], [-48.05497579, -25.05009351], [-48.05531995, -25.05010034], [-48.05524713, -25.05314589], [-48.05424237, -25.05402212], [-48.05353795, -25.05468027], [-48.05293615, -25.05516121], [-48.05144181, -25.05593808], [-48.05044129, -25.05663514], [-48.04925804, -25.05674604], [-48.04862959, -25.05628545], [-48.04824698, -25.05582976], [-48.04751591, -25.05554636], [-48.04638183, -25.05565822], [-48.04525098, -25.05563571], [-48.04334958, -25.05492571], [-48.04217495, -25.05467826], [-48.04096945, -25.05366844], [-48.04010598, -25.05275506], [-48.03919229, -25.05188547], [-48.03910149, -25.05157], [-48.039947, -25.0511836], [-48.04059691, -25.05074847], [-48.04120734, -25.04990929], [-48.04194266, -25.05001356], [-48.04276879, -25.0504333], [-48.04340902, -25.05040124], [-48.04431012, -25.04974707], [-48.04427385, -25.04920864], [-48.04428997, -25.04853684], [-48.04450382, -25.04782416], [-48.04524129, -25.04783884], [-48.04582804, -25.04798495], [-48.04701765, -25.04760534], [-48.04726992, -25.04734151], [-48.04668746, -25.04701626], [-48.04619582, -25.04700648], [-48.04565716, -25.04690614], [-48.04541671, -25.04667731], [-48.04508331, -25.04622259], [-48.04484286, -25.04599376], [-48.04435982, -25.04562568], [-48.04447857, -25.04477668], [-48.04449898, -25.04392573], [-48.04510183, -25.04340003], [-48.04564691, -25.04323164], [-48.04614605, -25.04292792], [-48.04698182, -25.04294454], [-48.04766795, -25.04304781], [-48.04816386, -25.04287844], [-48.04792449, -25.04260482], [-48.04754085, -25.04219392], [-48.04725661, -25.04174018], [-48.04676499, -25.0417304], [-48.04636955, -25.04181215], [-48.04602219, -25.04193966], [-48.04542795, -25.04210707], [-48.04469159, -25.04204761], [-48.04484767, -25.04169224], [-48.04535648, -25.04098544], [-48.04531483, -25.04067095], [-48.04507762, -25.04030776], [-48.04504564, -25.03959019], [-48.04500293, -25.03932048], [-48.04471548, -25.0390011], [-48.04432864, -25.03872455], [-48.04359338, -25.0386203], [-48.04346309, -25.03790077], [-48.04347383, -25.03745289], [-48.04372715, -25.03714428], [-48.04403715, -25.03652313], [-48.04414622, -25.03607722], [-48.043862, -25.03562348], [-48.04341957, -25.03561467], [-48.04307115, -25.03578696], [-48.04253255, -25.03568662], [-48.04185077, -25.03540419], [-48.04156764, -25.03490565], [-48.04158269, -25.03427863], [-48.04174306, -25.03374413], [-48.04180082, -25.03338681], [-48.04171648, -25.03280262], [-48.0417326, -25.03213082], [-48.04179351, -25.03144398], [-48.03808885, -25.03139443], [-48.03617967, -25.03067134], [-48.03554284, -25.03057992], [-48.03516937, -25.03065677], [-48.03484292, -25.03087524], [-48.03492734, -25.03146675], [-48.0349569, -25.03159238], [-48.03497925, -25.03183754], [-48.03495335, -25.03199086], [-48.03492824, -25.03209456], [-48.03487269, -25.03222975], [-48.03479561, -25.03232427], [-48.03467398, -25.03241416], [-48.03445523, -25.03248573], [-48.0339159, -25.03253834], [-48.03384028, -25.03256971], [-48.03380108, -25.03262825], [-48.0338078, -25.03265534], [-48.03387239, -25.03277282], [-48.03388429, -25.03291272], [-48.03388891, -25.03301199], [-48.03391783, -25.0330617], [-48.03390447, -25.03307687], [-48.03529, -25.03364617], [-48.03529145, -25.0337694], [-48.03525811, -25.03392722], [-48.03517746, -25.03416159], [-48.03508481, -25.03428315], [-48.03456438, -25.03478247], [-48.03295313, -25.03586069], [-48.03191942, -25.03657058], [-48.03088966, -25.03738876], [-48.03003544, -25.03809916], [-48.02952097, -25.03865713], [-48.02890353, -25.03945392], [-48.02838995, -25.04028709], [-48.02808466, -25.04085468], [-48.02803589, -25.0409944], [-48.02801815, -25.04111165], [-48.02803817, -25.04122901], [-48.02804288, -25.0412435], [-48.02804987, -25.04136547], [-48.02760469, -25.04212019], [-48.02755146, -25.04216603], [-48.02744179, -25.04237324], [-48.02740918, -25.04249496], [-48.02741149, -25.04272055], [-48.02746511, -25.04296884], [-48.02801448, -25.04467581], [-48.0284701, -25.04575087], [-48.02932275, -25.04748577], [-48.02958935, -25.04790611], [-48.03006079, -25.04853006], [-48.0308923, -25.04939866], [-48.03112476, -25.04967001], [-48.03151603, -25.05020801], [-48.03183389, -25.05066909], [-48.03207017, -25.05108934], [-48.03221804, -25.05147776], [-48.03257777, -25.05236756], [-48.03288529, -25.05295945], [-48.03308055, -25.05324874], [-48.03325577, -25.05342519], [-48.03344728, -25.05354304], [-48.03358832, -25.05357502], [-48.03374557, -25.05357546], [-48.03391842, -25.05353986], [-48.03401563, -25.05353563], [-48.03413502, -25.05356303], [-48.03430431, -25.05366277], [-48.03448766, -25.05381668], [-48.03470527, -25.05408799], [-48.03519542, -25.05486536], [-48.03576804, -25.05560688], [-48.03609469, -25.05604091], [-48.03629678, -25.05632571], [-48.03649059, -25.05668267], [-48.03656054, -25.05686784], [-48.03700212, -25.05809622], [-48.0371871, -25.05850278], [-48.03488542, -25.06897654], [-48.03454547, -25.06880414], [-48.03413729, -25.06866764], [-48.03369863, -25.06857165], [-48.03322083, -25.06851616], [-48.03283129, -25.06854212], [-48.03174069, -25.06879617], [-48.0313162, -25.06890324], [-48.02995723, -25.06923772], [-48.02977552, -25.06932292], [-48.02903004, -25.06986216], [-48.02879564, -25.06996526], [-48.02849378, -25.07005913], [-48.02792922, -25.07020188], [-48.02753225, -25.07022781], [-48.02724065, -25.07021795], [-48.02705357, -25.07024448], [-48.02689485, -25.07030718], [-48.02609828, -25.07075604], [-48.02583488, -25.07082746], [-48.02560265, -25.07084032], [-48.02532663, -25.07080344], [-48.0245222, -25.07066126], [-48.02429132, -25.07064254], [-48.02388554, -25.07070453], [-48.02251889, -25.07092163], [-48.02187409, -25.07099194], [-48.0208472, -25.07107918], [-48.02037606, -25.07106427], [-48.02001088, -25.07102711], [-48.01938537, -25.07089445], [-48.0192287, -25.0708985], [-48.01912271, -25.07092977], [-48.01901658, -25.07100165], [-48.01889202, -25.07120881], [-48.01602963, -25.07695254], [-48.01547004, -25.07812387], [-48.01408624, -25.08121915], [-48.01391135, -25.08164271], [-48.01386992, -25.08180049], [-48.01384328, -25.08197636], [-48.01389105, -25.08247276], [-48.01385767, -25.08263056], [-48.01376281, -25.08283781], [-48.01350634, -25.08321601], [-48.01345074, -25.08335119], [-48.01342339, -25.08355412], [-48.01343238, -25.0838113], [-48.01350231, -25.08399648], [-48.01369164, -25.08421358], [-48.01541849, -25.0854864], [-48.01654012, -25.08613032], [-48.017114, -25.0865245], [-48.01753271, -25.08684604], [-48.01787573, -25.08720796], [-48.01881459, -25.0885867], [-48.01893193, -25.08867727], [-48.01902097, -25.08871362], [-48.01909589, -25.08871835], [-48.01920057, -25.08870963], [-48.0193141, -25.08865132], [-48.02057083, -25.08804595], [-48.02122815, -25.0877862], [-48.02175431, -25.08766592], [-48.02202504, -25.08763062], [-48.02224105, -25.08766283], [-48.02266485, -25.08777233], [-48.02282741, -25.08785852], [-48.02299602, -25.08798533], [-48.02314082, -25.08819328], [-48.02328492, -25.08842377], [-48.02339791, -25.08869479], [-48.02345752, -25.08900174], [-48.02347327, -25.08928149], [-48.0234526, -25.08952505], [-48.02338002, -25.08973687], [-48.02328728, -25.08987195], [-48.02275848, -25.09038922], [-48.02270366, -25.0904838], [-48.02267105, -25.09060101], [-48.02266811, -25.09073183], [-48.02272318, -25.09092147], [-48.02288956, -25.09115654], [-48.02294825, -25.09119732], [-48.02303801, -25.0912066]]]]}}]}