{"type": "FeatureCollection", "features": [{"type": "Feature", "properties": {"name": "Reserva Particular do Patrimônio Natural Floresta Maria Helena"}, "geometry": {"type": "MultiPolygon", "coordinates": [[[[-49.21116722, -23.048655], [-49.21702722, -23.04707833], [-49.217935, -23.04517833], [-49.21382611, -23.04210278], [-49.21010528, -23.04824028], [-49.21016194, -23.04826889], [-49.21032722, -23.04831694], [-49.21043111, -23.04829389], [-49.21056583, -23.04841139], [-49.21116722, -23.048655]]]]}}]}