{"type": "FeatureCollection", "features": [{"type": "Feature", "properties": {"name": "Reserva Particular do Patrimônio Natural Marina do Conde"}, "geometry": {"type": "MultiPolygon", "coordinates": [[[[-46.14831233, -23.87532338], [-46.15081707, -23.87310433], [-46.1521449, -23.87192343], [-46.15200321, -23.87178202], [-46.15187199, -23.87165011], [-46.15177499, -23.87157553], [-46.15157151, -23.87144416], [-46.15145054, -23.87138305], [-46.15138476, -23.87119541], [-46.15134883, -23.87111595], [-46.15129427, -23.87107399], [-46.15125341, -23.87104938], [-46.15121479, -23.87097243], [-46.15118336, -23.87078827], [-46.15114334, -23.87074489], [-46.15112329, -23.8707626], [-46.14712379, -23.87429533], [-46.14727678, -23.87440709], [-46.14742415, -23.87454577], [-46.14755414, -23.87470071], [-46.14760176, -23.87479712], [-46.14762609, -23.87490446], [-46.14766042, -23.87498552], [-46.14774422, -23.87504134], [-46.1479156, -23.87508442], [-46.14811842, -23.87521193], [-46.14831233, -23.87532338]]]]}}]}