{"type": "FeatureCollection", "features": [{"type": "Feature", "properties": {"name": "Reserva de Desenvolvimento Sustentável Barra do Una"}, "geometry": {"type": "MultiPolygon", "coordinates": [[[[-47.08124237, -24.44816427], [-47.08123627, -24.4481336], [-47.08099932, -24.44694283], [-47.08102178, -24.44559526], [-47.08149949, -24.44481299], [-47.08179215, -24.44362501], [-47.08199295, -24.44227498], [-47.08204859, -24.44023291], [-47.08206568, -24.4385588], [-47.08191613, -24.43779751], [-47.08192351, -24.43758616], [-47.08187975, -24.43738363], [-47.08177177, -24.43711338], [-47.08170336, -24.4369846], [-47.08168683, -24.43695349], [-47.08166798, -24.436918], [-47.08155567, -24.43662434], [-47.08145936, -24.436344], [-47.08135371, -24.4360358], [-47.0813103, -24.43573396], [-47.08130487, -24.43540362], [-47.081338, -24.43507906], [-47.08140309, -24.43483893], [-47.08155134, -24.43449924], [-47.08162524, -24.43431586], [-47.08175945, -24.434082], [-47.08194144, -24.43387547], [-47.08215301, -24.43366853], [-47.08235737, -24.43350321], [-47.08257776, -24.43335302], [-47.08282927, -24.43323671], [-47.08308867, -24.43312029], [-47.08347154, -24.43301661], [-47.08376185, -24.43292143], [-47.08432002, -24.43274492], [-47.08477154, -24.43261862], [-47.0849624, -24.43253203], [-47.08509914, -24.43245251], [-47.08520233, -24.43236512], [-47.08526422, -24.43239081], [-47.08642269, -24.43233401], [-47.08721807, -24.43280335], [-47.08753777, -24.43311582], [-47.08812944, -24.43353647], [-47.0886796, -24.43383131], [-47.0894154, -24.43420121], [-47.09012841, -24.43456421], [-47.09061721, -24.43484544], [-47.09115424, -24.43523975], [-47.09164328, -24.43553542], [-47.09203102, -24.43572686], [-47.09238675, -24.43589076], [-47.09277954, -24.43597019], [-47.09321129, -24.43602018], [-47.09356387, -24.43599364], [-47.09404609, -24.43587501], [-47.09481859, -24.43566029], [-47.09616562, -24.43530398], [-47.09790227, -24.43483663], [-47.09926244, -24.43438172], [-47.10026433, -24.43408614], [-47.10110606, -24.43388486], [-47.10128716, -24.43384223], [-47.10168067, -24.43374959], [-47.10233038, -24.43356452], [-47.10289573, -24.43334631], [-47.10348151, -24.4329933], [-47.10373914, -24.43277125], [-47.10426755, -24.43222945], [-47.10475674, -24.43158258], [-47.10502073, -24.43126925], [-47.10530845, -24.43101879], [-47.10552926, -24.43089655], [-47.10583351, -24.43075148], [-47.10613145, -24.4306417], [-47.10639906, -24.4305468], [-47.10670547, -24.43047211], [-47.10743334, -24.43036357], [-47.10772444, -24.43031708], [-47.10805305, -24.4302141], [-47.10828197, -24.43010529], [-47.1084942, -24.42994073], [-47.10859872, -24.42976323], [-47.10866637, -24.42962146], [-47.10872269, -24.42933178], [-47.10873386, -24.42911406], [-47.10870802, -24.42892393], [-47.10837963, -24.42809164], [-47.1082581, -24.42772049], [-47.10822356, -24.42748173], [-47.10824921, -24.42718617], [-47.10837558, -24.42695871], [-47.10851103, -24.42680245], [-47.10865591, -24.42668036], [-47.10876209, -24.42660214], [-47.10896027, -24.42654251], [-47.10920603, -24.42649755], [-47.10952037, -24.42648595], [-47.1098585, -24.42648123], [-47.1106041, -24.42649159], [-47.11103332, -24.4264504], [-47.11144821, -24.42643738], [-47.11169372, -24.42637798], [-47.11187619, -24.42626259], [-47.1120725, -24.42609103], [-47.11231391, -24.42578523], [-47.1125312, -24.42545178], [-47.11267112, -24.42509142], [-47.11270558, -24.42485171], [-47.11275685, -24.42425967], [-47.11281176, -24.42388606], [-47.11292865, -24.42350436], [-47.11301739, -24.42332708], [-47.11319003, -24.42303668], [-47.11341479, -24.42273834], [-47.11355896, -24.42257382], [-47.11380055, -24.42233844], [-47.11391978, -24.42209754], [-47.1140378, -24.42184311], [-47.11411847, -24.42159552], [-47.11420526, -24.42124223], [-47.11429861, -24.42086808], [-47.11440113, -24.42057144], [-47.11455173, -24.42037885], [-47.11474091, -24.42019385], [-47.11490006, -24.42010044], [-47.11504478, -24.420028], [-47.11520596, -24.41999686], [-47.11535939, -24.41997395], [-47.11556674, -24.41999181], [-47.11575177, -24.42003166], [-47.11592274, -24.42011413], [-47.11610129, -24.42023802], [-47.11624187, -24.42039043], [-47.11632876, -24.4205165], [-47.11640999, -24.42077536], [-47.11645984, -24.42098592], [-47.11651694, -24.42121713], [-47.11654494, -24.42147674], [-47.11664237, -24.42182023], [-47.11679389, -24.42215575], [-47.11694531, -24.42248495], [-47.11705909, -24.42286252], [-47.11708027, -24.42318632], [-47.11707755, -24.42349601], [-47.11706676, -24.42373539], [-47.11703253, -24.42398865], [-47.11697442, -24.4242287], [-47.11681302, -24.42466067], [-47.11670367, -24.42502061], [-47.11668523, -24.42527454], [-47.11668921, -24.42551282], [-47.11671624, -24.42577334], [-47.11682085, -24.42607431], [-47.11697885, -24.42632487], [-47.11716696, -24.42654793], [-47.11739315, -24.42674879], [-47.11764966, -24.42693478], [-47.1179209, -24.42705828], [-47.11841622, -24.42725537], [-47.11868686, -24.42734276], [-47.11904825, -24.4273729], [-47.11960951, -24.4273858], [-47.12006269, -24.42742188], [-47.12082512, -24.42749515], [-47.12128789, -24.42757352], [-47.12160354, -24.42763951], [-47.12205793, -24.42768911], [-47.12230386, -24.42771364], [-47.12242129, -24.42771439], [-47.12246487, -24.42771467], [-47.12265788, -24.4277159], [-47.1229565, -24.42764851], [-47.12320066, -24.42756745], [-47.12336069, -24.4274668], [-47.12347403, -24.42734604], [-47.12356347, -24.42721118], [-47.12363011, -24.42706941], [-47.12368844, -24.4268429], [-47.12372248, -24.42663839], [-47.12373414, -24.42639268], [-47.1237213, -24.42609675], [-47.12366442, -24.42587998], [-47.12359235, -24.42569773], [-47.12353602, -24.42557213], [-47.12346478, -24.42543952], [-47.12333885, -24.42527969], [-47.12317522, -24.42510595], [-47.12299484, -24.42493244], [-47.12272949, -24.42468971], [-47.12250258, -24.42444644], [-47.12238442, -24.42427928], [-47.12231355, -24.42416833], [-47.12228933, -24.42407659], [-47.12228758, -24.42397189], [-47.12229439, -24.4239077], [-47.12236234, -24.42384355], [-47.12247698, -24.42380041], [-47.12254574, -24.423785], [-47.12276064, -24.42378199], [-47.12293721, -24.42378673], [-47.12319165, -24.42379039], [-47.12349904, -24.42383482], [-47.12377687, -24.42388057], [-47.12413142, -24.423974], [-47.12450974, -24.42407431], [-47.1249815, -24.42427803], [-47.12554665, -24.42452376], [-47.12600399, -24.42474935], [-47.1267108, -24.42521066], [-47.12716885, -24.42547866], [-47.12765687, -24.42571103], [-47.12819076, -24.42591477], [-47.12866218, -24.42609771], [-47.12934197, -24.42629939], [-47.12982034, -24.42642627], [-47.13036737, -24.42653141], [-47.13063691, -24.42655964], [-47.13062849, -24.42664961], [-47.13094881, -24.42668316], [-47.13094893, -24.42668317], [-47.13094899, -24.42668318], [-47.13161175, -24.42675148], [-47.13161599, -24.42675167], [-47.13161713, -24.4267519], [-47.13213137, -24.42677889], [-47.13314495, -24.42684936], [-47.13369735, -24.426891], [-47.13450134, -24.42698384], [-47.13496057, -24.42705459], [-47.13539579, -24.42712525], [-47.13583908, -24.42723522], [-47.13608497, -24.42733316], [-47.13645652, -24.42751475], [-47.13690315, -24.42778071], [-47.13691072, -24.42778429], [-47.13691354, -24.42778611], [-47.13768849, -24.42813355], [-47.13769175, -24.42813422], [-47.13769526, -24.42813631], [-47.13821316, -24.42832579], [-47.1382133, -24.42832581], [-47.13821342, -24.42832589], [-47.13822314, -24.42832889], [-47.13864006, -24.42843584], [-47.13864671, -24.42843663], [-47.13865505, -24.42843856], [-47.13900079, -24.4284761], [-47.13901392, -24.42847671], [-47.13930571, -24.42847259], [-47.13931783, -24.42847173], [-47.1395638, -24.42844027], [-47.13956686, -24.42843948], [-47.13957166, -24.42843896], [-47.13987038, -24.42837786], [-47.13988453, -24.42837366], [-47.13988606, -24.42837337], [-47.14016042, -24.42827109], [-47.14016129, -24.42827055], [-47.14016237, -24.42827034], [-47.14017242, -24.42826572], [-47.14044705, -24.428121], [-47.14044998, -24.42811891], [-47.14045512, -24.42811625], [-47.14067553, -24.4279723], [-47.14068906, -24.42796165], [-47.14084046, -24.42781868], [-47.14085586, -24.42779968], [-47.14099784, -24.42756566], [-47.14100331, -24.42755507], [-47.14100372, -24.42755303], [-47.14100479, -24.42755145], [-47.14108503, -24.42733997], [-47.14108568, -24.42733623], [-47.14108952, -24.42732295], [-47.14110326, -24.42723376], [-47.14111726, -24.42717341], [-47.1411194, -24.42715327], [-47.14111875, -24.42715051], [-47.14111915, -24.42714812], [-47.14110913, -24.42702187], [-47.14110898, -24.4270213], [-47.14110876, -24.42701826], [-47.14109049, -24.42687047], [-47.14108641, -24.42685646], [-47.14108488, -24.42684903], [-47.14103654, -24.42673055], [-47.14103525, -24.42672874], [-47.14103468, -24.42672631], [-47.14102475, -24.42671011], [-47.14092293, -24.42657795], [-47.1409149, -24.42656935], [-47.14091364, -24.42656761], [-47.14081242, -24.42647064], [-47.14081091, -24.42646971], [-47.14080977, -24.4264682], [-47.14079576, -24.42645786], [-47.14067123, -24.42638198], [-47.14066279, -24.42637794], [-47.14065962, -24.4263759], [-47.14053544, -24.42632079], [-47.14053219, -24.42632013], [-47.14052875, -24.42631809], [-47.14051704, -24.4263146], [-47.14029332, -24.4262618], [-47.14029006, -24.42626144], [-47.14028537, -24.42626024], [-47.14000411, -24.42621606], [-47.13962781, -24.42613139], [-47.13933166, -24.42603181], [-47.13916441, -24.42597497], [-47.13903849, -24.42589704], [-47.13899366, -24.42582239], [-47.13898508, -24.42578828], [-47.13900099, -24.42569012], [-47.13905809, -24.42556862], [-47.13914142, -24.42546487], [-47.13926897, -24.42537039], [-47.13948256, -24.42526201], [-47.13973139, -24.42518416], [-47.14011143, -24.42508829], [-47.14012437, -24.42508412], [-47.14012525, -24.42508356], [-47.14012625, -24.42508335], [-47.14043857, -24.42495255], [-47.1404391, -24.4249522], [-47.14043966, -24.42495209], [-47.1406922, -24.42484289], [-47.14069317, -24.42484225], [-47.1406941, -24.42484205], [-47.14102873, -24.42468926], [-47.14102952, -24.42468872], [-47.141034, -24.42468666], [-47.14135208, -24.42451863], [-47.14150853, -24.42447686], [-47.14152007, -24.42447306], [-47.14152024, -24.42447295], [-47.14152043, -24.42447291], [-47.14164996, -24.42442106], [-47.14189736, -24.42440427], [-47.1420948, -24.42440811], [-47.14227859, -24.42445667], [-47.14255799, -24.42456006], [-47.14280016, -24.42470946], [-47.14304639, -24.42490844], [-47.14322446, -24.4251061], [-47.1433745, -24.42533811], [-47.14355532, -24.42575764], [-47.14355672, -24.42575956], [-47.14355729, -24.4257619], [-47.14385816, -24.42636713], [-47.14427317, -24.4273616], [-47.14452228, -24.42809458], [-47.14474826, -24.42876562], [-47.14495104, -24.42941558], [-47.14511411, -24.42997493], [-47.14511888, -24.42998748], [-47.14512086, -24.42999011], [-47.14512156, -24.4299927], [-47.14535138, -24.43040471], [-47.14535173, -24.43040516], [-47.14535295, -24.43040742], [-47.14566944, -24.43093015], [-47.14567558, -24.43093749], [-47.14568071, -24.43094501], [-47.14590767, -24.43118825], [-47.14591401, -24.43119442], [-47.14592196, -24.43120076], [-47.14631821, -24.43148402], [-47.14632463, -24.43148739], [-47.14633152, -24.43149204], [-47.14683572, -24.43174488], [-47.14684121, -24.43174724], [-47.14684216, -24.43174784], [-47.14746084, -24.43200627], [-47.14746153, -24.4320064], [-47.14746225, -24.43200685], [-47.14817089, -24.43229066], [-47.1489661, -24.43267235], [-47.14897076, -24.43267431], [-47.14897143, -24.43267473], [-47.1496983, -24.43297404], [-47.14970068, -24.43297449], [-47.14970296, -24.43297583], [-47.15062809, -24.43330573], [-47.15128409, -24.43357704], [-47.15128563, -24.43357733], [-47.15128717, -24.43357826], [-47.15192856, -24.43381982], [-47.15242525, -24.4341032], [-47.15288638, -24.43438233], [-47.1534539, -24.43480444], [-47.15391907, -24.43523049], [-47.15391972, -24.43523088], [-47.15392018, -24.43523149], [-47.15392909, -24.43523851], [-47.15425457, -24.43546529], [-47.15460421, -24.4357197], [-47.15460551, -24.43572039], [-47.15460835, -24.43572256], [-47.15502016, -24.43599113], [-47.15502313, -24.4359926], [-47.15502612, -24.43599473], [-47.15535962, -24.43618045], [-47.1553627, -24.43618186], [-47.15536415, -24.43618283], [-47.15569727, -24.4363469], [-47.15570767, -24.43635133], [-47.15570942, -24.43635162], [-47.1557108, -24.4363524], [-47.15602018, -24.43645362], [-47.1560239, -24.43645418], [-47.15604008, -24.43645806], [-47.15629404, -24.43648965], [-47.15630233, -24.4364901], [-47.15630399, -24.43649042], [-47.15660391, -24.43649968], [-47.15660927, -24.43649875], [-47.15661452, -24.43649948], [-47.15686764, -24.43648233], [-47.1568717, -24.43648142], [-47.15688371, -24.43648001], [-47.15712144, -24.43642697], [-47.15713179, -24.43642379], [-47.15713367, -24.43642346], [-47.15736205, -24.43634256], [-47.1573636, -24.43634162], [-47.15736562, -24.43634122], [-47.15737644, -24.43633619], [-47.15753668, -24.43624995], [-47.15755751, -24.43623496], [-47.15770891, -24.43609197], [-47.1577108, -24.43608929], [-47.15771314, -24.4360877], [-47.15782135, -24.43597149], [-47.15794302, -24.43587655], [-47.15808631, -24.43576948], [-47.15809422, -24.43576283], [-47.1580944, -24.43576272], [-47.15817275, -24.4356895], [-47.15833126, -24.43562355], [-47.15833237, -24.43562284], [-47.15833349, -24.43562259], [-47.1585625, -24.43552092], [-47.15856324, -24.43552043], [-47.15856854, -24.435518], [-47.15878703, -24.43540326], [-47.15903603, -24.43528885], [-47.15903703, -24.43528818], [-47.15904217, -24.43528577], [-47.15925516, -24.43516989], [-47.15927559, -24.43515512], [-47.15928809, -24.43514058], [-47.15941609, -24.43495549], [-47.15941659, -24.43495458], [-47.15941714, -24.43495393], [-47.1595671, -24.434727], [-47.15957441, -24.43471352], [-47.159575, -24.43471055], [-47.15957644, -24.43470837], [-47.15964233, -24.43452417], [-47.1596427, -24.43452189], [-47.15964525, -24.43451405], [-47.15970935, -24.43422515], [-47.15971051, -24.43421368], [-47.15971126, -24.4342104], [-47.15971675, -24.43406949], [-47.15971631, -24.43406734], [-47.1597168, -24.43406487], [-47.15971631, -24.43405718], [-47.15969766, -24.43388863], [-47.15969764, -24.43388856], [-47.15969762, -24.43388829], [-47.1596791, -24.43372696], [-47.15967729, -24.43372065], [-47.15967578, -24.43371141], [-47.15960382, -24.43348276], [-47.15956495, -24.43331273], [-47.15956222, -24.43315255], [-47.15960885, -24.43285691], [-47.15969376, -24.4326165], [-47.15969387, -24.43261581], [-47.15969414, -24.43261539], [-47.15977989, -24.43236151], [-47.15990517, -24.43213594], [-47.16001762, -24.43201012], [-47.16028505, -24.43174306], [-47.16060061, -24.43146627], [-47.16098339, -24.43126348], [-47.16116438, -24.43118125], [-47.16127636, -24.43114921], [-47.16147434, -24.43113306], [-47.16162069, -24.43113783], [-47.16179879, -24.43114835], [-47.16199734, -24.43117903], [-47.16222695, -24.43123741], [-47.16251404, -24.43133571], [-47.16284387, -24.4314674], [-47.1631697, -24.43166891], [-47.16335554, -24.43178708], [-47.16368121, -24.43209676], [-47.16406249, -24.43253828], [-47.16406464, -24.43254046], [-47.16406522, -24.43254131], [-47.16426104, -24.43274885], [-47.16426174, -24.43274952], [-47.16426188, -24.43274972], [-47.16459813, -24.43309698], [-47.16460091, -24.43309876], [-47.16460329, -24.43310192], [-47.16461132, -24.43310832], [-47.16489182, -24.43330832], [-47.16489666, -24.43331086], [-47.16490282, -24.43331513], [-47.16517348, -24.43345931], [-47.16518332, -24.43346368], [-47.16518432, -24.43346429], [-47.16547816, -24.43357924], [-47.16547943, -24.43357947], [-47.1654806, -24.43358016], [-47.1654908, -24.43358329], [-47.16591273, -24.43368932], [-47.16648982, -24.43386969], [-47.16649139, -24.43386992], [-47.16649914, -24.43387215], [-47.16705121, -24.4339908], [-47.16754514, -24.4341287], [-47.16800672, -24.43430115], [-47.16849236, -24.4345631], [-47.16885104, -24.4347986], [-47.16913524, -24.43502444], [-47.1693769, -24.43521901], [-47.16948641, -24.43534841], [-47.16955573, -24.43544589], [-47.16959802, -24.43556745], [-47.1696303, -24.43576651], [-47.16963525, -24.43586338], [-47.16964325, -24.43589501], [-47.16966512, -24.43592398], [-47.16966814, -24.43592576], [-47.16976483, -24.43583276], [-47.16976489, -24.43583264], [-47.17088091, -24.43488251], [-47.17088001, -24.43488217], [-47.17088109, -24.43488187], [-47.1709511, -24.43481977], [-47.17094953, -24.43481769], [-47.17091843, -24.43479903], [-47.17071796, -24.43472352], [-47.17045962, -24.43458189], [-47.17033934, -24.43451555], [-47.16991367, -24.43422679], [-47.16955252, -24.43391778], [-47.16955195, -24.43391745], [-47.16954448, -24.4339116], [-47.16928904, -24.43373562], [-47.1692862, -24.43373416], [-47.16928238, -24.43373141], [-47.16905831, -24.43360192], [-47.16905151, -24.43359876], [-47.16904912, -24.43359722], [-47.16876294, -24.43346862], [-47.16875864, -24.43346688], [-47.16875829, -24.43346667], [-47.16811602, -24.43321498], [-47.1681113, -24.43321413], [-47.16810759, -24.43321209], [-47.16734645, -24.43298648], [-47.16734544, -24.43298634], [-47.16734129, -24.43298509], [-47.16657711, -24.43280005], [-47.16599247, -24.43261962], [-47.16555824, -24.43246581], [-47.16523421, -24.43233421], [-47.16499554, -24.43221028], [-47.16482599, -24.43209189], [-47.16453824, -24.43184782], [-47.16427165, -24.43156652], [-47.16427131, -24.43156618], [-47.16427124, -24.43156608], [-47.16393694, -24.43121789], [-47.16393151, -24.43121266], [-47.16393055, -24.4312121], [-47.16392993, -24.43121129], [-47.16362877, -24.43095561], [-47.16362722, -24.43095471], [-47.16361477, -24.4309457], [-47.16335383, -24.43079326], [-47.16334367, -24.4307885], [-47.16334143, -24.43078711], [-47.1631018, -24.43068786], [-47.16282403, -24.4305541], [-47.16281443, -24.43055006], [-47.16281103, -24.43054949], [-47.16280854, -24.43054812], [-47.16256771, -24.43047664], [-47.16256389, -24.43047611], [-47.16255337, -24.43047344], [-47.16223703, -24.43042561], [-47.16222675, -24.43042491], [-47.16222437, -24.43042445], [-47.16185146, -24.43041263], [-47.16184915, -24.43041303], [-47.16184651, -24.43041259], [-47.16164442, -24.43041548], [-47.16163655, -24.43041588], [-47.16140321, -24.43043637], [-47.16139982, -24.43043716], [-47.16139149, -24.43043805], [-47.16126571, -24.43046332], [-47.16126445, -24.43046369], [-47.16126334, -24.43046382], [-47.16110029, -24.43050046], [-47.16108869, -24.43050403], [-47.16108719, -24.4305043], [-47.16090562, -24.43057075], [-47.16053135, -24.43070177], [-47.16014933, -24.43082325], [-47.16014764, -24.43082423], [-47.16014507, -24.43082471], [-47.15995006, -24.4308961], [-47.15994894, -24.43089679], [-47.15994753, -24.43089707], [-47.15992906, -24.43090666], [-47.15961411, -24.43111428], [-47.15960788, -24.4311192], [-47.15960572, -24.43112048], [-47.15929845, -24.43137403], [-47.1592967, -24.43137633], [-47.15929366, -24.43137825], [-47.15928404, -24.43138885], [-47.15907468, -24.43165905], [-47.15906342, -24.43167804], [-47.15906313, -24.43167954], [-47.15906232, -24.43168072], [-47.15890355, -24.43208471], [-47.15890308, -24.4320873], [-47.15889895, -24.43210109], [-47.15883698, -24.43245766], [-47.15883577, -24.43247325], [-47.15883628, -24.43247543], [-47.15883594, -24.43247738], [-47.15886105, -24.43285166], [-47.15886169, -24.43285409], [-47.15886302, -24.43286487], [-47.15895708, -24.43327056], [-47.15899935, -24.43353449], [-47.15898496, -24.43378811], [-47.15891716, -24.43417253], [-47.15875682, -24.43446827], [-47.15859554, -24.43468125], [-47.1582163, -24.43502177], [-47.15780157, -24.43526271], [-47.15739442, -24.43549612], [-47.15697522, -24.43564821], [-47.15660932, -24.43572065], [-47.15623922, -24.43569251], [-47.15598985, -24.43559908], [-47.15570762, -24.43541577], [-47.15536526, -24.43514715], [-47.15536435, -24.43514665], [-47.15536078, -24.43514384], [-47.15485885, -24.4347944], [-47.15485722, -24.43479356], [-47.15485456, -24.43479158], [-47.15366364, -24.43405113], [-47.15366288, -24.43405077], [-47.15366211, -24.4340502], [-47.15160705, -24.43282282], [-47.15160229, -24.43282056], [-47.15159971, -24.43281884], [-47.15089276, -24.43247231], [-47.15089095, -24.43247154], [-47.15089043, -24.4324712], [-47.15021366, -24.43216035], [-47.15020576, -24.43215711], [-47.15020368, -24.43215676], [-47.15020207, -24.43215585], [-47.14953681, -24.43194232], [-47.14953503, -24.43194206], [-47.14953388, -24.43194143], [-47.14885809, -24.4317461], [-47.14885788, -24.43174608], [-47.14885702, -24.4317458], [-47.1481239, -24.43154226], [-47.14812369, -24.43154223], [-47.14812296, -24.43154201], [-47.14758914, -24.43139906], [-47.14723795, -24.43127446], [-47.14694065, -24.43111818], [-47.14670902, -24.43091342], [-47.14636066, -24.43045801], [-47.14611552, -24.43000978], [-47.14595691, -24.42958727], [-47.14586237, -24.42911413], [-47.14586223, -24.42911371], [-47.14586217, -24.42911314], [-47.14573575, -24.42851821], [-47.1457351, -24.42851629], [-47.14573483, -24.42851435], [-47.14555777, -24.42783979], [-47.1455534, -24.42782781], [-47.14555315, -24.4278267], [-47.14537074, -24.42741853], [-47.14536995, -24.42741747], [-47.14536964, -24.42741617], [-47.14511727, -24.42689434], [-47.1451164, -24.42689321], [-47.1451161, -24.42689202], [-47.14477503, -24.42623756], [-47.14415083, -24.4249913], [-47.14415017, -24.42499044], [-47.14414442, -24.42498051], [-47.14390491, -24.42463544], [-47.14390086, -24.42463089], [-47.14389833, -24.42462706], [-47.14354048, -24.42422228], [-47.14353247, -24.42421426], [-47.1435258, -24.42420886], [-47.14317135, -24.42394666], [-47.1431614, -24.42394134], [-47.14315298, -24.42393591], [-47.14279033, -24.42377223], [-47.14278306, -24.42376928], [-47.14277213, -24.42376597], [-47.14239096, -24.42367297], [-47.14238177, -24.42367194], [-47.14237399, -24.42367026], [-47.14199388, -24.42364043], [-47.14198394, -24.42364011], [-47.1419735, -24.42364077], [-47.14161332, -24.42368108], [-47.14160725, -24.42368258], [-47.14159909, -24.42368365], [-47.14107983, -24.42381462], [-47.14051175, -24.42391139], [-47.14050284, -24.42391388], [-47.1404983, -24.42391459], [-47.14001375, -24.42406409], [-47.1400061, -24.42406678], [-47.14000466, -24.42406769], [-47.1400031, -24.42406802], [-47.13957828, -24.42425187], [-47.13957752, -24.42425237], [-47.13957071, -24.42425553], [-47.13926298, -24.42442002], [-47.13879525, -24.42465597], [-47.13827775, -24.42485746], [-47.1382775, -24.42485761], [-47.1382772, -24.42485767], [-47.13825916, -24.42486698], [-47.13798023, -24.42504877], [-47.13796662, -24.42505947], [-47.13796656, -24.42505957], [-47.13796646, -24.42505963], [-47.13776557, -24.42525025], [-47.13776517, -24.42525082], [-47.13774859, -24.4252721], [-47.13764429, -24.42546045], [-47.13764056, -24.42546802], [-47.13763539, -24.4254843], [-47.1375998, -24.42565452], [-47.13759806, -24.42567289], [-47.13760004, -24.42568957], [-47.13764164, -24.42587586], [-47.13764774, -24.4258936], [-47.13765542, -24.42590676], [-47.13780492, -24.42611861], [-47.13781469, -24.42612951], [-47.13781657, -24.42613209], [-47.13793582, -24.42624596], [-47.13793727, -24.42624685], [-47.13793835, -24.42624829], [-47.13796196, -24.42626379], [-47.13812794, -24.42634179], [-47.13813664, -24.4263454], [-47.13813725, -24.42634551], [-47.13813776, -24.4263458], [-47.13852955, -24.4264829], [-47.13852984, -24.42648295], [-47.13853678, -24.42648514], [-47.13918703, -24.42666126], [-47.13952746, -24.42679425], [-47.13983652, -24.42696785], [-47.13997524, -24.427091], [-47.14000709, -24.4271477], [-47.14000893, -24.42725668], [-47.13998792, -24.42732899], [-47.13983994, -24.42739242], [-47.13936186, -24.42754917], [-47.1389426, -24.42767751], [-47.13862108, -24.42773254], [-47.13831545, -24.42772105], [-47.13804645, -24.42763465], [-47.13780492, -24.42749492], [-47.13750513, -24.4272724], [-47.13714157, -24.42698421], [-47.13713789, -24.42698216], [-47.13712793, -24.42697514], [-47.13668603, -24.42673131], [-47.1366809, -24.42672899], [-47.13667915, -24.42672785], [-47.13618829, -24.42650368], [-47.1361806, -24.42650053], [-47.13617215, -24.42649787], [-47.13576208, -24.4263872], [-47.13575935, -24.42638686], [-47.13575324, -24.42638522], [-47.1348839, -24.42622867], [-47.13487962, -24.42622832], [-47.13487656, -24.42622761], [-47.13350373, -24.42607753], [-47.1324324, -24.42591516], [-47.13243009, -24.425915], [-47.13242861, -24.42591465], [-47.13193816, -24.42585812], [-47.13171351, -24.42583223], [-47.13166906, -24.42582711], [-47.13137898, -24.42578733], [-47.13118895, -24.42575648], [-47.13104419, -24.42569274], [-47.13104106, -24.42569211], [-47.13103778, -24.42569017], [-47.13099994, -24.42568383], [-47.1309811, -24.42568577], [-47.13068247, -24.42574348], [-47.13068136, -24.42567749], [-47.13067149, -24.42555936], [-47.13065525, -24.42541425], [-47.13067539, -24.42532188], [-47.13072411, -24.42522911], [-47.13083001, -24.42513554], [-47.13108739, -24.42501997], [-47.13129417, -24.42494483], [-47.13142986, -24.42486348], [-47.13149907, -24.42475778], [-47.13154855, -24.42465146], [-47.13158193, -24.42452551], [-47.13155859, -24.42442743], [-47.13154358, -24.42435542], [-47.1315279, -24.42430238], [-47.13148977, -24.42420452], [-47.13148122, -24.42410624], [-47.13147988, -24.42402681], [-47.13149279, -24.42391469], [-47.13151872, -24.42375634], [-47.1315164, -24.42361825], [-47.13150063, -24.42355979], [-47.13148593, -24.42350673], [-47.13141932, -24.42341559], [-47.13133191, -24.42331842], [-47.13120713, -24.42316851], [-47.13098682, -24.42290801], [-47.13088318, -24.4227253], [-47.13084495, -24.42262112], [-47.13086588, -24.42245833], [-47.13090149, -24.42234769], [-47.13093684, -24.42228039], [-47.13098779, -24.42220293], [-47.13102225, -24.42208238], [-47.13103229, -24.42203439], [-47.13103121, -24.42197046], [-47.13049293, -24.42199395], [-47.12911642, -24.42288929], [-47.12808035, -24.42334184], [-47.12586173, -24.42329341], [-47.12415283, -24.42252109], [-47.12280174, -24.42234097], [-47.12072222, -24.42280811], [-47.11946008, -24.42274617], [-47.11875649, -24.42227823], [-47.11808307, -24.42101354], [-47.1184096, -24.41973484], [-47.11942839, -24.41824737], [-47.12002506, -24.41752231], [-47.12105979, -24.4169902], [-47.12122637, -24.41654988], [-47.12060842, -24.41600112], [-47.12017235, -24.4159276], [-47.11874303, -24.41626615], [-47.11761603, -24.41648101], [-47.11578813, -24.41638713], [-47.11540019, -24.41659163], [-47.11284279, -24.41969324], [-47.11182126, -24.42102144], [-47.11092947, -24.42230801], [-47.10997365, -24.42236116], [-47.10849017, -24.42206332], [-47.10696652, -24.42196509], [-47.10462144, -24.422157], [-47.10309779, -24.42205874], [-47.10240019, -24.42194899], [-47.10134423, -24.42120714], [-47.10014401, -24.41963114], [-47.09921587, -24.41872824], [-47.09785299, -24.41783136], [-47.09680367, -24.41748755], [-47.09669506, -24.41749475], [-47.09662367, -24.41744426], [-47.09642127, -24.41736762], [-47.09619773, -24.41732467], [-47.09586041, -24.41731671], [-47.09553588, -24.41730766], [-47.09515615, -24.41735896], [-47.09503586, -24.41738446], [-47.09465507, -24.4174652], [-47.09431773, -24.41751591], [-47.09403109, -24.4175921], [-47.09356624, -24.41774298], [-47.09257411, -24.41814581], [-47.09202951, -24.4183041], [-47.09160739, -24.41841556], [-47.09124135, -24.41846035], [-47.09093949, -24.41845098], [-47.09040786, -24.41843846], [-47.08995257, -24.4183328], [-47.08942621, -24.41822181], [-47.08874578, -24.41797481], [-47.08847056, -24.41784681], [-47.08814258, -24.41756786], [-47.08784168, -24.41719736], [-47.08748403, -24.41685291], [-47.08718561, -24.41663314], [-47.0869966, -24.41653102], [-47.086649, -24.41637783], [-47.08631629, -24.41623075], [-47.08601886, -24.41607054], [-47.0856911, -24.41580513], [-47.0855215, -24.41556372], [-47.08534467, -24.41530254], [-47.08524691, -24.41505382], [-47.08503902, -24.4146423], [-47.08489844, -24.41436708], [-47.08461622, -24.41381215], [-47.08433723, -24.41345397], [-47.08411067, -24.41322598], [-47.08384841, -24.41304542], [-47.08358, -24.41291099], [-47.08327019, -24.41283672], [-47.08302398, -24.41279316], [-47.0829597, -24.41278141], [-47.08247792, -24.41274199], [-47.08178771, -24.41273795], [-47.08034926, -24.41273787], [-47.07935054, -24.41273896], [-47.07878192, -24.41269441], [-47.07782427, -24.41261457], [-47.07714, -24.41255174], [-47.07667827, -24.41247232], [-47.075743, -24.4123741], [-47.07477014, -24.41226828], [-47.07405771, -24.412232], [-47.07323235, -24.41228303], [-47.07230295, -24.41230299], [-47.07183758, -24.41230213], [-47.07084447, -24.41222364], [-47.06972912, -24.41214682], [-47.06959213, -24.41213701], [-47.06956384, -24.41213498], [-47.06864927, -24.4120695], [-47.06836511, -24.41205623], [-47.06846198, -24.4118906], [-47.06848864, -24.41177197], [-47.06844183, -24.41162184], [-47.06833039, -24.41143829], [-47.0682767, -24.41135055], [-47.06823317, -24.41134121], [-47.06819045, -24.41120006], [-47.06819261, -24.41084884], [-47.06831866, -24.410356], [-47.06825658, -24.41011581], [-47.06813526, -24.40993149], [-47.06790766, -24.40981904], [-47.06790051, -24.40981682], [-47.06734261, -24.4098483], [-47.06733192, -24.40985565], [-47.06710755, -24.41000369], [-47.06702722, -24.41006356], [-47.06700401, -24.41009584], [-47.06695609, -24.41016249], [-47.06685545, -24.41028926], [-47.06683508, -24.41035223], [-47.06680213, -24.41043104], [-47.06672315, -24.41057318], [-47.06658152, -24.41081022], [-47.06656057, -24.41083793], [-47.06617419, -24.41128598], [-47.0660355, -24.41144069], [-47.06554861, -24.4117608], [-47.06510994, -24.41188826], [-47.0650328, -24.41188147], [-47.06466839, -24.41183943], [-47.06454369, -24.41180194], [-47.06438495, -24.41177668], [-47.06433751, -24.41175382], [-47.06427321, -24.41174686], [-47.06409327, -24.41173364], [-47.06384494, -24.41172527], [-47.06359604, -24.41168165], [-47.06338986, -24.41163352], [-47.06316248, -24.41159743], [-47.06285471, -24.4116173], [-47.06271832, -24.41165051], [-47.06244023, -24.4116543], [-47.06209186, -24.41154542], [-47.06181505, -24.41162755], [-47.06161065, -24.41168911], [-47.06150988, -24.41180804], [-47.06146818, -24.41187522], [-47.06139857, -24.41206816], [-47.06139557, -24.41214657], [-47.06138208, -24.4123701], [-47.06141661, -24.41265175], [-47.06153236, -24.41292838], [-47.06166415, -24.41313817], [-47.06169018, -24.41342386], [-47.06163277, -24.41357746], [-47.06149119, -24.4138184], [-47.06138647, -24.41395697], [-47.06126054, -24.41410759], [-47.06079021, -24.41465864], [-47.06060125, -24.41488064], [-47.06052264, -24.41504628], [-47.06041637, -24.41535336], [-47.06028749, -24.4155863], [-47.05992797, -24.41584589], [-47.05974176, -24.41597381], [-47.0596021, -24.41606975], [-47.05956851, -24.41610939], [-47.05937527, -24.41633145], [-47.05931581, -24.41635969], [-47.05903969, -24.41648491], [-47.05878911, -24.41660196], [-47.05863228, -24.41669421], [-47.05842876, -24.41681061], [-47.05786397, -24.41734335], [-47.05768273, -24.41751431], [-47.05720268, -24.41799496], [-47.05702725, -24.41825987], [-47.05672644, -24.41871065], [-47.05651313, -24.41901527], [-47.0564011, -24.41915398], [-47.05639314, -24.41916384], [-47.05632435, -24.41924901], [-47.05611165, -24.41985533], [-47.05597554, -24.42017065], [-47.05587251, -24.42041499], [-47.05578917, -24.42055326], [-47.05563889, -24.42078649], [-47.05543606, -24.42094598], [-47.05503188, -24.42109253], [-47.05458096, -24.42125931], [-47.05433471, -24.4213802], [-47.05349584, -24.42216742], [-47.0533029, -24.42240906], [-47.0529969, -24.42280505], [-47.05291858, -24.42290466], [-47.05289229, -24.42293811], [-47.05257339, -24.4233437], [-47.05257091, -24.42335221], [-47.05256235, -24.42332224], [-47.05183895, -24.42329824], [-47.05174373, -24.42350718], [-47.05173518, -24.42358854], [-47.05170678, -24.42366115], [-47.05169706, -24.42367031], [-47.05148961, -24.42364604], [-47.05145989, -24.42363742], [-47.05125126, -24.42354094], [-47.05114093, -24.42342507], [-47.05107105, -24.42337185], [-47.05097057, -24.42325585], [-47.05091025, -24.42318444], [-47.05072829, -24.42290704], [-47.05063767, -24.42279091], [-47.05059751, -24.42274631], [-47.05053778, -24.42271101], [-47.0504982, -24.42270252], [-47.05039005, -24.42272204], [-47.05029235, -24.42277753], [-47.05022524, -24.4228958], [-47.05022597, -24.42294093], [-47.05020859, -24.42308562], [-47.05020976, -24.42315783], [-47.05021019, -24.4231849], [-47.05021078, -24.42322101], [-47.05021121, -24.42324809], [-47.05009452, -24.42334897], [-47.05001551, -24.42334102], [-47.04995549, -24.42328766], [-47.04994534, -24.42326974], [-47.04986414, -24.4231264], [-47.04961405, -24.42290409], [-47.04952503, -24.42288724], [-47.04950532, -24.4228875], [-47.04935687, -24.4228534], [-47.04928457, -24.42285438], [-47.04928168, -24.4228619], [-47.04933168, -24.42290263], [-47.04970213, -24.42337248], [-47.04987947, -24.42366891], [-47.0500291, -24.42408036], [-47.05010721, -24.42436172], [-47.05011126, -24.42437632], [-47.05027305, -24.42495909], [-47.05039905, -24.42525079], [-47.05058931, -24.42555336], [-47.05093326, -24.42590801], [-47.05132496, -24.42616722], [-47.05159923, -24.42629802], [-47.05236289, -24.42650975], [-47.052624, -24.42661996], [-47.05278687, -24.42675227], [-47.05286275, -24.42699319], [-47.05280978, -24.42725391], [-47.05262347, -24.42743971], [-47.05180442, -24.42782729], [-47.05147685, -24.42811972], [-47.0513166, -24.42833225], [-47.05104254, -24.42894535], [-47.05075474, -24.42944128], [-47.05063868, -24.4295205], [-47.05057065, -24.42952142], [-47.05050852, -24.42945997], [-47.05042165, -24.42927065], [-47.05047097, -24.42884477], [-47.05045357, -24.42874479], [-47.05038181, -24.42863653], [-47.05009857, -24.42837765], [-47.04944669, -24.42806689], [-47.04858075, -24.42781139], [-47.04804052, -24.42775822], [-47.04760526, -24.42779391], [-47.04735766, -24.42784872], [-47.04681152, -24.42791158], [-47.04679333, -24.42789226], [-47.04580624, -24.42963836], [-47.04580547, -24.42964353], [-47.04597832, -24.42964891], [-47.04612654, -24.42960291], [-47.04631818, -24.42951432], [-47.04642818, -24.42937907], [-47.04651984, -24.42923929], [-47.04660722, -24.42915689], [-47.04673679, -24.42910259], [-47.04684074, -24.42907729], [-47.04702885, -24.42909386], [-47.04722786, -24.42913894], [-47.04743263, -24.42921738], [-47.04767982, -24.42933824], [-47.04798525, -24.42951087], [-47.04824848, -24.4296554], [-47.04846998, -24.4298005], [-47.04871795, -24.42996912], [-47.04888152, -24.43008156], [-47.04888961, -24.43009585], [-47.04896209, -24.43022379], [-47.04900469, -24.43043819], [-47.04899104, -24.43056259], [-47.0489306, -24.43069717], [-47.04863335, -24.43103083], [-47.0484234, -24.43127732], [-47.04839364, -24.43137327], [-47.04833811, -24.43148868], [-47.04832891, -24.43156524], [-47.04835816, -24.43176071], [-47.04838555, -24.43184156], [-47.04846496, -24.43191214], [-47.04856992, -24.43194894], [-47.04872136, -24.43195644], [-47.04880982, -24.43194091], [-47.04886168, -24.4319211], [-47.04898097, -24.43187649], [-47.04915205, -24.43180729], [-47.04929221, -24.43176239], [-47.04942424, -24.4316985], [-47.04952795, -24.43165887], [-47.04966873, -24.43165219], [-47.04986214, -24.43167345], [-47.04993587, -24.43171545], [-47.05009362, -24.43178975], [-47.05028305, -24.4318875], [-47.05039936, -24.43198147], [-47.05059969, -24.43210775], [-47.05077799, -24.43216266], [-47.05101812, -24.43216895], [-47.05115338, -24.43214323], [-47.05126208, -24.43208921], [-47.05132399, -24.43204537], [-47.0513961, -24.43198707], [-47.0515048, -24.43193304], [-47.05160361, -24.43191259], [-47.05174984, -24.43192016], [-47.05193024, -24.43195259], [-47.05194014, -24.43195437], [-47.05197225, -24.43196014], [-47.05205721, -24.43197739], [-47.05205724, -24.43197739], [-47.05205735, -24.43197745], [-47.05206155, -24.43197892], [-47.05206169, -24.43197894], [-47.05228633, -24.43202111], [-47.05258704, -24.43195745], [-47.0526194, -24.4319474], [-47.05267255, -24.4319309], [-47.05271144, -24.43191883], [-47.05283036, -24.43188192], [-47.05307453, -24.43185875], [-47.05341938, -24.43184142], [-47.0541385, -24.43185784], [-47.05454256, -24.43190471], [-47.05487442, -24.43199861], [-47.05545367, -24.4322679], [-47.05576665, -24.43247399], [-47.05625459, -24.43288897], [-47.05640865, -24.433025], [-47.05651771, -24.43312192], [-47.05663477, -24.43322596], [-47.05670024, -24.43331083], [-47.05677423, -24.43343441], [-47.05681274, -24.43355937], [-47.05686462, -24.43365707], [-47.05696721, -24.43378117], [-47.05703247, -24.4338525], [-47.05714973, -24.43396917], [-47.05722999, -24.43405385], [-47.05733334, -24.43422397], [-47.05737119, -24.43430832], [-47.05739566, -24.43447952], [-47.05737676, -24.43465131], [-47.05735073, -24.43480965], [-47.05736805, -24.43502608], [-47.05739942, -24.43519719], [-47.05745983, -24.43533449], [-47.05756199, -24.43543151], [-47.05769243, -24.43550918], [-47.05785881, -24.43555296], [-47.05799474, -24.43554389], [-47.05816642, -24.43548919], [-47.05828125, -24.43545512], [-47.05844666, -24.43543933], [-47.058655, -24.43545636], [-47.05876298, -24.43548777], [-47.05878912, -24.43549538], [-47.05900178, -24.43555726], [-47.05913188, -24.43561417], [-47.05921928, -24.4356527], [-47.05932717, -24.43567742], [-47.05944262, -24.43568216], [-47.05952829, -24.43567468], [-47.05964311, -24.43564061], [-47.05972144, -24.43560614], [-47.05983647, -24.43558471], [-47.05997221, -24.43556391], [-47.06011615, -24.43556195], [-47.06030368, -24.43557203], [-47.06046196, -24.43560328], [-47.06067235, -24.43568527], [-47.06106356, -24.43591106], [-47.06266208, -24.43688323], [-47.06351755, -24.43733831], [-47.06448202, -24.43782529], [-47.0653592, -24.43828096], [-47.06565689, -24.43845474], [-47.06614372, -24.43873788], [-47.06662149, -24.43894893], [-47.06706375, -24.43915955], [-47.06754388, -24.43951501], [-47.06863471, -24.4402503], [-47.06945625, -24.44079879], [-47.06984069, -24.44103096], [-47.07029106, -24.44131459], [-47.07075718, -24.44165668], [-47.07149293, -24.44226501], [-47.07260994, -24.44284916], [-47.07353716, -24.44322464], [-47.07415079, -24.44342025], [-47.07427914, -24.44345909], [-47.08124237, -24.44816427]]]]}}]}