{"type": "FeatureCollection", "features": [{"type": "Feature", "properties": {"name": "Reserva Particular do Patrimônio Natural Reserva do Dadinho"}, "geometry": {"type": "MultiPolygon", "coordinates": [[[[-46.50733612, -23.14269821], [-46.50754848, -23.14263048], [-46.50755799, -23.14257408], [-46.50753476, -23.14231153], [-46.50754333, -23.14217068], [-46.50776248, -23.14180257], [-46.50789082, -23.14148226], [-46.50789614, -23.14105051], [-46.50814488, -23.14060704], [-46.50841728, -23.14046367], [-46.50865975, -23.1403675], [-46.50875996, -23.14025392], [-46.50902836, -23.13975396], [-46.50901696, -23.13964145], [-46.50892164, -23.13928574], [-46.50891776, -23.13893854], [-46.50887601, -23.1388357], [-46.50850632, -23.13844508], [-46.50769758, -23.13781465], [-46.50705424, -23.13745479], [-46.50601109, -23.13673275], [-46.5060103, -23.13673217], [-46.50595587, -23.13677615], [-46.50583679, -23.13690563], [-46.50574032, -23.13711747], [-46.50571523, -23.13718764], [-46.5057231, -23.13739904], [-46.50572723, -23.13750993], [-46.50579113, -23.13778401], [-46.50603641, -23.13776149], [-46.50629565, -23.13782932], [-46.5064955, -23.13802428], [-46.506522, -23.13835447], [-46.5063876, -23.13857372], [-46.50618562, -23.13872761], [-46.50599332, -23.13890494], [-46.50583052, -23.13906769], [-46.50574934, -23.13928642], [-46.50576145, -23.13944017], [-46.50575313, -23.13952977], [-46.50571143, -23.13966727], [-46.50554904, -23.13981158], [-46.50533901, -23.1399864], [-46.50508689, -23.14011691], [-46.50490829, -23.14022253], [-46.50484934, -23.14030818], [-46.50499721, -23.14044943], [-46.50528342, -23.1406344], [-46.50539053, -23.14022983], [-46.50575865, -23.1404797], [-46.50600061, -23.14033662], [-46.50690841, -23.14075026], [-46.50707769, -23.14136804], [-46.50728388, -23.14165699], [-46.50693776, -23.1424674], [-46.50722282, -23.14254913], [-46.50733612, -23.14269821]]]]}}]}