{"type": "FeatureCollection", "features": [{"type": "Feature", "properties": {"name": "Reserva Particular do Patrimônio Natural Pedra da Mina"}, "geometry": {"type": "MultiPolygon", "coordinates": [[[[-44.8251, -22.47444247], [-44.82863032, -22.4749229], [-44.82885752, -22.47466133], [-44.82903922, -22.4744046], [-44.82921357, -22.47348548], [-44.82932481, -22.47274472], [-44.8299716, -22.47203713], [-44.8300244, -22.47178053], [-44.82984766, -22.47147915], [-44.82964543, -22.47120141], [-44.82965017, -22.47090709], [-44.82992844, -22.47060113], [-44.83046503, -22.4697805], [-44.83054493, -22.46962068], [-44.83059608, -22.46944331], [-44.83023527, -22.46911951], [-44.83019018, -22.46879279], [-44.83049333, -22.46809695], [-44.83024298, -22.46669966], [-44.83045558, -22.46636716], [-44.83077709, -22.46534981], [-44.83108363, -22.46481469], [-44.83139638, -22.4645187], [-44.83199678, -22.46427468], [-44.8329439, -22.46402651], [-44.83339397, -22.4635067], [-44.83408502, -22.46312473], [-44.83433591, -22.46294521], [-44.83462914, -22.4628774], [-44.83477498, -22.46275487], [-44.83499103, -22.46236418], [-44.8351829, -22.46219752], [-44.83538047, -22.46214316], [-44.83585185, -22.46191643], [-44.83625405, -22.4616703], [-44.83648834, -22.46147242], [-44.83664058, -22.46103226], [-44.83707031, -22.46067738], [-44.8372014, -22.46045555], [-44.83743126, -22.45954434], [-44.83757777, -22.45926533], [-44.83774707, -22.45902682], [-44.83773503, -22.45875967], [-44.83769006, -22.45857145], [-44.83734365, -22.45824018], [-44.83721903, -22.4580068], [-44.83721057, -22.45784002], [-44.83728916, -22.45762401], [-44.83725576, -22.45718492], [-44.83733081, -22.45700359], [-44.83732459, -22.45674973], [-44.83739161, -22.45662124], [-44.83753958, -22.45650331], [-44.83756584, -22.45632194], [-44.83744558, -22.45618287], [-44.83743927, -22.45600426], [-44.83774378, -22.45575089], [-44.83784, -22.45550725], [-44.83785614, -22.45441216], [-44.83779635, -22.45392706], [-44.83793376, -22.45310655], [-44.83822237, -22.45247761], [-44.8382571, -22.452118], [-44.8386367, -22.45154996], [-44.8388712, -22.4513163], [-44.83896579, -22.45112361], [-44.83889337, -22.45046369], [-44.83891669, -22.44987912], [-44.83902763, -22.44958734], [-44.83924096, -22.449416], [-44.83933924, -22.44914787], [-44.83938161, -22.44872874], [-44.83947286, -22.44856441], [-44.84057843, -22.44741185], [-44.84109831, -22.44653498], [-44.84118864, -22.44573429], [-44.84118081, -22.4454423], [-44.84126553, -22.44529215], [-44.84145921, -22.44512512], [-44.8416062, -22.44491973], [-44.8418096, -22.44441014], [-44.84206156, -22.44401768], [-44.84243603, -22.44365822], [-44.84260676, -22.44334002], [-44.84270952, -22.44287397], [-44.84309685, -22.44248145], [-44.84341526, -22.4420231], [-44.84359003, -22.44120713], [-44.84403506, -22.44039901], [-44.84402788, -22.4399511], [-44.84397892, -22.43958544], [-44.84404363, -22.43916795], [-44.84426621, -22.43869839], [-44.84442226, -22.43854668], [-44.84524123, -22.43800027], [-44.84535826, -22.43789089], [-44.84559928, -22.43787839], [-44.84586505, -22.43772298], [-44.84711472, -22.43672048], [-44.84822891, -22.4353573], [-44.84864479, -22.43441426], [-44.84904139, -22.43395227], [-44.84924777, -22.43353129], [-44.84938162, -22.43304602], [-44.8495494, -22.432813], [-44.84987413, -22.43257833], [-44.8500307, -22.43220383], [-44.85030537, -22.43169971], [-44.85072448, -22.43144471], [-44.85090392, -22.43121017], [-44.85110279, -22.43107538], [-44.85132803, -22.43072416], [-44.85156683, -22.43059456], [-44.85177995, -22.43030441], [-44.85178238, -22.43002851], [-44.85171186, -22.42981668], [-44.85168582, -22.42954031], [-44.85155024, -22.42928813], [-44.85144893, -22.42842736], [-44.85133885, -22.42822986], [-44.85117358, -22.4281139], [-44.85078493, -22.42788651], [-44.85062643, -22.42762176], [-44.85031858, -22.42744982], [-44.85011935, -22.42710589], [-44.85004765, -22.4268264], [-44.84926264, -22.42641426], [-44.84899061, -22.42636612], [-44.84875467, -22.42637295], [-44.84841532, -22.42647833], [-44.84750848, -22.42685908], [-44.84671456, -22.42723125], [-44.84312329, -22.42821008], [-44.84199426, -22.42792034], [-44.84140759, -22.428042], [-44.84053134, -22.42798106], [-44.83996779, -22.42801257], [-44.83934121, -22.42844513], [-44.83882402, -22.42846449], [-44.83845633, -22.42854028], [-44.83773964, -22.42881248], [-44.83703932, -22.42921967], [-44.83686501, -22.42936422], [-44.83647848, -22.42991518], [-44.83622339, -22.43017519], [-44.83602657, -22.43028837], [-44.83560371, -22.43041261], [-44.83509174, -22.43078158], [-44.83495718, -22.43092734], [-44.83468471, -22.43140876], [-44.83442146, -22.43165061], [-44.83429992, -22.43179683], [-44.83400915, -22.4323851], [-44.83382453, -22.43293726], [-44.83365113, -22.43370507], [-44.83371488, -22.43394381], [-44.83413833, -22.4343964], [-44.83441377, -22.4350213], [-44.83443083, -22.43530779], [-44.83425651, -22.43553518], [-44.8338864, -22.4357433], [-44.83329871, -22.43602709], [-44.83294379, -22.43628528], [-44.83268398, -22.43656877], [-44.83261239, -22.43670954], [-44.83258738, -22.43681792], [-44.83257748, -22.43786279], [-44.83250362, -22.43932144], [-44.83242821, -22.43996522], [-44.83221298, -22.44026403], [-44.83201423, -22.4404389], [-44.83150358, -22.44064299], [-44.83093204, -22.44088469], [-44.83075776, -22.44107178], [-44.83065885, -22.44121812], [-44.83057295, -22.4413707], [-44.83037605, -22.44233741], [-44.83011359, -22.44302111], [-44.82974124, -22.44377388], [-44.8295254, -22.44408081], [-44.82935335, -22.44442546], [-44.82918977, -22.44460461], [-44.82912661, -22.44474973], [-44.82924762, -22.44505719], [-44.82932337, -22.4451], [-44.83001575, -22.44555451], [-44.83016334, -22.44574466], [-44.83018508, -22.4457688], [-44.8301891, -22.4458221], [-44.83015416, -22.44586362], [-44.82997994, -22.44599615], [-44.82982746, -22.44614767], [-44.82958796, -22.44633705], [-44.82934836, -22.44660221], [-44.82917348, -22.44703295], [-44.82910169, -22.44716803], [-44.82908694, -22.44746098], [-44.82910316, -22.44762623], [-44.82915442, -22.44782992], [-44.82912001, -22.44815447], [-44.82818715, -22.44859471], [-44.82750183, -22.44926087], [-44.82718545, -22.44951647], [-44.82651558, -22.45025826], [-44.82616165, -22.45062267], [-44.82558128, -22.45089605], [-44.82514376, -22.45118584], [-44.82479517, -22.45154565], [-44.82378515, -22.45294726], [-44.82370469, -22.45362997], [-44.82355421, -22.45418983], [-44.82353744, -22.45445532], [-44.82335948, -22.45461204], [-44.82306914, -22.45471218], [-44.82269349, -22.45478784], [-44.82222438, -22.45483276], [-44.82144107, -22.45478601], [-44.82138117, -22.45481223], [-44.8213241, -22.45489618], [-44.82129857, -22.45502498], [-44.82131199, -22.45517496], [-44.82147117, -22.45564292], [-44.82165116, -22.4561885], [-44.82164773, -22.45696769], [-44.82150048, -22.457801], [-44.82120623, -22.45889696], [-44.82102608, -22.45969085], [-44.82102801, -22.45992971], [-44.82111274, -22.46032857], [-44.82155984, -22.46094004], [-44.8218807, -22.46175987], [-44.82222991, -22.46246391], [-44.82248605, -22.46282538], [-44.8225504, -22.46312601], [-44.82225489, -22.4638363], [-44.82226439, -22.46400805], [-44.82259077, -22.46447637], [-44.82305939, -22.46492127], [-44.82338056, -22.4650574], [-44.82357764, -22.46515943], [-44.82373802, -22.46539151], [-44.8238012, -22.46554787], [-44.82384413, -22.46603133], [-44.8249279, -22.46751048], [-44.82494296, -22.467676], [-44.82488891, -22.46798824], [-44.82482185, -22.46813723], [-44.82447593, -22.46858097], [-44.82440162, -22.46885083], [-44.82436957, -22.46944415], [-44.82440346, -22.46963092], [-44.82474337, -22.47040351], [-44.82513762, -22.47133996], [-44.82529126, -22.47160843], [-44.82565598, -22.47268722], [-44.82563133, -22.472963], [-44.82555672, -22.47300583], [-44.82527656, -22.47309361], [-44.8251879, -22.47317898], [-44.82504006, -22.47355671], [-44.82510596, -22.47410235], [-44.82507072, -22.47422463], [-44.82508141, -22.47438256], [-44.8251, -22.47444247]]]]}}]}