{"type": "FeatureCollection", "features": [{"type": "Feature", "properties": {"name": "Reserva de Desenvolvimento Sustentável Quilombos de Barra do Turvo"}, "geometry": {"type": "MultiPolygon", "coordinates": [[[[-48.48045333, -24.97949578], [-48.48135334, -24.97934751], [-48.48218817, -24.97947067], [-48.48251857, -24.97948702], [-48.48334879, -24.97788003], [-48.48354989, -24.97778079], [-48.48383885, -24.97769058], [-48.48433448, -24.97762295], [-48.48478401, -24.9774741], [-48.48523262, -24.9773794], [-48.48590334, -24.97736592], [-48.48701631, -24.97676456], [-48.48861616, -24.97595599], [-48.48962358, -24.97559318], [-48.49029776, -24.97522473], [-48.49122493, -24.97470863], [-48.49245849, -24.97388319], [-48.49283561, -24.97382005], [-48.49347077, -24.97362154], [-48.49378908, -24.97345914], [-48.49471966, -24.9731659], [-48.49471347, -24.97313431], [-48.49504883, -24.97285459], [-48.49546309, -24.97265157], [-48.49575758, -24.97267865], [-48.49611552, -24.97254781], [-48.49639024, -24.97238088], [-48.49660586, -24.97215078], [-48.49682551, -24.9718169], [-48.4970099, -24.97140632], [-48.49725276, -24.97100477], [-48.4974953, -24.97076113], [-48.49764811, -24.97069346], [-48.49740311, -24.97062126], [-48.49715995, -24.97049944], [-48.49739941, -24.97040921], [-48.49655159, -24.96940236], [-48.49607314, -24.96885891], [-48.49534643, -24.96848973], [-48.49511352, -24.96790579], [-48.49482809, -24.96749944], [-48.49464592, -24.96682711], [-48.49436411, -24.96624235], [-48.49379324, -24.96542962], [-48.49317254, -24.96466068], [-48.49274847, -24.96385043], [-48.49252463, -24.96282046], [-48.49284892, -24.96130895], [-48.49180602, -24.95964054], [-48.49206511, -24.95893103], [-48.49226533, -24.95871132], [-48.49257606, -24.95786883], [-48.49311354, -24.95687771], [-48.49332399, -24.95590552], [-48.49359677, -24.95502752], [-48.49276689, -24.95125826], [-48.49364526, -24.95127302], [-48.49805589, -24.95068843], [-48.49754909, -24.94670897], [-48.49660225, -24.94513145], [-48.49695732, -24.94451278], [-48.49726797, -24.94367027], [-48.49783493, -24.94225204], [-48.49853782, -24.94137151], [-48.49927971, -24.9409824], [-48.49997447, -24.94050328], [-48.50071546, -24.94015878], [-48.50185317, -24.93955323], [-48.50293926, -24.93908065], [-48.5035949, -24.9385673], [-48.50314832, -24.93812177], [-48.50266429, -24.93793228], [-48.50251491, -24.937824], [-48.50209829, -24.9373728], [-48.50157963, -24.93698026], [-48.50143396, -24.93690807], [-48.50132231, -24.93687649], [-48.50125922, -24.93686746], [-48.50114324, -24.93692612], [-48.50104613, -24.93702087], [-48.50099077, -24.93712014], [-48.50097623, -24.93726001], [-48.50100376, -24.93741342], [-48.50099417, -24.93752622], [-48.50096139, -24.93757585], [-48.50090943, -24.93760292], [-48.50083303, -24.93758939], [-48.50071674, -24.93750817], [-48.50047427, -24.93732769], [-48.50044458, -24.93730965], [-48.50042385, -24.93730513], [-48.50033602, -24.93729611], [-48.5002822, -24.93731416], [-48.50011337, -24.9375352], [-48.49996767, -24.93764354], [-48.49988045, -24.93764354], [-48.49965807, -24.93757134], [-48.49928508, -24.93751719], [-48.49916725, -24.93742696], [-48.49917034, -24.93727355], [-48.49924797, -24.93701186], [-48.49922137, -24.93694417], [-48.49908375, -24.93685845], [-48.49867054, -24.9367276], [-48.49786766, -24.93663283], [-48.49771951, -24.93647943], [-48.49751044, -24.93618614], [-48.49726767, -24.93596053], [-48.49680222, -24.93572139], [-48.49581098, -24.93545064], [-48.49556419, -24.93526565], [-48.49550296, -24.93517089], [-48.49548471, -24.93503102], [-48.49545627, -24.93487761], [-48.49538668, -24.93474676], [-48.49522772, -24.93472871], [-48.49499424, -24.93481893], [-48.49488349, -24.93480991], [-48.49468835, -24.93457979], [-48.49436394, -24.93402029], [-48.49421611, -24.93388944], [-48.49410447, -24.93388944], [-48.49406426, -24.93391651], [-48.49390157, -24.93407442], [-48.49372125, -24.9343316], [-48.49357928, -24.93465194], [-48.4935131, -24.93472865], [-48.49341753, -24.93476474], [-48.49282743, -24.93477373], [-48.4924566, -24.93494969], [-48.49224908, -24.93497676], [-48.49180315, -24.93495418], [-48.49135806, -24.93489098], [-48.49104044, -24.93484133], [-48.49077756, -24.9347601], [-48.49058891, -24.93464729], [-48.490455, -24.93452095], [-48.49000815, -24.93394339], [-48.48981733, -24.93379447], [-48.48956404, -24.93369519], [-48.48946137, -24.93367714], [-48.48928073, -24.93393883], [-48.4891929, -24.93393431], [-48.48897302, -24.9337854], [-48.48876705, -24.93369514], [-48.48861581, -24.93369513], [-48.48851099, -24.93373121], [-48.48825178, -24.93397034], [-48.48820291, -24.93398387], [-48.48809188, -24.93399289], [-48.4878123, -24.93387104], [-48.48769912, -24.93379433], [-48.48768647, -24.93353263], [-48.48764318, -24.93332959], [-48.48755135, -24.93312203], [-48.48756343, -24.93291899], [-48.48777161, -24.93251743], [-48.48779142, -24.93231439], [-48.48772464, -24.93205269], [-48.48718039, -24.93135779], [-48.48706013, -24.93098329], [-48.48702737, -24.93064488], [-48.48713007, -24.93041929], [-48.48715359, -24.93019369], [-48.4870936, -24.93011247], [-48.48680171, -24.92997259], [-48.48621533, -24.92978753], [-48.48567473, -24.92974687], [-48.48490775, -24.92979644], [-48.48464305, -24.92952118], [-48.48461525, -24.92933618], [-48.48464123, -24.9292279], [-48.48471361, -24.92916474], [-48.48523318, -24.92912417], [-48.48539431, -24.92902943], [-48.48558174, -24.92881739], [-48.48557063, -24.92858276], [-48.48535267, -24.92806837], [-48.48533413, -24.9278563], [-48.48523427, -24.92749984], [-48.48506266, -24.92728776], [-48.48489815, -24.92715238], [-48.48470983, -24.92701249], [-48.48436255, -24.92681844], [-48.48358697, -24.92655216], [-48.48339803, -24.92645287], [-48.48324125, -24.92631749], [-48.48296049, -24.92601515], [-48.4825576, -24.92541952], [-48.48247474, -24.92522549], [-48.48248591, -24.92495477], [-48.48269408, -24.92460285], [-48.4827207, -24.92446299], [-48.48262518, -24.9240975], [-48.48262057, -24.92389445], [-48.48298838, -24.9230733], [-48.48314991, -24.92219797], [-48.48327488, -24.92193178], [-48.48346012, -24.92183253], [-48.48357145, -24.92180546], [-48.4847865, -24.92167021], [-48.48514091, -24.92152135], [-48.48516876, -24.92124137], [-48.48513323, -24.92107466], [-48.48503305, -24.92089867], [-48.48486176, -24.92070013], [-48.48426528, -24.92023984], [-48.48413325, -24.92006837], [-48.48406647, -24.91984727], [-48.48404174, -24.91984276], [-48.48404827, -24.91953143], [-48.48415034, -24.91933291], [-48.48484619, -24.91873738], [-48.48496654, -24.91830874], [-48.48492699, -24.9179207], [-48.48483519, -24.91770862], [-48.48480613, -24.91753715], [-48.48481329, -24.91718521], [-48.48477899, -24.91692352], [-48.48464884, -24.91666179], [-48.48423512, -24.91621958], [-48.48415165, -24.9160436], [-48.48411212, -24.91560591], [-48.48419007, -24.91531715], [-48.48422042, -24.9149968], [-48.48416818, -24.91483435], [-48.48397216, -24.91459519], [-48.48381291, -24.91455006], [-48.48343568, -24.91436051], [-48.48291869, -24.91394534], [-48.4823705, -24.91343993], [-48.48217665, -24.91319625], [-48.48197756, -24.91282173], [-48.48183693, -24.91228026], [-48.48165558, -24.91098526], [-48.48159686, -24.91075063], [-48.48149053, -24.91047989], [-48.48142066, -24.91036708], [-48.48123978, -24.91025877], [-48.48079795, -24.91003762], [-48.4797683, -24.90962239], [-48.47941645, -24.90940577], [-48.47914469, -24.90903574], [-48.47881704, -24.90831826], [-48.47857561, -24.90786702], [-48.47840157, -24.9075692], [-48.47783523, -24.90680658], [-48.47758882, -24.90651326], [-48.47691176, -24.90589048], [-48.47652128, -24.9055791], [-48.47608102, -24.90527672], [-48.47577527, -24.90494728], [-48.47563185, -24.90464495], [-48.47559173, -24.90423885], [-48.47550491, -24.90382823], [-48.47532813, -24.90337249], [-48.47520144, -24.90289868], [-48.4751854, -24.90271369], [-48.47523369, -24.90242943], [-48.47528881, -24.90190603], [-48.47532406, -24.90017338], [-48.4750817, -24.89992516], [-48.4747448, -24.89927537], [-48.4744837, -24.89839094], [-48.47444448, -24.89813373], [-48.47445964, -24.89806605], [-48.47492345, -24.89793076], [-48.47494016, -24.89789467], [-48.47497169, -24.89789468], [-48.47507871, -24.89774579], [-48.47534439, -24.89722693], [-48.47548357, -24.89700135], [-48.47551634, -24.89700586], [-48.47557015, -24.89692466], [-48.47609799, -24.89667656], [-48.47683328, -24.89646459], [-48.47726739, -24.89628416], [-48.47764371, -24.89608117], [-48.4776734, -24.8960541], [-48.47768793, -24.89603606], [-48.47804417, -24.89567513], [-48.47838405, -24.89522847], [-48.47855138, -24.89477728], [-48.47867512, -24.89436669], [-48.47883908, -24.89385682], [-48.47912576, -24.89328832], [-48.47932401, -24.89293189], [-48.47937194, -24.89280104], [-48.47942299, -24.892598], [-48.47945889, -24.89235886], [-48.47953562, -24.89205203], [-48.47956378, -24.89182643], [-48.47963001, -24.8914023], [-48.47967888, -24.89124438], [-48.47991051, -24.89080672], [-48.48024636, -24.89031043], [-48.48050178, -24.89001717], [-48.48068081, -24.88984572], [-48.48103858, -24.88949381], [-48.48121173, -24.88930883], [-48.48140499, -24.889178], [-48.48156763, -24.88907424], [-48.48205706, -24.88891185], [-48.48245159, -24.88876299], [-48.48284124, -24.88852011], [-48.48285293, -24.88851035], [-48.48303474, -24.8882983], [-48.48317483, -24.88805014], [-48.48325276, -24.88786514], [-48.4832939, -24.88771174], [-48.48332824, -24.88748613], [-48.48337341, -24.88724699], [-48.48348166, -24.88691761], [-48.48362267, -24.88660627], [-48.48381934, -24.8862769], [-48.48387036, -24.8862002], [-48.48398232, -24.88590241], [-48.48418889, -24.88551438], [-48.48451541, -24.88512636], [-48.48478689, -24.8847248], [-48.48491, -24.88421493], [-48.48489211, -24.88382236], [-48.48478147, -24.88342979], [-48.484579, -24.88315904], [-48.48417126, -24.8828296], [-48.48369921, -24.88254078], [-48.48297212, -24.8822429], [-48.4824008, -24.88211199], [-48.48163876, -24.88198104], [-48.48132064, -24.88195393], [-48.48101767, -24.88196292], [-48.48000917, -24.88217037], [-48.47959023, -24.88238239], [-48.47946934, -24.88249518], [-48.47937874, -24.88262603], [-48.47916905, -24.88314491], [-48.47884558, -24.88378108], [-48.47868294, -24.88389387], [-48.47853917, -24.8839119], [-48.47825445, -24.88380809], [-48.4781611, -24.88372234], [-48.47803099, -24.88346062], [-48.47799672, -24.8831989], [-48.47786074, -24.88281986], [-48.47767157, -24.88268446], [-48.47722856, -24.88253098], [-48.476597, -24.88225113], [-48.47643998, -24.88214734], [-48.47620815, -24.88191718], [-48.47612716, -24.88181338], [-48.47607927, -24.8816735], [-48.47569612, -24.88227357], [-48.47523261, -24.88272924], [-48.47482662, -24.88309466], [-48.47428678, -24.88341043], [-48.47392964, -24.88370367], [-48.47377347, -24.88393378], [-48.47350934, -24.88443008], [-48.47334485, -24.8846331], [-48.47320014, -24.88474588], [-48.47295835, -24.88484962], [-48.47230196, -24.88496232], [-48.47195571, -24.88497128], [-48.47156338, -24.88494866], [-48.47122054, -24.88487189], [-48.47055495, -24.8846597], [-48.4699231, -24.88440689], [-48.46931995, -24.88428043], [-48.46898823, -24.88414952], [-48.46881544, -24.88403668], [-48.4686912, -24.88387873], [-48.46820883, -24.88293109], [-48.46809972, -24.8828002], [-48.46787034, -24.88269187], [-48.46748792, -24.88267375], [-48.46728016, -24.88270529], [-48.46688073, -24.8827413], [-48.46623186, -24.88254264], [-48.46589797, -24.88251549], [-48.46556192, -24.88255152], [-48.46501034, -24.88267324], [-48.46463355, -24.88237534], [-48.46439374, -24.88205042], [-48.4642528, -24.88192403], [-48.46404599, -24.88186985], [-48.46359988, -24.88187877], [-48.46337668, -24.88184714], [-48.46316368, -24.88176135], [-48.46282244, -24.88156274], [-48.46254394, -24.88130999], [-48.46254428, -24.8812784], [-48.46202875, -24.88075487], [-48.46194377, -24.88065107], [-48.46176857, -24.88027652], [-48.46160665, -24.88001477], [-48.46077189, -24.87913467], [-48.46005792, -24.87858402], [-48.45967123, -24.87838088], [-48.45938559, -24.87831764], [-48.45841647, -24.87814141], [-48.45808228, -24.87813681], [-48.45789091, -24.87816385], [-48.45740857, -24.8783803], [-48.45702273, -24.87851106], [-48.45673553, -24.87852903], [-48.45586098, -24.87842497], [-48.45506115, -24.87859172], [-48.45480644, -24.8785736], [-48.45463084, -24.87859161], [-48.45406969, -24.87874486], [-48.45327614, -24.87860475], [-48.45226981, -24.87874887], [-48.45198141, -24.8786811], [-48.45121147, -24.87826573], [-48.45091191, -24.87820248], [-48.45041669, -24.87813465], [-48.45008472, -24.8780082], [-48.44977006, -24.87782761], [-48.44893651, -24.87727235], [-48.44850224, -24.87706916], [-48.44817799, -24.87696528], [-48.44717831, -24.87674388], [-48.4465153, -24.87645486], [-48.44612154, -24.87622462], [-48.44519467, -24.87558356], [-48.44448729, -24.87501929], [-48.44436429, -24.8748839], [-48.44411274, -24.87470782], [-48.44375082, -24.87449563], [-48.44343431, -24.87439624], [-48.44314774, -24.87437809], [-48.44249296, -24.87443203], [-48.44166478, -24.87442269], [-48.44106108, -24.87434127], [-48.44061751, -24.87421926], [-48.44026602, -24.87422366], [-48.4401544, -24.87426875], [-48.43970549, -24.87439944], [-48.43948165, -24.87441741], [-48.43936975, -24.87442187], [-48.43875058, -24.87430884], [-48.43843896, -24.87435384], [-48.43789876, -24.87465143], [-48.43743702, -24.87507091], [-48.43712068, -24.8752964], [-48.43663958, -24.87544963], [-48.43647072, -24.87557591], [-48.43608817, -24.87590515], [-48.43578393, -24.87596821], [-48.43516318, -24.87594992], [-48.43470007, -24.87599937], [-48.43441438, -24.87608048], [-48.43415533, -24.87607586], [-48.43395101, -24.8760081], [-48.43360331, -24.87584099], [-48.43198372, -24.87521765], [-48.43159423, -24.87515431], [-48.43121057, -24.87519477], [-48.43092179, -24.87527135], [-48.43073106, -24.87526675], [-48.43063587, -24.87523062], [-48.43017814, -24.87501834], [-48.4299275, -24.8748558], [-48.4290671, -24.87440421], [-48.42876304, -24.87412883], [-48.42841504, -24.87397976], [-48.42822431, -24.87397518], [-48.42804807, -24.87402924], [-48.42770821, -24.87424118], [-48.42754128, -24.87422756], [-48.42731447, -24.87405149], [-48.42679361, -24.87339698], [-48.42664435, -24.87329313], [-48.42635715, -24.87331556], [-48.42597157, -24.87348685], [-48.4256921, -24.87351831], [-48.42551132, -24.87340542], [-48.42537845, -24.87327902], [-48.42506989, -24.87279155], [-48.42513586, -24.87446056], [-48.4250423, -24.87534974], [-48.42501346, -24.87674026], [-48.42482932, -24.87826721], [-48.42480625, -24.87937961], [-48.42455595, -24.88041856], [-48.42454297, -24.88104429], [-48.42421503, -24.88215144], [-48.42373727, -24.88317757], [-48.42354322, -24.88383218], [-48.42324577, -24.88503805], [-48.42295376, -24.88594754], [-48.42267162, -24.88671515], [-48.42260217, -24.8872955], [-48.42238959, -24.88832411], [-48.42228578, -24.88907307], [-48.42213402, -24.89028203], [-48.42260818, -24.8903926], [-48.42340013, -24.89066822], [-48.42415804, -24.89100249], [-48.42461423, -24.89127794], [-48.42496963, -24.89155786], [-48.42521197, -24.89165723], [-48.42587879, -24.89180192], [-48.4267165, -24.89210461], [-48.42709767, -24.89219503], [-48.42792533, -24.89221345], [-48.42826237, -24.89214592], [-48.42850567, -24.89205366], [-48.42865082, -24.89194512], [-48.42855955, -24.89203322], [-48.42849021, -24.89217759], [-48.42846066, -24.89255661], [-48.42857534, -24.89317031], [-48.42873371, -24.89360806], [-48.42895739, -24.89397815], [-48.42922252, -24.89423096], [-48.42999272, -24.89478177], [-48.43071692, -24.89521976], [-48.42950962, -24.89807996], [-48.42928394, -24.89862132], [-48.42901004, -24.89913108], [-48.42899207, -24.89922581], [-48.42868756, -24.89969948], [-48.42825485, -24.90056562], [-48.42821178, -24.90073707], [-48.42820758, -24.901089], [-48.42866716, -24.90145017], [-48.42934472, -24.90189266], [-48.42890315, -24.90194211], [-48.42843899, -24.9020502], [-48.42821318, -24.902199], [-48.42816335, -24.90230727], [-48.42808559, -24.90258248], [-48.42807216, -24.90284416], [-48.42813721, -24.90319615], [-48.42844535, -24.90407162], [-48.42844122, -24.90427467], [-48.42811345, -24.90547477], [-48.42809441, -24.90639072], [-48.42803983, -24.90669752], [-48.42744338, -24.90782078], [-48.42729938, -24.9082223], [-48.42719136, -24.90842529], [-48.42704407, -24.90861021], [-48.42653301, -24.9090567], [-48.42593709, -24.90974227], [-48.42586282, -24.90983248], [-48.42473845, -24.91217826], [-48.42465973, -24.91248053], [-48.42466119, -24.91317991], [-48.42477408, -24.91427189], [-48.42476774, -24.91457872], [-48.42472402, -24.91478175], [-48.42455007, -24.91509751], [-48.42428118, -24.91536811], [-48.42400269, -24.91572445], [-48.42365474, -24.91637401], [-48.42353812, -24.91698309], [-48.42355311, -24.91782685], [-48.42350922, -24.91836377], [-48.42343342, -24.91897287], [-48.42329682, -24.91939243], [-48.42316592, -24.91955029], [-48.42253322, -24.92008693], [-48.42241777, -24.92026286], [-48.42228557, -24.92053803], [-48.42221489, -24.92084031], [-48.42201909, -24.92144935], [-48.42159782, -24.92213948], [-48.42142933, -24.92258611], [-48.42139335, -24.92278912], [-48.42135277, -24.92398029], [-48.4211046, -24.9247788], [-48.42108279, -24.92558645], [-48.42120973, -24.92585724], [-48.42131087, -24.92636714], [-48.42135033, -24.92713872], [-48.42137964, -24.92725156], [-48.42155697, -24.9275765], [-48.42172141, -24.92771644], [-48.42183086, -24.92778419], [-48.42208439, -24.92787004], [-48.42294345, -24.92796519], [-48.42316485, -24.92803298], [-48.42338592, -24.92815491], [-48.42348665, -24.92830835], [-48.42332812, -24.92864669], [-48.42330146, -24.92874142], [-48.42332399, -24.92884522], [-48.42348069, -24.92897614], [-48.42359818, -24.92903033], [-48.42435208, -24.92918861], [-48.42462231, -24.9292925], [-48.42482002, -24.92973478], [-48.42495262, -24.92986568], [-48.42513507, -24.92989736], [-48.42605911, -24.92992935], [-48.42644072, -24.92999269], [-48.42707304, -24.93023664], [-48.42732531, -24.93039467], [-48.42785605, -24.93090476], [-48.4281358, -24.93115304], [-48.42832009, -24.93123886], [-48.42843819, -24.93127951], [-48.42864603, -24.93128412], [-48.42891852, -24.93120753], [-48.42952766, -24.93220173], [-48.42989726, -24.93255174], [-48.43033365, -24.93331525], [-48.43113048, -24.93409621], [-48.43113394, -24.93470359], [-48.43156749, -24.9356045], [-48.43184466, -24.93677762], [-48.43220715, -24.93747113], [-48.43286818, -24.93830724], [-48.43337996, -24.93907204], [-48.43426421, -24.94004945], [-48.43507455, -24.94095685], [-48.43654885, -24.94134878], [-48.43716018, -24.94216111], [-48.43797908, -24.94265628], [-48.43857762, -24.94287275], [-48.43962118, -24.94344052], [-48.44087116, -24.94439231], [-48.44162444, -24.94498693], [-48.44325524, -24.94632073], [-48.44622261, -24.94863963], [-48.450477, -24.95089199], [-48.45010741, -24.95317884], [-48.44978971, -24.95310741], [-48.44931742, -24.95302154], [-48.4490808, -24.95301695], [-48.44884198, -24.95307102], [-48.44858738, -24.95317472], [-48.44809512, -24.95351747], [-48.44759701, -24.95381961], [-48.44717965, -24.95404959], [-48.44660483, -24.95430659], [-48.44590537, -24.95453195], [-48.44563564, -24.95454991], [-48.44523446, -24.95451819], [-48.44485683, -24.95440076], [-48.44400704, -24.9538816], [-48.44352623, -24.95343024], [-48.44281054, -24.95251858], [-48.44260216, -24.95230645], [-48.44122523, -24.95124565], [-48.43959277, -24.95033816], [-48.43920221, -24.95012595], [-48.43815418, -24.94963826], [-48.43442461, -24.94817946], [-48.43335675, -24.94782709], [-48.43153806, -24.94716759], [-48.43047019, -24.94687838], [-48.42963639, -24.94670657], [-48.42856473, -24.94658429], [-48.4280278, -24.94655247], [-48.42695263, -24.94660163], [-48.42614563, -24.94667345], [-48.42526093, -24.94684451], [-48.42468427, -24.94706534], [-48.42418575, -24.94747569], [-48.42380284, -24.94803049], [-48.42364328, -24.9485177], [-48.42361405, -24.94877488], [-48.42365768, -24.94929377], [-48.4238931, -24.94978568], [-48.42460971, -24.9510268], [-48.42478207, -24.95145101], [-48.42476415, -24.9519789], [-48.42467152, -24.95223603], [-48.4245718, -24.9524661], [-48.42427059, -24.95289911], [-48.42340552, -24.95384171], [-48.42329656, -24.95403008], [-48.42592107, -24.9531252], [-48.42927512, -24.95223291], [-48.43102263, -24.95340341], [-48.43385362, -24.95259699], [-48.43614006, -24.95292141], [-48.44017413, -24.9544163], [-48.44118955, -24.95466634], [-48.44118445, -24.95471185], [-48.4413954, -24.95545853], [-48.4417507, -24.95579487], [-48.44224348, -24.95605102], [-48.44273457, -24.95638971], [-48.44305508, -24.95654781], [-48.44358185, -24.95731503], [-48.44380077, -24.95749106], [-48.44421954, -24.95768071], [-48.44443135, -24.9578387], [-48.44465294, -24.95833057], [-48.44480326, -24.95914727], [-48.44487123, -24.95935936], [-48.44515011, -24.95970237], [-48.44535449, -24.95987389], [-48.44590592, -24.96016734], [-48.44654769, -24.96039766], [-48.44742481, -24.96078146], [-48.44774123, -24.96089886], [-48.44842262, -24.96107505], [-48.44908728, -24.96135049], [-48.4493854, -24.96157166], [-48.44964818, -24.96199135], [-48.44973589, -24.96239293], [-48.45075267, -24.96412581], [-48.44998518, -24.96500088], [-48.45004656, -24.96547015], [-48.44998395, -24.96582205], [-48.44984373, -24.96605212], [-48.4495491, -24.96641748], [-48.4495881, -24.96678273], [-48.44973891, -24.96780374], [-48.44967983, -24.96858615], [-48.44984356, -24.96898063], [-48.45104308, -24.96915789], [-48.45155128, -24.96951912], [-48.4520887, -24.9700318], [-48.45244078, -24.97028842], [-48.45295775, -24.97054785], [-48.45369663, -24.97071085], [-48.45465794, -24.97075236], [-48.45523658, -24.97068708], [-48.45584527, -24.97049702], [-48.45660565, -24.97031065], [-48.45754662, -24.97052259], [-48.45784466, -24.97085695], [-48.45844666, -24.97099253], [-48.45931618, -24.97093858], [-48.45977037, -24.97078961], [-48.46024321, -24.97052203], [-48.46104221, -24.97043543], [-48.46153943, -24.97031862], [-48.46211806, -24.97025332], [-48.46299796, -24.97024326], [-48.46349159, -24.9703018], [-48.46395619, -24.97043501], [-48.46414547, -24.97058859], [-48.46458744, -24.97083866], [-48.46490312, -24.97117785], [-48.46509241, -24.97133143], [-48.46552697, -24.97158942], [-48.46599106, -24.97174767], [-48.46637272, -24.97190452], [-48.46667398, -24.97195977], [-48.46700376, -24.97196539], [-48.46752641, -24.97194923], [-48.46852879, -24.97187998], [-48.47110261, -24.9717602], [-48.47254176, -24.97156658], [-48.47459735, -24.97192257], [-48.47499876, -24.97220151], [-48.4760644, -24.9725203], [-48.47689037, -24.97245913], [-48.47752654, -24.97226945], [-48.4780492, -24.97225325], [-48.47874032, -24.97206449], [-48.47929301, -24.9719235], [-48.47978921, -24.97185673], [-48.48045029, -24.97179275], [-48.48141214, -24.97180903], [-48.48206762, -24.9720206], [-48.48291903, -24.97206006], [-48.48382796, -24.9719752], [-48.48635541, -24.97158254], [-48.48688462, -24.97202759], [-48.48690307, -24.97250222], [-48.4866695, -24.97259244], [-48.48618935, -24.97268715], [-48.485811, -24.97268712], [-48.48438888, -24.9726148], [-48.48395794, -24.97261926], [-48.48343017, -24.97266884], [-48.48317556, -24.97268235], [-48.48293487, -24.97273648], [-48.48277431, -24.9727906], [-48.48245131, -24.97298908], [-48.48219359, -24.97310185], [-48.48120238, -24.97325064], [-48.48105379, -24.97350356], [-48.48101763, -24.97367473], [-48.48103991, -24.97418499], [-48.48109703, -24.97449139], [-48.48110003, -24.97511853], [-48.48086576, -24.97567798], [-48.48060212, -24.97608401], [-48.48044461, -24.97638629], [-48.48028336, -24.97686002], [-48.4802858, -24.9771217], [-48.48044539, -24.97750523], [-48.48045337, -24.97789776], [-48.48023799, -24.97829928], [-48.48006837, -24.9788046], [-48.48005628, -24.97900763], [-48.48008996, -24.97929187], [-48.48003479, -24.9794887], [-48.48045333, -24.97949578]]]]}}]}