{"type": "FeatureCollection", "features": [{"type": "Feature", "properties": {"name": "Reserva Particular do Patrimônio Natural Fruta do Lobo"}, "geometry": {"type": "MultiPolygon", "coordinates": [[[[-44.36625, -22.73710278], [-44.36753333, -22.73645583], [-44.36813556, -22.7362175], [-44.368225, -22.73605806], [-44.36858028, -22.73604722], [-44.36869556, -22.73594306], [-44.36908056, -22.73583306], [-44.36925528, -22.73571611], [-44.37018667, -22.73518], [-44.37048306, -22.73489833], [-44.370515, -22.73484944], [-44.37051028, -22.73477556], [-44.37047889, -22.73461806], [-44.37049389, -22.73443556], [-44.37043222, -22.73437944], [-44.36926083, -22.73322778], [-44.36911972, -22.73306389], [-44.36903917, -22.73294778], [-44.36893944, -22.73277278], [-44.36884361, -22.7325875], [-44.36863083, -22.73210722], [-44.36854778, -22.73195778], [-44.36839056, -22.73171333], [-44.36826083, -22.73150083], [-44.36777389, -22.73057667], [-44.36760111, -22.73066028], [-44.36675861, -22.73067111], [-44.36638417, -22.73089444], [-44.36448944, -22.73147389], [-44.36311083, -22.73169528], [-44.36334694, -22.73218722], [-44.3635225, -22.73239056], [-44.363645, -22.7326025], [-44.36384556, -22.73288944], [-44.36403472, -22.73322556], [-44.3643125, -22.73380083], [-44.36441333, -22.73395111], [-44.36455111, -22.73407194], [-44.36478417, -22.73433944], [-44.36553222, -22.73596667], [-44.36583028, -22.73653861], [-44.36600028, -22.73675444], [-44.36625, -22.73710278]]]]}}]}