{"type": "FeatureCollection", "features": [{"type": "Feature", "properties": {"name": "Reserva Particular do Patrimônio Natural Parque do Zizo"}, "geometry": {"type": "MultiPolygon", "coordinates": [[[[-47.813017, -24.01372767], [-47.81349893, -24.01344004], [-47.81384469, -24.01296701], [-47.81431173, -24.01268145], [-47.81434735, -24.01260751], [-47.81492337, -24.01278771], [-47.81548845, -24.01318236], [-47.81582605, -24.01355746], [-47.81591962, -24.01401493], [-47.81577119, -24.01420529], [-47.81624158, -24.01443417], [-47.81680176, -24.01440519], [-47.81744191, -24.01447139], [-47.81273044, -24.00906135], [-47.81273056, -24.0090652], [-47.81264862, -24.00981147], [-47.81256902, -24.01079918], [-47.81225525, -24.01113949], [-47.81267104, -24.01227731], [-47.813264, -24.01236948], [-47.81353377, -24.01277038], [-47.81332965, -24.01309677], [-47.81287356, -24.01328565], [-47.813017, -24.01372767]]]]}}]}