{"type": "FeatureCollection", "features": [{"type": "Feature", "properties": {"name": "Reserva Particular do Patrimônio Natural Porto do Ifé"}, "geometry": {"type": "MultiPolygon", "coordinates": [[[[-48.74127389, -20.19684306], [-48.74138861, -20.19663], [-48.74154778, -20.19633444], [-48.74293222, -20.19376333], [-48.74379972, -20.19241417], [-48.74399972, -20.1920125], [-48.74428361, -20.1916975], [-48.74339167, -20.18689083], [-48.74171389, -20.1838], [-48.74115778, -20.183935], [-48.73773333, -20.18392333], [-48.74112111, -20.19628639], [-48.7411525, -20.19640111], [-48.74127389, -20.19684306]]]]}}]}