{"type": "FeatureCollection", "features": [{"type": "Feature", "properties": {"name": "Reserva Particular do Patrimônio Natural Santa Rita de Cássia"}, "geometry": {"type": "MultiPolygon", "coordinates": [[[[-44.81023488, -22.47866668], [-44.81379566, -22.47845014], [-44.81390071, -22.4782468], [-44.8140764, -22.47782178], [-44.81437155, -22.47710776], [-44.81460211, -22.47655], [-44.8147511, -22.47618956], [-44.81510712, -22.47622954], [-44.81543105, -22.47528513], [-44.81562328, -22.47472466], [-44.81592228, -22.47385291], [-44.8163463, -22.47261661], [-44.81702706, -22.4706317], [-44.81713202, -22.47032567], [-44.81710294, -22.46916471], [-44.8170679, -22.46776558], [-44.81700743, -22.46535076], [-44.81740572, -22.46428648], [-44.81802526, -22.46263096], [-44.81765616, -22.46101458], [-44.81721568, -22.45908554], [-44.81724657, -22.45774432], [-44.81728833, -22.45593081], [-44.81732669, -22.45426514], [-44.81733616, -22.45385415], [-44.81854302, -22.45266442], [-44.81910373, -22.45211167], [-44.82064513, -22.45059209], [-44.82162112, -22.44962989], [-44.82267816, -22.44858778], [-44.82356266, -22.44771574], [-44.82422683, -22.44706092], [-44.82468158, -22.44661256], [-44.82570113, -22.44457343], [-44.82621668, -22.44354227], [-44.82650731, -22.44296098], [-44.82785887, -22.44200013], [-44.8289967, -22.4411912], [-44.82942112, -22.44088946], [-44.83024757, -22.44030189], [-44.83018718, -22.43888632], [-44.83016102, -22.43827311], [-44.83089202, -22.43673021], [-44.83166291, -22.43516299], [-44.83201579, -22.43408243], [-44.83229551, -22.43323791], [-44.83235122, -22.43307415], [-44.83284291, -22.43162891], [-44.83152711, -22.43141461], [-44.83125351, -22.43187386], [-44.83096234, -22.4323626], [-44.8305923, -22.43315627], [-44.83028032, -22.43382541], [-44.82990945, -22.434591], [-44.82972404, -22.43497375], [-44.82954941, -22.43552304], [-44.82937963, -22.4359512], [-44.82919849, -22.43640801], [-44.82831607, -22.43701101], [-44.82799497, -22.43723043], [-44.8275889, -22.43750791], [-44.82700663, -22.4379058], [-44.82662292, -22.438168], [-44.82621326, -22.43844792], [-44.82584536, -22.43869932], [-44.82529804, -22.43896635], [-44.82496635, -22.43912818], [-44.82482049, -22.43919934], [-44.82447907, -22.43936591], [-44.82405369, -22.43957344], [-44.82354555, -22.44007936], [-44.82339202, -22.44023221], [-44.82308348, -22.44068553], [-44.82286966, -22.44099967], [-44.82275916, -22.44116202], [-44.82261976, -22.44165705], [-44.82245652, -22.44223674], [-44.82246999, -22.44283174], [-44.8224697, -22.44363388], [-44.82239527, -22.44454939], [-44.82224902, -22.44491963], [-44.82210309, -22.44503691], [-44.82148567, -22.44633563], [-44.82105875, -22.4472336], [-44.82040747, -22.44860348], [-44.81927581, -22.4494328], [-44.81882894, -22.44976026], [-44.81859805, -22.44992947], [-44.81656614, -22.45095061], [-44.81566248, -22.45140469], [-44.81480325, -22.45184052], [-44.81419617, -22.45215103], [-44.81322987, -22.45264612], [-44.81305258, -22.45315922], [-44.81307548, -22.45446064], [-44.81310207, -22.45597257], [-44.81339773, -22.45714029], [-44.81323136, -22.45885847], [-44.81364039, -22.45912499], [-44.81417831, -22.46026634], [-44.81498401, -22.46104067], [-44.81493405, -22.46147894], [-44.81487663, -22.46156805], [-44.81475605, -22.46175516], [-44.81468025, -22.46187279], [-44.81451996, -22.46212152], [-44.81435391, -22.46237921], [-44.81423262, -22.46256741], [-44.81408454, -22.46279721], [-44.81385271, -22.46333538], [-44.81375742, -22.46355659], [-44.81387674, -22.46389588], [-44.81400953, -22.46427349], [-44.81411255, -22.46456642], [-44.81419225, -22.46479306], [-44.81426811, -22.46500877], [-44.81424509, -22.46574691], [-44.81423004, -22.46622949], [-44.81364925, -22.46790861], [-44.81365618, -22.46890534], [-44.81327633, -22.46962103], [-44.81320709, -22.47015233], [-44.8130489, -22.47038465], [-44.81278459, -22.47077284], [-44.81237406, -22.47107528], [-44.81219349, -22.47120832], [-44.81199038, -22.47184036], [-44.81193579, -22.47201024], [-44.81185087, -22.47253461], [-44.81180268, -22.47283218], [-44.81136917, -22.47331436], [-44.81132083, -22.47356321], [-44.81126887, -22.47383063], [-44.81124362, -22.4740604], [-44.81122199, -22.47439791], [-44.81114092, -22.47453546], [-44.81093157, -22.47489065], [-44.81080733, -22.47510144], [-44.81069102, -22.47577687], [-44.81049788, -22.4760274], [-44.81019322, -22.47642258], [-44.81012479, -22.47663254], [-44.81009637, -22.47700133], [-44.81003733, -22.4777673], [-44.81001861, -22.4780101], [-44.81023488, -22.47866668]]]]}}]}