{"type": "FeatureCollection", "features": [{"type": "Feature", "properties": {"name": "Reserva Biológica Alto da Serra de Paranapiacaba"}, "geometry": {"type": "MultiPolygon", "coordinates": [[[[-46.32421258, -23.78460223], [-46.32451826, -23.78445549], [-46.32459559, -23.78438644], [-46.32468546, -23.78426834], [-46.32473933, -23.78419246], [-46.32478384, -23.78409151], [-46.32480997, -23.78397396], [-46.32480921, -23.78389854], [-46.32480819, -23.78379799], [-46.32488103, -23.78379736], [-46.32496299, -23.78379666], [-46.32503584, -23.78379603], [-46.3250726, -23.78382924], [-46.32512766, -23.78387067], [-46.32525591, -23.78394499], [-46.32538407, -23.78401093], [-46.32552168, -23.78411032], [-46.32565725, -23.78417576], [-46.32572508, -23.78416134], [-46.32615063, -23.78415769], [-46.32659316, -23.78396241], [-46.32696753, -23.78357626], [-46.32721023, -23.78326086], [-46.32728106, -23.78300449], [-46.32729248, -23.78300541], [-46.32729257, -23.78300126], [-46.32730762, -23.78296931], [-46.32731433, -23.7828738], [-46.32729444, -23.7828068], [-46.32724001, -23.78274363], [-46.32717776, -23.78266638], [-46.32710779, -23.78258567], [-46.32704557, -23.78251196], [-46.3269756, -23.78243124], [-46.32692472, -23.78233976], [-46.32687399, -23.78226241], [-46.32685044, -23.78221312], [-46.32685005, -23.78217423], [-46.32688466, -23.78217747], [-46.32694231, -23.78218051], [-46.32698109, -23.78221553], [-46.32705472, -23.78227853], [-46.32712466, -23.78235571], [-46.32719463, -23.78243643], [-46.3273688, -23.78256221], [-46.32757803, -23.78273718], [-46.32779079, -23.78288031], [-46.32797634, -23.78299185], [-46.32816134, -23.78305036], [-46.32824824, -23.7830823], [-46.32858947, -23.78310975], [-46.32946584, -23.78279759], [-46.3297681, -23.78276017], [-46.33026673, -23.78250349], [-46.33073707, -23.78225575], [-46.33111241, -23.78196531], [-46.33126652, -23.78131125], [-46.33138768, -23.78113614], [-46.33183964, -23.78094077], [-46.33249991, -23.78076971], [-46.33317087, -23.7807204], [-46.33398572, -23.78087002], [-46.33463865, -23.78090789], [-46.33532404, -23.78085069], [-46.33570579, -23.78089891], [-46.33623043, -23.78116122], [-46.33665842, -23.78142437], [-46.33751077, -23.78159489], [-46.33818878, -23.78173134], [-46.33913924, -23.78204332], [-46.33981799, -23.78225091], [-46.3410595, -23.7826671], [-46.34154623, -23.78300088], [-46.34220894, -23.78352883], [-46.34350901, -23.78399785], [-46.34348694, -23.78373119], [-46.34344389, -23.7833046], [-46.34355567, -23.78289445], [-46.34357807, -23.78248442], [-46.3432728, -23.78170497], [-46.34332812, -23.78108377], [-46.34324159, -23.78054888], [-46.34314183, -23.78024731], [-46.34310025, -23.77996303], [-46.3424886, -23.77875861], [-46.3425587, -23.77702773], [-46.34260749, -23.77683876], [-46.34255202, -23.77675664], [-46.34256153, -23.77654288], [-46.34257773, -23.77651648], [-46.34251429, -23.77642712], [-46.34212907, -23.7758672], [-46.34189073, -23.77530599], [-46.34196336, -23.7752265], [-46.34248147, -23.77442215], [-46.34309243, -23.77431545], [-46.34348353, -23.77425571], [-46.34401559, -23.77417333], [-46.34403076, -23.77414861], [-46.344068, -23.77385165], [-46.34407229, -23.77318525], [-46.34398638, -23.77315858], [-46.34368038, -23.77316125], [-46.34348454, -23.77316295], [-46.34312959, -23.77316604], [-46.34306793, -23.77312151], [-46.34296792, -23.7729196], [-46.34284495, -23.77286435], [-46.34278317, -23.77280855], [-46.34265962, -23.77269697], [-46.34259749, -23.77260739], [-46.34259622, -23.77248348], [-46.34260672, -23.77231441], [-46.34272716, -23.77212185], [-46.3428238, -23.77199708], [-46.34306744, -23.77188231], [-46.34344641, -23.77183395], [-46.34367873, -23.7718094], [-46.34387295, -23.77164999], [-46.34397386, -23.77155535], [-46.34375856, -23.77084883], [-46.34360113, -23.77047922], [-46.34346112, -23.77012482], [-46.34337614, -23.76996519], [-46.34329902, -23.76983337], [-46.3428231, -23.76923088], [-46.34265508, -23.76909986], [-46.34235984, -23.76912334], [-46.34129325, -23.76928601], [-46.34081712, -23.76940171], [-46.33992698, -23.769779], [-46.33967098, -23.76993462], [-46.33939246, -23.77011136], [-46.33896321, -23.7703661], [-46.33860122, -23.77052961], [-46.33811065, -23.77071516], [-46.3376045, -23.770859], [-46.33698478, -23.7710108], [-46.33603244, -23.7712352], [-46.33536748, -23.7714083], [-46.33475583, -23.77160882], [-46.33355412, -23.77189812], [-46.33285127, -23.77207154], [-46.3320806, -23.7722804], [-46.33123423, -23.77249688], [-46.32989627, -23.77280127], [-46.32904239, -23.77302478], [-46.32821874, -23.77324105], [-46.32731218, -23.77349987], [-46.32548325, -23.77395487], [-46.32456881, -23.77418585], [-46.32381326, -23.77439454], [-46.32348799, -23.77444614], [-46.32306422, -23.77449858], [-46.32258644, -23.77445386], [-46.32209968, -23.77436477], [-46.32178022, -23.774242], [-46.32147197, -23.77410343], [-46.32096268, -23.77375218], [-46.32063648, -23.77352486], [-46.32024226, -23.77331382], [-46.31981495, -23.77320242], [-46.31951354, -23.77317885], [-46.31857602, -23.77318686], [-46.31772372, -23.77319413], [-46.31617207, -23.7731603], [-46.31524575, -23.7731525], [-46.31509817, -23.77316945], [-46.31471817, -23.77324067], [-46.31443485, -23.77332153], [-46.31377274, -23.77359387], [-46.31319086, -23.77393352], [-46.31264879, -23.77427806], [-46.31199971, -23.77471764], [-46.31164902, -23.77497425], [-46.31106109, -23.77527908], [-46.31039705, -23.77554969], [-46.30961214, -23.77585618], [-46.30854739, -23.77621385], [-46.30792852, -23.77645617], [-46.30764139, -23.77653531], [-46.30749856, -23.77664808], [-46.30740153, -23.77679533], [-46.30735781, -23.77697003], [-46.30728756, -23.77752148], [-46.30720194, -23.77869303], [-46.30709835, -23.77893225], [-46.30853935, -23.77974807], [-46.30968246, -23.78057752], [-46.31014504, -23.78083815], [-46.31104146, -23.78135965], [-46.31255914, -23.78076473], [-46.31230388, -23.78111082], [-46.31242258, -23.78148019], [-46.31291285, -23.78163476], [-46.31343001, -23.7816039], [-46.31391922, -23.78165265], [-46.31475018, -23.78138102], [-46.31530606, -23.78082593], [-46.3159173, -23.78023348], [-46.31681454, -23.78083431], [-46.31762443, -23.78131306], [-46.31829099, -23.78186496], [-46.31887015, -23.78227182], [-46.32017199, -23.78308082], [-46.32083743, -23.78349841], [-46.32162293, -23.78441763], [-46.32246219, -23.78496601], [-46.32306613, -23.78498729], [-46.32421258, -23.78460223]]], [[[-46.30760332, -23.77637024], [-46.30885861, -23.7759483], [-46.31003277, -23.7755395], [-46.31092279, -23.77515804], [-46.31138109, -23.77494226], [-46.31178423, -23.77462725], [-46.31210723, -23.77442508], [-46.31255136, -23.77414711], [-46.3134939, -23.77360315], [-46.31415444, -23.77329841], [-46.31476206, -23.77311874], [-46.31516719, -23.77300312], [-46.31667081, -23.77304016], [-46.31858057, -23.77306125], [-46.31959644, -23.7730775], [-46.31992157, -23.77308719], [-46.32008457, -23.77313565], [-46.32045171, -23.77328207], [-46.32083314, -23.77350316], [-46.32126924, -23.77377363], [-46.32158309, -23.77400775], [-46.32189619, -23.7741671], [-46.32224916, -23.77425132], [-46.32258834, -23.77431073], [-46.32290043, -23.77437038], [-46.3233063, -23.77432951], [-46.32363067, -23.77426441], [-46.32486019, -23.77397967], [-46.32568422, -23.77377318], [-46.33147888, -23.77227754], [-46.33542295, -23.77125885], [-46.33615227, -23.77106559], [-46.33727353, -23.77079415], [-46.33801626, -23.7705883], [-46.33843476, -23.77046003], [-46.3389335, -23.77023136], [-46.33941754, -23.76989065], [-46.33978085, -23.76966315], [-46.34034754, -23.76945882], [-46.34087985, -23.76929036], [-46.34248653, -23.7689567], [-46.34243424, -23.7689332], [-46.34235761, -23.76894918], [-46.34232645, -23.76891823], [-46.34217241, -23.76893929], [-46.34203519, -23.76892865], [-46.34184634, -23.76889874], [-46.3416959, -23.76885273], [-46.34153277, -23.7688226], [-46.34139938, -23.76876855], [-46.34131329, -23.76872986], [-46.34123144, -23.76868719], [-46.34117129, -23.76867194], [-46.3407443, -23.76881761], [-46.34041985, -23.76893479], [-46.34017256, -23.76905525], [-46.33993421, -23.76921111], [-46.33917152, -23.7696318], [-46.33879185, -23.76979678], [-46.33842483, -23.76994193], [-46.33788773, -23.77021475], [-46.33726444, -23.77044099], [-46.33673905, -23.77060328], [-46.33617661, -23.77070345], [-46.33569765, -23.77079698], [-46.33520204, -23.77093797], [-46.33428437, -23.77115097], [-46.33395944, -23.77122213], [-46.33298465, -23.77143562], [-46.33190174, -23.77169209], [-46.33129725, -23.77180247], [-46.33063483, -23.77183447], [-46.33020055, -23.77182769], [-46.32921229, -23.77184146], [-46.3286928, -23.77188274], [-46.32819114, -23.77199221], [-46.32762188, -23.77219692], [-46.32706469, -23.77246461], [-46.32655395, -23.77280552], [-46.32608779, -23.77303562], [-46.32558131, -23.77323452], [-46.32494323, -23.77341351], [-46.32396824, -23.77361117], [-46.32323779, -23.7736963], [-46.32268951, -23.77371677], [-46.32176274, -23.77359851], [-46.32150449, -23.77348505], [-46.32113748, -23.77335148], [-46.3207016, -23.77318695], [-46.32044912, -23.77307869], [-46.32007683, -23.77298722], [-46.31984784, -23.77294186], [-46.31944714, -23.77286641], [-46.31887538, -23.77282397], [-46.3184184, -23.77283313], [-46.31797253, -23.77281065], [-46.31733835, -23.7728108], [-46.31658409, -23.77280146], [-46.31642391, -23.77278179], [-46.31517248, -23.77276091], [-46.31470984, -23.77277536], [-46.31439029, -23.77281489], [-46.3138656, -23.77290874], [-46.31348955, -23.77301185], [-46.31301728, -23.77320516], [-46.31242091, -23.77355726], [-46.31171143, -23.77402601], [-46.31117731, -23.77431974], [-46.31063669, -23.77453465], [-46.31006676, -23.7746762], [-46.30945595, -23.77472871], [-46.30902726, -23.77471131], [-46.30831775, -23.7746069], [-46.30755719, -23.77453973], [-46.30730788, -23.77662201], [-46.30760332, -23.77637024]]]]}}]}