{"type": "FeatureCollection", "features": [{"type": "Feature", "properties": {"name": "Reserva Particular do Patrimônio Natural Sítio São Joaquim I"}, "geometry": {"type": "MultiPolygon", "coordinates": [[[[-45.66035583, -22.68685278], [-45.66224056, -22.68424667], [-45.66168667, -22.68379611], [-45.66260806, -22.68256806], [-45.66376694, -22.68137056], [-45.66296889, -22.68114389], [-45.66214722, -22.6805775], [-45.66175306, -22.68094861], [-45.6612975, -22.6819], [-45.66069944, -22.68148028], [-45.65968, -22.68289028], [-45.66080306, -22.68375083], [-45.65904083, -22.68631583], [-45.65912667, -22.68643222], [-45.66035583, -22.68685278]]]]}}]}