{"type": "FeatureCollection", "features": [{"type": "Feature", "properties": {"name": "Reserva Particular do Patrimônio Natural Fazenda Renópolis"}, "geometry": {"type": "MultiPolygon", "coordinates": [[[[-45.61733997, -22.81075085], [-45.61743986, -22.810782], [-45.61774324, -22.81071328], [-45.61807067, -22.81061957], [-45.61838743, -22.81051485], [-45.61960961, -22.81048129], [-45.61975517, -22.81050424], [-45.62024133, -22.81059647], [-45.62058283, -22.81065009], [-45.6207817, -22.81072805], [-45.62092363, -22.81081366], [-45.621582, -22.81095634], [-45.62192291, -22.81102041], [-45.62208174, -22.81110685], [-45.62226039, -22.81124142], [-45.6238962, -22.81089319], [-45.62500451, -22.8105816], [-45.62544258, -22.81043052], [-45.62559236, -22.81038034], [-45.62566679, -22.81036309], [-45.62583991, -22.81039787], [-45.62601484, -22.81040131], [-45.62613705, -22.8103393], [-45.62636067, -22.81028231], [-45.62668164, -22.81010446], [-45.6271189, -22.80986954], [-45.62758492, -22.80962557], [-45.62785993, -22.80946115], [-45.62814942, -22.80933934], [-45.62837183, -22.80930325], [-45.62823813, -22.8092366], [-45.62795768, -22.80912369], [-45.62776125, -22.80905825], [-45.62759357, -22.80895713], [-45.62719144, -22.80898667], [-45.626824, -22.80899318], [-45.62657992, -22.80894394], [-45.62644551, -22.80884446], [-45.62635424, -22.80869144], [-45.62626582, -22.80848907], [-45.6262127, -22.80836888], [-45.62611822, -22.80827138], [-45.62565513, -22.80831645], [-45.62547962, -22.80835105], [-45.6252189, -22.80847422], [-45.62504897, -22.80852766], [-45.62475094, -22.80848811], [-45.62462034, -22.80843832], [-45.62447274, -22.80822063], [-45.62440572, -22.80799457], [-45.62451967, -22.80752382], [-45.62461877, -22.80719463], [-45.62468833, -22.80698321], [-45.62446692, -22.80687729], [-45.62434198, -22.80672212], [-45.62428118, -22.80657585], [-45.62420684, -22.8064936], [-45.62411701, -22.80648391], [-45.62404348, -22.80648549], [-45.62384774, -22.80625581], [-45.6236711, -22.80618419], [-45.62334178, -22.80611547], [-45.62319562, -22.80610297], [-45.62318174, -22.80604991], [-45.62359204, -22.80579271], [-45.62364193, -22.80571139], [-45.62357111, -22.80566598], [-45.62311967, -22.80555976], [-45.6227474, -22.80545224], [-45.62233962, -22.80527488], [-45.62212657, -22.80514908], [-45.62189985, -22.80506449], [-45.62180298, -22.80498112], [-45.62164205, -22.80493123], [-45.62155202, -22.80482725], [-45.62132621, -22.80238071], [-45.62124323, -22.80147054], [-45.62114405, -22.80044958], [-45.61953361, -22.80045862], [-45.61482175, -22.8007639], [-45.61468662, -22.80183082], [-45.61458391, -22.80194617], [-45.61410774, -22.80197488], [-45.61339033, -22.80275623], [-45.61333771, -22.80288454], [-45.61314659, -22.80306358], [-45.61312606, -22.80312541], [-45.61310846, -22.80323452], [-45.6131393, -22.80377549], [-45.61311969, -22.80382165], [-45.61309323, -22.80388842], [-45.61296618, -22.80403398], [-45.61292906, -22.80408975], [-45.61292955, -22.80417881], [-45.61299482, -22.80441773], [-45.61307921, -22.80452144], [-45.61338477, -22.80490324], [-45.61363622, -22.80514618], [-45.61381988, -22.80529148], [-45.6139443, -22.8053867], [-45.61404216, -22.80564819], [-45.61413177, -22.8058569], [-45.61422411, -22.80601861], [-45.61424954, -22.8063603], [-45.61445582, -22.8067005], [-45.61442059, -22.807212], [-45.61482837, -22.80738939], [-45.61496909, -22.80749589], [-45.61512671, -22.80760324], [-45.61529106, -22.80778947], [-45.61545844, -22.80792349], [-45.61551104, -22.80808846], [-45.61553979, -22.8083727], [-45.61554742, -22.80872922], [-45.61569307, -22.80894595], [-45.61610647, -22.8094169], [-45.61633118, -22.80973183], [-45.61653135, -22.80998269], [-45.6165926, -22.81009572], [-45.61675012, -22.81030256], [-45.61701115, -22.81047789], [-45.61719955, -22.81063913], [-45.61733997, -22.81075085]]]]}}]}