{"type": "FeatureCollection", "features": [{"type": "Feature", "properties": {"name": "Reserva Particular do Patrimônio Natural Vale Verdejante"}, "geometry": {"type": "MultiPolygon", "coordinates": [[[[-49.74609875, -21.16713567], [-49.74627222, -21.16714286], [-49.74650948, -21.16713083], [-49.7466389, -21.16718499], [-49.74673704, -21.16721747], [-49.74684948, -21.167192], [-49.74691428, -21.16717641], [-49.74718922, -21.16723055], [-49.74730195, -21.16721814], [-49.7474079, -21.16720742], [-49.74760158, -21.16727351], [-49.74774344, -21.16725928], [-49.74781879, -21.16720699], [-49.74790095, -21.16707341], [-49.74799644, -21.16695581], [-49.74806635, -21.16691126], [-49.7481983, -21.16689249], [-49.7481527, -21.16463509], [-49.74810856, -21.16463371], [-49.74786435, -21.1646261], [-49.74621027, -21.1645745], [-49.74586169, -21.16674193], [-49.74581702, -21.16701971], [-49.74585809, -21.16703675], [-49.74601906, -21.1671035], [-49.74609875, -21.16713567]]]]}}]}