{"type": "FeatureCollection", "features": [{"type": "Feature", "properties": {"name": "Reserva Particular do Patrimônio Natural Jaguaretê"}, "geometry": {"type": "MultiPolygon", "coordinates": [[[[-44.34655123, -22.81043237], [-44.34667846, -22.81037698], [-44.34667668, -22.81036071], [-44.34676675, -22.81016885], [-44.34702625, -22.81002222], [-44.34734629, -22.80992832], [-44.34743882, -22.80987532], [-44.34603311, -22.80819398], [-44.34601291, -22.80773266], [-44.34399181, -22.80770656], [-44.34379493, -22.80773899], [-44.3440389, -22.80796438], [-44.3442673, -22.80859268], [-44.34429471, -22.80872992], [-44.34436939, -22.8089042], [-44.34450286, -22.8090108], [-44.34463633, -22.8091978], [-44.3450318, -22.80936636], [-44.34513202, -22.80960001], [-44.34510386, -22.80982482], [-44.34514881, -22.80995969], [-44.34551316, -22.8102199], [-44.34593918, -22.81037973], [-44.34655123, -22.81043237]]]]}}]}