{"type": "FeatureCollection", "features": [{"type": "Feature", "properties": {"name": "Reserva Particular do Patrimônio Natural Reserva dos Muriquis"}, "geometry": {"type": "MultiPolygon", "coordinates": [[[[-45.94866225, -22.90715781], [-45.94911717, -22.90703021], [-45.94929696, -22.90693629], [-45.94948572, -22.90697158], [-45.95037431, -22.90732013], [-45.95041279, -22.90740763], [-45.95054864, -22.90752537], [-45.95066169, -22.90752234], [-45.95088755, -22.90743693], [-45.9510468, -22.90748017], [-45.95108372, -22.90761677], [-45.95114346, -22.90761504], [-45.95121914, -22.90764994], [-45.95134411, -22.90755927], [-45.95122477, -22.90666099], [-45.95186942, -22.90632562], [-45.95293163, -22.9055072], [-45.95353609, -22.90511436], [-45.95421702, -22.9049465], [-45.95473781, -22.90471637], [-45.95510911, -22.90451212], [-45.95570805, -22.90399557], [-45.95635122, -22.9040917], [-45.95639489, -22.90339321], [-45.95649164, -22.90320861], [-45.95654682, -22.90298745], [-45.95727617, -22.90179791], [-45.95740647, -22.90149607], [-45.95762703, -22.90142756], [-45.95757028, -22.90120489], [-45.95745991, -22.90092972], [-45.95743783, -22.90086268], [-45.95761024, -22.90056266], [-45.95749837, -22.90042906], [-45.95740262, -22.90021366], [-45.95732861, -22.8996859], [-45.95706756, -22.89951541], [-45.95696671, -22.89957452], [-45.95671568, -22.89956742], [-45.95621565, -22.89932884], [-45.95605275, -22.89923424], [-45.95590728, -22.89913077], [-45.95577297, -22.8989733], [-45.95542806, -22.89886567], [-45.95509164, -22.89882704], [-45.95448801, -22.89918631], [-45.95392305, -22.89957457], [-45.95348445, -22.9000526], [-45.95332519, -22.9003092], [-45.95323694, -22.90077053], [-45.95296238, -22.9011848], [-45.95275942, -22.90128541], [-45.9524714, -22.90159418], [-45.95232928, -22.90226532], [-45.95106356, -22.90442048], [-45.95071282, -22.90501768], [-45.94785047, -22.90518059], [-45.94594787, -22.90543243], [-45.94687998, -22.90651029], [-45.94866225, -22.90715781]]]]}}]}