{"type": "FeatureCollection", "features": [{"type": "Feature", "properties": {"name": "Reserva Particular do Patrimônio Natural Toca da Paca"}, "geometry": {"type": "MultiPolygon", "coordinates": [[[[-48.0845459, -21.46902509], [-48.08522076, -21.46896269], [-48.08572494, -21.46851712], [-48.08590367, -21.46750024], [-48.08564438, -21.46679419], [-48.08512638, -21.46637948], [-48.08499001, -21.46623221], [-48.08449978, -21.46597736], [-48.08414881, -21.46572493], [-48.08375085, -21.46550066], [-48.08327726, -21.46518813], [-48.08278819, -21.46487534], [-48.08245357, -21.46457973], [-48.07976372, -21.46246751], [-48.08067698, -21.46139085], [-48.08098267, -21.46118749], [-48.08233163, -21.46062177], [-48.08268682, -21.46056658], [-48.08310927, -21.46042664], [-48.08401215, -21.46052833], [-48.08478638, -21.460505], [-48.08536427, -21.45980304], [-48.08545897, -21.45965737], [-48.08551385, -21.45953556], [-48.08535856, -21.4587717], [-48.08488302, -21.45828462], [-48.08456985, -21.4582055], [-48.08444193, -21.45804368], [-48.0841062, -21.45778001], [-48.08391102, -21.45770295], [-48.08375493, -21.45763884], [-48.0838108, -21.45755908], [-48.08384478, -21.45749832], [-48.08384137, -21.457304], [-48.08389207, -21.45713448], [-48.0838571, -21.4570623], [-48.08378904, -21.45700658], [-48.08373788, -21.45701591], [-48.08368528, -21.45728083], [-48.08360971, -21.45741924], [-48.08353587, -21.45743739], [-48.08350781, -21.45748756], [-48.08343968, -21.4575117], [-48.08337357, -21.45743456], [-48.08325462, -21.45729317], [-48.08321361, -21.45704008], [-48.08317349, -21.45693791], [-48.08313184, -21.45683184], [-48.08310982, -21.45670507], [-48.0830394, -21.45654298], [-48.08297989, -21.45645003], [-48.08289514, -21.4563911], [-48.08283517, -21.45632111], [-48.08275049, -21.45625442], [-48.08258186, -21.45609839], [-48.08247258, -21.45603904], [-48.08236307, -21.45599117], [-48.08225356, -21.4559433], [-48.08215609, -21.45590713], [-48.08188914, -21.4557531], [-48.08176797, -21.4555004], [-48.08164492, -21.4552438], [-48.08186191, -21.45500448], [-48.08187917, -21.45485918], [-48.08184062, -21.45478584], [-48.08156319, -21.45454965], [-48.08143265, -21.45441802], [-48.08120125, -21.4542914], [-48.08107547, -21.45414867], [-48.08092056, -21.45380792], [-48.08095109, -21.45357268], [-48.08088673, -21.45338633], [-48.08071131, -21.45319876], [-48.08059301, -21.45317404], [-48.08047216, -21.45319034], [-48.08036058, -21.4531624], [-48.08019757, -21.45301089], [-48.07996129, -21.45287774], [-48.07957022, -21.4526108], [-48.07953052, -21.45256109], [-48.07950855, -21.45239128], [-48.07927398, -21.45219222], [-48.07909021, -21.45208989], [-48.07866908, -21.45173971], [-48.0783469, -21.4516162], [-48.07822702, -21.45151589], [-48.07815244, -21.45132025], [-48.07797785, -21.45117837], [-48.07775237, -21.4510941], [-48.07763845, -21.4509759], [-48.07749325, -21.45078637], [-48.07737055, -21.45062619], [-48.07709111, -21.45038093], [-48.07689598, -21.45023451], [-48.07672677, -21.45010754], [-48.07662695, -21.44980253], [-48.07652376, -21.44966659], [-48.07636541, -21.44959205], [-48.07619259, -21.44940419], [-48.07005721, -21.45181016], [-48.06882474, -21.45829774], [-48.07148844, -21.46006417], [-48.07981118, -21.46558287], [-48.08138894, -21.46685158], [-48.0823575, -21.46699328], [-48.0845459, -21.46902509]]]]}}]}