{"type": "FeatureCollection", "features": [{"type": "Feature", "properties": {"name": "Reserva Particular do Patrimônio Natural Copaíba"}, "geometry": {"type": "MultiPolygon", "coordinates": [[[[-46.61063, -22.71675], [-46.61064, -22.71657], [-46.61095, -22.71615], [-46.61096, -22.71624], [-46.61108, -22.71632], [-46.61118, -22.71633], [-46.61118, -22.71626], [-46.6111, -22.71613], [-46.61119, -22.71608], [-46.61117, -22.71606], [-46.61114, -22.71605], [-46.6111, -22.71602], [-46.61106, -22.71604], [-46.61103, -22.71604], [-46.61105, -22.716], [-46.61105, -22.71597], [-46.61085, -22.71594], [-46.61048, -22.71575], [-46.61044, -22.7157], [-46.61007, -22.7159], [-46.6098, -22.71605], [-46.60972, -22.71608], [-46.60949, -22.71619], [-46.60948, -22.7164], [-46.60928, -22.71697], [-46.61081, -22.71705], [-46.61063, -22.71675]]], [[[-46.60967, -22.716], [-46.60976, -22.71597], [-46.61002, -22.71582], [-46.61038, -22.71563], [-46.61036, -22.71562], [-46.61023, -22.71551], [-46.61002, -22.71541], [-46.60978, -22.71529], [-46.60971, -22.71525], [-46.60955, -22.71517], [-46.60944, -22.71518], [-46.60933, -22.71513], [-46.609, -22.7151], [-46.60912, -22.71528], [-46.60951, -22.71533], [-46.60954, -22.71535], [-46.6095, -22.71609], [-46.60967, -22.716]]]]}}]}