{"type": "FeatureCollection", "features": [{"type": "Feature", "properties": {"name": "Reserva Particular do Patrimônio Natural Trápaga"}, "geometry": {"type": "MultiPolygon", "coordinates": [[[[-47.98216684, -24.05790559], [-47.98225833, -24.05789288], [-47.98223092, -24.05782077], [-47.98223079, -24.05769191], [-47.98227743, -24.05741415], [-47.98228663, -24.05730631], [-47.98229003, -24.05712631], [-47.98228112, -24.05680875], [-47.98228515, -24.05667728], [-47.98230141, -24.05645371], [-47.98232079, -24.05634414], [-47.98243965, -24.05594278], [-47.98257451, -24.05574018], [-47.98261517, -24.05565853], [-47.98263994, -24.05556537], [-47.98270568, -24.05522551], [-47.98275029, -24.05511473], [-47.98305128, -24.05474474], [-47.98312804, -24.0546558], [-47.98318197, -24.05457867], [-47.98322419, -24.05448788], [-47.98327191, -24.05430773], [-47.98333297, -24.05416062], [-47.98346342, -24.05397985], [-47.9836457, -24.05376721], [-47.98391002, -24.05337953], [-47.98394973, -24.05330349], [-47.98366298, -24.05302709], [-47.98335146, -24.0527296], [-47.98314112, -24.05254465], [-47.98292197, -24.05229372], [-47.98269289, -24.0520762], [-47.98238643, -24.05172086], [-47.98224713, -24.05150158], [-47.98198604, -24.05114472], [-47.98181439, -24.05084829], [-47.98155165, -24.0505604], [-47.98141533, -24.05037662], [-47.9813348, -24.05026801], [-47.98099, -24.04998804], [-47.9806519, -24.04980683], [-47.98031044, -24.04957796], [-47.98000944, -24.0493603], [-47.97970253, -24.04910801], [-47.97944609, -24.04895238], [-47.97914578, -24.0487902], [-47.9790045, -24.04865498], [-47.97881556, -24.04847727], [-47.97728131, -24.04665767], [-47.97678554, -24.04666073], [-47.97654456, -24.04673165], [-47.97610318, -24.04673708], [-47.97581552, -24.04677354], [-47.97569997, -24.04676938], [-47.97553163, -24.0467307], [-47.97539316, -24.04670018], [-47.97523752, -24.04663679], [-47.9750746, -24.04642807], [-47.97480703, -24.04628763], [-47.97470513, -24.04631722], [-47.97425611, -24.04920454], [-47.97393058, -24.05130264], [-47.97372488, -24.05261874], [-47.9737157, -24.05265519], [-47.97379329, -24.05274302], [-47.97393859, -24.05285219], [-47.97394974, -24.0529136], [-47.9739048, -24.05297602], [-47.97396272, -24.05302462], [-47.97410908, -24.05303504], [-47.97419745, -24.05307889], [-47.97429309, -24.05325859], [-47.97435293, -24.05339496], [-47.97444681, -24.05342183], [-47.97458482, -24.05340227], [-47.97466615, -24.05343913], [-47.97476292, -24.05351052], [-47.97470027, -24.05359756], [-47.97476048, -24.05374953], [-47.97483096, -24.05380591], [-47.97498744, -24.05386721], [-47.97503971, -24.05379842], [-47.97503171, -24.05368587], [-47.97505586, -24.05360833], [-47.97512601, -24.05359505], [-47.97515608, -24.05365024], [-47.97519933, -24.05373594], [-47.97526753, -24.05375744], [-47.97529695, -24.05385252], [-47.97552204, -24.0539956], [-47.97556485, -24.05404521], [-47.97576174, -24.05409859], [-47.97604793, -24.05425293], [-47.97599163, -24.05432576], [-47.97606291, -24.05450188], [-47.9761083, -24.05456119], [-47.97620734, -24.05455619], [-47.97626999, -24.05458385], [-47.97631474, -24.0546623], [-47.9764065, -24.0546227], [-47.97649504, -24.05460564], [-47.97662686, -24.05463303], [-47.97665309, -24.05465824], [-47.97672683, -24.0546596], [-47.97684947, -24.05472345], [-47.97692046, -24.05475104], [-47.97705964, -24.05475636], [-47.97716935, -24.05480079], [-47.97718153, -24.05488547], [-47.97737953, -24.05505523], [-47.97749567, -24.05509692], [-47.97753977, -24.0551771], [-47.97762329, -24.05525732], [-47.9777285, -24.05540471], [-47.97778101, -24.05540197], [-47.97785426, -24.05531401], [-47.97781923, -24.05517617], [-47.97791729, -24.05514123], [-47.97805397, -24.05527709], [-47.97799249, -24.05546138], [-47.97809204, -24.0556189], [-47.97815593, -24.05566232], [-47.97826211, -24.05564735], [-47.97836717, -24.05568582], [-47.97854849, -24.05576712], [-47.97860081, -24.05576474], [-47.97858537, -24.05582379], [-47.97862554, -24.05588221], [-47.97870808, -24.05594178], [-47.97878655, -24.0559694], [-47.9788723, -24.05586955], [-47.97893994, -24.05585822], [-47.97897295, -24.05579828], [-47.97900725, -24.05586647], [-47.97909954, -24.05592667], [-47.97920778, -24.05597509], [-47.97931849, -24.05595227], [-47.97938136, -24.05589582], [-47.97946985, -24.05588525], [-47.97955584, -24.05582564], [-47.97979356, -24.05584267], [-47.97986682, -24.05583628], [-47.97991406, -24.05587795], [-47.98000337, -24.05586015], [-47.980156, -24.05591574], [-47.98025076, -24.05592111], [-47.98036008, -24.05605082], [-47.98058097, -24.05624956], [-47.98072531, -24.05629565], [-47.98092851, -24.05645611], [-47.98102664, -24.05655617], [-47.98132967, -24.05703061], [-47.98165482, -24.05765396], [-47.98192015, -24.05779823], [-47.98216684, -24.05790559]]]]}}]}