{"type": "FeatureCollection", "features": [{"type": "Feature", "properties": {"name": "Reserva Particular do Patrimônio Natural Nardini Sempre Verde"}, "geometry": {"type": "MultiPolygon", "coordinates": [[[[-48.56893022, -21.22226944], [-48.57018014, -21.2219895], [-48.57066713, -21.22179915], [-48.57084628, -21.22161357], [-48.57100439, -21.22134432], [-48.57116464, -21.22096679], [-48.57132684, -21.22067625], [-48.57190746, -21.2198858], [-48.57269935, -21.21881579], [-48.57362459, -21.21819735], [-48.57324606, -21.21810427], [-48.57261084, -21.2179965], [-48.57187343, -21.21791674], [-48.57159721, -21.21799149], [-48.57120562, -21.21766882], [-48.5710798, -21.21782812], [-48.57102127, -21.21796664], [-48.57081455, -21.21807008], [-48.57062121, -21.21790354], [-48.57046629, -21.21795781], [-48.57046157, -21.21809537], [-48.57059933, -21.21832245], [-48.57090383, -21.2186808], [-48.57105419, -21.21888324], [-48.57121185, -21.21921909], [-48.57163616, -21.21948099], [-48.57167422, -21.21966722], [-48.571262, -21.22010654], [-48.57115498, -21.2203645], [-48.57117291, -21.22048126], [-48.5709658, -21.22061527], [-48.57095959, -21.22051502], [-48.57103357, -21.22039861], [-48.57041901, -21.2202282], [-48.57031041, -21.22031377], [-48.57052331, -21.22068536], [-48.57043865, -21.22087715], [-48.57037802, -21.22113277], [-48.57011856, -21.22117259], [-48.56994123, -21.2209832], [-48.56983254, -21.22114719], [-48.56965421, -21.22123987], [-48.5694784, -21.22106206], [-48.56927535, -21.22078434], [-48.56909113, -21.22109615], [-48.56893702, -21.2215502], [-48.56859065, -21.22145628], [-48.56858897, -21.22132787], [-48.56866766, -21.22097338], [-48.56882952, -21.22032359], [-48.56871042, -21.22024116], [-48.56854443, -21.22060166], [-48.56827932, -21.2205545], [-48.56803655, -21.22037187], [-48.56783993, -21.22010453], [-48.56773053, -21.21982112], [-48.5677056, -21.21949449], [-48.56781811, -21.21906402], [-48.56772423, -21.21896709], [-48.56754809, -21.21890375], [-48.56736777, -21.21897517], [-48.56742115, -21.21934921], [-48.56735363, -21.21946257], [-48.56682465, -21.21949952], [-48.56643892, -21.21939064], [-48.56620985, -21.21926007], [-48.56638272, -21.21896173], [-48.56672703, -21.2187038], [-48.56650227, -21.21767121], [-48.56637663, -21.21759977], [-48.56621, -21.21789198], [-48.56567434, -21.21884687], [-48.5655571, -21.219284], [-48.56532744, -21.21943013], [-48.56437395, -21.22011993], [-48.56513441, -21.22015641], [-48.56617799, -21.22033363], [-48.56731841, -21.22113528], [-48.5682045, -21.22200748], [-48.56893022, -21.22226944]]]]}}]}