{"type": "FeatureCollection", "features": [{"type": "Feature", "properties": {"name": "Reserva Particular do Patrimônio Natural Mata do Roque"}, "geometry": {"type": "MultiPolygon", "coordinates": [[[[-47.37657222, -22.05060833], [-47.37681806, -22.050535], [-47.377015, -22.05042694], [-47.37737861, -22.05017389], [-47.37790361, -22.04992472], [-47.37616861, -22.04744833], [-47.37602222, -22.047535], [-47.37531472, -22.04779111], [-47.37475806, -22.04801528], [-47.37435694, -22.04816139], [-47.37507611, -22.04999028], [-47.37509667, -22.04998389], [-47.37525667, -22.04998333], [-47.37546444, -22.05001806], [-47.3757125, -22.05007111], [-47.37592889, -22.05020278], [-47.37620417, -22.05041056], [-47.37636444, -22.05056083], [-47.37657222, -22.05060833]]]]}}]}