{"type": "FeatureCollection", "features": [{"type": "Feature", "properties": {"name": "Reserva Particular do Patrimônio Natural Entre Rios"}, "geometry": {"type": "MultiPolygon", "coordinates": [[[[-48.44188024, -23.27021333], [-48.44243334, -23.26989197], [-48.44272497, -23.26975527], [-48.44301634, -23.26964222], [-48.44340891, -23.26964807], [-48.4438789, -23.2697136], [-48.44434281, -23.26971357], [-48.44477115, -23.2696422], [-48.44527695, -23.26950528], [-48.44551476, -23.26954698], [-48.44553698, -23.26955998], [-48.44557791, -23.26953464], [-48.44569247, -23.26949119], [-48.44569354, -23.2694505], [-48.44524093, -23.26920121], [-48.44510709, -23.26900603], [-48.44505964, -23.26894794], [-48.44495471, -23.26891662], [-48.44475652, -23.2690061], [-48.44452743, -23.26914752], [-48.44438451, -23.26921308], [-48.44424116, -23.2691935], [-48.44412167, -23.2691113], [-48.444042, -23.26900593], [-48.44399879, -23.2688839], [-48.4439343, -23.2684185], [-48.44381456, -23.26792486], [-48.44370052, -23.26766979], [-48.44368936, -23.26757889], [-48.44369109, -23.26748811], [-48.44373077, -23.26743622], [-48.44390478, -23.26731855], [-48.444129, -23.26715024], [-48.44417898, -23.26696834], [-48.44419063, -23.26676787], [-48.44423176, -23.26663954], [-48.44436059, -23.26639087], [-48.44435513, -23.26627262], [-48.44417227, -23.26589701], [-48.4441558, -23.26574626], [-48.44413452, -23.26543783], [-48.44402122, -23.2650777], [-48.44399673, -23.26493766], [-48.44404193, -23.2646016], [-48.44398438, -23.26451473], [-48.44366995, -23.26418355], [-48.44352673, -23.26396268], [-48.44343778, -23.26374982], [-48.44343396, -23.26354557], [-48.44330396, -23.26304191], [-48.44320447, -23.26256737], [-48.44311254, -23.26230075], [-48.44300608, -23.2621916], [-48.44284367, -23.26216747], [-48.44263793, -23.26218199], [-48.44247086, -23.26219714], [-48.44232748, -23.2621948], [-48.44223481, -23.26217181], [-48.44206414, -23.26197197], [-48.44199257, -23.26179532], [-48.44191303, -23.26149451], [-48.44191644, -23.26123377], [-48.44194716, -23.26108813], [-48.44202732, -23.261035], [-48.4421476, -23.26098822], [-48.44263881, -23.26071314], [-48.44361, -23.25939984], [-48.44376835, -23.25922685], [-48.44401206, -23.25905533], [-48.4445208, -23.25860857], [-48.4449063, -23.2583175], [-48.4453318, -23.25796263], [-48.44539511, -23.2578956], [-48.44541667, -23.25778483], [-48.44540621, -23.25772382], [-48.44523285, -23.25752087], [-48.44500485, -23.25729933], [-48.44478409, -23.25716395], [-48.4441954, -23.25696245], [-48.44398431, -23.25684798], [-48.44369086, -23.2565853], [-48.44239576, -23.25495912], [-48.44221279, -23.25479501], [-48.44170381, -23.25444631], [-48.44148521, -23.25432097], [-48.44036119, -23.25399582], [-48.44023786, -23.2539568], [-48.43974474, -23.25355067], [-48.43947003, -23.25320804], [-48.43953199, -23.25284888], [-48.43964953, -23.25258216], [-48.43973399, -23.25242592], [-48.43985336, -23.25226304], [-48.44020422, -23.25196428], [-48.44049125, -23.25175394], [-48.44074956, -23.25162564], [-48.44103731, -23.25155694], [-48.4411147, -23.25156118], [-48.44136111, -23.25168761], [-48.44172568, -23.2517144], [-48.44202899, -23.25156706], [-48.44222041, -23.25135525], [-48.44227854, -23.25118604], [-48.44237725, -23.25092794], [-48.44255078, -23.25063514], [-48.44272947, -23.25041418], [-48.44288395, -23.2502794], [-48.44318687, -23.2501529], [-48.44351488, -23.25006274], [-48.44374747, -23.25006354], [-48.44396665, -23.25009104], [-48.44426464, -23.25005409], [-48.44446723, -23.24993201], [-48.44455818, -23.24990659], [-48.44467109, -23.24992323], [-48.44488831, -23.24921842], [-48.44482925, -23.24923669], [-48.44468969, -23.24930085], [-48.44463582, -23.24929808], [-48.44455282, -23.24924004], [-48.44451829, -23.24921141], [-48.44448559, -23.24917413], [-48.44436502, -23.24901637], [-48.44433885, -23.24895943], [-48.44428997, -23.24881781], [-48.44426916, -23.24879726], [-48.44425254, -23.24878751], [-48.44422752, -23.24877807], [-48.44420999, -23.24877526], [-48.44419024, -23.24877611], [-48.44414025, -23.24881556], [-48.44410525, -23.2488325], [-48.44408613, -23.24883083], [-48.44396697, -23.24879893], [-48.44372718, -23.24882219], [-48.44362638, -23.24883698], [-48.44336664, -23.24894829], [-48.44324278, -23.24896803], [-48.44315781, -23.24899806], [-48.44289999, -23.24903448], [-48.44272721, -23.24906832], [-48.4424814, -23.2490997], [-48.44232717, -23.24912914], [-48.4421981, -23.24914058], [-48.44207031, -23.24913109], [-48.44201249, -23.24912004], [-48.44187805, -23.24907497], [-48.44151668, -23.24898829], [-48.44130997, -23.24895225], [-48.4411561, -23.24893746], [-48.44090834, -23.24887637], [-48.44065892, -23.2488056], [-48.44057166, -23.24875056], [-48.44017753, -23.24845112], [-48.43998028, -23.24834418], [-48.43990584, -23.24830857], [-48.43961524, -23.24823559], [-48.43949804, -23.24822357], [-48.43935887, -23.24823692], [-48.43916055, -23.24830887], [-48.43904863, -23.2483381], [-48.43896057, -23.24835002], [-48.43863277, -23.24837835], [-48.4384236, -23.24837891], [-48.43756555, -23.24846248], [-48.43736279, -23.24846026], [-48.43725139, -23.24847198], [-48.43718114, -23.24850829], [-48.43705637, -23.24863191], [-48.43692109, -23.24872773], [-48.43672528, -23.2488575], [-48.43607865, -23.24913418], [-48.43569054, -23.24925584], [-48.43533252, -23.24944389], [-48.43515611, -23.24947829], [-48.43494028, -23.24949552], [-48.43472611, -23.24948697], [-48.43451503, -23.24950555], [-48.43426746, -23.24950141], [-48.43377642, -23.24955468], [-48.43338032, -23.24966501], [-48.43299415, -23.24981775], [-48.43277968, -23.24988086], [-48.43260615, -23.24994915], [-48.43231473, -23.25011246], [-48.43185338, -23.2504669], [-48.43156717, -23.25074557], [-48.43138029, -23.25083224], [-48.43121001, -23.25092414], [-48.43088303, -23.2511942], [-48.43060586, -23.25140441], [-48.43025889, -23.25161113], [-48.43019549, -23.25165731], [-48.42989153, -23.26733351], [-48.4308741, -23.2676873], [-48.43092454, -23.26752312], [-48.43109783, -23.26713265], [-48.43130375, -23.2667068], [-48.43141757, -23.26637088], [-48.43145476, -23.26617389], [-48.43148065, -23.26609776], [-48.43152148, -23.26599643], [-48.43160803, -23.26593096], [-48.43172924, -23.26587679], [-48.43182535, -23.26585327], [-48.43195799, -23.26586023], [-48.4320673, -23.26590219], [-48.43243935, -23.26615687], [-48.4325997, -23.2662068], [-48.4327643, -23.26622367], [-48.43303713, -23.26622181], [-48.43314251, -23.26625955], [-48.43335685, -23.26640352], [-48.43342131, -23.26648121], [-48.43343852, -23.26663847], [-48.43342113, -23.2668217], [-48.43332691, -23.26699212], [-48.43325786, -23.26713813], [-48.43322189, -23.26723593], [-48.43323754, -23.26728105], [-48.43335206, -23.26735171], [-48.43347941, -23.26741093], [-48.43357943, -23.26746339], [-48.43374256, -23.26758756], [-48.43379484, -23.26766379], [-48.43382467, -23.26782532], [-48.43389962, -23.26789109], [-48.43408912, -23.26794419], [-48.43444316, -23.26797183], [-48.43486116, -23.26804267], [-48.4349874, -23.26803182], [-48.43499404, -23.26796612], [-48.43491944, -23.26792284], [-48.43469519, -23.26786257], [-48.43463439, -23.26783838], [-48.4345872, -23.26780258], [-48.43453215, -23.26771313], [-48.43444783, -23.26739157], [-48.43431901, -23.26703714], [-48.43421948, -23.26669376], [-48.43416276, -23.26651283], [-48.43415959, -23.26644391], [-48.43419486, -23.26638283], [-48.4343113, -23.26637905], [-48.4346176, -23.26646042], [-48.43483818, -23.26655385], [-48.43492712, -23.26660883], [-48.43501435, -23.26669619], [-48.43504863, -23.26679424], [-48.43523557, -23.26767002], [-48.43529492, -23.26784629], [-48.43542291, -23.26794299], [-48.43584118, -23.26794847], [-48.43607529, -23.26796845], [-48.43649544, -23.26801865], [-48.437422, -23.26814996], [-48.43935853, -23.2684096], [-48.43981349, -23.26846379], [-48.44072207, -23.26847798], [-48.44081918, -23.26848859], [-48.44095848, -23.26852074], [-48.44100846, -23.26855405], [-48.44113517, -23.26867257], [-48.44140868, -23.26903368], [-48.44150307, -23.26917144], [-48.44159646, -23.26937164], [-48.44163015, -23.26948024], [-48.44164039, -23.26958882], [-48.44163472, -23.26975735], [-48.44159902, -23.26994336], [-48.44143647, -23.2701819], [-48.44137995, -23.27033796], [-48.44135101, -23.27047199], [-48.44188024, -23.27021333]]], [[[-48.42970126, -23.25196786], [-48.42966306, -23.2519936], [-48.42940554, -23.25218698], [-48.42925079, -23.25231975], [-48.42914249, -23.2524347], [-48.42885803, -23.25272359], [-48.42864666, -23.25299193], [-48.42838442, -23.25322748], [-48.42811055, -23.25357025], [-48.42793224, -23.25381557], [-48.4278361, -23.25400969], [-48.42770782, -23.25431496], [-48.42764891, -23.25446781], [-48.42744748, -23.2547317], [-48.427325, -23.25486753], [-48.42714691, -23.25511141], [-48.42691999, -23.25544556], [-48.42688114, -23.25549502], [-48.42678162, -23.25563557], [-48.42665192, -23.2558472], [-48.42661528, -23.25644805], [-48.42651004, -23.25674918], [-48.42634139, -23.25698969], [-48.42595939, -23.25735081], [-48.42579975, -23.25769167], [-48.42576473, -23.25799385], [-48.42562248, -23.25838057], [-48.42557305, -23.25881775], [-48.42541945, -23.25906753], [-48.42645682, -23.25948425], [-48.42712076, -23.2599324], [-48.42754557, -23.2604863], [-48.42796795, -23.26155821], [-48.42873353, -23.26329389], [-48.42860145, -23.26350666], [-48.42866993, -23.26398069], [-48.42880222, -23.26415843], [-48.42946102, -23.26434715], [-48.42970126, -23.25196786]]]]}}]}