{"type": "FeatureCollection", "features": [{"type": "Feature", "properties": {"name": "Reserva Particular do Patrimônio Natural Hercules Florence 1 e 2"}, "geometry": {"type": "MultiPolygon", "coordinates": [[[[-46.05778668, -23.78691839], [-46.05779506, -23.78313673], [-46.05779247, -23.78304105], [-46.05778552, -23.78294555], [-46.05777425, -23.7828504], [-46.05775866, -23.78275577], [-46.05773878, -23.78266183], [-46.05771466, -23.78256873], [-46.05768632, -23.78247664], [-46.05765381, -23.78238572], [-46.05761722, -23.78229614], [-46.05757657, -23.78220803], [-46.05660684, -23.78193346], [-46.05661263, -23.78116253], [-46.05257353, -23.77817925], [-46.05099209, -23.78487633], [-46.05778668, -23.78691839]]], [[[-46.04842188, -23.77522], [-46.03768503, -23.76727726], [-46.03694647, -23.76654675], [-46.03623802, -23.76724958], [-46.04773618, -23.77575562], [-46.04198984, -23.78160055], [-46.04306079, -23.78249218], [-46.04579734, -23.78331484], [-46.04842188, -23.77522]]], [[[-46.03057963, -23.77246431], [-46.03077988, -23.77226567], [-46.02359027, -23.76627749], [-46.02836355, -23.76142309], [-46.03600801, -23.76707957], [-46.03679045, -23.76630316], [-46.03653906, -23.76411939], [-46.03855926, -23.75784115], [-46.03651294, -23.75728333], [-46.0356857, -23.75693846], [-46.03411949, -23.75607028], [-46.03301927, -23.75543302], [-46.03155447, -23.75456941], [-46.02754646, -23.75083122], [-46.02411269, -23.74722756], [-46.02348381, -23.74560061], [-46.02306573, -23.74427224], [-46.02350542, -23.742835], [-46.02328318, -23.74298269], [-46.02302761, -23.74305323], [-46.02249638, -23.74298762], [-46.02234357, -23.74300443], [-46.0222456, -23.74304666], [-46.02143809, -23.74368761], [-46.0211199, -23.74403714], [-46.0208611, -23.74425072], [-46.02012068, -23.74445519], [-46.01972382, -23.74476981], [-46.01932039, -23.74502596], [-46.0189577, -23.7450715], [-46.01865785, -23.74501983], [-46.01845102, -23.74493132], [-46.01820401, -23.74472865], [-46.01813917, -23.74461771], [-46.00910311, -23.77227879], [-46.04237381, -23.78228565], [-46.03057963, -23.77246431]]]]}}]}