{"type": "FeatureCollection", "features": [{"type": "Feature", "properties": {"name": "Reserva Particular do Patrimônio Natural Besouro de Fogo"}, "geometry": {"type": "MultiPolygon", "coordinates": [[[[-44.56537139, -22.68822111], [-44.5656975, -22.68783694], [-44.56590389, -22.68763361], [-44.56502083, -22.68699528], [-44.56428639, -22.68774194], [-44.5633725, -22.68716278], [-44.56235167, -22.68563583], [-44.56588944, -22.68250889], [-44.57017389, -22.68118083], [-44.57230139, -22.67850528], [-44.57157806, -22.67850778], [-44.56890056, -22.67974444], [-44.56740444, -22.679745], [-44.56510722, -22.67960306], [-44.56386944, -22.67989972], [-44.56274, -22.68082306], [-44.56225, -22.68085556], [-44.56125528, -22.68232972], [-44.56122778, -22.68336417], [-44.56102167, -22.68403333], [-44.56141722, -22.68439056], [-44.56184167, -22.68499972], [-44.56223417, -22.68589861], [-44.56245472, -22.68637722], [-44.56293444, -22.68694972], [-44.563705, -22.68765444], [-44.56402528, -22.68778694], [-44.56537139, -22.68822111]]]]}}]}