{"type": "FeatureCollection", "features": [{"type": "Feature", "properties": {"name": "Reserva Extrativista Ilha do Tumba"}, "geometry": {"type": "MultiPolygon", "coordinates": [[[[-48.02501766, -25.22919916], [-48.02539408, -25.22914986], [-48.02570799, -25.2290993], [-48.02612515, -25.22908875], [-48.02664787, -25.22902343], [-48.02708771, -25.22893748], [-48.02754767, -25.22879404], [-48.02834849, -25.22819045], [-48.02872324, -25.22786433], [-48.02905413, -25.22731874], [-48.02913918, -25.22710246], [-48.02927903, -25.22681417], [-48.02932225, -25.22668348], [-48.02932441, -25.22659778], [-48.02929845, -25.22657515], [-48.02920556, -25.22654782], [-48.02915802, -25.22649356], [-48.02915578, -25.22642589], [-48.02929344, -25.22623232], [-48.02940587, -25.22598454], [-48.0294261, -25.2256914], [-48.02936483, -25.22548372], [-48.02921212, -25.22519008], [-48.02896923, -25.22480146], [-48.02854124, -25.22434464], [-48.02794249, -25.22379711], [-48.0274626, -25.22329503], [-48.02718165, -25.22280254], [-48.02690284, -25.22222886], [-48.02677683, -25.22138948], [-48.02682365, -25.22111446], [-48.02690875, -25.22088465], [-48.02714508, -25.22047935], [-48.02756955, -25.21997986], [-48.02776789, -25.21974124], [-48.02751532, -25.21935475], [-48.02636533, -25.21923632], [-48.02569601, -25.21874608], [-48.02534448, -25.21811928], [-48.02493932, -25.21753916], [-48.02486363, -25.21634587], [-48.02539666, -25.2159752], [-48.02551526, -25.21540562], [-48.02553033, -25.21478613], [-48.02579804, -25.21455322], [-48.0263299, -25.21423026], [-48.02712482, -25.21386485], [-48.02765667, -25.2135419], [-48.02804064, -25.21283463], [-48.02846549, -25.21260479], [-48.0290008, -25.21213887], [-48.02937897, -25.21166978], [-48.02980952, -25.21120175], [-48.02978986, -25.21095318], [-48.0297934, -25.21082566], [-48.02963426, -25.21078009], [-48.02938875, -25.21062151], [-48.02900703, -25.21006107], [-48.028566, -25.20926589], [-48.02850933, -25.20898605], [-48.02850495, -25.20845826], [-48.02843333, -25.20820093], [-48.02836375, -25.20806992], [-48.02799339, -25.2076313], [-48.02724683, -25.20701116], [-48.02720101, -25.20682157], [-48.02710981, -25.20666794], [-48.02702005, -25.2066361], [-48.02682595, -25.20666712], [-48.02646546, -25.20695929], [-48.02606145, -25.2071115], [-48.02588718, -25.20714258], [-48.02570688, -25.20712401], [-48.02550647, -25.20701066], [-48.02533939, -25.20675757], [-48.02514938, -25.20614805], [-48.0250269, -25.20589959], [-48.0249022, -25.2057594], [-48.02452715, -25.20560494], [-48.0243387, -25.20543749], [-48.02421076, -25.20515745], [-48.02411327, -25.20467901], [-48.02404786, -25.20459762], [-48.02387631, -25.20456104], [-48.02361456, -25.20461892], [-48.02326437, -25.20462242], [-48.02306399, -25.20450004], [-48.02290583, -25.20435523], [-48.02289553, -25.20411161], [-48.02293939, -25.20397641], [-48.02315646, -25.20375601], [-48.02353299, -25.20366237], [-48.02430934, -25.20355184], [-48.02480461, -25.20353072], [-48.02483948, -25.20349593], [-48.02428735, -25.20328112], [-48.022461, -25.20271648], [-48.02172826, -25.20258804], [-48.02108628, -25.20255911], [-48.02099446, -25.20258591], [-48.02013078, -25.20260461], [-48.02012892, -25.2026065], [-48.01895211, -25.20196732], [-48.01894889, -25.20162814], [-48.01872907, -25.20157336], [-48.01769826, -25.20091175], [-48.01728634, -25.20050004], [-48.01710625, -25.20025141], [-48.01702813, -25.20008428], [-48.01699128, -25.1996421], [-48.01700667, -25.19932187], [-48.01705579, -25.19910097], [-48.01714202, -25.19890275], [-48.01758525, -25.19817327], [-48.01797788, -25.19772784], [-48.01814612, -25.19747121], [-48.01828781, -25.1970115], [-48.01829271, -25.19650178], [-48.01848519, -25.19587532], [-48.01862468, -25.19568627], [-48.01891149, -25.19554727], [-48.01909448, -25.19549818], [-48.02011374, -25.19538387], [-48.02039864, -25.1952584], [-48.02063348, -25.19509218], [-48.02140453, -25.1941832], [-48.02173576, -25.19392253], [-48.02193993, -25.19384193], [-48.02225736, -25.19380676], [-48.02263835, -25.19384847], [-48.02282136, -25.19389672], [-48.02306119, -25.19325476], [-48.02250418, -25.19304564], [-48.02165197, -25.19271387], [-48.02122134, -25.19251864], [-48.02084151, -25.19232357], [-48.02050076, -25.19211958], [-48.02019866, -25.19185254], [-48.01949002, -25.19105655], [-48.01908291, -25.19051855], [-48.01891596, -25.19040203], [-48.01872854, -25.19031452], [-48.01856195, -25.19028246], [-48.01848259, -25.19029124], [-48.01842611, -25.19031815], [-48.0183713, -25.19039468], [-48.01833791, -25.19054795], [-48.01830225, -25.1908185], [-48.01825897, -25.19096723], [-48.01820896, -25.19108889], [-48.01795037, -25.1914851], [-48.01779643, -25.19173275], [-48.01761058, -25.19206151], [-48.01747797, -25.19223705], [-48.01738104, -25.19248036], [-48.01733445, -25.19286365], [-48.01733718, -25.19314334], [-48.01743387, -25.19418566], [-48.01741221, -25.19452843], [-48.017359, -25.19467713], [-48.01725887, -25.19478059], [-48.01716753, -25.19484347], [-48.01705773, -25.19487473], [-48.01687126, -25.19485614], [-48.01674304, -25.19483772], [-48.01666331, -25.19477884], [-48.01648302, -25.19458886], [-48.01616359, -25.19431274], [-48.01580578, -25.1940275], [-48.0153656, -25.19372848], [-48.01392358, -25.19318291], [-48.01246083, -25.19271847], [-48.01214964, -25.19256868], [-48.01196402, -25.19248693], [-48.01174987, -25.19240961], [-48.0115516, -25.19239549], [-48.01135266, -25.19239941], [-48.01098608, -25.19248854], [-48.01048123, -25.19259982], [-48.010493, -25.19225701], [-48.01047655, -25.19200435], [-48.01051298, -25.19186913], [-48.01069098, -25.19148622], [-48.01095599, -25.19120282], [-48.01102434, -25.1911534], [-48.01121725, -25.19110435], [-48.01137482, -25.19105971], [-48.0115455, -25.19098805], [-48.0116932, -25.19092984], [-48.01182978, -25.19086258], [-48.01193163, -25.19080424], [-48.01202363, -25.19072331], [-48.01208432, -25.1905611], [-48.01210963, -25.19041682], [-48.01206716, -25.1903355], [-48.01192299, -25.19027192], [-48.0117433, -25.19026688], [-48.01160813, -25.19028452], [-48.01143955, -25.19029304], [-48.0112703, -25.19031058], [-48.01117003, -25.1902742], [-48.01110394, -25.19021536], [-48.01109506, -25.19009805], [-48.01111246, -25.18939438], [-48.01113977, -25.18920951], [-48.0112423, -25.18913313], [-48.01135444, -25.18914249], [-48.01147763, -25.18917894], [-48.01162255, -25.18920193], [-48.01178061, -25.18919337], [-48.01190476, -25.18913509], [-48.01211324, -25.18889212], [-48.01221033, -25.18859919], [-48.01223687, -25.18845492], [-48.01230664, -25.18835589], [-48.01248712, -25.18831582], [-48.01255464, -25.18832053], [-48.01284659, -25.18830335], [-48.01294832, -25.18827659], [-48.01301667, -25.18822717], [-48.01310929, -25.18814624], [-48.01324736, -25.18800682], [-48.01357323, -25.18693964], [-48.01408585, -25.18567848], [-48.01449359, -25.18476596], [-48.01495376, -25.18367912], [-48.01530906, -25.18294092], [-48.01576814, -25.1818979], [-48.01622615, -25.1808987], [-48.01672484, -25.18020723], [-48.01719243, -25.17922567], [-48.0167383, -25.17919532], [-48.0159368, -25.17896517], [-48.01483904, -25.17853789], [-48.01349908, -25.17791593], [-48.01206928, -25.17729368], [-48.01006739, -25.17620057], [-48.00958605, -25.17599163], [-48.00917619, -25.17589567], [-48.00897485, -25.17588154], [-48.0088316, -25.17591269], [-48.0087247, -25.17600259], [-48.00866166, -25.17612871], [-48.00859262, -25.17620068], [-48.00852503, -25.17621401], [-48.0084427, -25.17619121], [-48.00836982, -25.17612333], [-48.00818634, -25.1759694], [-48.00800878, -25.17589218], [-48.00780013, -25.17584645], [-48.00666537, -25.17572576], [-48.00628449, -25.17567049], [-48.00550244, -25.17551476], [-48.00426669, -25.17522234], [-48.00338806, -25.17504376], [-48.00279176, -25.17492918], [-48.00229861, -25.17490513], [-48.00208851, -25.17491803], [-48.00196225, -25.17487705], [-48.00187391, -25.1748046], [-48.00175722, -25.17468696], [-48.00158785, -25.17457367], [-48.00047077, -25.17420038], [-47.99969174, -25.17390028], [-47.99900136, -25.17359143], [-47.99792304, -25.17296111], [-47.99756596, -25.17283822], [-47.99714726, -25.17279183], [-47.99673027, -25.17278604], [-47.9964407, -25.17283929], [-47.99582583, -25.17305845], [-47.99507811, -25.17351177], [-47.99437952, -25.17391562], [-47.99361668, -25.17426514], [-47.99325686, -25.17454822], [-47.99297209, -25.17480899], [-47.99276302, -25.17504292], [-47.99266846, -25.17530878], [-47.99261171, -25.17557476], [-47.99266781, -25.17581853], [-47.99282613, -25.17606712], [-47.99311453, -25.17649656], [-47.99349643, -25.17711124], [-47.9939518, -25.17763141], [-47.99436989, -25.17817853], [-47.99507436, -25.17903779], [-47.99589709, -25.18009138], [-47.99652429, -25.18090529], [-47.99678567, -25.18127148], [-47.99703633, -25.18169177], [-47.99742638, -25.18212151], [-47.99797197, -25.18322387], [-47.99841819, -25.18438907], [-47.99900809, -25.18574868], [-47.9995742, -25.18717588], [-47.99984271, -25.18830896], [-47.99993936, -25.18865209], [-48.00007114, -25.18938778], [-48.00014943, -25.19000602], [-48.00024505, -25.19080025], [-48.00026494, -25.19213556], [-48.00027301, -25.19246939], [-47.99991316, -25.19376295], [-47.99967745, -25.19500275], [-47.99928726, -25.19611577], [-47.99912406, -25.19667914], [-47.99852257, -25.1979494], [-47.99776812, -25.19968833], [-47.99725796, -25.2010581], [-47.99707252, -25.20227097], [-47.99695735, -25.20274427], [-47.99659579, -25.20347844], [-47.99644714, -25.20412305], [-47.99629963, -25.20479473], [-47.99618446, -25.20526802], [-47.99616763, -25.20562884], [-47.99649024, -25.20637864], [-47.99716881, -25.20774752], [-47.9978388, -25.20876001], [-47.9985558, -25.20962829], [-47.99915504, -25.21033382], [-47.99952957, -25.21062366], [-48.00005585, -25.21094553], [-48.00030807, -25.21095532], [-48.00047064, -25.21090619], [-48.00081607, -25.21085311], [-48.00097437, -25.21078593], [-48.00103096, -25.21072589], [-48.00123707, -25.2111813], [-48.00236917, -25.21264949], [-48.00520651, -25.21447086], [-48.00689994, -25.21593531], [-48.00982347, -25.21852093], [-48.01290203, -25.22120503], [-48.01433721, -25.22252119], [-48.01692941, -25.22366994], [-48.01899895, -25.22476049], [-48.02013038, -25.22564131], [-48.02132351, -25.22614207], [-48.02251406, -25.2270486], [-48.02300764, -25.22762692], [-48.02337232, -25.22809021], [-48.02372739, -25.22857406], [-48.02439671, -25.22906423], [-48.02466346, -25.22919202], [-48.02501766, -25.22919916]]]]}}]}