{"type": "FeatureCollection", "features": [{"type": "Feature", "properties": {"name": "Reserva Particular do Patrimônio Natural Reserva Mahayana"}, "geometry": {"type": "MultiPolygon", "coordinates": [[[[-46.18283507, -23.70178642], [-46.18283383, -23.70178444], [-46.1829826, -23.70157148], [-46.18307428, -23.70140566], [-46.18345816, -23.70142904], [-46.18362863, -23.70142355], [-46.18412851, -23.70190167], [-46.18432227, -23.70217794], [-46.18519767, -23.70072183], [-46.1853802, -23.70004766], [-46.1854332, -23.69992773], [-46.18641228, -23.69893503], [-46.1867338, -23.69899232], [-46.18695947, -23.69933451], [-46.18804096, -23.69984747], [-46.18958278, -23.70034765], [-46.18927682, -23.6988115], [-46.18912404, -23.69867192], [-46.18754815, -23.69855267], [-46.1872431, -23.69853572], [-46.18696957, -23.69857197], [-46.18609975, -23.69842916], [-46.18483896, -23.7000808], [-46.18284485, -23.70081644], [-46.18283379, -23.70178444], [-46.18283507, -23.70178642]]]]}}]}