{"type": "FeatureCollection", "features": [{"type": "Feature", "properties": {"name": "Reserva Particular do Patrimônio Natural Cachoeira da Luisa"}, "geometry": {"type": "MultiPolygon", "coordinates": [[[[-44.34456845, -22.82045176], [-44.34458998, -22.82033081], [-44.34514556, -22.82021972], [-44.34539556, -22.82002527], [-44.34622887, -22.81874751], [-44.34622887, -22.81844191], [-44.3458678, -22.8181642], [-44.34826003, -22.81819071], [-44.34856283, -22.81799674], [-44.3486733, -22.81785952], [-44.34870102, -22.81774789], [-44.34839557, -22.81733003], [-44.34839555, -22.81712977], [-44.34847807, -22.81692884], [-44.34756226, -22.81630307], [-44.34364827, -22.81504348], [-44.34365561, -22.81517973], [-44.34357566, -22.81547289], [-44.343406, -22.81584165], [-44.34340596, -22.81648121], [-44.34333643, -22.81665517], [-44.34369669, -22.81683533], [-44.34396299, -22.81736704], [-44.34404488, -22.81804948], [-44.34404489, -22.81823177], [-44.34396632, -22.8184412], [-44.34368642, -22.81891673], [-44.34362851, -22.81920655], [-44.34360003, -22.81972042], [-44.34366382, -22.81991147], [-44.34409972, -22.82023141], [-44.34456845, -22.82045176]]]]}}]}