{"type": "FeatureCollection", "features": [{"type": "Feature", "properties": {"name": "Reserva de Desenvolvimento Sustentável Lavras"}, "geometry": {"type": "MultiPolygon", "coordinates": [[[[-48.55110652, -25.00352825], [-48.5512176, -25.00345515], [-48.55173556, -25.00337048], [-48.55203411, -25.00328881], [-48.55242376, -25.0031058], [-48.55346282, -25.00287264], [-48.55490839, -25.00275294], [-48.55606163, -25.00281973], [-48.5571376, -25.0028135], [-48.55874245, -25.00260074], [-48.55998639, -25.00241396], [-48.56099577, -25.00278695], [-48.5619326, -25.00287352], [-48.5627175, -25.00274386], [-48.5637138, -25.00275105], [-48.56400548, -25.00280866], [-48.56445491, -25.00286163], [-48.56545563, -25.00287803], [-48.56623842, -25.00265903], [-48.56694023, -25.00246901], [-48.56756612, -25.00245645], [-48.56804281, -25.00239582], [-48.56939378, -25.00241792], [-48.56984224, -25.00236155], [-48.57107582, -25.00214893], [-48.57146095, -25.00165348], [-48.5719779, -25.00081808], [-48.57219328, -25.00004618], [-48.57271201, -24.99911959], [-48.57329771, -24.9986046], [-48.57421054, -24.99831476], [-48.57424791, -24.99797883], [-48.57433253, -24.99758757], [-48.57426856, -24.99692747], [-48.57424386, -24.99661856], [-48.5739313, -24.9960806], [-48.57353882, -24.9956956], [-48.57325925, -24.99504599], [-48.5731541, -24.99413282], [-48.57256993, -24.99332399], [-48.57229147, -24.99261833], [-48.5717687, -24.9918924], [-48.57120966, -24.99129658], [-48.57068478, -24.99138616], [-48.56907695, -24.99099529], [-48.56737437, -24.99072906], [-48.56711815, -24.99045846], [-48.56716615, -24.99013791], [-48.56825423, -24.9895802], [-48.56826435, -24.98957399], [-48.56831094, -24.98945381], [-48.56825825, -24.98932194], [-48.56813904, -24.98919905], [-48.56787696, -24.98894874], [-48.56718317, -24.98854584], [-48.56667423, -24.98821122], [-48.56686187, -24.98813598], [-48.56745525, -24.98781938], [-48.5681437, -24.98776538], [-48.56877848, -24.98752777], [-48.56880358, -24.98698], [-48.56844292, -24.98638676], [-48.56795137, -24.9858958], [-48.56789694, -24.98575134], [-48.56750842, -24.98511848], [-48.56735077, -24.98439805], [-48.56799632, -24.98361244], [-48.56918507, -24.98287485], [-48.56950135, -24.98208385], [-48.56897926, -24.98176008], [-48.56855236, -24.98186403], [-48.56833455, -24.98186412], [-48.56744154, -24.98159377], [-48.5661881, -24.98128297], [-48.5660488, -24.9821579], [-48.56528571, -24.98236731], [-48.56440734, -24.98261397], [-48.56425493, -24.98308135], [-48.56440288, -24.98356669], [-48.56434912, -24.98411399], [-48.56354977, -24.98398343], [-48.56252241, -24.98379692], [-48.56173053, -24.98328798], [-48.56135329, -24.98281191], [-48.5610952, -24.98210289], [-48.56089994, -24.98183864], [-48.56052476, -24.9812582], [-48.56001534, -24.98094965], [-48.55986329, -24.98067307], [-48.55990249, -24.98013857], [-48.56001299, -24.97961832], [-48.56039187, -24.97928518], [-48.56144922, -24.97867602], [-48.56269807, -24.97813959], [-48.56320321, -24.97799051], [-48.56538745, -24.97748884], [-48.56605988, -24.97718628], [-48.56657109, -24.97682061], [-48.56724736, -24.97616611], [-48.56783049, -24.97547556], [-48.56832957, -24.97501063], [-48.56849496, -24.97476241], [-48.56867104, -24.97426155], [-48.56786142, -24.97299405], [-48.56764464, -24.97253393], [-48.56747268, -24.97200611], [-48.56745537, -24.97140604], [-48.56746877, -24.97035477], [-48.56749599, -24.96971407], [-48.56746691, -24.96785067], [-48.56749758, -24.96667757], [-48.5676078, -24.96624438], [-48.56821415, -24.96507104], [-48.56867026, -24.96412335], [-48.5688918, -24.96359537], [-48.5689575, -24.96322536], [-48.56892763, -24.96289149], [-48.56885174, -24.96267947], [-48.56854151, -24.96214268], [-48.56837369, -24.96182692], [-48.56823712, -24.96151114], [-48.56814386, -24.96121339], [-48.56806885, -24.96092015], [-48.56801398, -24.96068555], [-48.56801543, -24.96049154], [-48.56807193, -24.96026141], [-48.56813093, -24.96011249], [-48.56826788, -24.95994098], [-48.56839373, -24.95984618], [-48.56849514, -24.95974236], [-48.56860922, -24.95961598], [-48.56871243, -24.95940839], [-48.56881746, -24.95911507], [-48.56887518, -24.95887591], [-48.56914094, -24.95834339], [-48.56933412, -24.95805906], [-48.56945438, -24.95792816], [-48.56960558, -24.95781079], [-48.56991945, -24.95760762], [-48.57032762, -24.95733673], [-48.57073489, -24.95712449], [-48.57101691, -24.95696194], [-48.57143372, -24.95664593], [-48.57174105, -24.9563841], [-48.57205702, -24.95609069], [-48.57237854, -24.95574764], [-48.57253896, -24.95553099], [-48.5727161, -24.95534593], [-48.57290653, -24.95512927], [-48.57301621, -24.9548946], [-48.57308322, -24.95467348], [-48.57308803, -24.95442532], [-48.57303474, -24.95426292], [-48.57293288, -24.95408249], [-48.57275768, -24.95384794], [-48.57254535, -24.95357732], [-48.57234904, -24.95320292], [-48.57209522, -24.95286012], [-48.57177305, -24.95253991], [-48.57137694, -24.95218815], [-48.57106595, -24.95194013], [-48.5707358, -24.9517237], [-48.57054552, -24.95161098], [-48.5702816, -24.95147123], [-48.56994315, -24.95134955], [-48.56962947, -24.951282], [-48.56936282, -24.95123248], [-48.56903369, -24.95118299], [-48.56861146, -24.95115158], [-48.56844442, -24.95113361], [-48.56795632, -24.9511293], [-48.56730588, -24.95120176], [-48.56691895, -24.95125155], [-48.56644538, -24.95122918], [-48.56595759, -24.9512023], [-48.56570241, -24.95121594], [-48.56539498, -24.95127923], [-48.56516025, -24.95134701], [-48.5648024, -24.95139678], [-48.564352, -24.95132025], [-48.563818, -24.95104523], [-48.56327157, -24.95065741], [-48.56304289, -24.95042739], [-48.56298125, -24.95023792], [-48.56297745, -24.95006195], [-48.56300895, -24.94994463], [-48.56312949, -24.94974154], [-48.56329985, -24.94959709], [-48.56351228, -24.94946616], [-48.56382367, -24.94928105], [-48.5643753, -24.94891537], [-48.56502065, -24.94855416], [-48.56550244, -24.94832386], [-48.56613391, -24.94804386], [-48.56658974, -24.94787673], [-48.56716342, -24.94770053], [-48.5682062, -24.94731207], [-48.56857542, -24.94713595], [-48.56885153, -24.94695987], [-48.5691097, -24.94675672], [-48.56933135, -24.94652652], [-48.56946639, -24.94627379], [-48.56955133, -24.94604816], [-48.5696245, -24.94579094], [-48.56965829, -24.94533522], [-48.56971532, -24.94495168], [-48.56986725, -24.94447785], [-48.5700068, -24.94399501], [-48.57003819, -24.94367465], [-48.56996258, -24.94340848], [-48.56983968, -24.94317842], [-48.56960785, -24.94285365], [-48.56933308, -24.94262366], [-48.56869877, -24.94211407], [-48.56828385, -24.94178938], [-48.567967, -24.94150977], [-48.56739923, -24.94106331], [-48.56710501, -24.940901], [-48.56677926, -24.94076126], [-48.56639075, -24.94067118], [-48.56593298, -24.94061271], [-48.56546315, -24.94056327], [-48.56508238, -24.94049574], [-48.5647774, -24.94045074], [-48.56444303, -24.94039221], [-48.56402483, -24.9402886], [-48.56370465, -24.94015788], [-48.56337921, -24.94000008], [-48.56311563, -24.93984678], [-48.56295751, -24.93970246], [-48.56285598, -24.93950848], [-48.56283516, -24.93930093], [-48.56286383, -24.93909788], [-48.56296304, -24.93893992], [-48.56409825, -24.93790624], [-48.56540198, -24.93684089], [-48.56651429, -24.93586133], [-48.56697019, -24.93528361], [-48.56705205, -24.93509407], [-48.56714876, -24.9348955], [-48.56723741, -24.93466987], [-48.5672951, -24.93437656], [-48.56729309, -24.93406523], [-48.56726266, -24.9338216], [-48.5672075, -24.93360053], [-48.56712265, -24.93337948], [-48.56700381, -24.93321258], [-48.56688775, -24.93303215], [-48.56674322, -24.93282465], [-48.56667849, -24.93263968], [-48.56667623, -24.93245018], [-48.56668477, -24.93220202], [-48.56671425, -24.93176885], [-48.56678988, -24.93148456], [-48.5668733, -24.93131307], [-48.56697314, -24.93120925], [-48.56709497, -24.93116408], [-48.5671896, -24.93116855], [-48.56728424, -24.93116852], [-48.56745004, -24.9312271], [-48.56759049, -24.93132631], [-48.56806664, -24.9316961], [-48.56829989, -24.93182234], [-48.56848425, -24.93189897], [-48.56869426, -24.93193046], [-48.56891076, -24.93195293], [-48.56937649, -24.93190311], [-48.56961336, -24.93184435], [-48.5699937, -24.93171334], [-48.57029453, -24.93155078], [-48.57055236, -24.93136116], [-48.57065405, -24.93123478], [-48.5707248, -24.93109939], [-48.57075255, -24.93094146], [-48.57072434, -24.93081062], [-48.57062989, -24.93056701], [-48.57047916, -24.9303505], [-48.57023068, -24.93006634], [-48.57003047, -24.92984534], [-48.56978198, -24.92955668], [-48.56965163, -24.92924991], [-48.56956609, -24.9288935], [-48.56959769, -24.92839716], [-48.56970046, -24.92799103], [-48.57020095, -24.92698012], [-48.57083996, -24.92596914], [-48.57122595, -24.92544558], [-48.57168486, -24.92480918], [-48.57188941, -24.92447971], [-48.57206997, -24.92381636], [-48.57211931, -24.9235411], [-48.57214326, -24.92322976], [-48.57202859, -24.92275604], [-48.57191523, -24.92242671], [-48.57183215, -24.92202968], [-48.57182927, -24.92185371], [-48.57179698, -24.9216191], [-48.5717149, -24.92137097], [-48.57159571, -24.92112286], [-48.57153899, -24.9208657], [-48.57153144, -24.92061754], [-48.57152221, -24.92013024], [-48.57147996, -24.91976478], [-48.57139635, -24.91953921], [-48.57123236, -24.91935429], [-48.57107367, -24.91926411], [-48.57083309, -24.91927324], [-48.57012255, -24.91946305], [-48.56979946, -24.91958953], [-48.56915328, -24.9198515], [-48.56884903, -24.91994187], [-48.56851941, -24.91999616], [-48.56805058, -24.91996477], [-48.56813696, -24.92016326], [-48.56818103, -24.92048811], [-48.56808542, -24.92098448], [-48.56809094, -24.92151239], [-48.56805243, -24.9218102], [-48.56786073, -24.92249612], [-48.56776187, -24.92269469], [-48.56760235, -24.92279853], [-48.56738556, -24.92279411], [-48.56693588, -24.9227221], [-48.56664611, -24.92270868], [-48.56554902, -24.92297083], [-48.56514636, -24.92292135], [-48.56501151, -24.92287629], [-48.56483856, -24.92270941], [-48.56462433, -24.9222267], [-48.56445506, -24.92198763], [-48.5643143, -24.92188842], [-48.56401833, -24.92184341], [-48.5638764, -24.92186603], [-48.56370264, -24.9219428], [-48.5629515, -24.92264246], [-48.56231086, -24.92291343], [-48.56183036, -24.92307605], [-48.5614813, -24.92326117], [-48.5613218, -24.92341464], [-48.56105664, -24.92382083], [-48.5608834, -24.92436685], [-48.56082848, -24.92464211], [-48.56078699, -24.92524223], [-48.56082164, -24.92595061], [-48.56088774, -24.92646947], [-48.56089221, -24.92678531], [-48.56085399, -24.92706958], [-48.5606229, -24.92759758], [-48.55978493, -24.928577], [-48.55965954, -24.9289741], [-48.55970961, -24.92959675], [-48.5596896, -24.92980882], [-48.55951638, -24.93045862], [-48.55945955, -24.93133848], [-48.55946502, -24.93181224], [-48.55939582, -24.93200629], [-48.55923508, -24.93218231], [-48.55895987, -24.93227717], [-48.55845735, -24.93236307], [-48.55819856, -24.93253011], [-48.55803967, -24.93271065], [-48.55791589, -24.93327018], [-48.55787902, -24.93382969], [-48.55781045, -24.9340508], [-48.55770167, -24.93423583], [-48.55725924, -24.93458341], [-48.55704129, -24.93479555], [-48.55653252, -24.9354996], [-48.55621871, -24.9357569], [-48.55584456, -24.93595104], [-48.55553594, -24.93603687], [-48.55552604, -24.93603237], [-48.55477353, -24.93594238], [-48.55451621, -24.93594698], [-48.55384298, -24.93610512], [-48.55275964, -24.9362679], [-48.55241702, -24.93642593], [-48.55220689, -24.93689525], [-48.55214998, -24.93771194], [-48.55209746, -24.93786537], [-48.55183309, -24.93802788], [-48.55149414, -24.93809116], [-48.55117372, -24.93808223], [-48.55084224, -24.93826733], [-48.55069261, -24.93842981], [-48.55056402, -24.93863289], [-48.54983465, -24.93927382], [-48.54963124, -24.9395446], [-48.54938623, -24.94022598], [-48.54907984, -24.94055094], [-48.54881919, -24.94076759], [-48.54842747, -24.94120086], [-48.54844395, -24.94145804], [-48.54856004, -24.94174226], [-48.54855364, -24.942022], [-48.54827266, -24.94246877], [-48.54824457, -24.94263121], [-48.54830157, -24.9428974], [-48.5483777, -24.94300567], [-48.54839109, -24.9432809], [-48.54836392, -24.94341175], [-48.54826655, -24.94356519], [-48.54787665, -24.94391273], [-48.54746815, -24.94414747], [-48.54712547, -24.9441972], [-48.54685109, -24.94410704], [-48.54629827, -24.94378233], [-48.54614825, -24.9437553], [-48.545925, -24.94394036], [-48.54579392, -24.94411185], [-48.54569626, -24.94433747], [-48.54562865, -24.94470747], [-48.545522, -24.94488347], [-48.54499477, -24.94527165], [-48.54463915, -24.94548381], [-48.54418515, -24.9456599], [-48.54398009, -24.94567349], [-48.54373078, -24.9456149], [-48.5432686, -24.94534882], [-48.54306168, -24.94535338], [-48.54290923, -24.94545268], [-48.54286347, -24.94551586], [-48.54284558, -24.94567379], [-48.54289058, -24.94614302], [-48.54283745, -24.94637315], [-48.54259347, -24.94654918], [-48.54176985, -24.9467434], [-48.54156825, -24.94692844], [-48.54146561, -24.94711797], [-48.54138404, -24.94737518], [-48.54107863, -24.9479979], [-48.54080839, -24.94829576], [-48.54055513, -24.94848984], [-48.54016081, -24.94866139], [-48.53926696, -24.94880148], [-48.53880331, -24.94882415], [-48.5384071, -24.94887839], [-48.53820205, -24.94893709], [-48.53787015, -24.94889656], [-48.53763413, -24.94882442], [-48.53737612, -24.94864851], [-48.53689478, -24.94841851], [-48.53622263, -24.94831037], [-48.53585576, -24.94818863], [-48.53550216, -24.94795409], [-48.53497219, -24.9474263], [-48.53445928, -24.94712411], [-48.5340488, -24.94696627], [-48.53391795, -24.94691216], [-48.53281051, -24.94635741], [-48.53240464, -24.94606421], [-48.53209434, -24.94573941], [-48.53204045, -24.94545517], [-48.53204565, -24.9452025], [-48.53215286, -24.94468811], [-48.53213859, -24.94450763], [-48.53199967, -24.94433169], [-48.53170856, -24.94408359], [-48.53153438, -24.94387607], [-48.53143192, -24.94350611], [-48.53123638, -24.94323994], [-48.53103748, -24.94312718], [-48.53087107, -24.94309112], [-48.52994349, -24.94303263], [-48.529499, -24.94289284], [-48.52908355, -24.94257256], [-48.52880792, -24.94229738], [-48.52845155, -24.94200416], [-48.52779422, -24.94160271], [-48.52772617, -24.9415576], [-48.52741467, -24.94133205], [-48.52705583, -24.94100725], [-48.52626943, -24.9400373], [-48.52604109, -24.93958162], [-48.52568964, -24.93903573], [-48.52505453, -24.93826427], [-48.52486986, -24.93810187], [-48.52459395, -24.93793045], [-48.52430163, -24.93765075], [-48.52376961, -24.93732146], [-48.52366227, -24.93720867], [-48.52345071, -24.93708685], [-48.52338861, -24.9374794], [-48.52261125, -24.93857593], [-48.52238488, -24.93900025], [-48.52228911, -24.9393385], [-48.52218131, -24.94022287], [-48.52200673, -24.9412832], [-48.52185066, -24.94205026], [-48.52179789, -24.94275866], [-48.52171567, -24.94306549], [-48.52156603, -24.94346707], [-48.5211195, -24.94406722], [-48.52086872, -24.9444237], [-48.5207735, -24.94473955], [-48.52069627, -24.94538025], [-48.52052935, -24.94604353], [-48.52035466, -24.9464722], [-48.51984379, -24.94705882], [-48.51942913, -24.94793871], [-48.51930977, -24.94812371], [-48.51915391, -24.94824553], [-48.51863823, -24.94843966], [-48.51835438, -24.94856148], [-48.51819728, -24.94874649], [-48.51811657, -24.94891795], [-48.51813303, -24.94938719], [-48.51863927, -24.95094827], [-48.51886234, -24.95133628], [-48.51911015, -24.95170172], [-48.51917079, -24.95188668], [-48.51925537, -24.95276652], [-48.51935069, -24.953141], [-48.51959605, -24.95364631], [-48.52010745, -24.9543095], [-48.52016964, -24.95441327], [-48.52014181, -24.95451704], [-48.52007472, -24.95465693], [-48.52003637, -24.95469299], [-48.52009484, -24.95473814], [-48.52155973, -24.95470638], [-48.52324189, -24.95470613], [-48.52410518, -24.95485037], [-48.5244142, -24.95485035], [-48.52489676, -24.9547239], [-48.52567291, -24.95438269], [-48.52639814, -24.95464249], [-48.52795316, -24.95548257], [-48.52894952, -24.95619472], [-48.52886288, -24.95702435], [-48.52912793, -24.95779586], [-48.53010679, -24.95793999], [-48.53054982, -24.9579376], [-48.53188936, -24.95799388], [-48.53298088, -24.95819283], [-48.53462017, -24.95874537], [-48.53506981, -24.95872543], [-48.53752836, -24.95851046], [-48.53881054, -24.95750876], [-48.53946182, -24.95649671], [-48.53975362, -24.95592626], [-48.53980412, -24.95560974], [-48.539907, -24.95521306], [-48.53997259, -24.95478112], [-48.54011517, -24.9542985], [-48.54017697, -24.95405703], [-48.54022047, -24.95378061], [-48.54030057, -24.95357409], [-48.54032507, -24.95328744], [-48.54066318, -24.95227932], [-48.54114719, -24.95208116], [-48.54139718, -24.9519294], [-48.54174318, -24.95172726], [-48.5421085, -24.95150813], [-48.54243378, -24.95139225], [-48.54273972, -24.95129337], [-48.54302805, -24.95112492], [-48.54325905, -24.95097285], [-48.54368135, -24.95075464], [-48.54402596, -24.95062176], [-48.54435354, -24.95031415], [-48.54436369, -24.94975374], [-48.54422608, -24.94885907], [-48.54419493, -24.94807948], [-48.54406948, -24.947355], [-48.54384971, -24.94668562], [-48.54358631, -24.94614035], [-48.54386419, -24.94620476], [-48.54394121, -24.94621402], [-48.54401907, -24.94621382], [-48.54422825, -24.94620012], [-48.54430109, -24.94619126], [-48.54433888, -24.94618301], [-48.54441787, -24.94615829], [-48.54490204, -24.94596959], [-48.54496432, -24.9459369], [-48.54532477, -24.94572192], [-48.54536651, -24.94569421], [-48.54569995, -24.94545038], [-48.54591365, -24.94529065], [-48.54596849, -24.94524068], [-48.54601599, -24.94518438], [-48.54614031, -24.94498443], [-48.54616149, -24.94494692], [-48.54619133, -24.94488146], [-48.54621475, -24.94479637], [-48.54627189, -24.94448292], [-48.54629671, -24.94442566], [-48.54655389, -24.944576], [-48.54662366, -24.94460732], [-48.54697175, -24.94472041], [-48.54700955, -24.94472843], [-48.54708657, -24.94473768], [-48.54716442, -24.94473778], [-48.54721871, -24.94473217], [-48.54758405, -24.94467874], [-48.54765902, -24.94466045], [-48.54769561, -24.94464775], [-48.54773093, -24.94463325], [-48.547785, -24.94460574], [-48.54819351, -24.94437084], [-48.54826848, -24.94432002], [-48.54868189, -24.94395239], [-48.54873785, -24.94389505], [-48.54878086, -24.94383631], [-48.54889676, -24.9436513], [-48.5489266, -24.94358584], [-48.54893765, -24.94355201], [-48.54897476, -24.94338167], [-48.54898383, -24.94331646], [-48.54898469, -24.94325673], [-48.54897058, -24.9429702], [-48.54896029, -24.94289994], [-48.54894024, -24.94283158], [-48.54891039, -24.94276603], [-48.54886287, -24.94269219], [-48.5488513, -24.94263758], [-48.54908646, -24.9422617], [-48.5491163, -24.94219624], [-48.54912736, -24.94216211], [-48.54914268, -24.94209256], [-48.54914775, -24.9420332], [-48.54915416, -24.94174228], [-48.54914907, -24.94167151], [-48.5491339, -24.94160205], [-48.54912257, -24.94156815], [-48.54904277, -24.94137193], [-48.54925071, -24.941142], [-48.54947993, -24.94095117], [-48.54952651, -24.94090816], [-48.54983665, -24.94057906], [-48.54988017, -24.94052683], [-48.54991901, -24.94046566], [-48.54994885, -24.94040019], [-48.55016924, -24.93978687], [-48.55029051, -24.93962531], [-48.55098407, -24.93901592], [-48.55101053, -24.93899003], [-48.55105803, -24.93893373], [-48.55118087, -24.93874173], [-48.55123491, -24.93868317], [-48.55133265, -24.93862859], [-48.5514941, -24.93863272], [-48.55157172, -24.93862808], [-48.55195229, -24.93855862], [-48.552024, -24.93854087], [-48.55206058, -24.93852817], [-48.55212996, -24.93849707], [-48.55216507, -24.93847694], [-48.55245897, -24.93829515], [-48.55251763, -24.9382485], [-48.55256864, -24.93819521], [-48.55261198, -24.93813618], [-48.55264632, -24.93807256], [-48.55271708, -24.9378732], [-48.55273278, -24.93781756], [-48.55274292, -24.93774734], [-48.55279367, -24.93701794], [-48.55288325, -24.936818], [-48.55294643, -24.93678888], [-48.55395888, -24.93663633], [-48.55459725, -24.9364874], [-48.55474068, -24.93648473], [-48.55539759, -24.93656324], [-48.55545836, -24.93657399], [-48.55549722, -24.93657729], [-48.55557474, -24.93657738], [-48.5556518, -24.936568], [-48.55570915, -24.93655504], [-48.55601802, -24.93646902], [-48.55607189, -24.93645156], [-48.55613832, -24.93642189], [-48.55654867, -24.9362071], [-48.5566105, -24.93616405], [-48.55692965, -24.93590221], [-48.5569792, -24.93585659], [-48.55700375, -24.93582919], [-48.55750956, -24.9351321], [-48.55767095, -24.93497474], [-48.5581217, -24.93461894], [-48.55817303, -24.93456566], [-48.55821603, -24.93450662], [-48.55833415, -24.93430685], [-48.55835943, -24.93425817], [-48.55838202, -24.9341982], [-48.55846148, -24.93393539], [-48.55847201, -24.93386221], [-48.5585063, -24.93334017], [-48.55859353, -24.93294676], [-48.55860978, -24.93292839], [-48.55869455, -24.93287359], [-48.55911376, -24.93280031], [-48.55916988, -24.93278378], [-48.55944518, -24.93268891], [-48.55949781, -24.93266819], [-48.5595322, -24.9326513], [-48.55959687, -24.93261213], [-48.55965521, -24.93256518], [-48.55969161, -24.9325288], [-48.55985239, -24.9323528], [-48.55988961, -24.93230727], [-48.55992845, -24.9322458], [-48.55995828, -24.93218033], [-48.56003002, -24.9319798], [-48.56004778, -24.93191798], [-48.56005399, -24.93188289], [-48.56005906, -24.93180637], [-48.56005375, -24.9313514], [-48.56010608, -24.93053922], [-48.56027213, -24.92991433], [-48.5602814, -24.92985533], [-48.56030234, -24.92963208], [-48.56030219, -24.92955755], [-48.56025969, -24.9290307], [-48.56032403, -24.92882738], [-48.56109424, -24.92792727], [-48.56113724, -24.92786824], [-48.56117461, -24.92779846], [-48.56140556, -24.92727046], [-48.56142784, -24.9272096], [-48.56143663, -24.92717514], [-48.56148193, -24.92685114], [-48.56148628, -24.92677816], [-48.56148041, -24.92643409], [-48.56141423, -24.92590715], [-48.56138182, -24.92524707], [-48.56141902, -24.92470792], [-48.56146254, -24.92449095], [-48.56160605, -24.92403813], [-48.56179834, -24.92374344], [-48.56185355, -24.92369022], [-48.56208495, -24.92356772], [-48.56253815, -24.92341394], [-48.56320141, -24.92313376], [-48.56328168, -24.92309278], [-48.56334317, -24.92304972], [-48.56337154, -24.92302534], [-48.56404123, -24.92240159], [-48.56409488, -24.92247729], [-48.56430583, -24.92294893], [-48.56434484, -24.92301049], [-48.56439206, -24.92306657], [-48.56459163, -24.92325942], [-48.56462002, -24.92328354], [-48.56468145, -24.92332654], [-48.56471448, -24.92334542], [-48.56478425, -24.92337673], [-48.56499276, -24.92344461], [-48.56506709, -24.92345825], [-48.56546959, -24.92350771], [-48.56554896, -24.92351256], [-48.56562656, -24.92350791], [-48.56569947, -24.9234949], [-48.5667077, -24.92325376], [-48.56686907, -24.92326143], [-48.56728292, -24.92332763], [-48.56734667, -24.92333459], [-48.56760246, -24.92334024], [-48.5676414, -24.9233391], [-48.56768007, -24.92333559], [-48.56775624, -24.92332175], [-48.56782966, -24.92329899], [-48.56789936, -24.9232676], [-48.56793248, -24.92324891], [-48.56810693, -24.92313553], [-48.56815364, -24.92310198], [-48.56820847, -24.92305171], [-48.56825563, -24.9229954], [-48.56829478, -24.92293422], [-48.56840147, -24.92272006], [-48.56842321, -24.92267013], [-48.56862817, -24.92194383], [-48.5686414, -24.92188076], [-48.56868361, -24.92154783], [-48.56867981, -24.92103078], [-48.56872042, -24.92082009], [-48.57008504, -24.92046924], [-48.57024369, -24.92050075], [-48.57038753, -24.92058191], [-48.57051291, -24.92084807], [-48.57096329, -24.92166456], [-48.57102901, -24.92198489], [-48.56957181, -24.9228331], [-48.56918374, -24.92323648], [-48.56906896, -24.92380189], [-48.56881598, -24.92436505], [-48.56825329, -24.92486012], [-48.56772514, -24.92535576], [-48.56709644, -24.92569217], [-48.56643379, -24.9259965], [-48.56628754, -24.92640382], [-48.5662764, -24.92697093], [-48.56636792, -24.92805556], [-48.56634418, -24.92819995], [-48.56593797, -24.9291702], [-48.56574234, -24.92945454], [-48.5656429, -24.92974335], [-48.56562171, -24.93005469], [-48.56566541, -24.93025771], [-48.56576509, -24.93046072], [-48.56581275, -24.93051484], [-48.56556538, -24.93060969], [-48.56537339, -24.93074964], [-48.56509456, -24.93164765], [-48.56471605, -24.93237423], [-48.56465459, -24.93256828], [-48.56467974, -24.93275777], [-48.56477847, -24.93291565], [-48.56497371, -24.93310959], [-48.56557951, -24.93361921], [-48.56577726, -24.93387632], [-48.56583088, -24.93412897], [-48.56583607, -24.93462078], [-48.56569649, -24.93506752], [-48.56506542, -24.93605139], [-48.56406884, -24.93718881], [-48.56243566, -24.93814599], [-48.56218218, -24.93844388], [-48.56202956, -24.93880038], [-48.56189542, -24.9396893], [-48.5620215, -24.94012691], [-48.5627077, -24.9405598], [-48.56336023, -24.94106941], [-48.56417716, -24.94129018], [-48.56482705, -24.94142528], [-48.5664071, -24.94183073], [-48.56669542, -24.94195244], [-48.56688229, -24.94207418], [-48.56728817, -24.94287715], [-48.56752866, -24.94322899], [-48.56797025, -24.94368452], [-48.56805908, -24.94380179], [-48.56805606, -24.94395069], [-48.56789008, -24.9447945], [-48.56790136, -24.94508326], [-48.56799037, -24.94558405], [-48.56798615, -24.9457916], [-48.56783437, -24.94597215], [-48.56640352, -24.94719096], [-48.56563852, -24.94762442], [-48.56367357, -24.94842832], [-48.56302726, -24.94872636], [-48.56242217, -24.94921389], [-48.56227315, -24.94936284], [-48.56213685, -24.94959751], [-48.56209963, -24.95003519], [-48.56215052, -24.95040966], [-48.5622326, -24.9506623], [-48.5625143, -24.95114497], [-48.56279992, -24.95141558], [-48.56310098, -24.9516185], [-48.5637664, -24.95181226], [-48.56469006, -24.95191567], [-48.56468432, -24.95219993], [-48.56458973, -24.95298053], [-48.5645584, -24.95411755], [-48.56444627, -24.95443794], [-48.56435696, -24.9545959], [-48.56417268, -24.9547584], [-48.56361079, -24.95508799], [-48.56330931, -24.95531821], [-48.56304222, -24.9556522], [-48.56281929, -24.95586886], [-48.56235634, -24.95609463], [-48.56173273, -24.95674007], [-48.56083614, -24.95707429], [-48.56045546, -24.95729552], [-48.56020646, -24.95731817], [-48.55975537, -24.95710176], [-48.55942211, -24.95683117], [-48.55890854, -24.9566238], [-48.55855001, -24.9565743], [-48.55824751, -24.95660599], [-48.55776297, -24.95702126], [-48.55767792, -24.9570619], [-48.55751461, -24.95708], [-48.55737881, -24.95706651], [-48.55688987, -24.95731033], [-48.55651261, -24.95761276], [-48.55606769, -24.95809569], [-48.55555571, -24.95875009], [-48.55525394, -24.95908407], [-48.55472515, -24.95950386], [-48.55424084, -24.95975669], [-48.55343991, -24.96035252], [-48.55283723, -24.96089415], [-48.55239476, -24.96138609], [-48.55213016, -24.96188699], [-48.55203413, -24.96235175], [-48.55202715, -24.96350229], [-48.55205111, -24.9638858], [-48.55213541, -24.96429184], [-48.54890148, -24.96668413], [-48.54892193, -24.96680594], [-48.54892366, -24.9672797], [-48.54883929, -24.96753239], [-48.54875952, -24.96765424], [-48.54790383, -24.96841249], [-48.54774952, -24.96860655], [-48.54770255, -24.96873289], [-48.54766388, -24.96874193], [-48.54761821, -24.96909386], [-48.54776291, -24.96973902], [-48.54771105, -24.97005486], [-48.54754471, -24.97029405], [-48.54729698, -24.9705152], [-48.5471696, -24.97068668], [-48.54702, -24.9710928], [-48.54685273, -24.97138611], [-48.54672594, -24.97149895], [-48.5463881, -24.97164348], [-48.54603961, -24.97189168], [-48.54589831, -24.97212633], [-48.54581084, -24.97235646], [-48.54583197, -24.97264071], [-48.54603039, -24.97299258], [-48.54606166, -24.97307378], [-48.54606355, -24.97316402], [-48.54602864, -24.97329938], [-48.54535104, -24.9739583], [-48.5452639, -24.9742561], [-48.54515431, -24.97494194], [-48.54521618, -24.97587588], [-48.54518733, -24.97657974], [-48.54507983, -24.97705802], [-48.54480928, -24.97751831], [-48.54468687, -24.97784319], [-48.54461675, -24.97813649], [-48.54461441, -24.97855157], [-48.54469648, -24.97880422], [-48.54480265, -24.97898466], [-48.54506755, -24.9792192], [-48.54563612, -24.97994545], [-48.54572684, -24.98017553], [-48.54573775, -24.98041466], [-48.54569974, -24.98054551], [-48.54543538, -24.98104189], [-48.54537816, -24.9810825], [-48.54529963, -24.98124494], [-48.5452323, -24.98158336], [-48.54522774, -24.98181797], [-48.54532376, -24.98216987], [-48.54562746, -24.98272475], [-48.54561247, -24.9832391], [-48.54586851, -24.98376239], [-48.54587663, -24.98400152], [-48.54584761, -24.98415944], [-48.54572916, -24.98433995], [-48.54540591, -24.984516], [-48.54511238, -24.98472813], [-48.54505702, -24.9847868], [-48.54484794, -24.9849944], [-48.54428933, -24.98544123], [-48.54386253, -24.98594215], [-48.54357436, -24.98653779], [-48.54351046, -24.98696192], [-48.5435923, -24.98747173], [-48.54384754, -24.98839207], [-48.54384236, -24.98866278], [-48.54381889, -24.98879363], [-48.54390462, -24.98885677], [-48.54409374, -24.98910487], [-48.54438156, -24.98937099], [-48.54511004, -24.98984001], [-48.54550368, -24.99005647], [-48.54594131, -24.99046692], [-48.54621713, -24.99088193], [-48.54686643, -24.99230296], [-48.54707168, -24.99264129], [-48.54718464, -24.99273148], [-48.54709161, -24.99303379], [-48.54648746, -24.99333625], [-48.54595663, -24.9936793], [-48.54604431, -24.99750733], [-48.54992651, -24.99846021], [-48.55153673, -24.99839697], [-48.55161999, -24.99845109], [-48.55178313, -24.9986676], [-48.55187604, -24.99887962], [-48.55192531, -24.99909166], [-48.5519288, -24.99930371], [-48.55176882, -25.0001294], [-48.55183763, -25.00039107], [-48.55191998, -25.0004903], [-48.55204564, -25.00060306], [-48.55211562, -25.00071132], [-48.55215462, -25.00075192], [-48.55207413, -25.00076102], [-48.55194709, -25.0009911], [-48.5518167, -25.00151], [-48.55181674, -25.00160925], [-48.55194813, -25.00212353], [-48.551856, -25.00233112], [-48.55133166, -25.00270125], [-48.55095562, -25.00275111], [-48.55069365, -25.0029152], [-48.55061809, -25.00299815], [-48.55059628, -25.0031662], [-48.5505827, -25.00343818], [-48.55075486, -25.00355614], [-48.55090164, -25.00360908], [-48.55110652, -25.00352825]]], [[[-48.22690534, -24.7841476], [-48.22877021, -24.78400312], [-48.23073726, -24.78392222], [-48.23257885, -24.78365949], [-48.23436021, -24.78358522], [-48.23625309, -24.78356344], [-48.2381585, -24.78382839], [-48.23975062, -24.78456837], [-48.24151394, -24.78469339], [-48.24358165, -24.78464776], [-48.24506965, -24.78403578], [-48.24615555, -24.78376654], [-48.24724305, -24.78356374], [-48.24888461, -24.78323512], [-48.25055896, -24.78253509], [-48.25192683, -24.78149605], [-48.25401271, -24.78179886], [-48.25575122, -24.78189655], [-48.25759918, -24.78182232], [-48.25953582, -24.7821345], [-48.26123148, -24.78136173], [-48.26224608, -24.78050626], [-48.26289189, -24.77959089], [-48.26339634, -24.778662], [-48.26398191, -24.77779714], [-48.26427045, -24.77734658], [-48.26454403, -24.77636979], [-48.26489364, -24.77566234], [-48.26456572, -24.77483095], [-48.26329278, -24.77447981], [-48.26316613, -24.77416578], [-48.26274452, -24.77355495], [-48.26275062, -24.77254259], [-48.26244761, -24.77134255], [-48.26236855, -24.77034207], [-48.26220179, -24.76928431], [-48.2622918, -24.76732617], [-48.2626434, -24.76553155], [-48.26286789, -24.76444891], [-48.26302822, -24.76347465], [-48.26311065, -24.76248751], [-48.26362929, -24.76149814], [-48.26246772, -24.76099625], [-48.26083997, -24.76111566], [-48.26031864, -24.7609749], [-48.25958334, -24.75920001], [-48.2593049, -24.75849045], [-48.25896372, -24.75840091], [-48.25823009, -24.75831537], [-48.25716639, -24.75855528], [-48.25492972, -24.76030972], [-48.2524475, -24.75992472], [-48.25021611, -24.75937778], [-48.24984639, -24.75962056], [-48.24741333, -24.75952194], [-48.24639306, -24.76059778], [-48.24502194, -24.76096722], [-48.24343806, -24.76088194], [-48.24234111, -24.76061083], [-48.24099194, -24.75989917], [-48.23956667, -24.75916333], [-48.23798056, -24.75885111], [-48.23670167, -24.75814167], [-48.2354275, -24.75742778], [-48.2351955, -24.75750712], [-48.23424067, -24.7577003], [-48.23399182, -24.75796779], [-48.2338953, -24.7582205], [-48.23363019, -24.75872197], [-48.23072731, -24.76763106], [-48.23037427, -24.76869916], [-48.23010243, -24.76949767], [-48.22996117, -24.76993021], [-48.22946142, -24.77148869], [-48.22916978, -24.7723325], [-48.22888908, -24.77316441], [-48.22889485, -24.77331829], [-48.22881022, -24.77355082], [-48.22859232, -24.77420674], [-48.22818167, -24.77530797], [-48.22802016, -24.77578842], [-48.22756229, -24.77718126], [-48.22569344, -24.78282769], [-48.22550513, -24.78332532], [-48.22514474, -24.78448414], [-48.22494939, -24.7849691], [-48.22690534, -24.7841476]]]]}}]}