{"type": "FeatureCollection", "features": [{"type": "Feature", "properties": {"name": "Reserva Particular do Patrimônio Natural Reserva do Pinhal - Gleba 10"}, "geometry": {"type": "MultiPolygon", "coordinates": [[[[-46.40837889, -23.02154611], [-46.40874167, -23.02092083], [-46.408695, -23.02083583], [-46.40851556, -23.02048139], [-46.40846944, -23.02040806], [-46.40836222, -23.02031806], [-46.40819472, -23.02029722], [-46.40752778, -23.02031444], [-46.40746639, -23.02030694], [-46.40724722, -23.02005194], [-46.407165, -23.01998778], [-46.40689333, -23.019875], [-46.40658139, -23.01971111], [-46.40655361, -23.01974833], [-46.40837889, -23.02154611]]]]}}]}