{"type": "FeatureCollection", "features": [{"type": "Feature", "properties": {"name": "Reserva Particular do Patrimônio Natural Serra dos Itatins"}, "geometry": {"type": "MultiPolygon", "coordinates": [[[[-47.44605295, -24.43074751], [-47.4460561, -24.43074969], [-47.44591075, -24.42656297], [-47.44586266, -24.42655584], [-47.44433273, -24.4267295], [-47.44241241, -24.42652222], [-47.4414183, -24.42643239], [-47.44092378, -24.42626676], [-47.43873315, -24.43086796], [-47.44605295, -24.43074751]]], [[[-47.44536287, -24.42604906], [-47.44596219, -24.42598009], [-47.44761499, -24.41804242], [-47.4475964, -24.41803883], [-47.44749598, -24.41801939], [-47.44675413, -24.41787582], [-47.44642951, -24.41842265], [-47.44574366, -24.41864135], [-47.44502842, -24.41886955], [-47.44476257, -24.41939737], [-47.44361475, -24.41968671], [-47.44223144, -24.420034], [-47.44165064, -24.41956498], [-47.44126247, -24.41937266], [-47.44104961, -24.4190692], [-47.44106215, -24.41818441], [-47.44074263, -24.41797293], [-47.43997641, -24.41862616], [-47.43979819, -24.41909841], [-47.43937221, -24.41950244], [-47.43865591, -24.41967647], [-47.43840284, -24.42035753], [-47.43743481, -24.42077029], [-47.43740802, -24.42091514], [-47.43998109, -24.42091879], [-47.4421915, -24.42359104], [-47.44306746, -24.4255627], [-47.44187385, -24.42592805], [-47.44253726, -24.42596234], [-47.44434955, -24.42616567], [-47.44536287, -24.42604906]]]]}}]}