{"type": "FeatureCollection", "features": [{"type": "Feature", "properties": {"name": "Reserva Particular do Patrimônio Natural Duas Cachoeiras"}, "geometry": {"type": "MultiPolygon", "coordinates": [[[[-46.80763304, -22.75876973], [-46.80787047, -22.75883167], [-46.80829591, -22.75877274], [-46.80835274, -22.75878111], [-46.80845167, -22.75878601], [-46.80872735, -22.75879941], [-46.80877238, -22.75877335], [-46.80880419, -22.7587279], [-46.80885233, -22.75869129], [-46.80887436, -22.75864144], [-46.80889981, -22.75860508], [-46.80892692, -22.7585717], [-46.80894295, -22.758558], [-46.80897286, -22.75849152], [-46.80900802, -22.75845355], [-46.80902703, -22.75842027], [-46.80905264, -22.75839593], [-46.80909115, -22.75836694], [-46.80914247, -22.75832578], [-46.80915001, -22.75828361], [-46.80915276, -22.758246], [-46.80918888, -22.75815842], [-46.80917811, -22.75807888], [-46.80918546, -22.75802168], [-46.80928177, -22.75795145], [-46.80937691, -22.75791581], [-46.80944821, -22.757915], [-46.80951595, -22.75789018], [-46.80958477, -22.75782477], [-46.80964071, -22.75776552], [-46.80966448, -22.75772467], [-46.80967679, -22.75767493], [-46.80973933, -22.75762463], [-46.80976225, -22.75751916], [-46.80979015, -22.75742265], [-46.80981678, -22.75735321], [-46.80981394, -22.75726005], [-46.80983407, -22.75718919], [-46.80983354, -22.75714861], [-46.80984073, -22.75707939], [-46.80985764, -22.75701006], [-46.80986534, -22.75697991], [-46.80985365, -22.75695299], [-46.80981108, -22.75692041], [-46.80982183, -22.7568752], [-46.80986743, -22.75676947], [-46.80988964, -22.75673315], [-46.80994718, -22.75667238], [-46.8099886, -22.7566178], [-46.81004452, -22.75655704], [-46.81009396, -22.75649636], [-46.81017902, -22.75643378], [-46.81020218, -22.75634634], [-46.81028802, -22.75634236], [-46.8102959, -22.75632574], [-46.81042954, -22.75625959], [-46.81046503, -22.75624717], [-46.81050184, -22.75621218], [-46.81053723, -22.75619224], [-46.81057732, -22.75616022], [-46.81060325, -22.75615993], [-46.81069484, -22.75634677], [-46.81067481, -22.75642515], [-46.8106642, -22.75648088], [-46.81064748, -22.75656524], [-46.81066746, -22.75660559], [-46.81078439, -22.7566238], [-46.81083908, -22.75659312], [-46.81089172, -22.7565294], [-46.81095414, -22.75647008], [-46.81096675, -22.75644288], [-46.81098933, -22.75643511], [-46.81101804, -22.75640021], [-46.81115726, -22.75621586], [-46.81113573, -22.75620774], [-46.81104589, -22.75618281], [-46.81095285, -22.75612679], [-46.81089278, -22.7560263], [-46.81095683, -22.75600482], [-46.81099838, -22.75597322], [-46.81102566, -22.75592102], [-46.81105284, -22.75586105], [-46.81106918, -22.75582714], [-46.81108012, -22.75580885], [-46.81109891, -22.75574897], [-46.81110921, -22.7556814], [-46.81094522, -22.75554836], [-46.81077127, -22.75550883], [-46.81061264, -22.75535757], [-46.81053668, -22.7553247], [-46.81044053, -22.75524537], [-46.81038906, -22.75516034], [-46.81034339, -22.75509082], [-46.8103345, -22.75502966], [-46.81027526, -22.75506262], [-46.81025174, -22.75516435], [-46.81021397, -22.75531697], [-46.81018123, -22.75547415], [-46.81005469, -22.75568313], [-46.80992276, -22.75585988], [-46.80971515, -22.75595447], [-46.80961631, -22.75600171], [-46.8095079, -22.75607674], [-46.8093853, -22.75620726], [-46.80930284, -22.756365], [-46.80910742, -22.7566301], [-46.80899464, -22.75675129], [-46.80881893, -22.75700233], [-46.80868608, -22.75710991], [-46.80842219, -22.75708523], [-46.80813799, -22.75702849], [-46.80791849, -22.75697563], [-46.80768971, -22.75697361], [-46.80754497, -22.75693374], [-46.80734039, -22.75688071], [-46.8073051, -22.75684422], [-46.80721021, -22.75681301], [-46.8070514, -22.75683787], [-46.80682754, -22.75683118], [-46.80661302, -22.75825307], [-46.80677195, -22.7583541], [-46.80685097, -22.75822851], [-46.80699622, -22.75817342], [-46.80710713, -22.75813654], [-46.80714924, -22.75812538], [-46.8072559, -22.75805648], [-46.80733946, -22.75798428], [-46.80742274, -22.75789071], [-46.80755609, -22.75780726], [-46.80767759, -22.757699], [-46.80777609, -22.75759457], [-46.80786691, -22.75749022], [-46.80799188, -22.75735343], [-46.80802246, -22.75734239], [-46.80809399, -22.75723114], [-46.80820144, -22.7572228], [-46.80824136, -22.75721475], [-46.80830578, -22.75718396], [-46.80842377, -22.75716008], [-46.80861563, -22.7572075], [-46.80855656, -22.75727581], [-46.80845974, -22.75730696], [-46.80841727, -22.75728189], [-46.8083786, -22.75729886], [-46.80834191, -22.75734287], [-46.80832318, -22.75739719], [-46.80831476, -22.75749648], [-46.80828494, -22.75757046], [-46.80826706, -22.7576894], [-46.80821249, -22.75785235], [-46.8081503, -22.7579297], [-46.80808944, -22.7579845], [-46.80802666, -22.75801677], [-46.80802684, -22.7580303], [-46.80775614, -22.75827234], [-46.80756761, -22.75835414], [-46.80763304, -22.75876973]]]]}}]}