{"type": "FeatureCollection", "features": [{"type": "Feature", "properties": {"name": "Reserva Particular do Patrimônio Natural Paraíso"}, "geometry": {"type": "MultiPolygon", "coordinates": [[[[-46.74301039, -22.08198757], [-46.74493018, -22.08268667], [-46.74501699, -22.08249607], [-46.74506927, -22.08234436], [-46.74371108, -22.08170225], [-46.74342457, -22.08155974], [-46.74319927, -22.08144335], [-46.74313526, -22.08131915], [-46.74308581, -22.08132394], [-46.74305056, -22.08133278], [-46.74301677, -22.08134566], [-46.74298842, -22.08136059], [-46.74272484, -22.08123597], [-46.74280013, -22.08108078], [-46.74282731, -22.08100514], [-46.74267289, -22.08098728], [-46.74292936, -22.08025966], [-46.74299076, -22.08020866], [-46.74301992, -22.08009267], [-46.74301262, -22.08002344], [-46.74308571, -22.07981607], [-46.74300857, -22.07978639], [-46.74263356, -22.07966556], [-46.74253227, -22.07968554], [-46.74249808, -22.07970326], [-46.74249102, -22.07975007], [-46.74180967, -22.08007672], [-46.74171973, -22.08110519], [-46.74045075, -22.0805503], [-46.74042415, -22.08112182], [-46.74054731, -22.08119684], [-46.74055634, -22.08129492], [-46.74061233, -22.08134885], [-46.74069577, -22.0818871], [-46.74045039, -22.0827858], [-46.74076834, -22.08361893], [-46.74083895, -22.08350777], [-46.74207237, -22.08185321], [-46.74232636, -22.08193107], [-46.74301039, -22.08198757]]], [[[-46.74510156, -22.076808], [-46.745105, -22.07670353], [-46.74514088, -22.07651658], [-46.74515106, -22.07640131], [-46.74517784, -22.07632129], [-46.74518411, -22.07622654], [-46.74513673, -22.07609114], [-46.7450911, -22.07608418], [-46.74505264, -22.07613319], [-46.74505287, -22.07589621], [-46.74599095, -22.07485544], [-46.74600567, -22.07485447], [-46.74622164, -22.07460527], [-46.74657575, -22.07459889], [-46.7466985, -22.07465764], [-46.74682056, -22.07467202], [-46.7470662, -22.07471547], [-46.74709021, -22.0746793], [-46.74711548, -22.07462772], [-46.74712847, -22.07458893], [-46.7494716, -22.07454668], [-46.74839896, -22.07384128], [-46.7468399, -22.07404688], [-46.74680745, -22.0740353], [-46.74674835, -22.07402183], [-46.74668791, -22.07401536], [-46.74662708, -22.07401601], [-46.74656681, -22.07402376], [-46.74650806, -22.07403849], [-46.74645175, -22.07405997], [-46.74639878, -22.07408786], [-46.74636818, -22.07410908], [-46.74573697, -22.07419231], [-46.74528484, -22.07482143], [-46.74517633, -22.07485737], [-46.74514284, -22.07487248], [-46.74492259, -22.07498067], [-46.74485865, -22.07502239], [-46.74479431, -22.07509411], [-46.74474611, -22.07518333], [-46.74467736, -22.07563097], [-46.7445848, -22.07569374], [-46.74457072, -22.0757668], [-46.74458565, -22.07579431], [-46.74457746, -22.0758057], [-46.74460566, -22.0770643], [-46.74447765, -22.07713546], [-46.74442654, -22.07721371], [-46.74304425, -22.07830722], [-46.74287215, -22.07890484], [-46.74273284, -22.07906482], [-46.74273622, -22.07907573], [-46.74279208, -22.07918288], [-46.74326186, -22.07931634], [-46.74349711, -22.07864888], [-46.74576057, -22.07715514], [-46.74511719, -22.07689081], [-46.74510156, -22.076808]]], [[[-46.75180325, -22.07142604], [-46.75185623, -22.07139815], [-46.75190237, -22.07136614], [-46.75188827, -22.07128355], [-46.75193477, -22.07124684], [-46.75171252, -22.07084418], [-46.75172326, -22.07080415], [-46.75170769, -22.07060471], [-46.75168363, -22.07051293], [-46.75166826, -22.07040915], [-46.75165067, -22.07031574], [-46.75132327, -22.07013893], [-46.75130543, -22.07010659], [-46.75124628, -22.07009735], [-46.75088391, -22.06990164], [-46.75078472, -22.06973905], [-46.75117438, -22.06945803], [-46.75240241, -22.06925371], [-46.75214297, -22.06904751], [-46.75214376, -22.06903316], [-46.75180246, -22.06874955], [-46.75166326, -22.06871553], [-46.75152916, -22.06879138], [-46.75119617, -22.0689512], [-46.75055542, -22.06916426], [-46.75019323, -22.06889535], [-46.74995297, -22.06881883], [-46.74923698, -22.06892086], [-46.74899361, -22.06915455], [-46.74857741, -22.06925814], [-46.74859274, -22.069383], [-46.74863313, -22.06954028], [-46.74867764, -22.06964888], [-46.74870509, -22.06962782], [-46.74881442, -22.06963428], [-46.74910441, -22.06966972], [-46.74914146, -22.06961795], [-46.74974945, -22.06947773], [-46.74989583, -22.06947534], [-46.75003975, -22.06953843], [-46.75019165, -22.06970489], [-46.75022056, -22.0697492], [-46.75023953, -22.06975736], [-46.75045896, -22.06999781], [-46.75044275, -22.0700954], [-46.75045866, -22.07011706], [-46.75062283, -22.07027918], [-46.75084048, -22.0704327], [-46.75087072, -22.07044903], [-46.75117842, -22.07078621], [-46.7511648, -22.07080673], [-46.75114709, -22.07084288], [-46.75141578, -22.07138294], [-46.75151753, -22.07146536], [-46.7515671, -22.07147065], [-46.75162794, -22.07147], [-46.7516882, -22.07146225], [-46.75174695, -22.07144752], [-46.75180325, -22.07142604]]], [[[-46.74183062, -22.07054739], [-46.74180161, -22.07036171], [-46.74169865, -22.07008223], [-46.74157876, -22.07002616], [-46.74148854, -22.06956832], [-46.7414678, -22.06913125], [-46.7412815, -22.06848876], [-46.74101266, -22.06788945], [-46.74111382, -22.06735788], [-46.74117552, -22.0669409], [-46.74115376, -22.06651068], [-46.74114688, -22.06618195], [-46.74111321, -22.0660298], [-46.74098359, -22.06592599], [-46.74091484, -22.06580725], [-46.74084595, -22.06561084], [-46.74088779, -22.06525912], [-46.74088785, -22.06516354], [-46.74090108, -22.06507164], [-46.74091551, -22.06503102], [-46.74064219, -22.06505112], [-46.74032497, -22.06486766], [-46.74030565, -22.0649301], [-46.74025789, -22.06521736], [-46.73981758, -22.06657572], [-46.73959482, -22.06718203], [-46.73993162, -22.06874584], [-46.74003274, -22.06889113], [-46.74012691, -22.06899168], [-46.74020113, -22.06898452], [-46.74037094, -22.06931491], [-46.74044206, -22.06936494], [-46.74046883, -22.06945725], [-46.74041637, -22.06962437], [-46.74038427, -22.06966296], [-46.74030052, -22.06985027], [-46.74040726, -22.07011737], [-46.74044993, -22.07013596], [-46.7405963, -22.07015926], [-46.74062088, -22.07023235], [-46.74058738, -22.07028229], [-46.7405621, -22.07033388], [-46.74054396, -22.070388], [-46.74058366, -22.07048683], [-46.74071138, -22.07065752], [-46.74082199, -22.07081358], [-46.74094455, -22.0708983], [-46.74098963, -22.07094625], [-46.74105047, -22.0709456], [-46.74108245, -22.07094149], [-46.74169021, -22.07122073], [-46.74174844, -22.07113262], [-46.74180343, -22.07101733], [-46.74186658, -22.07086662], [-46.74182983, -22.07074454], [-46.74183062, -22.07054739]]], [[[-46.74860732, -22.0695678], [-46.74855876, -22.06937189], [-46.74854892, -22.06926523], [-46.74851667, -22.06927325], [-46.74850674, -22.06925151], [-46.74814392, -22.06894878], [-46.74755127, -22.06821381], [-46.74761078, -22.0681588], [-46.74761885, -22.0681102], [-46.74751231, -22.06810473], [-46.74745787, -22.06798148], [-46.74740306, -22.0677942], [-46.74756198, -22.06707944], [-46.7475843, -22.06705043], [-46.74764802, -22.06692501], [-46.74768544, -22.0667636], [-46.7477258, -22.0664611], [-46.74778258, -22.06618973], [-46.74786858, -22.06570049], [-46.74791583, -22.06548795], [-46.74869295, -22.0653076], [-46.74702359, -22.06417439], [-46.74682794, -22.06436772], [-46.74676568, -22.06451654], [-46.74671503, -22.06456726], [-46.74665679, -22.06461286], [-46.74685683, -22.06526031], [-46.74748708, -22.06564547], [-46.74739971, -22.06583346], [-46.74735239, -22.06589456], [-46.74724058, -22.06608495], [-46.747218, -22.06622439], [-46.74668787, -22.06736494], [-46.74517368, -22.06764874], [-46.74520808, -22.06794468], [-46.74677424, -22.06771768], [-46.74706958, -22.069835], [-46.7472649, -22.06993652], [-46.7473942, -22.07002773], [-46.74761875, -22.07004624], [-46.74785586, -22.07004371], [-46.74812159, -22.07002295], [-46.74819105, -22.0700222], [-46.74864961, -22.06967038], [-46.74860732, -22.0695678]]], [[[-46.7567234, -22.06541272], [-46.75547195, -22.06537836], [-46.754572, -22.06492684], [-46.7544329, -22.06510621], [-46.75425595, -22.06535041], [-46.75420102, -22.06543428], [-46.75418858, -22.0669119], [-46.75451173, -22.06733855], [-46.754977, -22.06681741], [-46.75512018, -22.06595563], [-46.75616563, -22.06591574], [-46.75681455, -22.06697929], [-46.75703684, -22.06754085], [-46.75801053, -22.06750171], [-46.7578739, -22.06640397], [-46.7567728, -22.06609082], [-46.7567234, -22.06541272]]], [[[-46.75415112, -22.06542015], [-46.75424874, -22.06526446], [-46.75438179, -22.06507808], [-46.75452055, -22.06490103], [-46.75381178, -22.06454542], [-46.75373578, -22.06441378], [-46.75365851, -22.06441262], [-46.7535562, -22.06437566], [-46.75349859, -22.06429227], [-46.75340809, -22.0639878], [-46.75292839, -22.06420341], [-46.75314082, -22.06452678], [-46.75316995, -22.06457719], [-46.75324779, -22.0646161], [-46.75333861, -22.06468458], [-46.75338315, -22.06471332], [-46.75345722, -22.06477825], [-46.75350982, -22.06484391], [-46.75357864, -22.06492205], [-46.75356368, -22.06500478], [-46.75350587, -22.06510121], [-46.753512, -22.06517375], [-46.75366462, -22.06539792], [-46.75370475, -22.0654292], [-46.75384219, -22.06542577], [-46.75400287, -22.0654073], [-46.75413518, -22.06540002], [-46.75415112, -22.06542015]]], [[[-46.74123963, -22.06356724], [-46.74106291, -22.06317847], [-46.74102282, -22.06304448], [-46.74102261, -22.06288816], [-46.74104088, -22.06268496], [-46.74097285, -22.06248844], [-46.74099369, -22.06204415], [-46.741092, -22.06137203], [-46.74108992, -22.06120179], [-46.74107841, -22.06115406], [-46.74103081, -22.06116133], [-46.74096515, -22.06115821], [-46.74091575, -22.06114344], [-46.74082124, -22.06112915], [-46.74065102, -22.06112905], [-46.74057312, -22.06113179], [-46.74048679, -22.06111551], [-46.74041195, -22.06106986], [-46.74036131, -22.06179915], [-46.74031754, -22.06199317], [-46.74030401, -22.06214386], [-46.74031354, -22.0622943], [-46.74035371, -22.06274909], [-46.74014739, -22.06310136], [-46.74021224, -22.06337308], [-46.74040634, -22.06351921], [-46.74040455, -22.06386188], [-46.74049655, -22.06383458], [-46.74067695, -22.06380757], [-46.74090817, -22.06384812], [-46.7410895, -22.06389637], [-46.74117765, -22.06399871], [-46.74118073, -22.06397603], [-46.74122692, -22.0638232], [-46.74123551, -22.06357782], [-46.74123963, -22.06356724]]], [[[-46.76156021, -22.06327112], [-46.75552104, -22.06178697], [-46.75520504, -22.06178691], [-46.75462957, -22.06163513], [-46.7458424, -22.05940512], [-46.74522984, -22.05854104], [-46.74474126, -22.05625425], [-46.7445275, -22.05552471], [-46.74428604, -22.05511778], [-46.74392045, -22.05455626], [-46.74373142, -22.05409632], [-46.74348273, -22.05368768], [-46.74330184, -22.05338344], [-46.74293053, -22.05303136], [-46.74266163, -22.05258056], [-46.74274854, -22.05236382], [-46.74243588, -22.05211468], [-46.74236675, -22.05195386], [-46.74206762, -22.05177833], [-46.74177377, -22.05160115], [-46.74129357, -22.05120649], [-46.74094181, -22.05103249], [-46.7406802, -22.05080672], [-46.74043835, -22.0506608], [-46.74020367, -22.05068962], [-46.7400697, -22.05062109], [-46.73982591, -22.05059003], [-46.73959529, -22.05052928], [-46.73910815, -22.05043975], [-46.73884607, -22.0503755], [-46.73846912, -22.05022377], [-46.73819899, -22.05007287], [-46.73799448, -22.05007628], [-46.7376323, -22.04993334], [-46.73729513, -22.04983436], [-46.73730159, -22.04986495], [-46.73719811, -22.05008196], [-46.73695923, -22.05040171], [-46.73685419, -22.05066671], [-46.73668671, -22.05097007], [-46.73652379, -22.05111003], [-46.73610412, -22.0513015], [-46.73573004, -22.05143313], [-46.73540093, -22.05165902], [-46.73529956, -22.05200569], [-46.73516907, -22.0523123], [-46.73472655, -22.05290903], [-46.73443394, -22.05317037], [-46.73416256, -22.05359947], [-46.73391769, -22.05391158], [-46.73376619, -22.05406219], [-46.73343599, -22.0542966], [-46.73328844, -22.0544466], [-46.73297629, -22.05487456], [-46.73262992, -22.0552826], [-46.73229488, -22.05566396], [-46.73190008, -22.05593318], [-46.73172255, -22.05603173], [-46.73162868, -22.05615196], [-46.73150559, -22.05626222], [-46.73159671, -22.05624042], [-46.73169332, -22.05625823], [-46.73172377, -22.05621868], [-46.73178908, -22.05620751], [-46.73178081, -22.05614958], [-46.73182299, -22.05612877], [-46.73184377, -22.05615149], [-46.7318893, -22.05618542], [-46.73189077, -22.05613761], [-46.73190704, -22.05612597], [-46.73198255, -22.0560965], [-46.73203727, -22.05604239], [-46.7320615, -22.05601155], [-46.73212273, -22.05598796], [-46.73217749, -22.05593767], [-46.73217295, -22.0559014], [-46.73225068, -22.05588528], [-46.73227689, -22.05583781], [-46.7323298, -22.05576198], [-46.73231616, -22.05573671], [-46.73235151, -22.05575578], [-46.73239379, -22.05575413], [-46.73240853, -22.05570141], [-46.73240183, -22.05567014], [-46.73245201, -22.05569368], [-46.73249669, -22.05567887], [-46.73253444, -22.05562112], [-46.7325229, -22.05555705], [-46.73257512, -22.05552983], [-46.73270268, -22.05539665], [-46.73274609, -22.05543795], [-46.73277864, -22.05541658], [-46.73279461, -22.05538009], [-46.73283154, -22.05538161], [-46.73284722, -22.05532218], [-46.73288527, -22.05524722], [-46.73302659, -22.05512691], [-46.7330817, -22.05510625], [-46.73312209, -22.0551388], [-46.73317885, -22.05512673], [-46.73320905, -22.05508053], [-46.73317469, -22.05503788], [-46.73320648, -22.05499903], [-46.73345359, -22.05523079], [-46.7335375, -22.05519057], [-46.73368402, -22.05509725], [-46.73381047, -22.05504048], [-46.73387928, -22.05496519], [-46.73398573, -22.05477248], [-46.73384836, -22.05466102], [-46.73368087, -22.05445547], [-46.73405418, -22.05398197], [-46.73417045, -22.05398681], [-46.73422996, -22.05395834], [-46.73433337, -22.05383024], [-46.73434938, -22.05375551], [-46.73430288, -22.05366653], [-46.73433561, -22.05362501], [-46.73443193, -22.05359895], [-46.73449478, -22.05349793], [-46.73465282, -22.05342456], [-46.73460843, -22.05335812], [-46.73458305, -22.05331116], [-46.73460772, -22.05327987], [-46.7346978, -22.05330811], [-46.73475485, -22.05325732], [-46.73484935, -22.0531237], [-46.73496377, -22.05304722], [-46.73504634, -22.05288146], [-46.73524719, -22.05274551], [-46.7352801, -22.05271171], [-46.73533934, -22.05273498], [-46.73535912, -22.05267503], [-46.73531484, -22.05261815], [-46.73535792, -22.05257707], [-46.73541914, -22.05255252], [-46.73545963, -22.05250908], [-46.73541786, -22.05244739], [-46.73546341, -22.05239912], [-46.73541291, -22.05231309], [-46.73546683, -22.05224577], [-46.73593845, -22.05253778], [-46.73622672, -22.05234401], [-46.73611281, -22.0521913], [-46.73615115, -22.05216711], [-46.73619106, -22.05199771], [-46.73622319, -22.05199267], [-46.73623395, -22.0519505], [-46.73621786, -22.05189237], [-46.736228, -22.0518827], [-46.73628725, -22.05188566], [-46.73634433, -22.0519424], [-46.73645169, -22.05191737], [-46.73651174, -22.05179725], [-46.73661616, -22.05174118], [-46.73666873, -22.05163787], [-46.73671663, -22.05157284], [-46.73676012, -22.05156521], [-46.73680072, -22.05153133], [-46.73681796, -22.05147379], [-46.73686666, -22.05147328], [-46.73688547, -22.05154477], [-46.73694241, -22.05158956], [-46.73697037, -22.05157015], [-46.73703681, -22.05155272], [-46.73701954, -22.05160786], [-46.73709265, -22.05171701], [-46.73716153, -22.05168999], [-46.73720699, -22.05163455], [-46.7371933, -22.051563], [-46.73722895, -22.05154351], [-46.73733355, -22.05160106], [-46.7374222, -22.05162509], [-46.73742863, -22.05152227], [-46.7372846, -22.05148318], [-46.7372761, -22.05141636], [-46.73732474, -22.05141107], [-46.73739176, -22.05144142], [-46.73750587, -22.05133984], [-46.73761596, -22.05132912], [-46.73768772, -22.05132836], [-46.73760249, -22.05145784], [-46.73763497, -22.05149334], [-46.73766759, -22.05154078], [-46.73777364, -22.05156654], [-46.73777896, -22.05147688], [-46.73784212, -22.05140153], [-46.73784274, -22.0514523], [-46.73785647, -22.05152683], [-46.73787966, -22.05158931], [-46.73793831, -22.05166934], [-46.73803632, -22.05156076], [-46.73802612, -22.05151308], [-46.73809344, -22.05151535], [-46.73813097, -22.05144028], [-46.73815488, -22.05129964], [-46.73825129, -22.05132251], [-46.73828358, -22.05134308], [-46.73827164, -22.05141489], [-46.73836219, -22.05148263], [-46.73848666, -22.05144248], [-46.73855365, -22.05141787], [-46.73860207, -22.05144722], [-46.73869513, -22.05145818], [-46.73881308, -22.05148361], [-46.73892934, -22.05155765], [-46.73904489, -22.05157434], [-46.73911864, -22.05163091], [-46.73921807, -22.05158684], [-46.73920461, -22.05142927], [-46.73910736, -22.05133711], [-46.73916848, -22.0513042], [-46.73921121, -22.05133959], [-46.73930024, -22.05138883], [-46.73935288, -22.05129149], [-46.73925934, -22.05118854], [-46.73934707, -22.05113025], [-46.73939263, -22.05108317], [-46.73944355, -22.05106131], [-46.73949713, -22.05113941], [-46.73955515, -22.05116747], [-46.73958459, -22.05105963], [-46.7396333, -22.05097504], [-46.73971173, -22.05107978], [-46.73978128, -22.05110772], [-46.73978805, -22.05103237], [-46.7397618, -22.05095679], [-46.73981714, -22.05094892], [-46.73984161, -22.0510103], [-46.7398579, -22.0510854], [-46.73990147, -22.05118888], [-46.73997936, -22.05127049], [-46.74007937, -22.05127301], [-46.74015909, -22.05118973], [-46.74013912, -22.051129], [-46.7402424, -22.05108489], [-46.74033161, -22.05114846], [-46.74044007, -22.05105759], [-46.74065913, -22.05115332], [-46.74074635, -22.05123313], [-46.74090612, -22.05126125], [-46.74119952, -22.05138947], [-46.74126219, -22.05154201], [-46.74159771, -22.05181777], [-46.74172143, -22.05189237], [-46.74269991, -22.05295111], [-46.74278242, -22.0530588], [-46.74279795, -22.0532052], [-46.74316867, -22.05357668], [-46.74342895, -22.05405236], [-46.74342974, -22.05414993], [-46.74354914, -22.05430735], [-46.74355787, -22.05443167], [-46.74365844, -22.05467639], [-46.74377664, -22.05485695], [-46.74375407, -22.05492574], [-46.74392715, -22.05496282], [-46.74399863, -22.05509346], [-46.74394127, -22.05509115], [-46.74385863, -22.05512365], [-46.74383152, -22.05518057], [-46.74387053, -22.05526409], [-46.74392985, -22.05538029], [-46.74397149, -22.05540782], [-46.74402513, -22.05543457], [-46.7440394, -22.05543966], [-46.74406261, -22.05543218], [-46.74362164, -22.05605268], [-46.74172406, -22.05683756], [-46.74020389, -22.05662433], [-46.7390107, -22.0579943], [-46.73887062, -22.05795436], [-46.73829157, -22.0575963], [-46.73778189, -22.05752111], [-46.73747591, -22.05734886], [-46.7369119, -22.05716179], [-46.73670034, -22.05713376], [-46.73645091, -22.05715573], [-46.7360644, -22.05704825], [-46.73597312, -22.05699687], [-46.73557873, -22.05685384], [-46.73543192, -22.05697369], [-46.73532699, -22.05694376], [-46.73537084, -22.05733681], [-46.73546074, -22.05729692], [-46.73547529, -22.05722867], [-46.73550132, -22.0571567], [-46.73558145, -22.05710567], [-46.73568163, -22.05712253], [-46.73582043, -22.05715332], [-46.73597859, -22.05719465], [-46.73612893, -22.05722532], [-46.73626035, -22.05728127], [-46.73641501, -22.05735132], [-46.73650733, -22.05735392], [-46.73669161, -22.05733046], [-46.73677969, -22.05730085], [-46.73682622, -22.05733262], [-46.73698385, -22.05733094], [-46.73706874, -22.05735513], [-46.73716914, -22.05738991], [-46.73729689, -22.05746024], [-46.73743591, -22.05750895], [-46.73753334, -22.05761544], [-46.73758053, -22.05770097], [-46.73761481, -22.05773717], [-46.73764426, -22.05775549], [-46.73762145, -22.05777724], [-46.73759223, -22.05777755], [-46.73751815, -22.05775683], [-46.73748402, -22.05773282], [-46.73741158, -22.05772068], [-46.73737147, -22.05771107], [-46.73732819, -22.0576929], [-46.73727139, -22.0577021], [-46.73726108, -22.05773949], [-46.73720883, -22.05774291], [-46.73710268, -22.05774117], [-46.73688678, -22.05769471], [-46.73673289, -22.05768774], [-46.73651608, -22.05769291], [-46.73634718, -22.05771621], [-46.73624907, -22.05774306], [-46.73614774, -22.05775847], [-46.73606466, -22.05775649], [-46.73597919, -22.05781044], [-46.73589691, -22.0578744], [-46.73586984, -22.05792487], [-46.73578519, -22.0580462], [-46.73563758, -22.05830154], [-46.73549159, -22.05841894], [-46.73551408, -22.05862047], [-46.73615864, -22.05787285], [-46.73662917, -22.05779903], [-46.73667911, -22.05780944], [-46.7367515, -22.05781243], [-46.73847646, -22.05844917], [-46.73856352, -22.05851066], [-46.73865543, -22.0585251], [-46.73872462, -22.0586708], [-46.73875142, -22.05869865], [-46.73886351, -22.05889056], [-46.7390165, -22.05930972], [-46.73909471, -22.05954047], [-46.73926633, -22.05973937], [-46.73944866, -22.05997495], [-46.73971772, -22.06028035], [-46.74007064, -22.06069574], [-46.74028798, -22.06091148], [-46.74041972, -22.06095794], [-46.74041503, -22.06102546], [-46.74048861, -22.0610633], [-46.74057739, -22.06109103], [-46.74067351, -22.06109001], [-46.74076958, -22.0610854], [-46.74087737, -22.06109501], [-46.74097375, -22.06111549], [-46.74106821, -22.06111175], [-46.74105616, -22.06106176], [-46.74108113, -22.06068091], [-46.74118037, -22.06041102], [-46.74133652, -22.06034066], [-46.7415132, -22.06027584], [-46.74167519, -22.06018574], [-46.74183364, -22.06011095], [-46.74200601, -22.06005375], [-46.74218844, -22.06002194], [-46.74237097, -22.06004551], [-46.74253506, -22.06012966], [-46.74267315, -22.06024009], [-46.74277076, -22.06027545], [-46.74289096, -22.06026177], [-46.74307566, -22.06023495], [-46.74324957, -22.06024899], [-46.74343647, -22.06026985], [-46.74354815, -22.0602746], [-46.74557042, -22.0614488], [-46.74554659, -22.0615086], [-46.74562101, -22.06157089], [-46.74576005, -22.06171048], [-46.74616265, -22.06301354], [-46.74670064, -22.06294434], [-46.74686442, -22.06293447], [-46.74692913, -22.06286965], [-46.74693736, -22.06280997], [-46.74689426, -22.06258912], [-46.74682134, -22.06238606], [-46.74676794, -22.0621741], [-46.7468246, -22.06173079], [-46.74701622, -22.06150159], [-46.7476217, -22.06142837], [-46.74765227, -22.06140891], [-46.74772384, -22.06141602], [-46.74790399, -22.06139423], [-46.74848478, -22.06124428], [-46.74848768, -22.0612304], [-46.75031024, -22.06093661], [-46.75077962, -22.06089753], [-46.75102463, -22.0609043], [-46.75238836, -22.06170924], [-46.75239198, -22.06175098], [-46.75244961, -22.06176947], [-46.75254459, -22.0619875], [-46.7524656, -22.06207301], [-46.75247715, -22.06209638], [-46.75221433, -22.0623164], [-46.75215553, -22.06253687], [-46.75245592, -22.06278217], [-46.75244317, -22.06297438], [-46.75235707, -22.06295325], [-46.75229955, -22.06301513], [-46.75228237, -22.06304507], [-46.75227607, -22.06306575], [-46.75231502, -22.06314996], [-46.75242544, -22.06324154], [-46.75238674, -22.06382476], [-46.75282339, -22.06393515], [-46.75289993, -22.06416008], [-46.75339402, -22.06394045], [-46.75342352, -22.06390662], [-46.75336564, -22.06373651], [-46.7533253, -22.0637089], [-46.75332828, -22.06357979], [-46.75327147, -22.06331716], [-46.75322791, -22.06318202], [-46.75329434, -22.06304081], [-46.75323941, -22.06301299], [-46.75322209, -22.06292965], [-46.75328394, -22.06285919], [-46.75337429, -22.06283192], [-46.75354925, -22.06288234], [-46.75369714, -22.06285436], [-46.75372348, -22.06274169], [-46.75371363, -22.06264241], [-46.75369411, -22.06256154], [-46.75365955, -22.06247898], [-46.75362477, -22.06236754], [-46.7536758, -22.06227503], [-46.75370239, -22.06218199], [-46.75379685, -22.06214035], [-46.75388194, -22.06207392], [-46.75396518, -22.06202076], [-46.75404998, -22.06190839], [-46.75405348, -22.06178044], [-46.7540419, -22.06168955], [-46.75397537, -22.06160761], [-46.75518304, -22.0619118], [-46.75548037, -22.06190861], [-46.75829907, -22.062643], [-46.75958002, -22.06379477], [-46.75954819, -22.06382872], [-46.75971132, -22.06396387], [-46.75978712, -22.06409802], [-46.75982835, -22.06412159], [-46.75986447, -22.06413476], [-46.75990055, -22.06413734], [-46.75971625, -22.06488352], [-46.75976515, -22.06488982], [-46.75973579, -22.06493832], [-46.76005594, -22.06497576], [-46.76009377, -22.06493215], [-46.76022978, -22.06494968], [-46.76070081, -22.06365424], [-46.76178848, -22.06390097], [-46.76156021, -22.06327112]]], [[[-46.73382322, -22.05507666], [-46.73370687, -22.05512186], [-46.73361933, -22.05517441], [-46.7335522, -22.05521909], [-46.73347869, -22.05525433], [-46.73390501, -22.05565416], [-46.73449998, -22.0555702], [-46.73447588, -22.05517019], [-46.7340152, -22.0547964], [-46.73389407, -22.05500136], [-46.73382322, -22.05507666]]], [[[-46.74063172, -22.05501323], [-46.74019761, -22.0547311], [-46.73972881, -22.05470095], [-46.73939086, -22.05464824], [-46.73927297, -22.05460078], [-46.73871412, -22.05332267], [-46.73856003, -22.05327368], [-46.73853102, -22.05325516], [-46.73838308, -22.05320268], [-46.73805391, -22.05305845], [-46.73780954, -22.05289653], [-46.7377356, -22.05287364], [-46.73763009, -22.05283014], [-46.73747182, -22.05275335], [-46.73726155, -22.0527644], [-46.73701494, -22.05278241], [-46.73670688, -22.05268446], [-46.73641877, -22.05260149], [-46.73626347, -22.05239327], [-46.73599079, -22.05257019], [-46.7360632, -22.05261503], [-46.73602546, -22.0526375], [-46.73602956, -22.05284886], [-46.73607164, -22.05297887], [-46.73608164, -22.05299122], [-46.73616215, -22.05300015], [-46.7362919, -22.05303374], [-46.73649162, -22.05309926], [-46.7366973, -22.05314664], [-46.73691236, -22.05315706], [-46.73697237, -22.05316528], [-46.73720359, -22.05317124], [-46.73742367, -22.05320658], [-46.73762953, -22.05328475], [-46.73821323, -22.05367565], [-46.73845632, -22.05371685], [-46.73862388, -22.05391027], [-46.73873513, -22.05410043], [-46.73893629, -22.05441579], [-46.73895952, -22.05446701], [-46.7388762, -22.05456868], [-46.73884295, -22.05473159], [-46.73885026, -22.05493972], [-46.73877053, -22.05508184], [-46.73834085, -22.0557445], [-46.73880534, -22.05599645], [-46.73937432, -22.05588287], [-46.73978261, -22.05625489], [-46.73993523, -22.05615768], [-46.73964074, -22.055659], [-46.74058584, -22.0554534], [-46.74063172, -22.05501323]]], [[[-46.64777425, -23.32294448], [-46.64812398, -23.3219655], [-46.64784788, -23.32177877], [-46.64664307, -23.32161082], [-46.64655175, -23.32213555], [-46.64656887, -23.32273139], [-46.64642745, -23.32395199], [-46.64650756, -23.32410467], [-46.64641728, -23.32471958], [-46.64641736, -23.32471969], [-46.64657057, -23.3244562], [-46.64730908, -23.32407818], [-46.64755683, -23.32355181], [-46.64777425, -23.32294448]]], [[[-46.72506716, -22.08766196], [-46.72515389, -22.0875761], [-46.72529787, -22.08730187], [-46.72556329, -22.08725716], [-46.72560422, -22.08730541], [-46.72596462, -22.08741632], [-46.72663946, -22.08718481], [-46.72734833, -22.08699382], [-46.72804982, -22.08694082], [-46.72846265, -22.08679773], [-46.72867128, -22.08653924], [-46.72894139, -22.08636222], [-46.72924181, -22.08620992], [-46.72934838, -22.08616104], [-46.7297863, -22.08603735], [-46.7300826, -22.08596831], [-46.73034587, -22.08592194], [-46.73092895, -22.08542272], [-46.73074872, -22.08537083], [-46.73047758, -22.08546345], [-46.73029123, -22.08543698], [-46.73019347, -22.08540934], [-46.73008832, -22.08543794], [-46.7299965, -22.08544727], [-46.72995126, -22.08552183], [-46.7299087, -22.08560591], [-46.72991824, -22.08565453], [-46.72946374, -22.08580978], [-46.72944285, -22.08579934], [-46.72938602, -22.08577907], [-46.72932693, -22.08576559], [-46.72926648, -22.08575912], [-46.72924708, -22.08575933], [-46.729062, -22.08584845], [-46.72893326, -22.08587419], [-46.72891799, -22.08587484], [-46.72888462, -22.08590472], [-46.72884637, -22.08594882], [-46.72881435, -22.08599704], [-46.72878907, -22.08604862], [-46.72877093, -22.08610274], [-46.72876215, -22.08614845], [-46.72860413, -22.08625201], [-46.72860577, -22.08625421], [-46.72858684, -22.08630838], [-46.72840372, -22.08641986], [-46.72828125, -22.0865716], [-46.72798594, -22.08667395], [-46.72792, -22.08667894], [-46.7277616, -22.0867572], [-46.72768299, -22.08680253], [-46.72662395, -22.08668827], [-46.72601164, -22.08693967], [-46.72463945, -22.08637468], [-46.72429393, -22.08579184], [-46.72391359, -22.08552512], [-46.72346482, -22.08527245], [-46.72316208, -22.08508408], [-46.72340532, -22.0849285], [-46.72350637, -22.08470338], [-46.72344949, -22.08451704], [-46.72327757, -22.08431249], [-46.7232547, -22.08423924], [-46.72325249, -22.08419809], [-46.72327645, -22.08417663], [-46.7232994, -22.08415017], [-46.72331862, -22.08412124], [-46.72332474, -22.08410874], [-46.72335257, -22.08399791], [-46.72335028, -22.08395642], [-46.72334304, -22.08392307], [-46.72333137, -22.08389083], [-46.72331748, -22.08386412], [-46.72329677, -22.08383345], [-46.72327845, -22.08383208], [-46.72307559, -22.08375223], [-46.72237765, -22.08350857], [-46.7221467, -22.08347389], [-46.72204343, -22.08350074], [-46.72197967, -22.08353767], [-46.72188168, -22.08369253], [-46.72181004, -22.08386018], [-46.72180145, -22.08397146], [-46.7217858, -22.08396274], [-46.72176039, -22.08396491], [-46.72173258, -22.08398556], [-46.72166508, -22.08400422], [-46.7214885, -22.08398817], [-46.72143437, -22.0839928], [-46.72125057, -22.08398747], [-46.72147903, -22.08426098], [-46.72171817, -22.08424053], [-46.7220093, -22.0844028], [-46.72222779, -22.08439317], [-46.72228873, -22.08431508], [-46.72209373, -22.08396343], [-46.72210769, -22.08378254], [-46.72226253, -22.08369288], [-46.72245264, -22.0837751], [-46.72278914, -22.08379496], [-46.72306253, -22.08399332], [-46.72295523, -22.08407866], [-46.72296629, -22.08428439], [-46.72301436, -22.08443831], [-46.72323969, -22.0847064], [-46.72305845, -22.08482194], [-46.72298256, -22.08462447], [-46.72285754, -22.08460796], [-46.72284958, -22.08473315], [-46.72258127, -22.08487188], [-46.72272148, -22.08514556], [-46.7229649, -22.08528692], [-46.72330911, -22.08550108], [-46.72375084, -22.08574978], [-46.7240479, -22.08595815], [-46.72410231, -22.08616391], [-46.72424023, -22.08642868], [-46.72385572, -22.08664957], [-46.72388333, -22.08691898], [-46.72419394, -22.08722505], [-46.72414699, -22.08736041], [-46.72429135, -22.08750227], [-46.724388, -22.08742797], [-46.72439095, -22.08721087], [-46.72444869, -22.08719293], [-46.72450129, -22.08746284], [-46.72448908, -22.08756553], [-46.72455842, -22.08766595], [-46.72495083, -22.08764746], [-46.7249697, -22.08745286], [-46.72504954, -22.08738827], [-46.72506716, -22.08766196]]], [[[-46.7208007, -22.08313744], [-46.72070908, -22.08341127], [-46.72049835, -22.08377215], [-46.7203369, -22.08385072], [-46.72032817, -22.0839464], [-46.72065336, -22.08411013], [-46.72062323, -22.08422978], [-46.72101067, -22.08425151], [-46.721315, -22.08426032], [-46.72097447, -22.0838985], [-46.72087307, -22.08375954], [-46.72084104, -22.08365371], [-46.72081779, -22.0833988], [-46.7208007, -22.08313744]]], [[[-46.73326359, -22.08434714], [-46.73308228, -22.08427758], [-46.73293971, -22.08421256], [-46.73188172, -22.08366478], [-46.73170425, -22.08256745], [-46.73081363, -22.08270114], [-46.73049271, -22.08260659], [-46.72985983, -22.08262512], [-46.72963225, -22.08257018], [-46.72941967, -22.08248282], [-46.7292083, -22.08249581], [-46.72924986, -22.08243443], [-46.7292222, -22.08237379], [-46.7292105, -22.08222885], [-46.72687515, -22.08154082], [-46.72724916, -22.08079971], [-46.72721485, -22.08079571], [-46.72715701, -22.08078318], [-46.72711776, -22.08077105], [-46.72705144, -22.08074606], [-46.72700834, -22.08071754], [-46.72665515, -22.08139624], [-46.72650539, -22.08124147], [-46.726383, -22.08120605], [-46.72624227, -22.08126725], [-46.72621552, -22.08130652], [-46.72620226, -22.08134256], [-46.72613996, -22.08144419], [-46.72610432, -22.08154923], [-46.72608759, -22.08163308], [-46.72615777, -22.0816544], [-46.72637266, -22.08186435], [-46.7264221, -22.08193646], [-46.72639058, -22.08200131], [-46.72646214, -22.08206651], [-46.72655188, -22.08202061], [-46.72657453, -22.08207392], [-46.7266348, -22.08209623], [-46.72666939, -22.08207289], [-46.72684988, -22.08222538], [-46.72691222, -22.0823442], [-46.72702601, -22.08247742], [-46.72720378, -22.08260099], [-46.72739114, -22.08268679], [-46.72753781, -22.08273064], [-46.72765623, -22.08277001], [-46.72770445, -22.08272888], [-46.72764476, -22.08266977], [-46.72767782, -22.08264792], [-46.72771121, -22.08265234], [-46.72777608, -22.08271618], [-46.72787373, -22.08273426], [-46.72795845, -22.08274292], [-46.72803209, -22.08268479], [-46.72816284, -22.08270113], [-46.7282767, -22.08264558], [-46.72828361, -22.08262612], [-46.72836663, -22.08259262], [-46.72844978, -22.0826306], [-46.72851693, -22.08267051], [-46.72864246, -22.08266201], [-46.72863118, -22.08259498], [-46.72864558, -22.08258169], [-46.7286945, -22.08264502], [-46.72878065, -22.08259632], [-46.72884753, -22.08265172], [-46.72893754, -22.08264267], [-46.72911747, -22.08272899], [-46.72916233, -22.08271435], [-46.72922403, -22.08272804], [-46.72927548, -22.08279488], [-46.72933903, -22.08280209], [-46.72940969, -22.08283528], [-46.72949469, -22.08286735], [-46.72955988, -22.08291541], [-46.72962775, -22.08293047], [-46.72970812, -22.08296116], [-46.72972471, -22.08293374], [-46.72972412, -22.082885], [-46.72975481, -22.08287894], [-46.72977692, -22.08292602], [-46.72980976, -22.08294472], [-46.72990251, -22.08288036], [-46.72997947, -22.08284179], [-46.73005162, -22.08282956], [-46.7301364, -22.082843], [-46.73022124, -22.08286218], [-46.73059642, -22.08328266], [-46.73074444, -22.08355405], [-46.73131248, -22.08408182], [-46.73131943, -22.08408237], [-46.73132541, -22.08408784], [-46.73177726, -22.0843456], [-46.73184051, -22.08443503], [-46.73196033, -22.08448605], [-46.73185085, -22.08454934], [-46.7318316, -22.0846523], [-46.7319097, -22.08474944], [-46.7319744, -22.08479894], [-46.73203472, -22.08478324], [-46.73214455, -22.08468172], [-46.73218705, -22.08463395], [-46.73234336, -22.08462715], [-46.73238618, -22.08466306], [-46.73242895, -22.08480598], [-46.73269988, -22.08515677], [-46.73345591, -22.08491935], [-46.7334918, -22.0844984], [-46.73331663, -22.08440771], [-46.73330699, -22.08439392], [-46.73326359, -22.08434714]]], [[[-46.72742159, -22.07390044], [-46.7274253, -22.0738679], [-46.72741822, -22.07362328], [-46.72741823, -22.07345505], [-46.72742974, -22.07339143], [-46.72738436, -22.07326466], [-46.72721381, -22.07315415], [-46.72699712, -22.07304413], [-46.72678854, -22.07298013], [-46.7267007, -22.07287162], [-46.72663257, -22.07275047], [-46.72655026, -22.07272745], [-46.72651248, -22.07277528], [-46.72633433, -22.0727369], [-46.72611248, -22.07283482], [-46.7258609, -22.07301909], [-46.7256352, -22.07301191], [-46.72542029, -22.07325047], [-46.72526159, -22.07331951], [-46.72528, -22.07338649], [-46.72528375, -22.07348442], [-46.72525948, -22.07359699], [-46.7252073, -22.07373375], [-46.72515003, -22.07387295], [-46.72514114, -22.07398535], [-46.72517128, -22.07414514], [-46.72524995, -22.07429008], [-46.72532934, -22.07440653], [-46.7253402, -22.07440261], [-46.72538203, -22.07445559], [-46.72540805, -22.07443503], [-46.72550096, -22.07447758], [-46.72601388, -22.074159], [-46.72671912, -22.07390397], [-46.72742449, -22.07397596], [-46.72742159, -22.07390044]]], [[[-46.73629059, -22.08194963], [-46.73655629, -22.08187273], [-46.73661712, -22.08181474], [-46.73657569, -22.08178172], [-46.73654396, -22.0817032], [-46.73659191, -22.08164056], [-46.73673264, -22.0817151], [-46.73679974, -22.08166659], [-46.73676019, -22.08161922], [-46.73680281, -22.08158245], [-46.73686233, -22.08158564], [-46.73692318, -22.08152955], [-46.73699228, -22.0814772], [-46.73710727, -22.08138078], [-46.73736595, -22.08114863], [-46.73753138, -22.0810489], [-46.73755236, -22.08091948], [-46.7377381, -22.08080281], [-46.73780231, -22.08070442], [-46.73835629, -22.08032292], [-46.7393015, -22.08043796], [-46.7403786, -22.08109407], [-46.74040841, -22.08053178], [-46.74004032, -22.08037082], [-46.73983205, -22.08024405], [-46.73971911, -22.08007834], [-46.7395113, -22.0798636], [-46.73901783, -22.07978727], [-46.73880528, -22.07983074], [-46.73865228, -22.07976384], [-46.73870609, -22.07962956], [-46.7388513, -22.07944879], [-46.73898515, -22.07938763], [-46.73923574, -22.07917588], [-46.73944335, -22.07885705], [-46.73964889, -22.07856835], [-46.7397881, -22.0784211], [-46.73990269, -22.07814747], [-46.73990369, -22.07801982], [-46.73992005, -22.07789061], [-46.73990326, -22.07777608], [-46.73987419, -22.07770471], [-46.73995024, -22.0776346], [-46.73988705, -22.07749907], [-46.73977295, -22.07760303], [-46.73975133, -22.07751246], [-46.73974157, -22.0773429], [-46.73950721, -22.07711739], [-46.73939805, -22.07699668], [-46.73912466, -22.07707821], [-46.73896514, -22.07692672], [-46.73885828, -22.0766866], [-46.73877763, -22.07664998], [-46.7387051, -22.07653701], [-46.73872773, -22.07639327], [-46.73844245, -22.07575223], [-46.7383246, -22.07572021], [-46.73829209, -22.07568173], [-46.73823968, -22.07558969], [-46.73829575, -22.07545766], [-46.73822034, -22.07531808], [-46.73827717, -22.07524877], [-46.73851498, -22.07539002], [-46.73865222, -22.07550087], [-46.73885606, -22.07555149], [-46.73888506, -22.07540781], [-46.73876673, -22.07537561], [-46.73877057, -22.07527043], [-46.73879556, -22.07521759], [-46.73892951, -22.07526874], [-46.73892251, -22.07511588], [-46.73912059, -22.07496084], [-46.73924782, -22.07488302], [-46.73919992, -22.07474015], [-46.7391222, -22.07467407], [-46.73900947, -22.07468005], [-46.73881206, -22.07466767], [-46.73869934, -22.0746746], [-46.73860104, -22.07468712], [-46.73864634, -22.0745337], [-46.73875817, -22.07445366], [-46.73876513, -22.07435227], [-46.73889668, -22.074229], [-46.73881263, -22.07406501], [-46.73879606, -22.07389457], [-46.7385993, -22.0738429], [-46.73848937, -22.0739731], [-46.73859879, -22.07411531], [-46.73871135, -22.07420014], [-46.7385749, -22.07436289], [-46.73840729, -22.07449371], [-46.73828482, -22.07454161], [-46.73817891, -22.07468611], [-46.73814232, -22.07472171], [-46.73806571, -22.0747289], [-46.73793689, -22.07457255], [-46.73796161, -22.07439307], [-46.7378647, -22.07432958], [-46.73780627, -22.07426927], [-46.73790122, -22.07417148], [-46.73783724, -22.07397144], [-46.73779808, -22.07366902], [-46.73760923, -22.07356556], [-46.73757683, -22.07343209], [-46.73749282, -22.07327049], [-46.7376533, -22.07319647], [-46.73772417, -22.07306953], [-46.7378376, -22.0731209], [-46.73795907, -22.07299057], [-46.73814829, -22.07295033], [-46.7381205, -22.07277379], [-46.73814927, -22.07261099], [-46.73788821, -22.07264722], [-46.73778556, -22.07263876], [-46.73792706, -22.07246998], [-46.73772484, -22.07228574], [-46.73743882, -22.07249641], [-46.73731625, -22.07250061], [-46.73727582, -22.07233974], [-46.73728591, -22.07222135], [-46.73723889, -22.07215016], [-46.73748288, -22.07197552], [-46.73762536, -22.07199192], [-46.73763703, -22.07200255], [-46.73765446, -22.07185541], [-46.73760652, -22.07170896], [-46.73744856, -22.07168555], [-46.73726351, -22.07154241], [-46.73722771, -22.07149798], [-46.7372961, -22.07141134], [-46.73718063, -22.07132502], [-46.73708763, -22.07118443], [-46.73702499, -22.0710076], [-46.73685399, -22.07077468], [-46.73680365, -22.07043111], [-46.73665069, -22.069896], [-46.73655544, -22.06963085], [-46.73646822, -22.06941671], [-46.73640292, -22.06910771], [-46.736315, -22.06883623], [-46.73617185, -22.06845064], [-46.73608551, -22.06830818], [-46.73597882, -22.06819651], [-46.73585609, -22.06823559], [-46.73561595, -22.0682551], [-46.73554854, -22.06831149], [-46.73551289, -22.06839295], [-46.73551372, -22.06850262], [-46.73541139, -22.06859711], [-46.73526983, -22.06853824], [-46.73515951, -22.06844123], [-46.73506489, -22.06831129], [-46.73498063, -22.06817963], [-46.73490803, -22.06805003], [-46.73455111, -22.06785343], [-46.73443897, -22.06782838], [-46.73419303, -22.06771763], [-46.7340799, -22.06767202], [-46.73383652, -22.06760516], [-46.73371664, -22.06759145], [-46.73359224, -22.06758679], [-46.73346348, -22.06757709], [-46.73335782, -22.06759006], [-46.73323304, -22.06762429], [-46.73310855, -22.06767142], [-46.73302232, -22.06773816], [-46.73292034, -22.0678028], [-46.73279239, -22.06782083], [-46.73264501, -22.06782031], [-46.73249234, -22.06779963], [-46.73235673, -22.06776873], [-46.73221496, -22.06776719], [-46.73206134, -22.06774908], [-46.73191589, -22.06767179], [-46.73189192, -22.067546], [-46.73186075, -22.06743389], [-46.7317948, -22.0673274], [-46.73170638, -22.0672826], [-46.73158049, -22.06731252], [-46.73151466, -22.06714478], [-46.73149739, -22.06705884], [-46.73146698, -22.06686568], [-46.73149588, -22.06666832], [-46.73156739, -22.06648547], [-46.7315816, -22.06647127], [-46.73177736, -22.06609995], [-46.73182142, -22.06600999], [-46.73183979, -22.06579908], [-46.73187133, -22.06557151], [-46.73187947, -22.06548534], [-46.73188527, -22.06514918], [-46.73191094, -22.06505088], [-46.73227919, -22.06458471], [-46.73234713, -22.06450278], [-46.73233836, -22.06443778], [-46.73225632, -22.0643493], [-46.73216433, -22.06426401], [-46.73207127, -22.06416828], [-46.73193737, -22.06401817], [-46.73172428, -22.06376863], [-46.73171011, -22.06370121], [-46.73166645, -22.06363598], [-46.73170755, -22.06361208], [-46.73171205, -22.06353162], [-46.73102836, -22.06358831], [-46.73095722, -22.063256], [-46.73061834, -22.06290917], [-46.73057178, -22.06287167], [-46.7287831, -22.06308733], [-46.72872066, -22.06312296], [-46.72867873, -22.06315039], [-46.72779524, -22.06325615], [-46.72755836, -22.0629816], [-46.72750568, -22.06258818], [-46.72740187, -22.06227523], [-46.72736352, -22.06227613], [-46.72719839, -22.06153383], [-46.72707818, -22.06157769], [-46.72686881, -22.06164681], [-46.7266646, -22.06171794], [-46.72685867, -22.06188785], [-46.72639625, -22.0622554], [-46.72634589, -22.06228105], [-46.72612708, -22.06243998], [-46.72612799, -22.06246862], [-46.72548758, -22.06297763], [-46.72493815, -22.06312083], [-46.72480947, -22.06369939], [-46.72461137, -22.06427499], [-46.72441548, -22.06463654], [-46.72437248, -22.06470635], [-46.72432034, -22.06481215], [-46.72401326, -22.06550544], [-46.72398443, -22.06715211], [-46.72421351, -22.06715918], [-46.72516705, -22.06675829], [-46.72521348, -22.06685323], [-46.72532185, -22.06689608], [-46.72534928, -22.06704395], [-46.72538613, -22.06732704], [-46.72543717, -22.06757144], [-46.72553496, -22.06770781], [-46.7256649, -22.0678528], [-46.72581519, -22.06789984], [-46.72589256, -22.06797347], [-46.72603781, -22.0679482], [-46.72616873, -22.06804833], [-46.72621175, -22.06804405], [-46.72624363, -22.06796725], [-46.72628335, -22.06790547], [-46.726316, -22.06742721], [-46.72597704, -22.06711473], [-46.72592869, -22.06700382], [-46.72596618, -22.06692457], [-46.72596101, -22.06683669], [-46.72583424, -22.06681099], [-46.72590165, -22.0667864], [-46.72598155, -22.06678565], [-46.72600474, -22.06675928], [-46.72613312, -22.06672286], [-46.72626536, -22.06671839], [-46.72637667, -22.0667259], [-46.72647127, -22.06676381], [-46.72657726, -22.06678968], [-46.72665516, -22.0668138], [-46.72675464, -22.06686372], [-46.7267957, -22.06688906], [-46.72692418, -22.0669534], [-46.72708695, -22.06705522], [-46.72714716, -22.06712998], [-46.72722232, -22.06718694], [-46.72737353, -22.06719858], [-46.72747184, -22.0672237], [-46.72764934, -22.06731279], [-46.7277689, -22.06739325], [-46.72789045, -22.06743381], [-46.72812488, -22.06755148], [-46.72823496, -22.06829795], [-46.72832266, -22.06846738], [-46.72838983, -22.06872057], [-46.72845332, -22.06893496], [-46.72845518, -22.06908728], [-46.72836238, -22.06916195], [-46.72828414, -22.06941049], [-46.72824459, -22.06958415], [-46.72815043, -22.06974644], [-46.72800995, -22.06978975], [-46.72787716, -22.06976872], [-46.72763005, -22.07007773], [-46.72827619, -22.07070852], [-46.72849321, -22.07080135], [-46.72874721, -22.07102807], [-46.72885606, -22.07121291], [-46.72901228, -22.07132158], [-46.72916006, -22.07143969], [-46.72926288, -22.07167176], [-46.72930348, -22.07214089], [-46.72959689, -22.07195314], [-46.72981099, -22.07216594], [-46.7301148, -22.07237779], [-46.73022564, -22.07253194], [-46.73037624, -22.0727932], [-46.73019104, -22.07284893], [-46.73006877, -22.0728084], [-46.72984702, -22.07301984], [-46.72953896, -22.07351296], [-46.72935864, -22.07396889], [-46.72944581, -22.07428459], [-46.72980061, -22.074472], [-46.73012919, -22.0746119], [-46.73027338, -22.07487323], [-46.73039194, -22.07513483], [-46.73056607, -22.0752226], [-46.73071164, -22.07559742], [-46.73080551, -22.07593694], [-46.73096835, -22.07615028], [-46.73092422, -22.07621049], [-46.73064005, -22.07603428], [-46.73009503, -22.07549044], [-46.72976571, -22.07529081], [-46.72964409, -22.07530404], [-46.72888861, -22.07596622], [-46.72755263, -22.07512488], [-46.72758312, -22.07715704], [-46.72669651, -22.07852766], [-46.72673713, -22.07887922], [-46.72673174, -22.07906805], [-46.72672089, -22.07923066], [-46.72668196, -22.07942881], [-46.72670912, -22.07955398], [-46.72676112, -22.07961317], [-46.72672379, -22.07970616], [-46.72681121, -22.0799007], [-46.72689288, -22.07997511], [-46.72690511, -22.08003234], [-46.72688702, -22.08012572], [-46.72684625, -22.0802516], [-46.72688282, -22.08041252], [-46.72703448, -22.08055071], [-46.72707866, -22.08057236], [-46.72702335, -22.08068656], [-46.72706156, -22.08071019], [-46.72712786, -22.08073426], [-46.72724751, -22.08076965], [-46.72729015, -22.08077425], [-46.72738586, -22.0807413], [-46.7274488, -22.08077111], [-46.72759459, -22.08095357], [-46.72766096, -22.08092897], [-46.72764963, -22.08084067], [-46.72759227, -22.08076242], [-46.72755927, -22.08068159], [-46.72769178, -22.08072314], [-46.72774378, -22.08078233], [-46.72776146, -22.08076064], [-46.72771969, -22.08069895], [-46.72774242, -22.08067003], [-46.72780138, -22.08066941], [-46.72791743, -22.08072553], [-46.72802776, -22.08073154], [-46.72807332, -22.08068326], [-46.72812258, -22.08072814], [-46.72816604, -22.08071813], [-46.72818882, -22.08069399], [-46.72812375, -22.08061343], [-46.72815361, -22.08047698], [-46.72994875, -22.07985893], [-46.73004807, -22.07991527], [-46.73022898, -22.07992769], [-46.73034805, -22.07991568], [-46.73034798, -22.08003612], [-46.73043362, -22.08012124], [-46.73054898, -22.08012002], [-46.73056969, -22.08004614], [-46.73067885, -22.08004695], [-46.73078722, -22.08010316], [-46.73088807, -22.08017378], [-46.73090611, -22.08022034], [-46.73097608, -22.08023872], [-46.73109356, -22.08045349], [-46.7311839, -22.0805944], [-46.73128066, -22.08079219], [-46.73138733, -22.0809612], [-46.73157328, -22.08107201], [-46.73171292, -22.0811342], [-46.73191713, -22.08116464], [-46.73214651, -22.08115743], [-46.73231257, -22.08110907], [-46.73266397, -22.08096748], [-46.73304642, -22.08079316], [-46.73351442, -22.08080015], [-46.73388395, -22.08091649], [-46.73417481, -22.08099985], [-46.73432087, -22.08088778], [-46.73444405, -22.08074011], [-46.73459688, -22.08065784], [-46.73476169, -22.0807696], [-46.73489232, -22.08096834], [-46.73499981, -22.08111057], [-46.73499607, -22.08132866], [-46.73495005, -22.08149642], [-46.73494908, -22.0817143], [-46.73498156, -22.08185494], [-46.73522921, -22.08197896], [-46.73528782, -22.08194967], [-46.73534734, -22.08199444], [-46.73546642, -22.08200408], [-46.73558203, -22.08202317], [-46.73575321, -22.0820787], [-46.7358078, -22.08203511], [-46.73588684, -22.08203032], [-46.73607857, -22.08200746], [-46.73619868, -22.08198167], [-46.73629059, -22.08194963]]], [[[-46.72140594, -22.08299535], [-46.72155215, -22.08293282], [-46.72172831, -22.08287122], [-46.72177745, -22.08278751], [-46.72192786, -22.08276398], [-46.72203515, -22.08273178], [-46.7220242, -22.08267455], [-46.72207725, -22.08260947], [-46.72217202, -22.0826013], [-46.72235308, -22.08252054], [-46.72252805, -22.08242407], [-46.72262235, -22.08237767], [-46.72269707, -22.08237915], [-46.7227708, -22.0823282], [-46.72279962, -22.08227293], [-46.72282522, -22.08220193], [-46.72284548, -22.08216014], [-46.72287696, -22.08211321], [-46.72290061, -22.08205561], [-46.72293015, -22.08197166], [-46.72301287, -22.081858], [-46.72299602, -22.08182185], [-46.72297663, -22.08174559], [-46.72301127, -22.08172611], [-46.72302732, -22.08168245], [-46.72313927, -22.08171711], [-46.72330885, -22.08174758], [-46.72349343, -22.08174564], [-46.72357379, -22.08171253], [-46.72363877, -22.08167959], [-46.72377415, -22.08174268], [-46.72391682, -22.08177343], [-46.72404376, -22.08177568], [-46.7242397, -22.08175927], [-46.72429301, -22.0817157], [-46.7242838, -22.08159034], [-46.72439916, -22.08158913], [-46.72566097, -22.08150346], [-46.72602306, -22.08161348], [-46.72602947, -22.08158618], [-46.72604895, -22.08154296], [-46.72607944, -22.08145733], [-46.726143, -22.08132511], [-46.72604928, -22.08129749], [-46.72605989, -22.08127293], [-46.72613546, -22.08130429], [-46.72615224, -22.08127161], [-46.72615362, -22.08121435], [-46.72612513, -22.0809836], [-46.7260392, -22.0809492], [-46.72594712, -22.08091662], [-46.72582996, -22.08090493], [-46.7256336, -22.08090281], [-46.72547402, -22.08092405], [-46.72531389, -22.0809597], [-46.7251729, -22.08097162], [-46.72499707, -22.08102769], [-46.72483668, -22.08106838], [-46.72445696, -22.08114261], [-46.72432924, -22.08117179], [-46.72400812, -22.08116846], [-46.72394923, -22.08116093], [-46.72387224, -22.08111755], [-46.72376646, -22.08107324], [-46.72371775, -22.08102466], [-46.72368256, -22.08099827], [-46.72365575, -22.08098612], [-46.72362224, -22.08092913], [-46.72350574, -22.08084659], [-46.72349168, -22.08061113], [-46.72340735, -22.08052839], [-46.7233551, -22.08044829], [-46.7232648, -22.08040145], [-46.72316778, -22.08039702], [-46.72309272, -22.08029717], [-46.72316607, -22.0802282], [-46.72319567, -22.0801323], [-46.72319684, -22.08001759], [-46.72314908, -22.07988428], [-46.72307089, -22.07977996], [-46.72292848, -22.07966437], [-46.72277878, -22.07958231], [-46.72265331, -22.07959558], [-46.72259106, -22.0795365], [-46.7225298, -22.07954834], [-46.7221472, -22.07858614], [-46.72217846, -22.07857258], [-46.7222067, -22.07857375], [-46.72223221, -22.07856273], [-46.722263, -22.0785648], [-46.72230034, -22.07857874], [-46.72241529, -22.07854408], [-46.72247885, -22.0784992], [-46.72256887, -22.07842561], [-46.72261894, -22.07850156], [-46.72263209, -22.0785584], [-46.72265916, -22.07856916], [-46.7226646, -22.07857896], [-46.72263169, -22.07863726], [-46.72264851, -22.0787028], [-46.72269079, -22.07875314], [-46.72275207, -22.07878535], [-46.72281594, -22.07876675], [-46.72284234, -22.0788292], [-46.7228908, -22.07886155], [-46.72291251, -22.07880158], [-46.72288932, -22.0787391], [-46.72292431, -22.07871782], [-46.72294228, -22.07876812], [-46.72296944, -22.07880894], [-46.72300612, -22.07887355], [-46.72307442, -22.07892444], [-46.72309551, -22.0788879], [-46.72305205, -22.07885586], [-46.72305079, -22.07880882], [-46.72310859, -22.07885029], [-46.72318579, -22.07887337], [-46.72325942, -22.07886662], [-46.72332884, -22.07880462], [-46.72333189, -22.0787643], [-46.72336009, -22.07873858], [-46.72340797, -22.07877631], [-46.72342945, -22.0787498], [-46.7234134, -22.07869501], [-46.72346214, -22.07867033], [-46.72391969, -22.07867738], [-46.72418397, -22.0787018], [-46.72424389, -22.07866687], [-46.72439858, -22.07828142], [-46.7244145, -22.07825319], [-46.72443817, -22.07827247], [-46.72449177, -22.07825255], [-46.72451133, -22.0782165], [-46.7244642, -22.07816632], [-46.72448921, -22.0781252], [-46.72452819, -22.07819855], [-46.72455556, -22.07817245], [-46.72452082, -22.07811223], [-46.72455007, -22.07810082], [-46.72458277, -22.07813345], [-46.72461034, -22.07812312], [-46.72461429, -22.0780686], [-46.72459206, -22.07801148], [-46.724593, -22.07795454], [-46.72463014, -22.07784099], [-46.72461399, -22.07777808], [-46.72464914, -22.07775907], [-46.72468603, -22.07777825], [-46.72470889, -22.0777608], [-46.72471113, -22.07769196], [-46.72473539, -22.07766303], [-46.72476766, -22.07765982], [-46.72468448, -22.07752449], [-46.72470076, -22.07747127], [-46.72471728, -22.07743812], [-46.72473706, -22.0774207], [-46.72478499, -22.07744027], [-46.7248219, -22.07743988], [-46.72483834, -22.07739956], [-46.7248321, -22.07733678], [-46.72486672, -22.07731634], [-46.72487838, -22.07726269], [-46.72483067, -22.07721827], [-46.72484567, -22.07718705], [-46.72484647, -22.07714761], [-46.72490298, -22.07715658], [-46.72491678, -22.07713134], [-46.72489964, -22.07709209], [-46.72490813, -22.07705257], [-46.72494392, -22.07704383], [-46.72492411, -22.07699625], [-46.72484855, -22.07696453], [-46.72487111, -22.07689852], [-46.72491491, -22.07690338], [-46.7249113, -22.07681925], [-46.72481292, -22.07682377], [-46.72449224, -22.07641178], [-46.72449584, -22.0763956], [-46.72442937, -22.07626761], [-46.72435592, -22.07618508], [-46.72436526, -22.07614415], [-46.72425258, -22.07592718], [-46.72425977, -22.07592785], [-46.72442484, -22.07580975], [-46.7244472, -22.07578214], [-46.72480033, -22.07508895], [-46.72490773, -22.07504503], [-46.72493166, -22.07503039], [-46.72507085, -22.07488848], [-46.72511983, -22.07483418], [-46.72516075, -22.07448972], [-46.72525438, -22.07446555], [-46.7252428, -22.07443783], [-46.7252867, -22.07442195], [-46.72516181, -22.07425229], [-46.72510251, -22.07409807], [-46.72508688, -22.0739931], [-46.72510378, -22.07386484], [-46.72513334, -22.07376512], [-46.7252191, -22.0735654], [-46.72523619, -22.07345243], [-46.72522899, -22.07336648], [-46.72521401, -22.07334021], [-46.72479035, -22.07352454], [-46.72465962, -22.07354048], [-46.7245226, -22.07360974], [-46.72444053, -22.07372837], [-46.72444072, -22.07426417], [-46.72445929, -22.07437956], [-46.72446674, -22.07444842], [-46.72445974, -22.07450584], [-46.72444671, -22.07454123], [-46.72444072, -22.07457594], [-46.72441973, -22.07464187], [-46.72441642, -22.07468612], [-46.72439575, -22.07476603], [-46.72438409, -22.07478056], [-46.72434047, -22.0748528], [-46.72425677, -22.07492776], [-46.72422959, -22.07501168], [-46.72413858, -22.07515984], [-46.72405108, -22.0751751], [-46.72392219, -22.07520226], [-46.72384325, -22.07516152], [-46.7237859, -22.07512628], [-46.72379458, -22.07508031], [-46.72389552, -22.0750848], [-46.72390827, -22.07500545], [-46.72401477, -22.07506705], [-46.72405578, -22.07501285], [-46.72399318, -22.07490616], [-46.72394377, -22.07489091], [-46.72386408, -22.07491612], [-46.72384493, -22.07485898], [-46.72383962, -22.07480168], [-46.72381735, -22.0747417], [-46.72378008, -22.07471198], [-46.72377815, -22.07468046], [-46.72380882, -22.07466685], [-46.72387524, -22.07469521], [-46.72392342, -22.0746895], [-46.72393939, -22.07465725], [-46.7239434, -22.07460703], [-46.72390762, -22.07457443], [-46.72389006, -22.07452157], [-46.72384958, -22.07448185], [-46.7238062, -22.0744565], [-46.72370934, -22.07446039], [-46.72362556, -22.07452866], [-46.72355507, -22.07455091], [-46.72336151, -22.07457844], [-46.72339381, -22.07446071], [-46.72334473, -22.07437759], [-46.72319312, -22.07442042], [-46.7231455, -22.07441805], [-46.72315576, -22.07440037], [-46.72317897, -22.07437998], [-46.72318493, -22.07436403], [-46.72319455, -22.07431136], [-46.72319904, -22.07425874], [-46.72322435, -22.07423219], [-46.72324422, -22.07417941], [-46.72322815, -22.07412222], [-46.72318405, -22.07407968], [-46.72305337, -22.07408583], [-46.72295328, -22.07407733], [-46.72284054, -22.0740833], [-46.72273392, -22.07417044], [-46.7226188, -22.07419077], [-46.72255733, -22.0741962], [-46.7224603, -22.07422829], [-46.72243038, -22.0742979], [-46.72244446, -22.07439717], [-46.72163023, -22.07423623], [-46.7215708, -22.07420115], [-46.72151092, -22.07421264], [-46.72124472, -22.07416002], [-46.7212955, -22.07404214], [-46.72127706, -22.07397848], [-46.72132669, -22.07390799], [-46.72136447, -22.0738101], [-46.72133969, -22.07362684], [-46.72128982, -22.07357383], [-46.72117918, -22.07358265], [-46.72110577, -22.07361783], [-46.72092068, -22.07374595], [-46.72088735, -22.07370424], [-46.72087848, -22.0736489], [-46.72085119, -22.07359757], [-46.72073805, -22.07352731], [-46.72064046, -22.07342893], [-46.7205037, -22.07331375], [-46.72033564, -22.07325339], [-46.72021236, -22.07323557], [-46.72006129, -22.0732515], [-46.71990792, -22.07328896], [-46.71959738, -22.07347383], [-46.71927644, -22.07364687], [-46.719068, -22.07379483], [-46.71874907, -22.07396404], [-46.71859059, -22.07385529], [-46.71857964, -22.07381541], [-46.71856784, -22.07379403], [-46.71853809, -22.07377164], [-46.71851432, -22.07371454], [-46.71844934, -22.07364115], [-46.71836466, -22.07356939], [-46.71829441, -22.07349599], [-46.7180699, -22.07339959], [-46.71784744, -22.07324575], [-46.71780818, -22.07317414], [-46.71774291, -22.07307686], [-46.71764244, -22.07303729], [-46.7175554, -22.07304776], [-46.71743077, -22.07291764], [-46.71734295, -22.0728636], [-46.71729003, -22.07272795], [-46.71725011, -22.0726065], [-46.71718053, -22.07250216], [-46.71723168, -22.07242927], [-46.71727225, -22.07228546], [-46.71734111, -22.07225606], [-46.71735571, -22.07219139], [-46.71742419, -22.07212974], [-46.717508, -22.07206434], [-46.7175722, -22.07196689], [-46.71753293, -22.07189919], [-46.717555, -22.07181652], [-46.7174889, -22.07175628], [-46.71758459, -22.07171943], [-46.71757578, -22.07162633], [-46.71755922, -22.07152972], [-46.71744918, -22.07147702], [-46.71788133, -22.07100725], [-46.71816926, -22.07076472], [-46.71822592, -22.07070104], [-46.71829696, -22.070593], [-46.71838384, -22.07053115], [-46.71847384, -22.07029901], [-46.71836691, -22.07020157], [-46.71840978, -22.07003683], [-46.71847251, -22.06975169], [-46.71881675, -22.06962871], [-46.71894082, -22.06946957], [-46.71899737, -22.06930063], [-46.71899883, -22.06910347], [-46.71898189, -22.06897461], [-46.71891384, -22.06893458], [-46.71843823, -22.0685339], [-46.71843727, -22.06851022], [-46.71835736, -22.06846578], [-46.71781565, -22.0680094], [-46.71776658, -22.06779879], [-46.71774385, -22.0675087], [-46.7179, -22.06739234], [-46.71795697, -22.0669756], [-46.71835694, -22.06684742], [-46.71856773, -22.06668272], [-46.71855447, -22.06655942], [-46.71872364, -22.0664513], [-46.71880345, -22.06647914], [-46.71897499, -22.06635065], [-46.71912185, -22.06628411], [-46.71923173, -22.06627092], [-46.71952569, -22.06610842], [-46.71987375, -22.06575066], [-46.72000216, -22.06540638], [-46.72007638, -22.06509973], [-46.72018243, -22.06505082], [-46.72021952, -22.06489558], [-46.72034904, -22.06487063], [-46.72046453, -22.06480272], [-46.7204872, -22.06467528], [-46.72046582, -22.06460263], [-46.72051127, -22.06454599], [-46.72052346, -22.06444686], [-46.72045143, -22.06443993], [-46.7204655, -22.06432992], [-46.72052401, -22.06433555], [-46.72048391, -22.06424137], [-46.72032035, -22.06416753], [-46.72010792, -22.06415399], [-46.71981707, -22.0641562], [-46.71954451, -22.06368944], [-46.71846164, -22.06356428], [-46.71843749, -22.06335767], [-46.71885906, -22.06323974], [-46.71927838, -22.06293663], [-46.71972444, -22.06283449], [-46.71977699, -22.06284521], [-46.71990553, -22.06284847], [-46.72001944, -22.06281308], [-46.72010527, -22.06277764], [-46.72020416, -22.06272465], [-46.72094649, -22.06255467], [-46.7218238, -22.06090856], [-46.72134259, -22.06033415], [-46.72140476, -22.06000769], [-46.7214223, -22.0599877], [-46.72150921, -22.05993863], [-46.72156039, -22.05988312], [-46.72156103, -22.05987205], [-46.7221499, -22.05978799], [-46.72227444, -22.05948798], [-46.72282552, -22.05948218], [-46.72320696, -22.05922725], [-46.72348153, -22.05953023], [-46.72349189, -22.05954684], [-46.72352198, -22.05957487], [-46.72366815, -22.05973616], [-46.7237083, -22.0597486], [-46.72373178, -22.05977029], [-46.724073, -22.05988035], [-46.72415961, -22.0598885], [-46.72439508, -22.05996149], [-46.72499355, -22.05966088], [-46.72501536, -22.0596669], [-46.72507618, -22.06032725], [-46.72660541, -22.06166612], [-46.72718672, -22.06148134], [-46.7270926, -22.06105824], [-46.72718042, -22.06097566], [-46.72737586, -22.06076247], [-46.7275678, -22.06073536], [-46.72787442, -22.06065326], [-46.7280429, -22.06059413], [-46.72836058, -22.06047249], [-46.72851625, -22.06030955], [-46.72872082, -22.06005648], [-46.72880969, -22.05977596], [-46.72877986, -22.05953612], [-46.72886393, -22.05917679], [-46.72889535, -22.0589148], [-46.7288189, -22.05874117], [-46.72882896, -22.05851405], [-46.72882663, -22.0583229], [-46.72889598, -22.05796493], [-46.72892284, -22.05780215], [-46.7290352, -22.05755603], [-46.72900923, -22.05736648], [-46.72956799, -22.05685801], [-46.72939574, -22.05677968], [-46.72930893, -22.05662646], [-46.72921044, -22.0568807], [-46.72894589, -22.05711686], [-46.72848487, -22.05757685], [-46.72820277, -22.05759899], [-46.72799721, -22.05749921], [-46.72776527, -22.05727377], [-46.72765085, -22.05720261], [-46.72756112, -22.05718694], [-46.72738521, -22.05726073], [-46.72703716, -22.05760412], [-46.72695187, -22.05783908], [-46.72671413, -22.05816476], [-46.72645958, -22.05830232], [-46.72627472, -22.05851225], [-46.72607159, -22.05865145], [-46.72601937, -22.05897615], [-46.7257755, -22.05918769], [-46.72548203, -22.05918135], [-46.72524255, -22.05909755], [-46.72511471, -22.05916958], [-46.72493137, -22.05948036], [-46.72468624, -22.05968083], [-46.7242634, -22.05979568], [-46.72390575, -22.05969334], [-46.72359855, -22.05948235], [-46.72349245, -22.0592619], [-46.72344998, -22.05879857], [-46.7233274, -22.05860607], [-46.72326468, -22.05845546], [-46.72320674, -22.05867188], [-46.72300236, -22.05886311], [-46.72274779, -22.05889562], [-46.72245218, -22.05884275], [-46.72212991, -22.05902801], [-46.72166049, -22.05914768], [-46.72139332, -22.05890939], [-46.72130544, -22.05925741], [-46.72127549, -22.05977655], [-46.72067428, -22.06042875], [-46.72051442, -22.06051481], [-46.72088978, -22.06078359], [-46.72106541, -22.06130344], [-46.72076573, -22.06174331], [-46.7204462, -22.06195306], [-46.72042246, -22.06223489], [-46.72018411, -22.0625644], [-46.71977828, -22.06259389], [-46.71934541, -22.06254272], [-46.71921081, -22.06258696], [-46.71901813, -22.06280449], [-46.71862987, -22.06299584], [-46.71830896, -22.06296727], [-46.71812997, -22.06281107], [-46.71805874, -22.062964], [-46.71775586, -22.06331013], [-46.7177059, -22.06347692], [-46.71769229, -22.06383869], [-46.71778254, -22.06414326], [-46.71770604, -22.06458086], [-46.71777517, -22.06469036], [-46.7181225, -22.06501979], [-46.71813682, -22.06493663], [-46.71835228, -22.06471555], [-46.71878621, -22.0647162], [-46.71921279, -22.06515393], [-46.71950637, -22.06568464], [-46.71944817, -22.0658007], [-46.71917257, -22.06607473], [-46.71838784, -22.0663183], [-46.71813025, -22.06652025], [-46.71745386, -22.06687681], [-46.71748827, -22.06691874], [-46.71763688, -22.06784819], [-46.71741598, -22.0680507], [-46.71730265, -22.06833927], [-46.71740919, -22.06832966], [-46.71822159, -22.06846482], [-46.71834275, -22.0690378], [-46.71771646, -22.06924999], [-46.7175623, -22.06934799], [-46.71767118, -22.06942453], [-46.7180879, -22.06989912], [-46.71802011, -22.07046358], [-46.71779997, -22.07065572], [-46.71713646, -22.0708411], [-46.71683971, -22.07073148], [-46.71668108, -22.07074641], [-46.71667159, -22.0708072], [-46.71649674, -22.07122481], [-46.71675676, -22.07160715], [-46.71691475, -22.07200197], [-46.71696808, -22.07257556], [-46.71681868, -22.07280065], [-46.71697456, -22.07296383], [-46.71735372, -22.07355446], [-46.71791693, -22.07351237], [-46.71825658, -22.07374566], [-46.71836449, -22.07410926], [-46.71821716, -22.07437843], [-46.71838805, -22.07458726], [-46.71869944, -22.07467338], [-46.7188614, -22.07442301], [-46.71936832, -22.07434127], [-46.71977169, -22.07453819], [-46.72002342, -22.0745903], [-46.72071537, -22.07457688], [-46.72132245, -22.07444], [-46.72175083, -22.07428949], [-46.72208627, -22.07471941], [-46.72222359, -22.07475344], [-46.72255578, -22.07454405], [-46.72301158, -22.07460255], [-46.72337301, -22.07502859], [-46.72293492, -22.07539854], [-46.72282921, -22.07557559], [-46.72291311, -22.07582372], [-46.72280395, -22.07628228], [-46.72297843, -22.07632735], [-46.72334506, -22.07596793], [-46.7237397, -22.07587946], [-46.72402667, -22.07611364], [-46.72419133, -22.0764307], [-46.72404611, -22.07708346], [-46.72408952, -22.07731786], [-46.72423068, -22.07771632], [-46.72441228, -22.07814584], [-46.72402873, -22.07843684], [-46.72360944, -22.0782528], [-46.72336483, -22.07811708], [-46.72317779, -22.07812285], [-46.72283525, -22.07823693], [-46.72227846, -22.0782202], [-46.72204206, -22.0781334], [-46.72188127, -22.07854126], [-46.72168114, -22.07879347], [-46.72171515, -22.07880221], [-46.72204022, -22.07910403], [-46.72207463, -22.07948799], [-46.72177396, -22.0800053], [-46.72182328, -22.08005704], [-46.72240092, -22.08042521], [-46.72284985, -22.08050704], [-46.72290292, -22.08101907], [-46.72263682, -22.08150018], [-46.72257573, -22.08195555], [-46.72194349, -22.08227311], [-46.72149733, -22.08269997], [-46.72090698, -22.0829181], [-46.7209293, -22.08315458], [-46.72093012, -22.08319883], [-46.72125631, -22.08306258], [-46.72134134, -22.08309753], [-46.72134329, -22.08304733], [-46.72130701, -22.08300527], [-46.72140594, -22.08299535]]], [[[-46.7254782, -22.05715937], [-46.72567105, -22.0569147], [-46.72590884, -22.05667182], [-46.72617463, -22.05647574], [-46.72644585, -22.05633627], [-46.72671014, -22.05623881], [-46.72709371, -22.05612193], [-46.72732741, -22.05604419], [-46.72759036, -22.05594163], [-46.72787425, -22.05580511], [-46.72866863, -22.05538657], [-46.72886762, -22.05529379], [-46.72908858, -22.05524187], [-46.72935288, -22.05522921], [-46.72956609, -22.05527011], [-46.7297435, -22.05532325], [-46.72991183, -22.05535765], [-46.7300796, -22.05536438], [-46.73024498, -22.055326], [-46.73150829, -22.0547782], [-46.73167607, -22.05469037], [-46.7320066, -22.05443582], [-46.73214623, -22.05427867], [-46.73234643, -22.05396645], [-46.73254812, -22.05359469], [-46.73270322, -22.0532391], [-46.73280248, -22.0529133], [-46.73306183, -22.05191679], [-46.73011095, -22.05102884], [-46.72788633, -22.05035258], [-46.72742207, -22.05024603], [-46.72716064, -22.04996859], [-46.72709499, -22.04976146], [-46.72702562, -22.04967007], [-46.72633844, -22.04965898], [-46.72568593, -22.04981816], [-46.7253798, -22.04976573], [-46.72499999, -22.04973629], [-46.72459315, -22.04953634], [-46.72446902, -22.04949804], [-46.72441535, -22.0496751], [-46.7239921, -22.05092979], [-46.72367468, -22.05184436], [-46.72350531, -22.05234131], [-46.72338295, -22.05271072], [-46.7233013, -22.05294029], [-46.72309892, -22.0531174], [-46.72274994, -22.05337196], [-46.72245698, -22.05362616], [-46.72225359, -22.05376898], [-46.72197138, -22.05395293], [-46.72158747, -22.05411704], [-46.72120021, -22.05419824], [-46.72059275, -22.05438562], [-46.72042761, -22.05451966], [-46.72016949, -22.05476497], [-46.72022858, -22.05489255], [-46.72050347, -22.05508701], [-46.72063951, -22.05540535], [-46.72086773, -22.05541897], [-46.72095846, -22.05559766], [-46.72097378, -22.05562173], [-46.72107949, -22.05561082], [-46.72109346, -22.05564846], [-46.72105257, -22.05566531], [-46.7211695, -22.05585381], [-46.72115634, -22.05600551], [-46.72144581, -22.05629693], [-46.72138427, -22.05641374], [-46.72157386, -22.05668284], [-46.72165767, -22.05668537], [-46.72175437, -22.05663551], [-46.72182191, -22.05670836], [-46.72174671, -22.05678856], [-46.72167053, -22.05682988], [-46.72167357, -22.05697779], [-46.72170175, -22.05706461], [-46.72176439, -22.05708417], [-46.72179587, -22.05723427], [-46.72186386, -22.05722916], [-46.72212974, -22.0572505], [-46.72273115, -22.05744931], [-46.72295005, -22.05748914], [-46.72320382, -22.05750224], [-46.72480897, -22.05747337], [-46.72516393, -22.05738952], [-46.72534353, -22.05728959], [-46.7254782, -22.05715937]]], [[[-46.72553117, -22.05866981], [-46.7255584, -22.0584919], [-46.72570932, -22.05828324], [-46.72590095, -22.05815186], [-46.72611218, -22.05791701], [-46.7263495, -22.05778719], [-46.72646836, -22.0576226], [-46.72658166, -22.05733], [-46.72705819, -22.05685817], [-46.72748733, -22.05667944], [-46.72776163, -22.05669642], [-46.72810385, -22.0568862], [-46.72828576, -22.05706167], [-46.72845887, -22.05686624], [-46.72874916, -22.05660658], [-46.7288426, -22.056259], [-46.72898485, -22.05603124], [-46.72917909, -22.0559191], [-46.72942451, -22.0559282], [-46.72962491, -22.0561213], [-46.72978614, -22.056381], [-46.729853, -22.05637548], [-46.73020726, -22.05625336], [-46.7306399, -22.05621532], [-46.73079803, -22.05613274], [-46.73095815, -22.05593828], [-46.73123971, -22.05580595], [-46.73136601, -22.05565394], [-46.73192265, -22.0553008], [-46.73228374, -22.05487352], [-46.73255116, -22.05457458], [-46.73286947, -22.05413782], [-46.73307109, -22.05393288], [-46.7335125, -22.05358581], [-46.73381913, -22.05316512], [-46.73401718, -22.05285389], [-46.73432081, -22.0525836], [-46.73469418, -22.0520796], [-46.73484621, -22.05163941], [-46.73495269, -22.05134991], [-46.7353419, -22.05106254], [-46.73549934, -22.05098274], [-46.73588546, -22.05084819], [-46.73622741, -22.0506892], [-46.73626019, -22.05066104], [-46.73636384, -22.05047085], [-46.73648517, -22.05016718], [-46.73665922, -22.049934], [-46.73654628, -22.04991056], [-46.73611674, -22.04975052], [-46.73625944, -22.04927515], [-46.73672883, -22.04920195], [-46.73673272, -22.04919679], [-46.73672421, -22.04891331], [-46.73680659, -22.0480912], [-46.73678413, -22.04783732], [-46.73653606, -22.04724261], [-46.73629397, -22.04660809], [-46.73612511, -22.0466296], [-46.73592476, -22.04677896], [-46.73576981, -22.0469365], [-46.73556414, -22.04695543], [-46.73548567, -22.04707903], [-46.73526344, -22.04755019], [-46.73644039, -22.04767635], [-46.73641523, -22.04770051], [-46.73649795, -22.04789883], [-46.73651484, -22.04808973], [-46.73643319, -22.04890448], [-46.73643525, -22.04897305], [-46.73631946, -22.04899111], [-46.73625791, -22.04900654], [-46.73620161, -22.04902801], [-46.73614865, -22.04905589], [-46.73609985, -22.04908974], [-46.73605598, -22.04912903], [-46.73601774, -22.04917313], [-46.73598573, -22.04922135], [-46.73596046, -22.04927293], [-46.73590764, -22.04944168], [-46.73593329, -22.04958929], [-46.73609002, -22.049884], [-46.73617762, -22.0500122], [-46.73617962, -22.05006574], [-46.7362109, -22.05007739], [-46.73617763, -22.05016066], [-46.73617403, -22.05022202], [-46.73610263, -22.05041503], [-46.73604204, -22.05046314], [-46.73603511, -22.05047586], [-46.73601319, -22.05048605], [-46.73600047, -22.05049615], [-46.73576937, -22.05059941], [-46.73537842, -22.05073565], [-46.73532598, -22.05076222], [-46.73520307, -22.05085976], [-46.73491955, -22.05113279], [-46.73459481, -22.05148753], [-46.73457785, -22.05153365], [-46.73428295, -22.05186413], [-46.7333504, -22.05165347], [-46.73323515, -22.05201203], [-46.73321249, -22.05210269], [-46.73303709, -22.05296964], [-46.73293258, -22.05331268], [-46.73276873, -22.05368831], [-46.7325587, -22.05407545], [-46.73234459, -22.05440936], [-46.73217852, -22.05459627], [-46.73181359, -22.05487731], [-46.73161888, -22.05497925], [-46.73032563, -22.05553995], [-46.73010415, -22.05559134], [-46.72988047, -22.05558237], [-46.72968039, -22.05554149], [-46.72950445, -22.05548879], [-46.72933439, -22.05545617], [-46.72912473, -22.05546621], [-46.72895238, -22.05550671], [-46.72878247, -22.05558593], [-46.72798939, -22.05600378], [-46.72769279, -22.05614642], [-46.72741491, -22.0562548], [-46.72717205, -22.05633559], [-46.72679239, -22.05645128], [-46.72654931, -22.05654091], [-46.72630919, -22.05666439], [-46.72607452, -22.05683752], [-46.72585861, -22.05705804], [-46.7256638, -22.05730521], [-46.72549544, -22.05746801], [-46.7252577, -22.05760027], [-46.72484148, -22.0576986], [-46.72319946, -22.05772813], [-46.72292001, -22.05771371], [-46.72266642, -22.05766757], [-46.7220785, -22.057473], [-46.72185292, -22.0574562], [-46.7218688, -22.05751347], [-46.72199719, -22.05783574], [-46.72219822, -22.05797501], [-46.72218534, -22.05810594], [-46.72200527, -22.05815252], [-46.72210274, -22.05829483], [-46.72273579, -22.05838876], [-46.72279979, -22.0581791], [-46.72315043, -22.05785172], [-46.72348028, -22.05783932], [-46.72364556, -22.05797487], [-46.72374797, -22.05826281], [-46.72397234, -22.05866045], [-46.72401129, -22.05909908], [-46.72416413, -22.05924604], [-46.72429912, -22.05927546], [-46.72447479, -22.05919895], [-46.72465707, -22.05888359], [-46.72498707, -22.05865905], [-46.72530517, -22.05859764], [-46.72553117, -22.05866981]]], [[[-46.73101887, -22.04939447], [-46.73074113, -22.04935013], [-46.73057436, -22.04922323], [-46.73045839, -22.04912415], [-46.7303246, -22.04904463], [-46.73026483, -22.04906999], [-46.73011384, -22.04892696], [-46.73004606, -22.04866415], [-46.72977944, -22.04838202], [-46.72946888, -22.04832538], [-46.72916462, -22.04819541], [-46.72910414, -22.04831116], [-46.72881618, -22.04824508], [-46.72846868, -22.04831125], [-46.72841739, -22.04841485], [-46.7278858, -22.04839167], [-46.72757818, -22.04822359], [-46.72744048, -22.04830956], [-46.7271154, -22.04839955], [-46.72715932, -22.04844643], [-46.72725319, -22.04847946], [-46.72735346, -22.0484849], [-46.72793325, -22.04853014], [-46.72826529, -22.04853084], [-46.7285194, -22.04848493], [-46.72883077, -22.04844238], [-46.72915859, -22.04848], [-46.72943799, -22.04860489], [-46.72969224, -22.04877287], [-46.73004167, -22.04903406], [-46.7304271, -22.04929206], [-46.73069797, -22.04942578], [-46.73094748, -22.04949963], [-46.7311999, -22.04951433], [-46.73182616, -22.04953158], [-46.73202054, -22.04957801], [-46.73197481, -22.04953452], [-46.73168278, -22.04930027], [-46.73129841, -22.04940944], [-46.73115219, -22.04942537], [-46.73101887, -22.04939447]]]]}}]}