{"type": "FeatureCollection", "features": [{"type": "Feature", "properties": {"name": "Reserva de Desenvolvimento Sustentável Barreiro/Anhemas"}, "geometry": {"type": "MultiPolygon", "coordinates": [[[[-48.47195571, -24.88497128], [-48.47230196, -24.88496232], [-48.47295835, -24.88484962], [-48.47320014, -24.88474588], [-48.47334485, -24.8846331], [-48.47350934, -24.88443008], [-48.47377347, -24.88393378], [-48.47392964, -24.88370367], [-48.47428678, -24.88341043], [-48.47482662, -24.88309466], [-48.47523261, -24.88272924], [-48.47569612, -24.88227357], [-48.47607927, -24.8816735], [-48.47605519, -24.8814524], [-48.4761486, -24.8811907], [-48.47649122, -24.88078916], [-48.47692904, -24.88041922], [-48.47732324, -24.8802072], [-48.47818859, -24.87997268], [-48.47839049, -24.87987795], [-48.47876181, -24.87962983], [-48.47904659, -24.87934108], [-48.47948845, -24.87876808], [-48.47953051, -24.87864626], [-48.479491, -24.87825369], [-48.47951237, -24.87799198], [-48.47962153, -24.87773029], [-48.47976099, -24.87753628], [-48.47984941, -24.87747312], [-48.48013848, -24.87735583], [-48.48027079, -24.87731863], [-48.48053358, -24.87727015], [-48.48063808, -24.87721601], [-48.48117485, -24.87654826], [-48.48153226, -24.87620988], [-48.48182288, -24.87602491], [-48.48235956, -24.87590314], [-48.48254444, -24.87580389], [-48.48306941, -24.8754926], [-48.48380522, -24.87495572], [-48.483919, -24.87481134], [-48.48411844, -24.87445038], [-48.48435994, -24.8738999], [-48.48450436, -24.87346674], [-48.48453344, -24.87320503], [-48.48440426, -24.87294331], [-48.48406738, -24.87222132], [-48.4838022, -24.87174299], [-48.48370794, -24.87151737], [-48.48341411, -24.87029451], [-48.4831026, -24.86950032], [-48.48273882, -24.86900393], [-48.48234783, -24.86862486], [-48.48202637, -24.86837214], [-48.48167894, -24.86818258], [-48.48150522, -24.86812391], [-48.48115623, -24.86805167], [-48.48098095, -24.86806519], [-48.48081989, -24.86811029], [-48.48060287, -24.86822307], [-48.48033731, -24.86838999], [-48.48016604, -24.86853888], [-48.47987263, -24.86886824], [-48.47952389, -24.86917503], [-48.47933004, -24.86931489], [-48.47899184, -24.86945473], [-48.47881687, -24.86945019], [-48.478611, -24.86940504], [-48.47824413, -24.86901242], [-48.47803147, -24.86890861], [-48.47753998, -24.86875513], [-48.4769422, -24.86838053], [-48.47668903, -24.86833537], [-48.47651314, -24.86832181], [-48.47633693, -24.86837142], [-48.47613567, -24.8684842], [-48.4758197, -24.86874586], [-48.47555383, -24.86889022], [-48.47515382, -24.86889467], [-48.47504007, -24.86884953], [-48.47498783, -24.86879537], [-48.4749486, -24.86868707], [-48.4749783, -24.86853366], [-48.47507325, -24.8682494], [-48.47511597, -24.86792452], [-48.47510548, -24.86782525], [-48.47505882, -24.86771244], [-48.474959, -24.86758608], [-48.47484187, -24.86745069], [-48.47434085, -24.86704451], [-48.47428677, -24.86696779], [-48.47412391, -24.86671959], [-48.47411283, -24.86648495], [-48.4741914, -24.8661691], [-48.47436519, -24.86583522], [-48.47449443, -24.86571792], [-48.47465549, -24.86562319], [-48.47500821, -24.86555104], [-48.47606233, -24.86542937], [-48.47694643, -24.86525352], [-48.47779284, -24.86497838], [-48.47817834, -24.86479794], [-48.47830233, -24.86458137], [-48.47842077, -24.86426101], [-48.47870152, -24.86378726], [-48.47925063, -24.86299768], [-48.47957833, -24.86274052], [-48.47986303, -24.86265933], [-48.48002222, -24.86265484], [-48.48033967, -24.86271805], [-48.48124317, -24.8629934], [-48.48152909, -24.86304307], [-48.48183171, -24.8630431], [-48.4821195, -24.86300253], [-48.48237546, -24.86291231], [-48.48261134, -24.86269123], [-48.48284971, -24.86235283], [-48.48296876, -24.86195576], [-48.48309957, -24.86150454], [-48.48332192, -24.86068333], [-48.4834991, -24.8601915], [-48.48367872, -24.85997042], [-48.48383915, -24.85989824], [-48.48451179, -24.85970427], [-48.48471426, -24.85958697], [-48.48497487, -24.85931626], [-48.48531371, -24.85870261], [-48.48540772, -24.85831005], [-48.4854538, -24.85808444], [-48.48548724, -24.85760614], [-48.48554598, -24.85744821], [-48.48584246, -24.85697444], [-48.48598437, -24.85665408], [-48.4860589, -24.85619834], [-48.48603388, -24.8561126], [-48.48591953, -24.85590051], [-48.48566053, -24.85569744], [-48.48521761, -24.85553044], [-48.48492428, -24.85551237], [-48.4848195, -24.85556199], [-48.48475458, -24.85563418], [-48.48432671, -24.85629294], [-48.48422099, -24.8563922], [-48.48411713, -24.85639219], [-48.48394405, -24.85629291], [-48.48361769, -24.85589579], [-48.4834134, -24.8557243], [-48.48289074, -24.85558436], [-48.48195202, -24.85549853], [-48.48144637, -24.85530896], [-48.48118675, -24.85513746], [-48.48089224, -24.85478095], [-48.48017893, -24.85420329], [-48.47974008, -24.85379712], [-48.47942519, -24.85331878], [-48.47943728, -24.85306158], [-48.4805559, -24.85287219], [-48.48095805, -24.85269626], [-48.48114446, -24.85253835], [-48.48141371, -24.85222703], [-48.48161837, -24.85194277], [-48.48174359, -24.85167205], [-48.48193031, -24.8513923], [-48.48214174, -24.85124793], [-48.48232752, -24.85116222], [-48.48261963, -24.85091407], [-48.48282895, -24.85039517], [-48.48291558, -24.84967772], [-48.48302566, -24.84931674], [-48.48330263, -24.84902347], [-48.48374588, -24.84877533], [-48.48466142, -24.8484054], [-48.48510405, -24.84818885], [-48.48531362, -24.8480535], [-48.48550311, -24.84777826], [-48.4857693, -24.84709241], [-48.48587935, -24.84692546], [-48.48595137, -24.84683522], [-48.48644314, -24.84658708], [-48.48662211, -24.84638855], [-48.4866237, -24.84592378], [-48.48666606, -24.84577939], [-48.48689111, -24.84531463], [-48.48691276, -24.84517024], [-48.48687723, -24.84503035], [-48.4867972, -24.84482277], [-48.48644058, -24.84432187], [-48.48637539, -24.84401503], [-48.4863853, -24.84386612], [-48.48645425, -24.84363599], [-48.48660448, -24.84340136], [-48.48680694, -24.84316222], [-48.4869649, -24.84284637], [-48.48707496, -24.84253051], [-48.48719493, -24.84193037], [-48.48746911, -24.84153331], [-48.48844832, -24.84040528], [-48.48883159, -24.83994053], [-48.48883377, -24.83982321], [-48.48861348, -24.83888913], [-48.48856654, -24.83846948], [-48.48857306, -24.8381491], [-48.48859503, -24.83784225], [-48.48863524, -24.8374226], [-48.48870635, -24.83707515], [-48.48876415, -24.83695784], [-48.48892797, -24.83672771], [-48.48911712, -24.83662394], [-48.4892701, -24.83658334], [-48.48966477, -24.83653824], [-48.49026, -24.83655182], [-48.49055144, -24.83650671], [-48.4906593, -24.8364661], [-48.49097485, -24.83636234], [-48.49130462, -24.83618637], [-48.49162358, -24.83592918], [-48.49183963, -24.83560881], [-48.49194131, -24.83542832], [-48.4919951, -24.8351666], [-48.49197379, -24.83503574], [-48.49169598, -24.83459351], [-48.49168177, -24.83450777], [-48.49173186, -24.83398434], [-48.49179152, -24.83377677], [-48.49196275, -24.83356921], [-48.49255088, -24.83324885], [-48.49280925, -24.83308642], [-48.49285808, -24.83302325], [-48.49293288, -24.83290141], [-48.49301726, -24.8326397], [-48.493076, -24.83211626], [-48.49313133, -24.8319493], [-48.49132742, -24.83033849], [-48.49026092, -24.83004093], [-48.48966237, -24.82933177], [-48.48769669, -24.82804034], [-48.48680596, -24.82662714], [-48.48620604, -24.82598785], [-48.48475529, -24.82575371], [-48.48353853, -24.82531376], [-48.48269901, -24.8251598], [-48.48157014, -24.82416203], [-48.48181543, -24.82339715], [-48.48267472, -24.8225727], [-48.48307173, -24.82188028], [-48.48378069, -24.82091347], [-48.48410817, -24.81987032], [-48.48466113, -24.8190407], [-48.48475465, -24.81820334], [-48.48462692, -24.8169428], [-48.48464527, -24.81603427], [-48.4852095, -24.81464554], [-48.48646003, -24.81340818], [-48.48747095, -24.81265616], [-48.48882585, -24.81178741], [-48.48811301, -24.81159333], [-48.48783647, -24.81148049], [-48.48747497, -24.81126387], [-48.48710636, -24.81095248], [-48.48675725, -24.81046059], [-48.48637382, -24.8101537], [-48.48503814, -24.80926914], [-48.48440011, -24.80893515], [-48.4840964, -24.80864181], [-48.48405627, -24.80838459], [-48.48425652, -24.8081635], [-48.48489587, -24.80764462], [-48.48504359, -24.80742803], [-48.48511097, -24.8072701], [-48.48515518, -24.80703997], [-48.48516392, -24.8062232], [-48.48492618, -24.80457611], [-48.48482951, -24.80422413], [-48.48472911, -24.80405264], [-48.48466732, -24.80397592], [-48.48437412, -24.80379991], [-48.48368293, -24.80380887], [-48.48319291, -24.80368698], [-48.48272793, -24.80341167], [-48.48178844, -24.80258126], [-48.48086259, -24.80152974], [-48.48075416, -24.80136727], [-48.48053362, -24.80086635], [-48.48035576, -24.80018043], [-48.48018187, -24.79972915], [-48.48000581, -24.79939972], [-48.47966446, -24.79897098], [-48.4794516, -24.79883107], [-48.47913523, -24.79873175], [-48.4784345, -24.79871812], [-48.47808445, -24.79866844], [-48.47636573, -24.79829366], [-48.47575524, -24.79812209], [-48.47536104, -24.79791897], [-48.47527547, -24.79784224], [-48.47507346, -24.79756244], [-48.47486285, -24.79697577], [-48.47477791, -24.79682685], [-48.47458393, -24.79658765], [-48.47426017, -24.79641612], [-48.47408592, -24.79637548], [-48.47308429, -24.79628507], [-48.4728155, -24.79622185], [-48.47220389, -24.79557645], [-48.47197839, -24.79537335], [-48.47175041, -24.79521086], [-48.47110817, -24.7948001], [-48.47037293, -24.79444348], [-48.46968897, -24.79409138], [-48.46947706, -24.79395596], [-48.4693291, -24.7938025], [-48.46922101, -24.79362649], [-48.46915432, -24.79340537], [-48.46915651, -24.79329255], [-48.46939259, -24.79311209], [-48.3921933, -24.81169848], [-48.39250896, -24.81180066], [-48.39344282, -24.81160486], [-48.39436571, -24.81193916], [-48.39562816, -24.81270376], [-48.39678125, -24.81314812], [-48.39909831, -24.81350678], [-48.40107126, -24.81364712], [-48.40209707, -24.81461975], [-48.40358767, -24.81560045], [-48.4041686, -24.81561054], [-48.40476058, -24.81509041], [-48.40581295, -24.81479042], [-48.4068674, -24.81438437], [-48.40873147, -24.81388794], [-48.41087838, -24.81392344], [-48.41092253, -24.81392046], [-48.41093542, -24.81385288], [-48.41092285, -24.81369494], [-48.41080353, -24.81329327], [-48.41080122, -24.81303154], [-48.41083306, -24.813009], [-48.41100559, -24.81236831], [-48.41150716, -24.81274312], [-48.41202639, -24.8130683], [-48.41289028, -24.8136644], [-48.4133391, -24.81390381], [-48.41357296, -24.81397612], [-48.41418622, -24.81415244], [-48.41480127, -24.81443706], [-48.41502985, -24.81458608], [-48.41577192, -24.8151986], [-48.41719308, -24.81419209], [-48.41740023, -24.81255602], [-48.41962789, -24.8113657], [-48.42219713, -24.81141002], [-48.42550277, -24.81135529], [-48.42784347, -24.81061362], [-48.43052353, -24.81121823], [-48.43321054, -24.81148783], [-48.43637219, -24.81068629], [-48.43656715, -24.81066525], [-48.43667892, -24.81054817], [-48.43690186, -24.81018724], [-48.43709961, -24.80956459], [-48.43714488, -24.80919007], [-48.43712129, -24.80879747], [-48.43704787, -24.80850864], [-48.43701606, -24.80848155], [-48.43660902, -24.80734876], [-48.43642127, -24.80642814], [-48.43643135, -24.80604458], [-48.43651459, -24.80585033], [-48.43681094, -24.80603807], [-48.43735009, -24.80643156], [-48.43850703, -24.80748885], [-48.43998883, -24.80912806], [-48.44123711, -24.80984106], [-48.44248618, -24.81051565], [-48.44416556, -24.81073649], [-48.44666451, -24.81226782], [-48.44695391, -24.81084844], [-48.4478799, -24.810262], [-48.44906531, -24.80993641], [-48.45016733, -24.80957096], [-48.45164025, -24.80959608], [-48.45285986, -24.80965529], [-48.45394774, -24.80998121], [-48.45882942, -24.81006427], [-48.46001166, -24.80989224], [-48.46099049, -24.80990886], [-48.46127946, -24.80988388], [-48.4612768, -24.8098872], [-48.46127615, -24.80990514], [-48.4612035, -24.81037078], [-48.46097414, -24.81070014], [-48.46073028, -24.81093023], [-48.46008499, -24.81130461], [-48.45895968, -24.81217072], [-48.4587594, -24.81229702], [-48.45790768, -24.81269841], [-48.45705504, -24.81305467], [-48.45685291, -24.81320803], [-48.45663963, -24.81344263], [-48.45647324, -24.81389383], [-48.4562831, -24.8141871], [-48.45601636, -24.81441718], [-48.45589552, -24.81448032], [-48.45510809, -24.81477793], [-48.45488497, -24.81481396], [-48.45426482, -24.81477316], [-48.45409701, -24.8148047], [-48.45334976, -24.81508427], [-48.45267446, -24.81540901], [-48.45211263, -24.81560738], [-48.45024051, -24.81605806], [-48.44948581, -24.81634662], [-48.44890694, -24.8166217], [-48.44847948, -24.81687427], [-48.4482767, -24.81706373], [-48.44819414, -24.81718554], [-48.44798287, -24.81779015], [-48.44784974, -24.81844894], [-48.4476049, -24.81871509], [-48.44710321, -24.81913007], [-48.44687411, -24.81944135], [-48.44672035, -24.81995122], [-48.44654169, -24.82084916], [-48.44644335, -24.8210206], [-48.44625664, -24.82119201], [-48.44598613, -24.82136356], [-48.44531457, -24.82167001], [-48.44499122, -24.82190002], [-48.44421835, -24.8227075], [-48.44354694, -24.82321718], [-48.44335898, -24.82341566], [-48.44304763, -24.82383972], [-48.44253623, -24.82516325], [-48.44277956, -24.82530031], [-48.44277512, -24.82531209], [-48.44867875, -24.82730385], [-48.45114732, -24.82596688], [-48.45314838, -24.82474856], [-48.45538701, -24.82328084], [-48.4571431, -24.82267418], [-48.45862507, -24.82212001], [-48.45936462, -24.82140357], [-48.46032159, -24.82071255], [-48.46113429, -24.81994201], [-48.46448048, -24.81661768], [-48.46551855, -24.81675732], [-48.46671143, -24.81775305], [-48.46807266, -24.81879781], [-48.47254412, -24.81985889], [-48.47086787, -24.82227058], [-48.47018351, -24.82162244], [-48.46961761, -24.82087023], [-48.46751303, -24.82147115], [-48.46574416, -24.82271421], [-48.4653718, -24.82387493], [-48.46300878, -24.82574437], [-48.46332721, -24.82723499], [-48.46563403, -24.82812289], [-48.46502488, -24.82949167], [-48.46262902, -24.83205472], [-48.46270823, -24.83211666], [-48.4624764, -24.83233771], [-48.46247577, -24.83236478], [-48.46226466, -24.83252718], [-48.46207209, -24.83261288], [-48.46184804, -24.83264441], [-48.4611156, -24.83262618], [-48.4608767, -24.83264868], [-48.46049004, -24.83283361], [-48.4601259, -24.83313134], [-48.45985632, -24.83346067], [-48.45970853, -24.83367724], [-48.45951585, -24.83413745], [-48.45943422, -24.8342683], [-48.45940849, -24.83451648], [-48.45931388, -24.83468792], [-48.45931262, -24.83474658], [-48.45925544, -24.8347962], [-48.4591546, -24.83508046], [-48.45906421, -24.83558583], [-48.4588947, -24.83609117], [-48.45879514, -24.83626262], [-48.45840883, -24.83669959], [-48.45842125, -24.83700864], [-48.45822558, -24.83796926], [-48.45936388, -24.83915561], [-48.46202381, -24.83983743], [-48.463866, -24.84071737], [-48.46592992, -24.84213151], [-48.4644942, -24.84412289], [-48.46446562, -24.84417755], [-48.46444252, -24.8442644], [-48.46422182, -24.84438167], [-48.46409136, -24.84451701], [-48.46403091, -24.84514874], [-48.46398114, -24.84525703], [-48.46389952, -24.84533372], [-48.46372332, -24.84539234], [-48.46335553, -24.84542836], [-48.46321211, -24.84547796], [-48.46313759, -24.84559978], [-48.46313319, -24.84581636], [-48.46307348, -24.84601941], [-48.46298353, -24.84611415], [-48.46287069, -24.84615926], [-48.46254338, -24.84621333], [-48.46240491, -24.84624487], [-48.46234369, -24.8462945], [-48.46230747, -24.84648401], [-48.46224841, -24.84661035], [-48.46216679, -24.84664643], [-48.4620237, -24.84666895], [-48.46165868, -24.84661923], [-48.46140338, -24.8466282], [-48.46105039, -24.84676348], [-48.46040617, -24.84712431], [-48.46014993, -24.84717389], [-48.45964027, -24.84713766], [-48.45804032, -24.84671761], [-48.45697592, -24.84654136], [-48.45634267, -24.84635619], [-48.45597736, -24.84632901], [-48.45514842, -24.84631977], [-48.45489438, -24.84627006], [-48.4546252, -24.84617523], [-48.4544632, -24.84636471], [-48.45400732, -24.84723094], [-48.45359571, -24.84786257], [-48.45313683, -24.84847611], [-48.45250917, -24.84918436], [-48.45222521, -24.84981151], [-48.45421756, -24.85005396], [-48.45514362, -24.8497542], [-48.45636429, -24.84939509], [-48.45812676, -24.84912437], [-48.4600804, -24.84925281], [-48.4615155, -24.84932432], [-48.46331475, -24.8487707], [-48.46447813, -24.84771516], [-48.46519342, -24.8479024], [-48.4654714, -24.84816649], [-48.46563505, -24.84838399], [-48.46575721, -24.84838448], [-48.46623839, -24.84861018], [-48.4668994, -24.84903448], [-48.46739969, -24.84952192], [-48.46760084, -24.84980172], [-48.46775189, -24.85021238], [-48.4679566, -24.8510833], [-48.46801838, -24.85120514], [-48.46812183, -24.8516203], [-48.4681397, -24.85190458], [-48.4681037, -24.8525002], [-48.46827703, -24.85282964], [-48.46707026, -24.85313173], [-48.4665754, -24.85318126], [-48.46623814, -24.85332559], [-48.46536709, -24.85345175], [-48.4651575, -24.85359159], [-48.46483318, -24.85392544], [-48.46464369, -24.85400662], [-48.46427894, -24.85407873], [-48.46313283, -24.8540153], [-48.46265717, -24.85392044], [-48.46163111, -24.8534464], [-48.4611564, -24.85329738], [-48.46067825, -24.8532702], [-48.45986595, -24.85327902], [-48.45938116, -24.85315952], [-48.45907783, -24.85315436], [-48.45703441, -24.85368621], [-48.45680081, -24.85393704], [-48.4564919, -24.85428893], [-48.45605556, -24.85492957], [-48.45583873, -24.85541684], [-48.45577004, -24.85567853], [-48.45584622, -24.85620199], [-48.45580934, -24.85646369], [-48.45556763, -24.85738866], [-48.45560457, -24.85791209], [-48.45531062, -24.8578669], [-48.45452953, -24.85784412], [-48.45411846, -24.85773119], [-48.45347038, -24.85745576], [-48.45291621, -24.85727511], [-48.45173921, -24.85715744], [-48.4510476, -24.85673309], [-48.4508257, -24.85665631], [-48.45015994, -24.85651171], [-48.44971769, -24.85632206], [-48.44897726, -24.85591121], [-48.44855077, -24.85573058], [-48.44777252, -24.8555724], [-48.4476458, -24.85556785], [-48.44713579, -24.85555867], [-48.44668203, -24.85559462], [-48.44646845, -24.85558552], [-48.44602183, -24.85551318], [-48.44580796, -24.85542738], [-48.44545477, -24.85518811], [-48.44523728, -24.85490376], [-48.44509586, -24.85456077], [-48.44481585, -24.85447494], [-48.44452903, -24.85446131], [-48.44433704, -24.8545154], [-48.4441599, -24.85462362], [-48.44396478, -24.85482211], [-48.44349779, -24.85544915], [-48.44334316, -24.85561155], [-48.44306893, -24.85576938], [-48.44247538, -24.85595419], [-48.4422812, -24.85611655], [-48.44207585, -24.85639173], [-48.44175264, -24.85673808], [-48.44085441, -24.85729877], [-48.44129962, -24.85826122], [-48.44396427, -24.85873115], [-48.44535398, -24.85900216], [-48.44662823, -24.85941666], [-48.44826898, -24.86010899], [-48.44936725, -24.86033895], [-48.44977833, -24.86049269], [-48.45032024, -24.86064341], [-48.4512479, -24.86076527], [-48.4511165, -24.86150565], [-48.4491382, -24.86157792], [-48.4472785, -24.86154612], [-48.4461204, -24.86131423], [-48.44495807, -24.86129434], [-48.44470377, -24.86235082], [-48.44432674, -24.86372354], [-48.44466451, -24.86425966], [-48.44557478, -24.86523002], [-48.44498277, -24.86575042], [-48.44508153, -24.86660078], [-48.44516935, -24.86798135], [-48.44517738, -24.86892539], [-48.4456482, -24.87032353], [-48.44824696, -24.87100446], [-48.45002316, -24.87162487], [-48.45160069, -24.87191052], [-48.4531435, -24.87222189], [-48.45600499, -24.87262216], [-48.45659712, -24.87210179], [-48.45755065, -24.87244086], [-48.45740493, -24.87311984], [-48.45741012, -24.87320983], [-48.45738607, -24.87324532], [-48.45740486, -24.87348447], [-48.45735681, -24.87389056], [-48.45732308, -24.87399433], [-48.45704569, -24.87431012], [-48.4569625, -24.87445451], [-48.45698584, -24.87490573], [-48.45673872, -24.8752847], [-48.45661394, -24.87591637], [-48.45627065, -24.87635397], [-48.45613857, -24.87657503], [-48.45607111, -24.87677807], [-48.45602829, -24.87726989], [-48.4559577, -24.87762182], [-48.45598358, -24.87791062], [-48.45605924, -24.87811821], [-48.45632079, -24.87847923], [-48.45673553, -24.87852903], [-48.45702273, -24.87851106], [-48.45740857, -24.8783803], [-48.45789091, -24.87816385], [-48.45808228, -24.87813681], [-48.45841647, -24.87814141], [-48.45938559, -24.87831764], [-48.45967123, -24.87838088], [-48.46005792, -24.87858402], [-48.46077189, -24.87913467], [-48.46160665, -24.88001477], [-48.46176857, -24.88027652], [-48.46194377, -24.88065107], [-48.46202875, -24.88075487], [-48.46254428, -24.8812784], [-48.46254394, -24.88130999], [-48.46282244, -24.88156274], [-48.46316368, -24.88176135], [-48.46337668, -24.88184714], [-48.46359988, -24.88187877], [-48.46404599, -24.88186985], [-48.4642528, -24.88192403], [-48.46439374, -24.88205042], [-48.46463355, -24.88237534], [-48.46501034, -24.88267324], [-48.46556192, -24.88255152], [-48.46589797, -24.88251549], [-48.46623186, -24.88254264], [-48.46688073, -24.8827413], [-48.46728016, -24.88270529], [-48.46748792, -24.88267375], [-48.46787034, -24.88269187], [-48.46809972, -24.8828002], [-48.46820883, -24.88293109], [-48.4686912, -24.88387873], [-48.46881544, -24.88403668], [-48.46898823, -24.88414952], [-48.46931995, -24.88428043], [-48.4699231, -24.88440689], [-48.47055495, -24.8846597], [-48.47122054, -24.88487189], [-48.47156338, -24.88494866], [-48.47195571, -24.88497128]]]]}}]}