{"type": "FeatureCollection", "features": [{"type": "Feature", "properties": {"name": "Reserva Particular do Patrimônio Natural Recanto Olho d' Água"}, "geometry": {"type": "MultiPolygon", "coordinates": [[[[-48.35751093, -22.70978287], [-48.35758203, -22.70976154], [-48.35904603, -22.70948018], [-48.35942587, -22.70942961], [-48.35961542, -22.70944336], [-48.36048749, -22.70935891], [-48.36129452, -22.70934967], [-48.36245618, -22.70919031], [-48.36254732, -22.70907349], [-48.36275766, -22.70898414], [-48.3631152, -22.70890387], [-48.36333538, -22.70892202], [-48.36343225, -22.70919016], [-48.36484102, -22.70926512], [-48.36502025, -22.70916313], [-48.36578519, -22.70914909], [-48.36597983, -22.70906526], [-48.36628055, -22.7090119], [-48.36653647, -22.70882908], [-48.36712904, -22.7083299], [-48.36744712, -22.70791698], [-48.36865344, -22.70748802], [-48.369074, -22.70751276], [-48.36873028, -22.70735423], [-48.36759863, -22.70746737], [-48.36689672, -22.70714315], [-48.36676278, -22.70719809], [-48.36626847, -22.70774041], [-48.36556864, -22.70789685], [-48.36481419, -22.70800135], [-48.36357264, -22.70806519], [-48.36254897, -22.70825417], [-48.36157489, -22.70836809], [-48.36089744, -22.70832422], [-48.36004253, -22.70866876], [-48.35891025, -22.70906834], [-48.3584009, -22.70916898], [-48.35751093, -22.70978287]]]]}}]}