{"type": "FeatureCollection", "features": [{"type": "Feature", "properties": {"name": "Reserva Particular do Patrimônio Natural O Primata"}, "geometry": {"type": "MultiPolygon", "coordinates": [[[[-45.98473663, -22.88999042], [-45.98500737, -22.88931838], [-45.98712894, -22.88386062], [-45.98718182, -22.88373194], [-45.98725621, -22.88351704], [-45.98922863, -22.87924038], [-45.98942694, -22.87777722], [-45.98987837, -22.87733307], [-45.99010085, -22.87662488], [-45.99028271, -22.87629202], [-45.990384, -22.876021], [-45.990273, -22.875723], [-45.990282, -22.875543], [-45.990389, -22.875262], [-45.990494, -22.874922], [-45.990578, -22.874672], [-45.990799, -22.874193], [-45.991011, -22.873652], [-45.991223, -22.873152], [-45.991448, -22.872705], [-45.991738, -22.872208], [-45.991975, -22.871824], [-45.992185, -22.871414], [-45.99245, -22.871066], [-45.992856, -22.870648], [-45.992941, -22.870572], [-45.993075, -22.870421], [-45.9932, -22.870265], [-45.993248, -22.870144], [-45.993258, -22.87005], [-45.993219, -22.86993], [-45.993092, -22.86981], [-45.992953, -22.869773], [-45.992714, -22.869747], [-45.992359, -22.869735], [-45.992057, -22.869721], [-45.991696, -22.869698], [-45.991128, -22.869603], [-45.990723, -22.869541], [-45.990236, -22.869453], [-45.989872, -22.869328], [-45.989464, -22.869222], [-45.989014, -22.869098], [-45.988689, -22.869032], [-45.988389, -22.868954], [-45.988068, -22.86884], [-45.987429, -22.868632], [-45.987164, -22.868601], [-45.986664, -22.868618], [-45.985892, -22.868654], [-45.985168, -22.868619], [-45.984759, -22.868571], [-45.98452, -22.868556], [-45.984348, -22.868555], [-45.983862, -22.868588], [-45.983717, -22.868596], [-45.983621, -22.868595], [-45.983527, -22.868602], [-45.98339, -22.868576], [-45.983244, -22.86854], [-45.982937, -22.868472], [-45.982728, -22.868389], [-45.982233, -22.868155], [-45.981766, -22.867907], [-45.981564, -22.867786], [-45.981115, -22.867441], [-45.980739, -22.867105], [-45.980598, -22.867025], [-45.980403, -22.866956], [-45.98005, -22.866959], [-45.979792, -22.866986], [-45.979509, -22.867072], [-45.979202, -22.867196], [-45.978413, -22.867446], [-45.977581, -22.867654], [-45.976832, -22.867577], [-45.97651, -22.867578], [-45.975935, -22.867696], [-45.97539155, -22.86830344], [-45.97546046, -22.86936057], [-45.97500219, -22.87019321], [-45.97329818, -22.8705353], [-45.97172972, -22.87036748], [-45.97018749, -22.86916154], [-45.96841807, -22.86759347], [-45.96653522, -22.86899125], [-45.96469283, -22.86877365], [-45.96357765, -22.86942298], [-45.96384212, -22.87100038], [-45.96307829, -22.87173839], [-45.9625097, -22.87274188], [-45.96410023, -22.87271995], [-45.96560979, -22.87349541], [-45.96598089, -22.87383287], [-45.96700498, -22.87529231], [-45.96716098, -22.87612506], [-45.96728701, -22.8771051], [-45.96741446, -22.87792766], [-45.967545, -22.87860531], [-45.96808381, -22.87943748], [-45.96833976, -22.88037273], [-45.96791844, -22.88167664], [-45.96777624, -22.88230512], [-45.96788695, -22.88293606], [-45.96919315, -22.88239855], [-45.96933999, -22.88221237], [-45.96967783, -22.88191765], [-45.96983323, -22.88230508], [-45.97007803, -22.88214605], [-45.97026535, -22.88192174], [-45.97044896, -22.88158468], [-45.97053393, -22.88147166], [-45.97051755, -22.88123993], [-45.97043785, -22.88095815], [-45.97029741, -22.88064093], [-45.97022293, -22.88034279], [-45.97005919, -22.88017154], [-45.97006921, -22.87994032], [-45.96991347, -22.87985898], [-45.96987705, -22.87977306], [-45.96975749, -22.87971133], [-45.96952823, -22.87970976], [-45.96937179, -22.87973984], [-45.96924042, -22.87963356], [-45.96928903, -22.87938203], [-45.96918784, -22.87922562], [-45.96919994, -22.87899801], [-45.96912731, -22.87887431], [-45.96905616, -22.87879463], [-45.9689496, -22.87866501], [-45.96905057, -22.8784082], [-45.96909932, -22.87826542], [-45.96931674, -22.87772522], [-45.96926169, -22.8773711], [-45.9693733, -22.87711108], [-45.96941916, -22.87683761], [-45.96938791, -22.87664449], [-45.96924601, -22.87637066], [-45.96920209, -22.87618086], [-45.96921142, -22.87592105], [-45.96912013, -22.87558104], [-45.96910869, -22.8754496], [-45.96906318, -22.87530449], [-45.96931043, -22.87521856], [-45.96949988, -22.8751198], [-45.97024918, -22.87494456], [-45.97018235, -22.87467371], [-45.97034883, -22.87445701], [-45.97021947, -22.87398393], [-45.97064239, -22.8746071], [-45.970994, -22.87492917], [-45.97120968, -22.87477954], [-45.9713623, -22.87481058], [-45.97164003, -22.87491861], [-45.97205486, -22.87491383], [-45.97243047, -22.8750936], [-45.97909108, -22.87933299], [-45.97865778, -22.8825354], [-45.9786225, -22.88306948], [-45.97901994, -22.88308754], [-45.97935349, -22.88322748], [-45.97971688, -22.88344914], [-45.98033604, -22.88391302], [-45.98101043, -22.8844729], [-45.98080525, -22.88474166], [-45.98095215, -22.88575385], [-45.98135575, -22.88584861], [-45.98163568, -22.88609792], [-45.98230559, -22.88616424], [-45.98284039, -22.88654015], [-45.98351445, -22.88708597], [-45.98326007, -22.88742198], [-45.98321481, -22.88781065], [-45.98351597, -22.88819964], [-45.98362622, -22.88867353], [-45.98364488, -22.88884145], [-45.98376621, -22.88951499], [-45.98473663, -22.88999042]]]]}}]}