{"type": "FeatureCollection", "features": [{"type": "Feature", "properties": {"name": "Reserva Particular do Patrimônio Natural São Elias"}, "geometry": {"type": "MultiPolygon", "coordinates": [[[[-47.5172093, -23.02094517], [-47.51614255, -23.0214498], [-47.51634381, -23.02172608], [-47.51662924, -23.02211802], [-47.51670871, -23.02222725], [-47.51820516, -23.02098195], [-47.51846061, -23.02077856], [-47.51833541, -23.0205648], [-47.51823995, -23.02067049], [-47.51812173, -23.0205441], [-47.51803176, -23.02052558], [-47.51794803, -23.02056437], [-47.51789518, -23.02061216], [-47.51786028, -23.02068656], [-47.51781199, -23.02074366], [-47.51776479, -23.02077528], [-47.51771555, -23.02078148], [-47.51762152, -23.02079634], [-47.51756235, -23.02081344], [-47.51745557, -23.02084601], [-47.51741377, -23.02085868], [-47.51738809, -23.02088329], [-47.51728977, -23.02090363], [-47.51720094, -23.02093059], [-47.5172093, -23.02094517]]], [[[-47.51719666, -23.02092055], [-47.51712537, -23.02075305], [-47.51710399, -23.02075149], [-47.51702297, -23.02077382], [-47.51695785, -23.02075987], [-47.51693299, -23.02073399], [-47.51675239, -23.02086677], [-47.51645213, -23.02062664], [-47.51670374, -23.02044182], [-47.51687795, -23.020664], [-47.51684971, -23.02059296], [-47.51682255, -23.02052695], [-47.51677181, -23.02047856], [-47.516726, -23.0204327], [-47.51659964, -23.02042966], [-47.5165171, -23.0204595], [-47.51646065, -23.0205235], [-47.51639203, -23.0206145], [-47.51630887, -23.0206216], [-47.51623858, -23.02056025], [-47.51614715, -23.02056802], [-47.5161624, -23.02058069], [-47.51626956, -23.02060047], [-47.51630694, -23.02088523], [-47.51643296, -23.02085488], [-47.5164901, -23.02105366], [-47.51599995, -23.02117077], [-47.51589681, -23.02098401], [-47.51624412, -23.0209004], [-47.51624358, -23.02088723], [-47.5160077, -23.0208945], [-47.51605524, -23.02056082], [-47.51602262, -23.02055827], [-47.51596502, -23.02089654], [-47.51586533, -23.02092214], [-47.51565217, -23.02072972], [-47.51564568, -23.02053745], [-47.51561113, -23.02053602], [-47.51546466, -23.02052634], [-47.51537158, -23.02032471], [-47.51528228, -23.0201482], [-47.51532336, -23.02004382], [-47.51532353, -23.01991102], [-47.5152651, -23.01986871], [-47.51521218, -23.01979183], [-47.51510763, -23.01967099], [-47.51505768, -23.01959126], [-47.51499705, -23.01949274], [-47.51499483, -23.01936793], [-47.51502095, -23.01921486], [-47.51507277, -23.01900659], [-47.51520306, -23.01892742], [-47.51530134, -23.01882584], [-47.5154039, -23.01871326], [-47.51548172, -23.0185712], [-47.51552263, -23.01842692], [-47.51551422, -23.01840467], [-47.51554939, -23.01839334], [-47.51554952, -23.01839364], [-47.51556183, -23.0184263], [-47.51551679, -23.0185849], [-47.5154351, -23.01873416], [-47.51549876, -23.0186594], [-47.51588195, -23.0188491], [-47.51582814, -23.01893446], [-47.51535581, -23.01882317], [-47.5153292, -23.0188504], [-47.51522719, -23.01895584], [-47.51510578, -23.01902963], [-47.51505767, -23.01922258], [-47.51503234, -23.01937131], [-47.51503423, -23.01948376], [-47.51508994, -23.01957414], [-47.51513838, -23.01965136], [-47.51524233, -23.01977158], [-47.51529285, -23.01984498], [-47.51536096, -23.01989427], [-47.51536075, -23.02005099], [-47.51532294, -23.02014728], [-47.51551454, -23.02007156], [-47.51541428, -23.01994], [-47.51529475, -23.01976334], [-47.51515001, -23.01953193], [-47.51508768, -23.019405], [-47.5150785, -23.01938339], [-47.51507315, -23.0192951], [-47.51506574, -23.01924213], [-47.51509077, -23.01917728], [-47.5150992, -23.01913246], [-47.51509927, -23.0190996], [-47.51511885, -23.01907726], [-47.51515182, -23.01901472], [-47.51517082, -23.01899772], [-47.51520043, -23.01898542], [-47.51521478, -23.01899666], [-47.51524476, -23.0189988], [-47.51529745, -23.01902098], [-47.51533646, -23.01906279], [-47.51536412, -23.01909241], [-47.51537843, -23.01912261], [-47.51535094, -23.01913388], [-47.51533595, -23.01913538], [-47.51531417, -23.01915965], [-47.51529135, -23.01917572], [-47.5152652, -23.01922235], [-47.51528541, -23.01925507], [-47.51531057, -23.01926532], [-47.51532386, -23.01928777], [-47.51534376, -23.01929847], [-47.51536906, -23.01929039], [-47.51536116, -23.01925351], [-47.51536203, -23.01922686], [-47.51537464, -23.01920229], [-47.51541167, -23.01916893], [-47.51541771, -23.01914744], [-47.51543689, -23.01912502], [-47.51546858, -23.0191033], [-47.51549376, -23.01907284], [-47.51550024, -23.01904872], [-47.51548584, -23.01900851], [-47.51546149, -23.01897901], [-47.51544099, -23.01893059], [-47.5155113, -23.01892487], [-47.51553275, -23.01890882], [-47.51555656, -23.0189042], [-47.51558776, -23.0189093], [-47.51561452, -23.01890084], [-47.5156259, -23.01891456], [-47.51562684, -23.01893387], [-47.51565252, -23.01896704], [-47.5157171, -23.01896782], [-47.51577105, -23.01895342], [-47.51579716, -23.01895698], [-47.51584932, -23.01895064], [-47.51590669, -23.01896282], [-47.5159437, -23.01897568], [-47.51594996, -23.01898181], [-47.51600334, -23.01898376], [-47.51606076, -23.01897219], [-47.51609085, -23.01896973], [-47.51613354, -23.01897338], [-47.51620723, -23.01903414], [-47.51626393, -23.01909913], [-47.51625373, -23.01912782], [-47.51623407, -23.01915098], [-47.51617407, -23.01917585], [-47.51613513, -23.01920626], [-47.51611539, -23.01921443], [-47.51609283, -23.01925487], [-47.51607375, -23.01926185], [-47.51604865, -23.01925467], [-47.51601141, -23.01925039], [-47.51598714, -23.01927731], [-47.5159921, -23.01929791], [-47.51600904, -23.01930648], [-47.51621226, -23.01929991], [-47.51620584, -23.01929026], [-47.51621613, -23.01927232], [-47.51623605, -23.01926839], [-47.51625883, -23.01927633], [-47.51632096, -23.01931886], [-47.51636005, -23.01932825], [-47.51638539, -23.01930646], [-47.51638505, -23.01928778], [-47.51639797, -23.01926924], [-47.51642064, -23.01924559], [-47.51643907, -23.01922968], [-47.5164504, -23.0191989], [-47.51642219, -23.01917651], [-47.51640476, -23.0191572], [-47.51638184, -23.01914673], [-47.51633403, -23.01915597], [-47.51630356, -23.0191431], [-47.51629564, -23.01911569], [-47.51628942, -23.01910676], [-47.51628118, -23.01907223], [-47.516282, -23.01904324], [-47.51629887, -23.01900623], [-47.51631438, -23.01898522], [-47.5163494, -23.01895957], [-47.51638615, -23.01890085], [-47.51633161, -23.01884168], [-47.51620479, -23.01899743], [-47.51583177, -23.01875683], [-47.51598546, -23.01861952], [-47.51592552, -23.01858499], [-47.51574533, -23.01875532], [-47.5155292, -23.0186228], [-47.51565746, -23.01841882], [-47.5154982, -23.0182756], [-47.51549644, -23.01827171], [-47.51545409, -23.01829143], [-47.5154894, -23.018323], [-47.51545889, -23.01834507], [-47.51542349, -23.01831349], [-47.51536946, -23.0183343], [-47.51548899, -23.01846889], [-47.51545798, -23.01854792], [-47.51530838, -23.01867975], [-47.51520239, -23.01865959], [-47.51512256, -23.01874617], [-47.51499627, -23.01888314], [-47.51497041, -23.01891379], [-47.51483506, -23.01930403], [-47.5148511, -23.01932752], [-47.51497808, -23.01990127], [-47.5146332, -23.02000956], [-47.51454144, -23.01934751], [-47.51454374, -23.0193138], [-47.51458528, -23.01884029], [-47.5143822, -23.01890716], [-47.51445096, -23.01934931], [-47.51460479, -23.02009198], [-47.51502887, -23.01996762], [-47.51499874, -23.01992824], [-47.51502897, -23.01996761], [-47.51546051, -23.02052902], [-47.51555656, -23.02065397], [-47.51593469, -23.0211645], [-47.5159478, -23.02118244], [-47.51613604, -23.02144078], [-47.51614255, -23.0214498], [-47.51615289, -23.02144476], [-47.51710497, -23.0209777], [-47.5169523, -23.0209127], [-47.51700868, -23.02087127], [-47.5171432, -23.02094089], [-47.51710708, -23.02097568], [-47.51710767, -23.02097631], [-47.5171906, -23.02093563], [-47.51720094, -23.02093059], [-47.51719666, -23.02092055]]]]}}]}