{"type": "FeatureCollection", "features": [{"type": "Feature", "properties": {"name": "Reserva Particular do Patrimônio Natural Mata Virgem"}, "geometry": {"type": "MultiPolygon", "coordinates": [[[[-46.73999667, -23.887045], [-46.74005278, -23.88700222], [-46.74008833, -23.88695972], [-46.74007917, -23.88692056], [-46.74012722, -23.88679972], [-46.74031667, -23.88672778], [-46.74009444, -23.886425], [-46.7400675, -23.88617889], [-46.73877278, -23.88604972], [-46.73876722, -23.88644361], [-46.73856806, -23.88644028], [-46.73851889, -23.88691694], [-46.73999667, -23.887045]]]]}}]}