{"type": "FeatureCollection", "features": [{"type": "Feature", "properties": {"name": "Reserva Particular do Patrimônio Natural Floresta das Águas Perenes"}, "geometry": {"type": "MultiPolygon", "coordinates": [[[[-48.14248709, -22.23356544], [-48.14459341, -22.23248339], [-48.14456033, -22.23246033], [-48.14443538, -22.23237329], [-48.14439671, -22.23230094], [-48.14427611, -22.23207552], [-48.14415403, -22.23173723], [-48.14408851, -22.2314634], [-48.14407093, -22.23131217], [-48.14408744, -22.2312389], [-48.14427098, -22.23084641], [-48.14588202, -22.22846253], [-48.1459254, -22.22839821], [-48.14635288, -22.22718112], [-48.14647837, -22.22666702], [-48.14653957, -22.22648856], [-48.14667321, -22.22626598], [-48.14687511, -22.22606715], [-48.1470558, -22.22591489], [-48.14764019, -22.22532138], [-48.1480394, -22.22485793], [-48.148257, -22.22463474], [-48.14827029, -22.22453857], [-48.1482121, -22.22436262], [-48.1481001, -22.22402379], [-48.14808512, -22.22398291], [-48.14800007, -22.22374972], [-48.14781959, -22.22332141], [-48.14775136, -22.2232249], [-48.1477261, -22.22318916], [-48.14759607, -22.22306114], [-48.14727468, -22.2227552], [-48.14723934, -22.22272931], [-48.14721651, -22.22271257], [-48.14715121, -22.2226912], [-48.14659041, -22.22269436], [-48.14629285, -22.222696], [-48.1462031, -22.22273838], [-48.14604782, -22.2229809], [-48.14593181, -22.22306073], [-48.14591154, -22.22306606], [-48.14454045, -22.22342434], [-48.1444154, -22.22345698], [-48.14418919, -22.22352088], [-48.1440608, -22.2236042], [-48.14384301, -22.22386935], [-48.14362294, -22.22418059], [-48.14349997, -22.22450329], [-48.14333164, -22.22511682], [-48.14287161, -22.22635581], [-48.14280399, -22.22659246], [-48.14274101, -22.22703535], [-48.14273117, -22.22709521], [-48.14274666, -22.22716805], [-48.14272407, -22.2272302], [-48.14265455, -22.2273262], [-48.1425997, -22.22734906], [-48.14241637, -22.22738727], [-48.14228271, -22.22739042], [-48.14198746, -22.22724442], [-48.14189912, -22.22719277], [-48.1418015, -22.22707751], [-48.14164969, -22.2266664], [-48.14159344, -22.22651413], [-48.14148326, -22.2262443], [-48.14132736, -22.22586245], [-48.14129457, -22.22578217], [-48.14115849, -22.2255321], [-48.14084535, -22.22512095], [-48.14084531, -22.22512099], [-48.14080833, -22.22507237], [-48.14058399, -22.22474312], [-48.14038298, -22.22429134], [-48.13993182, -22.22309573], [-48.13982005, -22.2228135], [-48.13977099, -22.22274196], [-48.13965488, -22.22262104], [-48.13906941, -22.22212089], [-48.13864292, -22.22168283], [-48.13854002, -22.22160845], [-48.13842723, -22.22157749], [-48.1381774, -22.22157291], [-48.13779895, -22.22160055], [-48.13749162, -22.22164424], [-48.13741752, -22.22163644], [-48.13728295, -22.22157468], [-48.13659282, -22.22115914], [-48.13646806, -22.22106777], [-48.13623711, -22.22084057], [-48.13608139, -22.22071308], [-48.13575097, -22.22051934], [-48.13542244, -22.2203898], [-48.13487284, -22.22024824], [-48.13443405, -22.22013517], [-48.13425284, -22.22009795], [-48.13384802, -22.22007349], [-48.13373277, -22.22002497], [-48.13369613, -22.21997721], [-48.13360462, -22.21974849], [-48.13327783, -22.219071], [-48.13316932, -22.21892972], [-48.13308477, -22.21886397], [-48.13285975, -22.21876008], [-48.13220645, -22.21851722], [-48.13208769, -22.2184699], [-48.13199114, -22.21846477], [-48.13143291, -22.21870034], [-48.13137687, -22.21872463], [-48.13048336, -22.2191293], [-48.13035384, -22.21914398], [-48.13030438, -22.21914961], [-48.13005847, -22.21915718], [-48.12986233, -22.21916329], [-48.12971863, -22.21914126], [-48.12942536, -22.21902343], [-48.12917981, -22.21888984], [-48.12912454, -22.21885213], [-48.12906918, -22.21881451], [-48.1290304, -22.2187482], [-48.12891103, -22.21877371], [-48.12862214, -22.21885481], [-48.12850712, -22.21889511], [-48.12843926, -22.21891883], [-48.12843868, -22.21891891], [-48.12843868, -22.218919], [-48.12833977, -22.21895372], [-48.12833704, -22.21895448], [-48.12833431, -22.21895506], [-48.12833159, -22.21895547], [-48.12832877, -22.21895569], [-48.12832606, -22.21895564], [-48.1279907, -22.21909053], [-48.12767581, -22.21928228], [-48.12767266, -22.21928457], [-48.12765484, -22.21929779], [-48.12764618, -22.21930423], [-48.12747147, -22.21943383], [-48.12744164, -22.21945595], [-48.12740166, -22.21949153], [-48.12730647, -22.21957641], [-48.12720269, -22.21968831], [-48.12714055, -22.21975518], [-48.12707953, -22.21984283], [-48.12704947, -22.21988598], [-48.12696587, -22.22003542], [-48.12687283, -22.2202671], [-48.12678521, -22.22048516], [-48.126393, -22.22147282], [-48.12639199, -22.22147497], [-48.12639088, -22.22147712], [-48.12638958, -22.22147917], [-48.12638809, -22.22148104], [-48.12638669, -22.22148273], [-48.12638859, -22.22148475], [-48.12639882, -22.22149197], [-48.12641104, -22.22149652], [-48.12651552, -22.22153556], [-48.1266657, -22.22159183], [-48.12666667, -22.22159211], [-48.12734108, -22.22187391], [-48.12734204, -22.22187438], [-48.12795228, -22.22216064], [-48.12810816, -22.2222088], [-48.12818341, -22.22221699], [-48.12833681, -22.22221085], [-48.12846289, -22.22219845], [-48.1285036, -22.22219439], [-48.12936026, -22.22211005], [-48.12936201, -22.2221099], [-48.12994548, -22.22209276], [-48.12994664, -22.22209278], [-48.12994771, -22.2220928], [-48.1302988, -22.22211353], [-48.13030093, -22.22211375], [-48.13030306, -22.22211415], [-48.13047269, -22.22215307], [-48.13047472, -22.22215364], [-48.13047664, -22.22215431], [-48.13063951, -22.22222109], [-48.13064028, -22.22222137], [-48.1317819, -22.22273552], [-48.13178344, -22.22273618], [-48.13202137, -22.22286313], [-48.13202233, -22.22286369], [-48.13202319, -22.22286425], [-48.13232754, -22.2230626], [-48.13232887, -22.22306353], [-48.13247095, -22.22317037], [-48.132472, -22.2231712], [-48.13247296, -22.22317203], [-48.13309938, -22.22376004], [-48.13310023, -22.22376086], [-48.13340271, -22.22407498], [-48.13354102, -22.22418646], [-48.13369934, -22.22427626], [-48.13403052, -22.22442842], [-48.13403205, -22.22442926], [-48.13403358, -22.22443019], [-48.13422754, -22.22455591], [-48.13455714, -22.2247427], [-48.13515928, -22.22501886], [-48.13516033, -22.22501942], [-48.13516139, -22.22501998], [-48.13553171, -22.22523519], [-48.13590689, -22.22543587], [-48.13590794, -22.22543643], [-48.13623626, -22.22563393], [-48.1362375, -22.22563476], [-48.13623875, -22.2256356], [-48.13623989, -22.22563661], [-48.13643376, -22.22580954], [-48.1365878, -22.22591975], [-48.13677069, -22.22602244], [-48.13739918, -22.22630475], [-48.13740091, -22.22630559], [-48.13740263, -22.22630662], [-48.13787247, -22.22661555], [-48.13787352, -22.22661629], [-48.13801901, -22.22672284], [-48.13801996, -22.22672358], [-48.13802091, -22.22672441], [-48.13822292, -22.22690749], [-48.1382232, -22.22690777], [-48.13834859, -22.22702533], [-48.13835002, -22.2270268], [-48.13849647, -22.22719086], [-48.13849732, -22.22719178], [-48.13849808, -22.22719278], [-48.13853672, -22.22724735], [-48.13853776, -22.22724881], [-48.1385386, -22.22725045], [-48.13853934, -22.22725209], [-48.13853989, -22.22725381], [-48.13855022, -22.22728893], [-48.13855684, -22.22731143], [-48.13856981, -22.22735552], [-48.13857026, -22.22735743], [-48.13857061, -22.22735933], [-48.13857067, -22.22736123], [-48.13857063, -22.22736312], [-48.1385704, -22.22736501], [-48.13855086, -22.22748183], [-48.13898513, -22.22687858], [-48.13928359, -22.22645084], [-48.13983496, -22.22684127], [-48.14000025, -22.22694654], [-48.14003886, -22.2270836], [-48.14032165, -22.22714608], [-48.14065973, -22.22725041], [-48.14077348, -22.22729203], [-48.14075653, -22.22749645], [-48.14095035, -22.22763877], [-48.14075356, -22.22780528], [-48.14085736, -22.22783527], [-48.14132147, -22.22834105], [-48.14160156, -22.22858959], [-48.14153222, -22.22871483], [-48.14157329, -22.22903661], [-48.14134486, -22.22906617], [-48.1414153, -22.22941249], [-48.14159666, -22.22945693], [-48.14157247, -22.22957411], [-48.1417525, -22.22951725], [-48.14169743, -22.22969889], [-48.14164867, -22.22993244], [-48.14184839, -22.22998993], [-48.14154313, -22.23038939], [-48.14137329, -22.23040779], [-48.14119238, -22.2307421], [-48.1411048, -22.23105892], [-48.14185542, -22.23170278], [-48.14200756, -22.23203627], [-48.1411498, -22.23258216], [-48.14122215, -22.23283933], [-48.14062693, -22.23280241], [-48.14073893, -22.2333697], [-48.14094307, -22.2334724], [-48.1407421, -22.23375337], [-48.14105746, -22.23380739], [-48.14094134, -22.23394453], [-48.14122347, -22.23419753], [-48.1412487, -22.23424934], [-48.14156322, -22.23405304], [-48.14200923, -22.23381772], [-48.14248709, -22.23356544]]], [[[-48.12689549, -22.2200303], [-48.12690305, -22.22001148], [-48.12690386, -22.22000969], [-48.12690477, -22.22000799], [-48.12698999, -22.21985542], [-48.12699079, -22.21985408], [-48.12699159, -22.21985283], [-48.12702525, -22.2198045], [-48.12708487, -22.21971899], [-48.12708626, -22.21971721], [-48.12708765, -22.21971552], [-48.12716952, -22.21962734], [-48.12725606, -22.219534], [-48.12725715, -22.21953285], [-48.12725833, -22.21953178], [-48.1273699, -22.2194323], [-48.12739577, -22.21940929], [-48.12739695, -22.21940832], [-48.12739813, -22.21940744], [-48.12744351, -22.21937376], [-48.12761488, -22.21924663], [-48.12762039, -22.21924248], [-48.12763082, -22.21923482], [-48.12763466, -22.2192319], [-48.12763594, -22.21923102], [-48.12763722, -22.21923023], [-48.12795594, -22.21903612], [-48.1279584, -22.21903471], [-48.12796104, -22.21903359], [-48.12807373, -22.21898828], [-48.12834125, -22.21888072], [-48.12835105, -22.21887097], [-48.12835139, -22.21886862], [-48.12834135, -22.2188476], [-48.12832035, -22.21883161], [-48.12803324, -22.21876318], [-48.12803141, -22.21876269], [-48.12802948, -22.21876212], [-48.12793237, -22.21872755], [-48.12792997, -22.21872651], [-48.12792757, -22.21872538], [-48.12792527, -22.21872408], [-48.12792317, -22.2187226], [-48.12776697, -22.21860467], [-48.12768429, -22.21854228], [-48.12768305, -22.21854126], [-48.12768181, -22.21854025], [-48.1276172, -22.21848089], [-48.12760673, -22.21847123], [-48.12760502, -22.21846948], [-48.12760341, -22.21846774], [-48.12753288, -22.21838029], [-48.12753137, -22.21837819], [-48.12753015, -22.21837627], [-48.12752996, -22.21837609], [-48.12752884, -22.21837381], [-48.12748372, -22.21827616], [-48.12748289, -22.21827407], [-48.12748215, -22.21827198], [-48.12748161, -22.2182699], [-48.12748117, -22.21826772], [-48.12745816, -22.21810322], [-48.12745792, -22.21810069], [-48.12745787, -22.21809816], [-48.12745812, -22.21809555], [-48.12754318, -22.2173987], [-48.12754691, -22.21718268], [-48.12750013, -22.2169664], [-48.12748555, -22.2169303], [-48.12741632, -22.21675975], [-48.12733955, -22.21663564], [-48.12722335, -22.2165102], [-48.12718276, -22.21646633], [-48.12706875, -22.21636666], [-48.12673539, -22.21614721], [-48.12673376, -22.2161461], [-48.12673224, -22.21614481], [-48.12673071, -22.21614351], [-48.12661851, -22.21603647], [-48.1266168, -22.21603463], [-48.12661519, -22.21603271], [-48.12661368, -22.21603061], [-48.12661247, -22.21602842], [-48.12654253, -22.21589739], [-48.12654151, -22.2158952], [-48.12654058, -22.21589293], [-48.12653949, -22.21588966], [-48.12644848, -22.21562232], [-48.12643097, -22.21559214], [-48.12631465, -22.21539186], [-48.12622764, -22.21529474], [-48.12598718, -22.21515004], [-48.12598574, -22.21514912], [-48.12598507, -22.21514865], [-48.12598441, -22.2151481], [-48.12591518, -22.21509651], [-48.12590095, -22.21508579], [-48.12589876, -22.21508403], [-48.12589676, -22.21508219], [-48.12589496, -22.21508009], [-48.12586915, -22.21504804], [-48.12586745, -22.21504575], [-48.12586605, -22.21504329], [-48.12586484, -22.21504074], [-48.12586383, -22.21503811], [-48.12584906, -22.21499235], [-48.1248528, -22.21600544], [-48.1235456, -22.21731052], [-48.12354762, -22.21731146], [-48.1236267, -22.21732703], [-48.12362824, -22.21732742], [-48.12362978, -22.2173278], [-48.12367619, -22.21734325], [-48.12454038, -22.21763004], [-48.12454183, -22.21763052], [-48.12454308, -22.21763108], [-48.12454442, -22.21763173], [-48.12469766, -22.21771387], [-48.12469947, -22.21771499], [-48.1249794, -22.21789739], [-48.12498084, -22.21789832], [-48.12498208, -22.21789943], [-48.12509913, -22.2180016], [-48.12510046, -22.21800288], [-48.12510179, -22.21800426], [-48.12510293, -22.21800573], [-48.12510386, -22.21800737], [-48.12518243, -22.21814297], [-48.12518336, -22.21814471], [-48.1251841, -22.21814643], [-48.12524379, -22.21830942], [-48.12524425, -22.21831096], [-48.1253968, -22.21885442], [-48.12539716, -22.21885596], [-48.12547162, -22.2192259], [-48.12567401, -22.21985472], [-48.12587664, -22.2203338], [-48.12612154, -22.22084639], [-48.12623311, -22.22107989], [-48.12626974, -22.22115663], [-48.1262703, -22.22115772], [-48.12627076, -22.2211589], [-48.12627168, -22.22116153], [-48.12630902, -22.22127006], [-48.12630938, -22.22127124], [-48.12630974, -22.22127242], [-48.12634184, -22.2214193], [-48.12672158, -22.22046319], [-48.12672158, -22.2204631], [-48.12689549, -22.2200303]]], [[[-48.10436082, -22.21400252], [-48.10460517, -22.21403205], [-48.10479986, -22.21387458], [-48.10489355, -22.2138814], [-48.10520644, -22.21379743], [-48.1054635, -22.2138549], [-48.10546913, -22.21377936], [-48.10563038, -22.21377239], [-48.10565448, -22.21386389], [-48.10575048, -22.213886], [-48.1058195, -22.21389048], [-48.10586205, -22.21373048], [-48.1060581, -22.21376141], [-48.10608961, -22.21371368], [-48.10616882, -22.21367546], [-48.10619598, -22.21364634], [-48.10667387, -22.21348597], [-48.10684976, -22.21341761], [-48.1069625, -22.21342702], [-48.10725838, -22.21334996], [-48.10721643, -22.2132493], [-48.10731897, -22.2132078], [-48.10734772, -22.21318132], [-48.10734559, -22.2131765], [-48.10705884, -22.21250636], [-48.10705773, -22.21250363], [-48.10705721, -22.21250064], [-48.10699379, -22.21211916], [-48.10699337, -22.21211617], [-48.10699362, -22.2121132], [-48.10700795, -22.2119536], [-48.10702638, -22.2117494], [-48.10702204, -22.21160689], [-48.10701893, -22.21150303], [-48.10699337, -22.21065584], [-48.10699326, -22.21065187], [-48.10699441, -22.21064801], [-48.10699889, -22.21063247], [-48.10701819, -22.21056593], [-48.107164, -22.21006397], [-48.10717458, -22.2098979], [-48.1071763, -22.20987085], [-48.10692851, -22.2089271], [-48.10692716, -22.20892202], [-48.10692785, -22.20891689], [-48.1069627, -22.20867787], [-48.10707396, -22.20791353], [-48.10709044, -22.20780019], [-48.1071139, -22.20763895], [-48.10716943, -22.20725696], [-48.10569691, -22.20514629], [-48.10569559, -22.20514446], [-48.10569476, -22.20514246], [-48.10498976, -22.20351876], [-48.10495949, -22.20342571], [-48.10485317, -22.2030996], [-48.10369497, -22.21411991], [-48.10383803, -22.2140646], [-48.10434462, -22.21409754], [-48.10436082, -22.21400252]]], [[[-48.1097858, -22.21675034], [-48.10978728, -22.21674893], [-48.10978896, -22.2167476], [-48.10983581, -22.21671269], [-48.10985669, -22.216697], [-48.10988268, -22.21667769], [-48.10988385, -22.2166769], [-48.10988503, -22.21667611], [-48.10988641, -22.21667541], [-48.10989395, -22.21667166], [-48.10991892, -22.21665929], [-48.1099438, -22.21664692], [-48.10994565, -22.21664614], [-48.10994761, -22.21664545], [-48.11007951, -22.21660465], [-48.11008097, -22.21660422], [-48.11008253, -22.21660389], [-48.11008418, -22.21660365], [-48.11015414, -22.21659559], [-48.11015589, -22.21659545], [-48.11015763, -22.21659548], [-48.11015938, -22.21659551], [-48.11022973, -22.21660154], [-48.11023147, -22.21660175], [-48.11023311, -22.21660205], [-48.11023475, -22.21660244], [-48.11023639, -22.21660301], [-48.11037533, -22.21665377], [-48.11037715, -22.21665453], [-48.11037898, -22.21665537], [-48.1103806, -22.21665639], [-48.11038213, -22.2166575], [-48.11050663, -22.21675557], [-48.11050805, -22.21675686], [-48.11077706, -22.21700751], [-48.11083552, -22.21704502], [-48.11090449, -22.21707115], [-48.11131732, -22.2171627], [-48.11131867, -22.21716309], [-48.11132002, -22.21716347], [-48.11162741, -22.21726786], [-48.11165879, -22.21727401], [-48.11176673, -22.21729534], [-48.11182678, -22.21729324], [-48.11195573, -22.21726403], [-48.11208825, -22.21721638], [-48.11214269, -22.21718521], [-48.11222924, -22.21709613], [-48.11226026, -22.21704424], [-48.11229956, -22.21693337], [-48.11231277, -22.21675706], [-48.11227518, -22.21663743], [-48.11224167, -22.21658403], [-48.11214885, -22.21649158], [-48.11208111, -22.21644353], [-48.11176865, -22.21622226], [-48.11176751, -22.21622133], [-48.11176636, -22.21622041], [-48.11167624, -22.21613848], [-48.1116751, -22.21613738], [-48.11167406, -22.21613618], [-48.11167311, -22.21613499], [-48.11167217, -22.21613362], [-48.11161107, -22.21603569], [-48.11161013, -22.21603414], [-48.11160939, -22.21603259], [-48.11160884, -22.21603095], [-48.11160829, -22.21602923], [-48.11156779, -22.21585801], [-48.11156744, -22.21585611], [-48.11156729, -22.21585421], [-48.11156723, -22.21585231], [-48.11157116, -22.21574551], [-48.11157129, -22.21574398], [-48.11157152, -22.21574236], [-48.11159602, -22.2156158], [-48.11159634, -22.21561427], [-48.11159676, -22.21561283], [-48.11159737, -22.2156114], [-48.11159798, -22.21560997], [-48.11163602, -22.2155369], [-48.11163976, -22.21552974], [-48.11164066, -22.21552814], [-48.11164176, -22.21552662], [-48.11164295, -22.21552511], [-48.11164434, -22.21552378], [-48.11168042, -22.21548976], [-48.1116817, -22.21548861], [-48.11168308, -22.21548755], [-48.11168446, -22.21548658], [-48.11168603, -22.2154858], [-48.11168759, -22.21548501], [-48.11175507, -22.21545642], [-48.11176837, -22.2154507], [-48.11179109, -22.21544407], [-48.11179313, -22.21544356], [-48.11179518, -22.21544324], [-48.11179722, -22.21544309], [-48.11181061, -22.21544243], [-48.11193402, -22.21543695], [-48.11193548, -22.21543697], [-48.11193693, -22.215437], [-48.11214952, -22.21545115], [-48.11215087, -22.21545127], [-48.11320136, -22.21557598], [-48.11477423, -22.21573522], [-48.11477529, -22.21573533], [-48.11500766, -22.21576843], [-48.11500978, -22.21576883], [-48.11501181, -22.21576931], [-48.11508982, -22.21579416], [-48.11509155, -22.21579483], [-48.11509318, -22.21579549], [-48.11509472, -22.21579633], [-48.11509625, -22.21579726], [-48.11513459, -22.2158233], [-48.11513469, -22.2158233], [-48.11513545, -22.21582395], [-48.11513631, -22.21582451], [-48.11513707, -22.21582524], [-48.11513783, -22.21582589], [-48.11513859, -22.21582662], [-48.11513926, -22.21582736], [-48.11514513, -22.21583414], [-48.11519314, -22.21588509], [-48.11517858, -22.21540726], [-48.11515534, -22.21527362], [-48.11511033, -22.2150144], [-48.1151059, -22.21498932], [-48.11505646, -22.21470512], [-48.11504849, -22.21465885], [-48.11504319, -22.21462861], [-48.1150321, -22.21456451], [-48.1150286, -22.21448438], [-48.11502606, -22.21445221], [-48.11502258, -22.21440882], [-48.11500356, -22.21417335], [-48.11491152, -22.21360696], [-48.11487674, -22.21339251], [-48.11482112, -22.21285176], [-48.11477964, -22.21267574], [-48.11477143, -22.21261765], [-48.11471409, -22.21221289], [-48.11467636, -22.2118204], [-48.11451512, -22.21084624], [-48.11451995, -22.21076175], [-48.11444014, -22.21035118], [-48.11441372, -22.21030179], [-48.11417649, -22.21025119], [-48.11343931, -22.20998573], [-48.11290497, -22.2097932], [-48.11216862, -22.20955357], [-48.11196949, -22.20950726], [-48.11278835, -22.20389808], [-48.11293095, -22.20292155], [-48.11313473, -22.20147088], [-48.11329277, -22.20034587], [-48.11345817, -22.19916855], [-48.1134648, -22.19911921], [-48.11349688, -22.19889223], [-48.11352148, -22.19871774], [-48.11370788, -22.1973906], [-48.10993071, -22.19691576], [-48.10820569, -22.19672372], [-48.10769035, -22.19666627], [-48.10763786, -22.19671625], [-48.10763588, -22.19671811], [-48.10763362, -22.19671969], [-48.10763136, -22.19672119], [-48.10760047, -22.19673878], [-48.10759841, -22.19673983], [-48.10759626, -22.19674078], [-48.10759402, -22.19674155], [-48.10759177, -22.19674224], [-48.10755328, -22.19675211], [-48.10755075, -22.1967527], [-48.10754813, -22.19675301], [-48.10754551, -22.19675324], [-48.10754279, -22.19675319], [-48.10754018, -22.19675296], [-48.10554401, -22.19652593], [-48.10541106, -22.19779101], [-48.1048929, -22.20272193], [-48.1048705, -22.20293509], [-48.10497828, -22.20326592], [-48.10505378, -22.20349761], [-48.10554349, -22.20462573], [-48.1057561, -22.20511521], [-48.10723361, -22.20723301], [-48.10724011, -22.20724224], [-48.10723842, -22.20725331], [-48.10717907, -22.20766114], [-48.10715515, -22.20782571], [-48.10713913, -22.20793572], [-48.10703238, -22.20866945], [-48.10699605, -22.20891864], [-48.10724358, -22.20986113], [-48.10724466, -22.20986503], [-48.10724439, -22.20986908], [-48.10724323, -22.20988739], [-48.1072314, -22.21007185], [-48.10723126, -22.21007428], [-48.10723063, -22.21007653], [-48.10706468, -22.21064809], [-48.10706468, -22.21064818], [-48.10706627, -22.21070796], [-48.10708943, -22.21158209], [-48.10709137, -22.21165316], [-48.10709151, -22.21166048], [-48.10706801, -22.21201695], [-48.10706156, -22.21211395], [-48.1071236, -22.21248693], [-48.10739768, -22.21312778], [-48.10740038, -22.21313288], [-48.10742637, -22.21310889], [-48.10755068, -22.21308799], [-48.10757336, -22.21318741], [-48.10761614, -22.21314367], [-48.10781027, -22.21318305], [-48.10783084, -22.21329561], [-48.10797367, -22.21344473], [-48.10805007, -22.21344862], [-48.10811119, -22.21335665], [-48.10824213, -22.21349942], [-48.10835937, -22.2134737], [-48.10846261, -22.21359631], [-48.10851817, -22.21357193], [-48.10851225, -22.21348256], [-48.10864869, -22.21372571], [-48.10875043, -22.21369015], [-48.1089035, -22.21381283], [-48.10933955, -22.21404804], [-48.10952598, -22.21416021], [-48.10958604, -22.21413871], [-48.10963207, -22.21415821], [-48.10966268, -22.21421156], [-48.10971744, -22.2142073], [-48.10981229, -22.21416701], [-48.10988571, -22.21420767], [-48.10996772, -22.21420786], [-48.11000647, -22.21415692], [-48.11006029, -22.21415138], [-48.11012368, -22.21416577], [-48.11014287, -22.21420836], [-48.11030159, -22.21429214], [-48.11045287, -22.21433644], [-48.11053562, -22.21432861], [-48.11059641, -22.2143426], [-48.11058047, -22.21438736], [-48.10971851, -22.21679798], [-48.10978331, -22.21675355], [-48.1097845, -22.21675195], [-48.1097858, -22.21675034]]], [[[-48.10063087, -22.21560615], [-48.10082911, -22.2155965], [-48.10083455, -22.21549226], [-48.10097198, -22.21542277], [-48.10133003, -22.21524096], [-48.10205228, -22.21481336], [-48.1025271, -22.21457144], [-48.10318745, -22.21431613], [-48.10448131, -22.20200579], [-48.1044374, -22.20181221], [-48.10446378, -22.20140534], [-48.10446708, -22.20137209], [-48.10442513, -22.20133298], [-48.10341523, -22.20077633], [-48.10239431, -22.20027039], [-48.10239287, -22.20026964], [-48.10239153, -22.2002688], [-48.10219963, -22.20014064], [-48.10149599, -22.19967121], [-48.10149437, -22.19967001], [-48.10104548, -22.19931252], [-48.10083657, -22.19920563], [-48.10035577, -22.19901916], [-48.10035452, -22.1990186], [-48.10011329, -22.19890924], [-48.10011223, -22.19890877], [-48.10011117, -22.19890821], [-48.09999727, -22.19884317], [-48.09999612, -22.19884243], [-48.09999497, -22.1988416], [-48.0997914, -22.19869211], [-48.09979016, -22.19869119], [-48.09978902, -22.19869008], [-48.09961091, -22.19851803], [-48.09960968, -22.19851683], [-48.09960864, -22.19851555], [-48.09945531, -22.19831723], [-48.09945418, -22.19831558], [-48.09921842, -22.19794934], [-48.09921777, -22.19794834], [-48.09921721, -22.19794725], [-48.09913668, -22.19778623], [-48.09913603, -22.19778486], [-48.09913557, -22.1977835], [-48.09913511, -22.19778214], [-48.0991117, -22.19769498], [-48.09911144, -22.1976938], [-48.09911127, -22.19769263], [-48.09909755, -22.19760095], [-48.09909738, -22.19759941], [-48.09909732, -22.19759788], [-48.09909695, -22.19740823], [-48.09909708, -22.19740697], [-48.0990971, -22.19740571], [-48.09913421, -22.19709976], [-48.09913443, -22.1970985], [-48.09913475, -22.19709715], [-48.09939422, -22.19605512], [-48.09939245, -22.1959669], [-48.0993455, -22.19580811], [-48.09931758, -22.19576618], [-48.09929915, -22.19573859], [-48.09923747, -22.19567404], [-48.0991609, -22.19561789], [-48.09907547, -22.1955771], [-48.09897772, -22.19555613], [-48.09887269, -22.19554975], [-48.09864692, -22.19556549], [-48.09827857, -22.19562418], [-48.0982773, -22.19562434], [-48.09801628, -22.1956529], [-48.0980155, -22.19565298], [-48.0969911, -22.19573399], [-48.09698916, -22.19573405], [-48.09698722, -22.19573401], [-48.09687302, -22.19572584], [-48.09687108, -22.19572562], [-48.09686925, -22.19572523], [-48.09664338, -22.19567498], [-48.09664184, -22.19567451], [-48.0966403, -22.19567403], [-48.0964146, -22.19559229], [-48.09641306, -22.19559172], [-48.09641153, -22.19559097], [-48.09620851, -22.19548553], [-48.09620736, -22.19548488], [-48.09620621, -22.19548423], [-48.09601708, -22.19535846], [-48.09601584, -22.19535753], [-48.0960146, -22.19535652], [-48.0957583, -22.19513207], [-48.09527191, -22.19478031], [-48.09527029, -22.19477902], [-48.09507192, -22.19460804], [-48.09503395, -22.19458805], [-48.09502628, -22.19458403], [-48.09497975, -22.19457941], [-48.09497773, -22.1945791], [-48.09486542, -22.19462006], [-48.09438634, -22.19501055], [-48.09434175, -22.19505786], [-48.09432315, -22.19509959], [-48.09431996, -22.19513663], [-48.09435376, -22.19520872], [-48.0944234, -22.19527224], [-48.09442416, -22.19527298], [-48.09442492, -22.19527372], [-48.09508981, -22.1960036], [-48.09509085, -22.19600498], [-48.09509189, -22.19600635], [-48.09509283, -22.19600781], [-48.09513143, -22.19607719], [-48.09513218, -22.19607855], [-48.09513273, -22.19607992], [-48.09513328, -22.19608128], [-48.09515519, -22.19615172], [-48.09515574, -22.19615362], [-48.09515608, -22.19615561], [-48.09515614, -22.1961576], [-48.0951561, -22.19615949], [-48.09514509, -22.19631274], [-48.09514497, -22.19631409], [-48.09514475, -22.19631535], [-48.09508629, -22.19660332], [-48.09507445, -22.19671241], [-48.09508022, -22.19682263], [-48.0951016, -22.19693322], [-48.09530027, -22.19761228], [-48.09543776, -22.19790663], [-48.09543822, -22.19790772], [-48.09543859, -22.19790881], [-48.09551521, -22.19813231], [-48.09551575, -22.19813422], [-48.0955161, -22.19813621], [-48.09556914, -22.19850677], [-48.09573734, -22.19926371], [-48.09573769, -22.19926553], [-48.09577343, -22.19953008], [-48.09577351, -22.19953117], [-48.09580603, -22.19992898], [-48.09591695, -22.20057226], [-48.09596606, -22.20080014], [-48.09599865, -22.20089757], [-48.09614258, -22.20121822], [-48.09614332, -22.20121995], [-48.09614387, -22.20122176], [-48.09614422, -22.20122357], [-48.09614447, -22.20122547], [-48.09614918, -22.20129298], [-48.09614925, -22.20129461], [-48.09614912, -22.20129623], [-48.09614889, -22.20129785], [-48.09614857, -22.20129947], [-48.09613449, -22.20135716], [-48.09613407, -22.20135878], [-48.09613345, -22.2013604], [-48.09613274, -22.20136192], [-48.09613194, -22.20136344], [-48.09613094, -22.20136477], [-48.09609582, -22.20141343], [-48.09609463, -22.20141485], [-48.09609344, -22.20141618], [-48.09609205, -22.20141742], [-48.09609058, -22.20141857], [-48.0960891, -22.20141963], [-48.09608743, -22.20142059], [-48.09597339, -22.20147975], [-48.09597202, -22.20148036], [-48.09597065, -22.20148097], [-48.09438422, -22.20207959], [-48.09438304, -22.20208002], [-48.09418234, -22.20214449], [-48.09418048, -22.202145], [-48.09417854, -22.20214541], [-48.09407594, -22.20216199], [-48.0940739, -22.20216223], [-48.09407186, -22.20216237], [-48.09396135, -22.20216256], [-48.09395961, -22.20216244], [-48.09395797, -22.20216232], [-48.09384042, -22.20214704], [-48.09383926, -22.20214693], [-48.09323437, -22.20204144], [-48.09302424, -22.20201278], [-48.09292198, -22.20199886], [-48.09292033, -22.20199856], [-48.09291869, -22.20199826], [-48.0928116, -22.20196936], [-48.09277631, -22.20196024], [-48.09274112, -22.20195104], [-48.09259969, -22.20189047], [-48.09262627, -22.20192705], [-48.09211681, -22.20570317], [-48.09223694, -22.20569702], [-48.09235418, -22.20583567], [-48.09281377, -22.20597486], [-48.09300075, -22.20605952], [-48.09302674, -22.20619962], [-48.09341239, -22.20631906], [-48.09352078, -22.20652968], [-48.09362359, -22.20671032], [-48.09395634, -22.2068661], [-48.09419852, -22.20712731], [-48.09443688, -22.20730586], [-48.09456419, -22.20739839], [-48.09473414, -22.20733572], [-48.09498003, -22.20747794], [-48.09527862, -22.20756098], [-48.0954214, -22.20756118], [-48.09556143, -22.20774159], [-48.09588399, -22.20781838], [-48.09604964, -22.2077105], [-48.09624937, -22.20775495], [-48.09658852, -22.20772743], [-48.09705804, -22.2076581], [-48.09748589, -22.20775726], [-48.09772525, -22.20777886], [-48.09777775, -22.20773376], [-48.09788934, -22.20760542], [-48.09791428, -22.20753347], [-48.09812461, -22.20755789], [-48.09825725, -22.20751838], [-48.09833589, -22.20760165], [-48.09854992, -22.20751196], [-48.09867068, -22.20755996], [-48.09872196, -22.20770123], [-48.09877505, -22.20764604], [-48.09870225, -22.20744806], [-48.09889241, -22.20746346], [-48.09911375, -22.20742841], [-48.09911579, -22.20749389], [-48.09911948, -22.20761174], [-48.09919514, -22.21037524], [-48.09919345, -22.21079681], [-48.09945187, -22.21137186], [-48.09947109, -22.21164389], [-48.09933773, -22.2120105], [-48.0982948, -22.21304225], [-48.09817745, -22.21320515], [-48.09815537, -22.21408001], [-48.09851925, -22.21478313], [-48.09866424, -22.21508096], [-48.09912417, -22.21519621], [-48.09936353, -22.21528433], [-48.099571, -22.21554248], [-48.0998642, -22.21599206], [-48.10006861, -22.21598397], [-48.10022002, -22.2158714], [-48.10063087, -22.21560615]]], [[[-48.11780812, -22.21692081], [-48.11786243, -22.21690516], [-48.11789832, -22.21689479], [-48.11800744, -22.21686341], [-48.11825785, -22.2167914], [-48.11850387, -22.21669268], [-48.11853495, -22.21668015], [-48.1188857, -22.21648472], [-48.11888707, -22.21648402], [-48.11888854, -22.21648332], [-48.1189592, -22.21645506], [-48.11897564, -22.21645246], [-48.11904042, -22.21644612], [-48.11904227, -22.21644597], [-48.11904411, -22.216446], [-48.11904595, -22.21644613], [-48.12002445, -22.21656031], [-48.12036554, -22.21658133], [-48.12036747, -22.21658155], [-48.1203695, -22.21658195], [-48.12037143, -22.21658243], [-48.12044436, -22.21660466], [-48.12044619, -22.21660533], [-48.12044801, -22.21660617], [-48.12044974, -22.21660711], [-48.12045137, -22.21660813], [-48.12050823, -22.21664813], [-48.12050985, -22.21664933], [-48.12051137, -22.21665071], [-48.12071488, -22.21685352], [-48.12108465, -22.2171647], [-48.12114719, -22.21721166], [-48.12121794, -22.21724559], [-48.12129778, -22.21726641], [-48.12181774, -22.21731036], [-48.12198273, -22.21730083], [-48.12213722, -22.21726466], [-48.12257075, -22.2171123], [-48.12263372, -22.21709021], [-48.12267688, -22.21707509], [-48.12271271, -22.21706246], [-48.12271428, -22.21706194], [-48.12271593, -22.21706161], [-48.12282342, -22.2170386], [-48.12282547, -22.21703819], [-48.1228275, -22.21703804], [-48.12282964, -22.21703799], [-48.12283177, -22.21703812], [-48.1228338, -22.21703851], [-48.12284809, -22.2170412], [-48.12401304, -22.21589004], [-48.12576554, -22.21415812], [-48.12560755, -22.21410469], [-48.12164415, -22.21276497], [-48.12154534, -22.21262413], [-48.12131542, -22.21181141], [-48.1212793, -22.21151977], [-48.12131349, -22.21132649], [-48.1216949, -22.21064446], [-48.12216287, -22.21035641], [-48.12245247, -22.21002612], [-48.12248661, -22.2099871], [-48.12248415, -22.20978947], [-48.12247789, -22.20929311], [-48.12249887, -22.20925773], [-48.12525781, -22.20461255], [-48.12528641, -22.2045644], [-48.1259534, -22.20344142], [-48.12631943, -22.20278383], [-48.12650383, -22.20254897], [-48.12665719, -22.20221501], [-48.12749364, -22.20075616], [-48.12762118, -22.20057148], [-48.12826603, -22.19940079], [-48.1292961, -22.19770426], [-48.12971029, -22.19702206], [-48.12893656, -22.19661026], [-48.12888623, -22.19652606], [-48.12888475, -22.19651773], [-48.12888441, -22.19651511], [-48.12888428, -22.1965124], [-48.12888443, -22.19650969], [-48.12888477, -22.19650708], [-48.12893695, -22.19623406], [-48.12893759, -22.19623127], [-48.12893851, -22.19622858], [-48.12895751, -22.19618089], [-48.12906048, -22.19592176], [-48.1290614, -22.1959197], [-48.12906251, -22.19591774], [-48.12930407, -22.19550174], [-48.12930558, -22.19549933], [-48.12942562, -22.19533013], [-48.12942682, -22.19532844], [-48.12963728, -22.19506949], [-48.1296489, -22.19502691], [-48.12964445, -22.19498368], [-48.12962087, -22.19494193], [-48.12958504, -22.19490221], [-48.12947086, -22.19483584], [-48.12925137, -22.19475245], [-48.12902049, -22.19469061], [-48.12878099, -22.19466697], [-48.12862482, -22.19466819], [-48.12846765, -22.19469945], [-48.12824295, -22.19477708], [-48.12807743, -22.19487552], [-48.12791192, -22.19497387], [-48.12791054, -22.19497475], [-48.12790907, -22.19497545], [-48.12778165, -22.19503575], [-48.1277793, -22.1950367], [-48.12777677, -22.19503756], [-48.12777423, -22.19503824], [-48.12771182, -22.1950523], [-48.12770929, -22.1950528], [-48.12770666, -22.19505311], [-48.12770404, -22.19505325], [-48.12765305, -22.19505352], [-48.12756649, -22.19505398], [-48.12756378, -22.19505393], [-48.12756117, -22.19505361], [-48.12755846, -22.19505311], [-48.12755586, -22.19505244], [-48.12740721, -22.19500784], [-48.12740442, -22.19500689], [-48.12740183, -22.19500567], [-48.12739924, -22.19500427], [-48.12739685, -22.19500269], [-48.12739466, -22.19500094], [-48.12734931, -22.19496205], [-48.12699543, -22.1947436], [-48.1267866, -22.19466517], [-48.12662986, -22.19464688], [-48.12631281, -22.19463776], [-48.12631039, -22.19463763], [-48.12630797, -22.19463731], [-48.12608212, -22.19460002], [-48.1260799, -22.19459962], [-48.12607778, -22.19459904], [-48.12594761, -22.19456064], [-48.12594549, -22.19455997], [-48.12594348, -22.19455912], [-48.12575365, -22.19447597], [-48.12560955, -22.19442207], [-48.12560465, -22.19442018], [-48.12560349, -22.1944198], [-48.12560339, -22.19441989], [-48.12560022, -22.19442317], [-48.12553645, -22.19439451], [-48.12547373, -22.1943712], [-48.12530655, -22.19430859], [-48.12488329, -22.19420326], [-48.12475129, -22.19419317], [-48.1246572, -22.1941971], [-48.1245631, -22.19420095], [-48.12433756, -22.19421023], [-48.12432738, -22.19421059], [-48.12426354, -22.19420892], [-48.1241997, -22.19420716], [-48.1241516, -22.19419873], [-48.12410814, -22.19419119], [-48.12410563, -22.19419061], [-48.12410322, -22.19418993], [-48.12410082, -22.19418908], [-48.12401046, -22.19415237], [-48.12398364, -22.19414151], [-48.12398191, -22.19414076], [-48.12398028, -22.19413992], [-48.12333877, -22.19379588], [-48.12328479, -22.19376694], [-48.12323249, -22.19373641], [-48.12317373, -22.19369485], [-48.12314898, -22.19367735], [-48.12314698, -22.19367578], [-48.12314517, -22.19367421], [-48.12314337, -22.19367238], [-48.12314186, -22.19367045], [-48.1231074, -22.19362544], [-48.12310598, -22.19362342], [-48.12310476, -22.19362142], [-48.12310374, -22.19361923], [-48.12310282, -22.19361705], [-48.12306861, -22.1935214], [-48.12306789, -22.19351904], [-48.12306726, -22.19351659], [-48.12306702, -22.19351406], [-48.12306688, -22.19351162], [-48.12306693, -22.19350909], [-48.12306727, -22.19350666], [-48.12309341, -22.19334646], [-48.12309351, -22.19334601], [-48.12313789, -22.19309966], [-48.12314843, -22.19303874], [-48.12314844, -22.19303829], [-48.12318365, -22.1928518], [-48.12324539, -22.19252352], [-48.12324549, -22.19252325], [-48.12327875, -22.19235605], [-48.12337776, -22.19185901], [-48.12337787, -22.19185856], [-48.12346581, -22.19144771], [-48.12350706, -22.19125004], [-48.12350706, -22.19124977], [-48.12364202, -22.19062466], [-48.1236738, -22.19042565], [-48.1236739, -22.1904252], [-48.12369332, -22.19031416], [-48.12369353, -22.19031326], [-48.123783, -22.18987969], [-48.12380877, -22.18967615], [-48.12381143, -22.18965472], [-48.12382873, -22.18952405], [-48.1236077, -22.18971205], [-48.12355829, -22.18975396], [-48.12338969, -22.18990866], [-48.12322818, -22.19006729], [-48.12318613, -22.19012864], [-48.12317367, -22.19015487], [-48.12312348, -22.19015416], [-48.12308293, -22.19017024], [-48.12308332, -22.19017042], [-48.12308571, -22.19017209], [-48.1230879, -22.19017393], [-48.12308989, -22.19017596], [-48.12309169, -22.19017815], [-48.12309329, -22.19018044], [-48.12309469, -22.1901829], [-48.1230958, -22.19018545], [-48.12309672, -22.19018808], [-48.12309744, -22.19019071], [-48.12309777, -22.19019352], [-48.12309791, -22.19019623], [-48.12309785, -22.19019902], [-48.12309751, -22.19020172], [-48.12309687, -22.19020442], [-48.12309595, -22.19020702], [-48.12309483, -22.19020962], [-48.12309352, -22.19021203], [-48.12309192, -22.19021435], [-48.12309013, -22.19021658], [-48.1229829, -22.19033699], [-48.12298181, -22.19033814], [-48.12287918, -22.19044238], [-48.12287829, -22.19044327], [-48.12275249, -22.19056182], [-48.1227517, -22.19056262], [-48.12261363, -22.19068392], [-48.12255497, -22.19074706], [-48.12255378, -22.19074821], [-48.12242148, -22.19087685], [-48.12227978, -22.19102399], [-48.12177869, -22.19158062], [-48.12166324, -22.19172381], [-48.1213103, -22.19222042], [-48.1213096, -22.1922214], [-48.1210528, -22.19255642], [-48.1208668, -22.19280821], [-48.12068777, -22.19306111], [-48.12068697, -22.19306227], [-48.12026799, -22.19360248], [-48.1202674, -22.19360328], [-48.12010511, -22.19379979], [-48.12010402, -22.19380095], [-48.12010293, -22.19380219], [-48.11997859, -22.19392509], [-48.1199774, -22.19392616], [-48.11997622, -22.19392722], [-48.11990121, -22.19398817], [-48.11989944, -22.19398949], [-48.11981574, -22.19404912], [-48.11981417, -22.19405017], [-48.11947904, -22.19426231], [-48.11935814, -22.19435414], [-48.11935657, -22.19435528], [-48.1192981, -22.1943945], [-48.11929682, -22.19439529], [-48.11919858, -22.1944552], [-48.11916397, -22.19447463], [-48.11914384, -22.19448258], [-48.11910485, -22.19449795], [-48.11910221, -22.1944989], [-48.11909948, -22.19449966], [-48.11909676, -22.19450016], [-48.11903824, -22.19450851], [-48.11903533, -22.19450882], [-48.11903252, -22.19450886], [-48.11893892, -22.19450738], [-48.11893601, -22.19450724], [-48.11893311, -22.19450683], [-48.11893031, -22.19450624], [-48.11892752, -22.19450537], [-48.11888267, -22.19448969], [-48.11887998, -22.19448856], [-48.11887739, -22.19448734], [-48.118875, -22.19448585], [-48.11887271, -22.19448419], [-48.11883531, -22.19445482], [-48.11883322, -22.19445298], [-48.11883122, -22.19445096], [-48.11882943, -22.19444876], [-48.11880074, -22.19441061], [-48.11879924, -22.19440833], [-48.11879783, -22.19440596], [-48.1187548, -22.19432053], [-48.11875405, -22.19431898], [-48.11875341, -22.19431735], [-48.11867564, -22.19410557], [-48.11861003, -22.19395313], [-48.1185025, -22.19372241], [-48.11850185, -22.19372087], [-48.11845537, -22.19360514], [-48.11845491, -22.19360405], [-48.11839486, -22.19343564], [-48.11829328, -22.19324601], [-48.11821601, -22.19311891], [-48.11809492, -22.19294021], [-48.11809435, -22.1929393], [-48.11800593, -22.19279819], [-48.11780059, -22.19250698], [-48.1177148, -22.19240328], [-48.11766916, -22.19235527], [-48.11761851, -22.19231032], [-48.11755876, -22.19227], [-48.11749427, -22.19223393], [-48.11742771, -22.19220396], [-48.11736218, -22.19218556], [-48.11729768, -22.1921781], [-48.11723443, -22.19218113], [-48.11713205, -22.19220152], [-48.11711706, -22.1922045], [-48.11699154, -22.19224768], [-48.11692808, -22.19227968], [-48.11679916, -22.19235593], [-48.11673775, -22.19239699], [-48.1166811, -22.19244175], [-48.11662895, -22.19248957], [-48.11658486, -22.19254132], [-48.11654863, -22.19259718], [-48.11649272, -22.19272003], [-48.11644905, -22.19284589], [-48.11643193, -22.19290606], [-48.11639174, -22.19309887], [-48.11639152, -22.19309995], [-48.11635858, -22.19323223], [-48.11636448, -22.19330391], [-48.11636463, -22.19330626], [-48.11636448, -22.19330851], [-48.11636424, -22.19331086], [-48.11636381, -22.19331311], [-48.11634843, -22.19337782], [-48.1163277, -22.19350553], [-48.11626487, -22.19399066], [-48.11625309, -22.19411637], [-48.11625286, -22.19411808], [-48.11625263, -22.19411979], [-48.11622025, -22.19427184], [-48.11621973, -22.194274], [-48.116219, -22.19427616], [-48.11618078, -22.19437774], [-48.11617996, -22.19437972], [-48.11617895, -22.19438168], [-48.11617785, -22.19438347], [-48.11614801, -22.19443024], [-48.11614671, -22.19443202], [-48.11614542, -22.1944338], [-48.11614383, -22.1944354], [-48.11610384, -22.19447603], [-48.11610196, -22.19447789], [-48.1160998, -22.19447957], [-48.11609754, -22.19448106], [-48.11604777, -22.19451177], [-48.1160462, -22.19451265], [-48.11604581, -22.19451282], [-48.11604385, -22.19451378], [-48.1160418, -22.19451464], [-48.11587536, -22.19457741], [-48.11587321, -22.19457818], [-48.11587097, -22.19457877], [-48.11586873, -22.19457918], [-48.11580473, -22.19459005], [-48.11580211, -22.19459037], [-48.11579939, -22.19459059], [-48.11576526, -22.19459116], [-48.11574374, -22.19459159], [-48.11573123, -22.19459182], [-48.1157291, -22.19459178], [-48.11572697, -22.19459165], [-48.11558129, -22.19457743], [-48.11557878, -22.19457702], [-48.11557617, -22.19457653], [-48.11546739, -22.19454987], [-48.11531684, -22.19453221], [-48.11513765, -22.19453554], [-48.11503354, -22.19455535], [-48.11480923, -22.19462792], [-48.11477088, -22.19464502], [-48.11448553, -22.19481624], [-48.1141384, -22.19506471], [-48.11413692, -22.19506568], [-48.11413545, -22.19506655], [-48.11407318, -22.19510228], [-48.11407122, -22.19510323], [-48.11406926, -22.19510419], [-48.11398157, -22.19514073], [-48.11398001, -22.19514142], [-48.11397844, -22.19514194], [-48.11388071, -22.19517216], [-48.11387856, -22.19517284], [-48.11387632, -22.19517325], [-48.11387409, -22.19517357], [-48.11381823, -22.19517989], [-48.11381522, -22.19518011], [-48.11381221, -22.19518006], [-48.11375548, -22.19517697], [-48.11375248, -22.19517674], [-48.11374958, -22.19517624], [-48.11369584, -22.19516436], [-48.11369353, -22.19516369], [-48.11369122, -22.19516293], [-48.11364109, -22.19514453], [-48.11363936, -22.19514387], [-48.11359555, -22.19512504], [-48.11359353, -22.1951241], [-48.11359162, -22.19512307], [-48.11354996, -22.19509859], [-48.11354871, -22.19509776], [-48.11354747, -22.19509692], [-48.11350486, -22.19506647], [-48.11350305, -22.19506509], [-48.11350124, -22.19506352], [-48.11346103, -22.19502517], [-48.11345932, -22.19502333], [-48.11345771, -22.19502141], [-48.11342372, -22.19497721], [-48.1134225, -22.19497547], [-48.11342137, -22.19497365], [-48.11339349, -22.19492486], [-48.11339246, -22.19492304], [-48.11339162, -22.19492113], [-48.11339099, -22.19491922], [-48.11337127, -22.19485957], [-48.11337082, -22.19485803], [-48.11337046, -22.19485649], [-48.1133563, -22.19479053], [-48.11335604, -22.19478908], [-48.11332204, -22.19457961], [-48.1132686, -22.19430165], [-48.11322242, -22.19413322], [-48.1131265, -22.19382363], [-48.11280418, -22.19391143], [-48.11273013, -22.19393521], [-48.11265642, -22.19396576], [-48.1125842, -22.19400446], [-48.11251154, -22.19405029], [-48.1123719, -22.19414818], [-48.11207903, -22.19438353], [-48.11201951, -22.1944314], [-48.11201872, -22.19443193], [-48.11192244, -22.19450486], [-48.11184183, -22.19448439], [-48.11168602, -22.19444398], [-48.11164689, -22.19442415], [-48.11163235, -22.19440954], [-48.11161928, -22.19439036], [-48.11161712, -22.19438201], [-48.11161664, -22.19437235], [-48.11163001, -22.19430642], [-48.11163033, -22.19430462], [-48.11163047, -22.19430282], [-48.11163041, -22.19430102], [-48.11163025, -22.19429921], [-48.1116299, -22.1942974], [-48.11162945, -22.19429567], [-48.11162881, -22.19429395], [-48.11162797, -22.19429231], [-48.11162703, -22.19429067], [-48.11161952, -22.19427889], [-48.11161839, -22.19427733], [-48.11161716, -22.19427587], [-48.11161583, -22.19427449], [-48.11161431, -22.1942732], [-48.11161278, -22.19427209], [-48.11161105, -22.19427107], [-48.11160003, -22.19426491], [-48.11159821, -22.19426407], [-48.11159638, -22.19426331], [-48.11159455, -22.19426274], [-48.11159263, -22.19426225], [-48.11159069, -22.19426195], [-48.11155347, -22.19425759], [-48.11155153, -22.19425737], [-48.11154959, -22.19425743], [-48.11139286, -22.19426232], [-48.11124715, -22.1942545], [-48.11124551, -22.19425447], [-48.11118017, -22.19425511], [-48.11107834, -22.19424861], [-48.11087938, -22.19422351], [-48.11079368, -22.19419599], [-48.11076318, -22.19417099], [-48.11076156, -22.19416979], [-48.11075983, -22.19416867], [-48.11072017, -22.19414604], [-48.11066763, -22.19409456], [-48.1106662, -22.19409327], [-48.11066467, -22.19409207], [-48.11066305, -22.19409105], [-48.11061038, -22.19405987], [-48.11057052, -22.19401358], [-48.11056929, -22.1940123], [-48.11056796, -22.19401101], [-48.11056652, -22.1940099], [-48.11052975, -22.19398334], [-48.11052832, -22.19398233], [-48.11052679, -22.19398149], [-48.11052515, -22.19398074], [-48.11052352, -22.19398007], [-48.11037312, -22.19392668], [-48.11030137, -22.19389011], [-48.11024213, -22.19384844], [-48.11008733, -22.1937261], [-48.10999515, -22.19363655], [-48.10997395, -22.19360656], [-48.10996593, -22.19358187], [-48.10996529, -22.19358024], [-48.10996454, -22.19357869], [-48.1099637, -22.19357714], [-48.10996267, -22.19357568], [-48.10996153, -22.19357421], [-48.1099603, -22.19357293], [-48.10990719, -22.19352062], [-48.10984896, -22.19344864], [-48.10980475, -22.19337367], [-48.1098039, -22.19337248], [-48.10980305, -22.19337129], [-48.1098022, -22.19337019], [-48.1097554, -22.19331737], [-48.10971424, -22.19325418], [-48.10971368, -22.19325326], [-48.10971302, -22.19325244], [-48.10966218, -22.19318854], [-48.10963602, -22.19312669], [-48.10961338, -22.19304903], [-48.10961274, -22.19304721], [-48.109612, -22.19304548], [-48.10958565, -22.19299257], [-48.10958462, -22.19299084], [-48.1095835, -22.19298911], [-48.10958227, -22.19298755], [-48.10958084, -22.19298608], [-48.10956021, -22.19296685], [-48.10955887, -22.19296574], [-48.10955753, -22.19296482], [-48.1095562, -22.19296389], [-48.10950258, -22.19293162], [-48.10950085, -22.19293068], [-48.10949903, -22.19292993], [-48.1094972, -22.19292926], [-48.10949537, -22.19292869], [-48.10942746, -22.19291277], [-48.10942572, -22.19291247], [-48.10942408, -22.19291226], [-48.10942234, -22.19291214], [-48.1093957, -22.19291139], [-48.10939376, -22.19291136], [-48.10939172, -22.1929115], [-48.10938978, -22.19291183], [-48.1092035, -22.1929495], [-48.10916573, -22.19294775], [-48.10916389, -22.19294771], [-48.10916215, -22.19294777], [-48.1091603, -22.19294801], [-48.10911722, -22.19295492], [-48.10911537, -22.19295534], [-48.10911342, -22.19295584], [-48.10911166, -22.19295653], [-48.1091099, -22.19295732], [-48.10910824, -22.19295819], [-48.10898646, -22.19303121], [-48.10893956, -22.19305457], [-48.10893789, -22.19305553], [-48.10893642, -22.1930565], [-48.10893494, -22.19305765], [-48.10893356, -22.1930588], [-48.10883439, -22.19315434], [-48.1088329, -22.19315584], [-48.1087516, -22.19324953], [-48.10863901, -22.1933238], [-48.10863753, -22.19332486], [-48.10863605, -22.1933261], [-48.10863477, -22.19332743], [-48.10860167, -22.19336295], [-48.10860048, -22.19336437], [-48.10859938, -22.19336588], [-48.10859838, -22.1933674], [-48.10859757, -22.1933691], [-48.10857887, -22.19341119], [-48.10857825, -22.1934129], [-48.10857773, -22.19341469], [-48.10857731, -22.19341649], [-48.10857708, -22.19341838], [-48.10857704, -22.19342018], [-48.10857719, -22.19342208], [-48.10857745, -22.19342389], [-48.1085779, -22.19342571], [-48.10857854, -22.19342743], [-48.10858793, -22.19345179], [-48.10858857, -22.19345333], [-48.10858932, -22.19345479], [-48.10859016, -22.19345616], [-48.1085912, -22.19345753], [-48.10860688, -22.1934774], [-48.10860792, -22.19347868], [-48.10860916, -22.19347988], [-48.1086104, -22.19348098], [-48.10869684, -22.19355229], [-48.10869808, -22.19355321], [-48.10869942, -22.19355414], [-48.10870086, -22.19355498], [-48.10872723, -22.19356899], [-48.10872866, -22.19356973], [-48.10873011, -22.1935703], [-48.10873155, -22.19357087], [-48.10876584, -22.1935815], [-48.10883702, -22.19363637], [-48.10888966, -22.1936828], [-48.10891499, -22.19371457], [-48.10892712, -22.19373753], [-48.10892806, -22.19373908], [-48.10892909, -22.19374064], [-48.10893032, -22.19374201], [-48.10893155, -22.19374339], [-48.10893298, -22.19374459], [-48.10895644, -22.1937636], [-48.10895815, -22.19376489], [-48.10895997, -22.19376601], [-48.1090053, -22.19379118], [-48.10900674, -22.19379193], [-48.10900828, -22.19379259], [-48.10906, -22.1938131], [-48.10910722, -22.19384083], [-48.10910894, -22.19384177], [-48.10911077, -22.19384261], [-48.10911269, -22.19384319], [-48.10918138, -22.1938639], [-48.10925006, -22.19388462], [-48.10925218, -22.19388511], [-48.1093151, -22.19389859], [-48.1093498, -22.19391275], [-48.10943184, -22.19395771], [-48.10943309, -22.19395827], [-48.10943444, -22.19395893], [-48.10943578, -22.1939594], [-48.1095149, -22.19398644], [-48.10951683, -22.19398702], [-48.10959589, -22.19400738], [-48.10966912, -22.19403801], [-48.10970222, -22.19405909], [-48.10973348, -22.1940851], [-48.10976631, -22.19412431], [-48.10976707, -22.19412514], [-48.10976792, -22.19412597], [-48.10981125, -22.19416817], [-48.10984984, -22.19422436], [-48.10985088, -22.19422565], [-48.10985202, -22.19422693], [-48.10985316, -22.19422812], [-48.10985449, -22.19422932], [-48.10985583, -22.19423034], [-48.10991088, -22.19426823], [-48.10991222, -22.19426916], [-48.10991375, -22.19426991], [-48.10991519, -22.19427065], [-48.10991683, -22.19427122], [-48.109984, -22.19429462], [-48.11002097, -22.19433021], [-48.11002231, -22.19433141], [-48.11002364, -22.19433242], [-48.11005641, -22.19435584], [-48.11005784, -22.19435677], [-48.11005937, -22.1943577], [-48.11006101, -22.19435845], [-48.11006264, -22.19435902], [-48.11006428, -22.19435959], [-48.11008818, -22.19436615], [-48.11009001, -22.19436655], [-48.11009185, -22.19436685], [-48.11009369, -22.19436697], [-48.11009553, -22.19436701], [-48.11012782, -22.1943665], [-48.110221, -22.19438819], [-48.11040631, -22.19446441], [-48.11045352, -22.19449224], [-48.11045486, -22.19449298], [-48.1104563, -22.19449364], [-48.11045775, -22.19449421], [-48.11053096, -22.19452069], [-48.11056807, -22.19454012], [-48.1107679, -22.19467401], [-48.11080911, -22.19470633], [-48.11081064, -22.19470744], [-48.11081227, -22.19470837], [-48.11085933, -22.19473448], [-48.11089201, -22.19476683], [-48.11089343, -22.19476812], [-48.11089505, -22.19476941], [-48.11089668, -22.19477044], [-48.1108985, -22.19477137], [-48.11090033, -22.19477222], [-48.11090235, -22.19477288], [-48.11090428, -22.19477337], [-48.11095427, -22.19478382], [-48.1109564, -22.19478422], [-48.11095852, -22.19478435], [-48.11096066, -22.19478439], [-48.11096279, -22.19478425], [-48.11096493, -22.19478383], [-48.11096698, -22.19478333], [-48.11101954, -22.19476774], [-48.11104017, -22.19477768], [-48.11106188, -22.19479196], [-48.11109499, -22.19482712], [-48.11115786, -22.19491868], [-48.11115899, -22.19492014], [-48.11116022, -22.19492161], [-48.11116156, -22.1949229], [-48.11116308, -22.1949241], [-48.11120772, -22.19497381], [-48.11125121, -22.19502233], [-48.1111935, -22.19506716], [-48.11119261, -22.19506786], [-48.11113171, -22.195112], [-48.11112994, -22.19511315], [-48.11088209, -22.19527031], [-48.11088061, -22.19527119], [-48.11087895, -22.19527206], [-48.11072981, -22.19534632], [-48.11072776, -22.19534718], [-48.11072571, -22.19534796], [-48.1105743, -22.19540087], [-48.11057176, -22.19540164], [-48.11056903, -22.19540222], [-48.11041754, -22.19543049], [-48.11041599, -22.19543074], [-48.11041453, -22.19543089], [-48.11018911, -22.19545333], [-48.11002274, -22.19547908], [-48.10993883, -22.19549673], [-48.10977034, -22.19554103], [-48.10960351, -22.19559457], [-48.10917001, -22.19574383], [-48.10882359, -22.19588156], [-48.10853417, -22.19602354], [-48.10839948, -22.19610707], [-48.10826394, -22.19620341], [-48.10810401, -22.1963171], [-48.10798817, -22.19640755], [-48.1078708, -22.19650205], [-48.10786869, -22.19650084], [-48.10786829, -22.19650155], [-48.10786679, -22.19650387], [-48.107865, -22.1965061], [-48.10786302, -22.19650814], [-48.10786084, -22.19651008], [-48.10781837, -22.19654426], [-48.10775965, -22.19660026], [-48.10782057, -22.19660703], [-48.10792772, -22.19661895], [-48.10821387, -22.19665103], [-48.10997542, -22.19684822], [-48.11194735, -22.19710464], [-48.11290688, -22.19722944], [-48.11329472, -22.19727983], [-48.11377642, -22.19734244], [-48.11355661, -22.19890033], [-48.11329307, -22.20076686], [-48.11311271, -22.20204491], [-48.11273545, -22.2046927], [-48.11203469, -22.20946211], [-48.1132002, -22.20983743], [-48.11419461, -22.21019961], [-48.1144267, -22.21024525], [-48.11449065, -22.21025153], [-48.11452585, -22.21033627], [-48.11460776, -22.21075311], [-48.11460293, -22.21083751], [-48.11467268, -22.21125196], [-48.11466875, -22.2113398], [-48.11478008, -22.21226614], [-48.11487883, -22.2128452], [-48.11493445, -22.21338631], [-48.11504084, -22.21401903], [-48.11509224, -22.2144347], [-48.11509365, -22.21444627], [-48.11511052, -22.21458323], [-48.11513316, -22.21471848], [-48.11514395, -22.2147833], [-48.11518337, -22.21500288], [-48.11519041, -22.21504218], [-48.11523445, -22.21528739], [-48.1152434, -22.21533764], [-48.11526482, -22.21540924], [-48.11526284, -22.21548204], [-48.11527674, -22.2158974], [-48.11527853, -22.21597569], [-48.11535263, -22.21605418], [-48.11535282, -22.21605418], [-48.11535573, -22.2160545], [-48.11535862, -22.21605509], [-48.11536151, -22.21605587], [-48.11536421, -22.21605691], [-48.1153669, -22.21605813], [-48.11536939, -22.21605962], [-48.11537178, -22.21606129], [-48.11537397, -22.21606313], [-48.1153832, -22.2160716], [-48.11538377, -22.21607179], [-48.11557516, -22.21612726], [-48.11557622, -22.21612764], [-48.11557728, -22.21612802], [-48.11571124, -22.21618031], [-48.11571269, -22.21618088], [-48.11571403, -22.21618154], [-48.11571528, -22.21618228], [-48.1161203, -22.21643272], [-48.11619953, -22.2164742], [-48.11642521, -22.21659229], [-48.11659228, -22.21666602], [-48.1168688, -22.21675342], [-48.11753755, -22.21692612], [-48.1176867, -22.2169377], [-48.11780812, -22.21692081]]], [[[-48.10754177, -22.19668945], [-48.10756915, -22.19668244], [-48.1075923, -22.19666931], [-48.10767217, -22.19659311], [-48.10776065, -22.19650893], [-48.10765358, -22.19636541], [-48.10751454, -22.1961789], [-48.10719188, -22.19579064], [-48.10719113, -22.19578972], [-48.10695285, -22.19547932], [-48.10685102, -22.19535476], [-48.10685017, -22.19535357], [-48.10668029, -22.19512535], [-48.10667972, -22.19512462], [-48.10652368, -22.19490233], [-48.10652283, -22.19490105], [-48.10652199, -22.19489977], [-48.10644427, -22.19476164], [-48.10644343, -22.19476018], [-48.10636788, -22.19460666], [-48.10636723, -22.19460529], [-48.10636667, -22.19460384], [-48.10631247, -22.19445846], [-48.10631201, -22.1944571], [-48.10631166, -22.19445565], [-48.10629708, -22.19440069], [-48.10629645, -22.19439815], [-48.10625357, -22.19414962], [-48.10618509, -22.19390633], [-48.10618456, -22.19390406], [-48.10618422, -22.19390171], [-48.10618407, -22.19389936], [-48.10618328, -22.1938766], [-48.10617493, -22.19385352], [-48.1061742, -22.19385134], [-48.10617376, -22.19384917], [-48.10617342, -22.19384691], [-48.10617318, -22.19384465], [-48.10617168, -22.19380906], [-48.10615784, -22.19373723], [-48.10614435, -22.19370486], [-48.10612033, -22.19367582], [-48.10609166, -22.1936513], [-48.10598018, -22.19359074], [-48.105916, -22.19355341], [-48.10591486, -22.19355248], [-48.10573701, -22.19524433], [-48.10560836, -22.19646958], [-48.10562964, -22.19647204], [-48.1056953, -22.19647943], [-48.10754177, -22.19668945]]], [[[-48.10491463, -22.19470005], [-48.10493973, -22.19527184], [-48.1050434, -22.1961003], [-48.10505328, -22.19600642], [-48.10536484, -22.19304103], [-48.10502356, -22.1941384], [-48.10491463, -22.19470005]]], [[[-48.10429566, -22.19629269], [-48.10439778, -22.1963085], [-48.10447875, -22.19632095], [-48.10447885, -22.19632096], [-48.10464222, -22.19634661], [-48.10471317, -22.196356], [-48.1047781, -22.19636121], [-48.10477945, -22.19636133], [-48.1049069, -22.19637605], [-48.10493728, -22.19637885], [-48.10493892, -22.19637906], [-48.1049396, -22.19637916], [-48.10493979, -22.19637916], [-48.10493989, -22.19637916], [-48.10494249, -22.19637966], [-48.10494249, -22.19637975], [-48.10494288, -22.19637985], [-48.104945, -22.19638043], [-48.10494519, -22.19638052], [-48.10494538, -22.19638053], [-48.10494606, -22.19638081], [-48.1049474, -22.19638128], [-48.10494779, -22.19638147], [-48.10494808, -22.19638157], [-48.10494875, -22.19638194], [-48.1049498, -22.19638232], [-48.10495028, -22.1963826], [-48.10495076, -22.19638279], [-48.10502651, -22.19642295], [-48.10501332, -22.19636179], [-48.10500024, -22.19630054], [-48.10497966, -22.19613644], [-48.10487207, -22.19527678], [-48.10484658, -22.19469568], [-48.10495746, -22.19412395], [-48.10535032, -22.19286079], [-48.10540272, -22.1926924], [-48.10539766, -22.19266035], [-48.10539706, -22.19265655], [-48.10539553, -22.19265553], [-48.10539238, -22.19265295], [-48.10538943, -22.19265019], [-48.10538669, -22.19264707], [-48.10538433, -22.19264387], [-48.10538414, -22.1926436], [-48.10538405, -22.19264341], [-48.10538227, -22.1926404], [-48.10538068, -22.19263722], [-48.1053805, -22.19263685], [-48.10537977, -22.19263476], [-48.1053794, -22.19263376], [-48.10537602, -22.19263307], [-48.10537583, -22.19263307], [-48.10537573, -22.19263307], [-48.10529388, -22.19261636], [-48.10522869, -22.19261475], [-48.1052059, -22.19262021], [-48.10515819, -22.1926588], [-48.1051168, -22.19274887], [-48.10504946, -22.19295094], [-48.1048432, -22.19367468], [-48.10484299, -22.19367531], [-48.10474031, -22.19399824], [-48.10438423, -22.1953107], [-48.10438403, -22.19531115], [-48.10432898, -22.19549529], [-48.10432877, -22.1954961], [-48.10421155, -22.19583818], [-48.10413025, -22.19621493], [-48.10412983, -22.19621645], [-48.10412932, -22.19621798], [-48.1041285, -22.19621977], [-48.10410301, -22.19627176], [-48.10419298, -22.19628004], [-48.10419405, -22.19628015], [-48.10429459, -22.19629259], [-48.10429566, -22.19629269]]]]}}]}