{"type": "FeatureCollection", "features": [{"type": "Feature", "properties": {"name": "Reserva Particular do Patrimônio Natural Guainumbi"}, "geometry": {"type": "MultiPolygon", "coordinates": [[[[-45.16454471, -23.31764532], [-45.16436178, -23.317626], [-45.16413903, -23.31774683], [-45.16377997, -23.31750783], [-45.16345642, -23.31750853], [-45.16316724, -23.31754451], [-45.1627927, -23.3171927], [-45.16247311, -23.31715807], [-45.16212832, -23.31689837], [-45.16154488, -23.31721522], [-45.16137472, -23.31723283], [-45.16112536, -23.31743705], [-45.16104442, -23.3177187], [-45.16140277, -23.31761905], [-45.16167986, -23.31738183], [-45.16195688, -23.31732238], [-45.16264199, -23.31777188], [-45.16313752, -23.31819564], [-45.16326711, -23.31842983], [-45.16313159, -23.31894368], [-45.1631634, -23.31904762], [-45.16332411, -23.31921393], [-45.16411599, -23.31921979], [-45.16492363, -23.31781195], [-45.16454471, -23.31764532]]], [[[-45.16078919, -23.31703172], [-45.1609795, -23.31692765], [-45.16099353, -23.31688102], [-45.16132028, -23.31710398], [-45.16153768, -23.31716591], [-45.16213173, -23.31680767], [-45.16250492, -23.31708876], [-45.16282909, -23.31712383], [-45.16315162, -23.31700417], [-45.16276833, -23.31685769], [-45.16244081, -23.31657403], [-45.16235907, -23.3163519], [-45.16252371, -23.31629618], [-45.16239762, -23.31612712], [-45.16229461, -23.31618458], [-45.16227432, -23.31631197], [-45.16167345, -23.31644601], [-45.16108395, -23.31651482], [-45.16067046, -23.31663683], [-45.16061644, -23.31668629], [-45.1601856, -23.31644934], [-45.16013317, -23.31636078], [-45.15984235, -23.31633001], [-45.15970271, -23.31611245], [-45.15929948, -23.3160583], [-45.15928287, -23.31590575], [-45.15900735, -23.31598715], [-45.15858648, -23.31581784], [-45.15760544, -23.31596417], [-45.15762321, -23.31609821], [-45.15805459, -23.31614312], [-45.15854922, -23.31631813], [-45.15926172, -23.31670393], [-45.15981691, -23.31673182], [-45.16008117, -23.31688186], [-45.16012942, -23.31755984], [-45.16029284, -23.31770438], [-45.16071556, -23.3176951], [-45.16079537, -23.31770079], [-45.16078919, -23.31703172]]], [[[-45.1660319, -23.31615411], [-45.16585727, -23.31604518], [-45.16566979, -23.31605486], [-45.16536997, -23.3159429], [-45.16516247, -23.31590725], [-45.16504654, -23.31596293], [-45.16483534, -23.31625203], [-45.16484163, -23.3164335], [-45.16509612, -23.3169071], [-45.16503159, -23.31716001], [-45.16547576, -23.31726026], [-45.16585231, -23.31748063], [-45.16613869, -23.31645941], [-45.16637733, -23.31613722], [-45.1660319, -23.31615411]]], [[[-45.16475629, -23.31623097], [-45.16499288, -23.31590734], [-45.16515035, -23.31583166], [-45.16539199, -23.31587323], [-45.1656829, -23.31598186], [-45.16587919, -23.31597172], [-45.16605401, -23.31608065], [-45.1663345, -23.31606698], [-45.16656475, -23.31575618], [-45.1656991, -23.31547518], [-45.16561257, -23.31541917], [-45.16519636, -23.3156253], [-45.16459947, -23.31572718], [-45.16413605, -23.31532642], [-45.1639725, -23.31547031], [-45.16411844, -23.31572182], [-45.16408355, -23.31582167], [-45.16436705, -23.31642225], [-45.16469547, -23.31680401], [-45.16486164, -23.31679814], [-45.16479122, -23.31703524], [-45.16496063, -23.31712323], [-45.16501349, -23.31691586], [-45.16476389, -23.31645155], [-45.16475629, -23.31623097]]], [[[-45.16387785, -23.31549164], [-45.16309082, -23.31534964], [-45.16303264, -23.31544455], [-45.16304503, -23.31558283], [-45.16323778, -23.31579771], [-45.16313938, -23.31627341], [-45.16340242, -23.31630511], [-45.16368596, -23.31637915], [-45.16387785, -23.31549164]]], [[[-45.15931705, -23.31585775], [-45.15978582, -23.31592746], [-45.16015778, -23.31632707], [-45.16021481, -23.3164233], [-45.16060885, -23.31664014], [-45.16107549, -23.31647933], [-45.16166637, -23.31641034], [-45.16223946, -23.31628256], [-45.16225859, -23.3161624], [-45.16240891, -23.3160786], [-45.16258466, -23.31631409], [-45.16240839, -23.31637362], [-45.16247473, -23.31655385], [-45.1627899, -23.31682686], [-45.16317574, -23.31697424], [-45.16339886, -23.31722721], [-45.16357475, -23.31733343], [-45.16396142, -23.31728524], [-45.16418817, -23.31746711], [-45.16436201, -23.3172552], [-45.16452809, -23.31717878], [-45.16493167, -23.3171911], [-45.16474546, -23.31705291], [-45.16475757, -23.31687413], [-45.16467723, -23.31684088], [-45.16429941, -23.31645981], [-45.16399983, -23.3158251], [-45.16403375, -23.31572886], [-45.16394093, -23.31556889], [-45.16374613, -23.31646996], [-45.16338657, -23.31637612], [-45.16304693, -23.31633511], [-45.16315408, -23.31581758], [-45.16296907, -23.31561146], [-45.16295271, -23.31542837], [-45.16302524, -23.31530979], [-45.16270291, -23.31478313], [-45.16258341, -23.31472201], [-45.16233154, -23.31413901], [-45.16191959, -23.31358679], [-45.16168862, -23.31305561], [-45.16181358, -23.31286516], [-45.16174863, -23.31253407], [-45.16167303, -23.3127037], [-45.16140985, -23.31287081], [-45.16162435, -23.31361157], [-45.1615115, -23.31395215], [-45.16107911, -23.31380038], [-45.16094029, -23.31360993], [-45.16032705, -23.31320262], [-45.16000687, -23.31314803], [-45.15962537, -23.31318401], [-45.15980556, -23.31353639], [-45.15985875, -23.31368664], [-45.1600346, -23.31384364], [-45.1600692, -23.31398958], [-45.16011051, -23.31409874], [-45.16025834, -23.31422045], [-45.16040056, -23.31447359], [-45.16034907, -23.31459677], [-45.16050778, -23.31523072], [-45.15987995, -23.31514013], [-45.15950243, -23.31539561], [-45.15883248, -23.31566764], [-45.15856963, -23.31554913], [-45.15808763, -23.3157142], [-45.15783824, -23.31589285], [-45.15859152, -23.31578053], [-45.15901014, -23.31594839], [-45.15931705, -23.31585775]]], [[[-45.16462402, -23.31564947], [-45.16517016, -23.31555622], [-45.16561804, -23.31533453], [-45.16573462, -23.31540983], [-45.16668589, -23.31572055], [-45.16707196, -23.3151993], [-45.16726213, -23.31506829], [-45.16681118, -23.31462408], [-45.16607182, -23.31403925], [-45.1652414, -23.31344882], [-45.16464035, -23.3130258], [-45.16419344, -23.31283594], [-45.16395533, -23.31287142], [-45.16332733, -23.31279927], [-45.16283604, -23.31278741], [-45.16231192, -23.31272336], [-45.16188657, -23.31240403], [-45.16178704, -23.31235292], [-45.16189585, -23.31287916], [-45.16177587, -23.31306221], [-45.1619889, -23.31355239], [-45.16240094, -23.3141047], [-45.16264575, -23.31467127], [-45.16276006, -23.31472978], [-45.16309581, -23.31527692], [-45.16391161, -23.31542403], [-45.16413554, -23.31522706], [-45.16462402, -23.31564947]]], [[[-45.15883424, -23.31558806], [-45.15946313, -23.31533269], [-45.15985991, -23.31506409], [-45.16040547, -23.31514285], [-45.16026739, -23.31459143], [-45.16031489, -23.31447793], [-45.1601956, -23.3142655], [-45.16004327, -23.31414018], [-45.15998599, -23.31400917], [-45.15996324, -23.31388048], [-45.15979043, -23.3137261], [-45.15973273, -23.31356311], [-45.15950627, -23.31312018], [-45.15979496, -23.31309911], [-45.16000932, -23.31307495], [-45.16035827, -23.31313448], [-45.16099745, -23.3135591], [-45.1611301, -23.31374098], [-45.16146121, -23.31385717], [-45.16154297, -23.31361021], [-45.16132002, -23.31284019], [-45.1616095, -23.31265634], [-45.16172521, -23.31241459], [-45.16168623, -23.31229313], [-45.16170953, -23.31182465], [-45.16125307, -23.31182449], [-45.16039314, -23.31187804], [-45.16007048, -23.31178966], [-45.15968623, -23.31180722], [-45.15932105, -23.31190921], [-45.15908027, -23.31216735], [-45.15891971, -23.31269287], [-45.15874338, -23.31312077], [-45.15867391, -23.31350881], [-45.15867739, -23.31379922], [-45.15849368, -23.31393833], [-45.15832372, -23.31437236], [-45.15811106, -23.31468034], [-45.15771101, -23.31499997], [-45.157564, -23.31523606], [-45.15755038, -23.31554817], [-45.15760071, -23.31592832], [-45.15789413, -23.31576723], [-45.15804814, -23.31565064], [-45.15857384, -23.31547062], [-45.15883424, -23.31558806]]], [[[-45.16638226, -23.31381219], [-45.1654046, -23.3127064], [-45.16514231, -23.3125701], [-45.16370944, -23.31238534], [-45.16353168, -23.31235075], [-45.1632789, -23.31222825], [-45.16257079, -23.31206214], [-45.16204774, -23.31174824], [-45.16178639, -23.31181509], [-45.16176485, -23.31228366], [-45.16192934, -23.31234301], [-45.16234588, -23.31265576], [-45.16281346, -23.31271462], [-45.16333321, -23.31272709], [-45.16395387, -23.31279844], [-45.1642045, -23.31276105], [-45.16468106, -23.31296361], [-45.16528837, -23.31339105], [-45.16612114, -23.31398319], [-45.1668653, -23.31457181], [-45.16732526, -23.31502478], [-45.16801469, -23.3145498], [-45.16752665, -23.31424808], [-45.16713759, -23.31425464], [-45.16638226, -23.31381219]]]]}}]}