{"type": "FeatureCollection", "features": [{"type": "Feature", "properties": {"name": "Reserva Particular do Patrimônio Natural São Lourenço"}, "geometry": {"type": "MultiPolygon", "coordinates": [[[[-48.95057103, -22.94017001], [-48.95074884, -22.94012423], [-48.95114292, -22.93979677], [-48.95138405, -22.93920013], [-48.95205993, -22.93839125], [-48.95235799, -22.93824642], [-48.95309398, -22.93796619], [-48.95386921, -22.93785614], [-48.95375887, -22.93762047], [-48.95362165, -22.93730655], [-48.95359644, -22.93670712], [-48.95275685, -22.93568354], [-48.95359977, -22.93389745], [-48.953907, -22.93352519], [-48.95402665, -22.93277858], [-48.95422897, -22.93199646], [-48.95435919, -22.93178473], [-48.95480329, -22.9306761], [-48.95483966, -22.93032186], [-48.95471097, -22.92968935], [-48.9547246, -22.92947662], [-48.95467831, -22.92918118], [-48.95458981, -22.92888615], [-48.95464153, -22.92873292], [-48.95446449, -22.92847353], [-48.95463034, -22.92838791], [-48.95462103, -22.92816345], [-48.9546328, -22.92772112], [-48.95453973, -22.92744339], [-48.95458731, -22.92729118], [-48.95464579, -22.92708039], [-48.95432883, -22.92718986], [-48.95376965, -22.92739504], [-48.95332904, -22.92756404], [-48.95281614, -22.92798264], [-48.9523604, -22.92850005], [-48.95207092, -22.92913929], [-48.9517832, -22.92936663], [-48.95101577, -22.92875954], [-48.95095789, -22.92922954], [-48.95112664, -22.92947065], [-48.95109442, -22.92966284], [-48.95087659, -22.92989305], [-48.95030225, -22.93016707], [-48.9499626, -22.93065325], [-48.94980947, -22.9307343], [-48.94936949, -22.93046132], [-48.94878505, -22.93133088], [-48.94568719, -22.93463033], [-48.94541703, -22.93432759], [-48.94522401, -22.93480393], [-48.94499036, -22.93506823], [-48.94449605, -22.93550342], [-48.94413522, -22.93607815], [-48.94383468, -22.936271], [-48.94349611, -22.93637891], [-48.94302473, -22.93674529], [-48.94262834, -22.93698574], [-48.94194505, -22.93753674], [-48.94066261, -22.93844669], [-48.94089509, -22.93896469], [-48.94188217, -22.93864029], [-48.94208428, -22.9386211], [-48.9424236, -22.93842003], [-48.94258788, -22.93822517], [-48.94315996, -22.93808779], [-48.943672, -22.93769273], [-48.94405737, -22.93753876], [-48.94458111, -22.93726388], [-48.94510843, -22.93668871], [-48.9454776, -22.93644703], [-48.94650336, -22.93586618], [-48.94673289, -22.93587627], [-48.94678889, -22.93584702], [-48.94666831, -22.93562621], [-48.94717695, -22.93438901], [-48.94780415, -22.93397929], [-48.94791888, -22.93369217], [-48.94864115, -22.93309861], [-48.949142, -22.93257873], [-48.94985536, -22.9322933], [-48.95007198, -22.93153899], [-48.95052574, -22.93105275], [-48.95087942, -22.93043493], [-48.95158263, -22.92997135], [-48.95206238, -22.9293875], [-48.95238656, -22.92897817], [-48.9524748, -22.92854623], [-48.95309741, -22.92813368], [-48.95338474, -22.9280644], [-48.9535751, -22.92813102], [-48.95381348, -22.92804537], [-48.95413314, -22.92816367], [-48.9542585, -22.92850054], [-48.95431274, -22.92908676], [-48.95431382, -22.92939277], [-48.95449331, -22.92974921], [-48.95433972, -22.93011528], [-48.9542696, -22.93057096], [-48.95418269, -22.93103173], [-48.95384916, -22.93121658], [-48.95394941, -22.93145132], [-48.95380966, -22.93171341], [-48.95304324, -22.931652], [-48.95213303, -22.93199687], [-48.95194177, -22.93238198], [-48.9522164, -22.93286139], [-48.9522795, -22.93315653], [-48.95248961, -22.93315158], [-48.95274382, -22.93314157], [-48.95297511, -22.93355858], [-48.9533717, -22.93385733], [-48.95318959, -22.93411135], [-48.95279788, -22.93424626], [-48.95244596, -22.93424723], [-48.95167225, -22.93463652], [-48.9509496, -22.93512548], [-48.95034019, -22.93538649], [-48.95009123, -22.93550007], [-48.94979042, -22.93578129], [-48.94949127, -22.93592919], [-48.94914838, -22.935967], [-48.94872653, -22.93629644], [-48.94843692, -22.93670108], [-48.94845002, -22.93707908], [-48.94893703, -22.93748761], [-48.9496917, -22.93794726], [-48.9496784, -22.93862332], [-48.94980635, -22.93895714], [-48.95003613, -22.9392374], [-48.95036881, -22.93945281], [-48.95028949, -22.93977869], [-48.95037376, -22.94004604], [-48.95057103, -22.94017001]]]]}}]}