{"type": "FeatureCollection", "features": [{"type": "Feature", "properties": {"name": "Reserva Particular do Patrimônio Natural Jacarandás"}, "geometry": {"type": "MultiPolygon", "coordinates": [[[[-46.30598583, -23.16954], [-46.30597639, -23.16945056], [-46.30594917, -23.16928611], [-46.30589889, -23.16921111], [-46.30578694, -23.16919139], [-46.30569889, -23.16920139], [-46.30560389, -23.16918306], [-46.30552306, -23.16912944], [-46.30545917, -23.16906472], [-46.30538972, -23.16900194], [-46.30533639, -23.16892667], [-46.30527833, -23.16885889], [-46.30521417, -23.1687725], [-46.30517056, -23.16867861], [-46.30511333, -23.16861528], [-46.30503944, -23.16855611], [-46.30493444, -23.16848917], [-46.30465389, -23.16833583], [-46.30459333, -23.16833889], [-46.30464694, -23.16824417], [-46.30474, -23.16820389], [-46.30481444, -23.16816667], [-46.30488944, -23.16816472], [-46.3050425, -23.16821528], [-46.30520194, -23.16828694], [-46.30532333, -23.16836167], [-46.30540028, -23.16842083], [-46.30547111, -23.1684825], [-46.30549694, -23.16854361], [-46.30555111, -23.16863028], [-46.30558361, -23.16871694], [-46.30566, -23.16877694], [-46.30578139, -23.16877417], [-46.30587083, -23.16873667], [-46.30596833, -23.16872], [-46.30608083, -23.16866944], [-46.30615611, -23.16861139], [-46.30622778, -23.16855083], [-46.30628528, -23.16847861], [-46.30636444, -23.16842333], [-46.30643361, -23.16836028], [-46.30650028, -23.16830944], [-46.30657417, -23.16830083], [-46.30667139, -23.16829806], [-46.30674806, -23.16825778], [-46.30678889, -23.16817111], [-46.30679167, -23.16808306], [-46.30678083, -23.16799361], [-46.30675917, -23.16790083], [-46.30671444, -23.16782583], [-46.306695, -23.16775389], [-46.30667861, -23.1676775], [-46.30677611, -23.16765028], [-46.30687917, -23.16768917], [-46.3069375, -23.16776444], [-46.30699083, -23.16784028], [-46.30703028, -23.16790722], [-46.3070525, -23.16797528], [-46.30706417, -23.16803806], [-46.30723889, -23.16803306], [-46.30721722, -23.16800389], [-46.307135, -23.16781861], [-46.3070825, -23.16774667], [-46.30700056, -23.16765111], [-46.30692583, -23.16755472], [-46.30688444, -23.16749583], [-46.30686, -23.16747417], [-46.30681028, -23.16746389], [-46.30672056, -23.16749056], [-46.30661389, -23.16754694], [-46.30653694, -23.16762444], [-46.30649306, -23.16772639], [-46.30644083, -23.16788], [-46.30636944, -23.16801583], [-46.3062775, -23.16812222], [-46.306145, -23.16824861], [-46.30602167, -23.16833083], [-46.30590111, -23.16836806], [-46.30575083, -23.16837222], [-46.30561056, -23.16834028], [-46.30543417, -23.16826194], [-46.30526639, -23.16817278], [-46.30504778, -23.16806194], [-46.30462278, -23.16799444], [-46.30442111, -23.16795194], [-46.30431, -23.16790944], [-46.30420806, -23.16784667], [-46.30406222, -23.16773], [-46.3040125, -23.16770611], [-46.30395444, -23.16770444], [-46.30390972, -23.16772361], [-46.30387917, -23.16776556], [-46.30387667, -23.16781167], [-46.3039, -23.16789694], [-46.3039375, -23.16799889], [-46.30399389, -23.16819528], [-46.30404472, -23.16828861], [-46.30410278, -23.16835417], [-46.30423611, -23.16845611], [-46.30437583, -23.16857111], [-46.30452833, -23.16868944], [-46.30467528, -23.16877222], [-46.30473639, -23.16881667], [-46.30479472, -23.16886944], [-46.30485583, -23.16895556], [-46.30497083, -23.16902861], [-46.30515944, -23.16910639], [-46.305615, -23.16932083], [-46.30568528, -23.16938472], [-46.30574194, -23.16946972], [-46.30593806, -23.16961889], [-46.3060275, -23.16974194], [-46.30598583, -23.16954]]], [[[-46.30503833, -23.16739306], [-46.30495833, -23.16735139], [-46.30478611, -23.16722667], [-46.30451972, -23.16695694], [-46.30426167, -23.166805], [-46.30392361, -23.16667694], [-46.30377528, -23.16661056], [-46.30372528, -23.16655444], [-46.30368528, -23.16679361], [-46.30355778, -23.16717361], [-46.30349639, -23.16738028], [-46.30393056, -23.16759556], [-46.3040425, -23.16759861], [-46.30412806, -23.16763972], [-46.30427944, -23.16776056], [-46.30436528, -23.16781333], [-46.30445694, -23.16784833], [-46.30464583, -23.16788806], [-46.30508694, -23.16795806], [-46.30532361, -23.16807806], [-46.30533694, -23.16772667], [-46.30503833, -23.16739306]]], [[[-46.30809611, -23.16824917], [-46.30817, -23.16821806], [-46.30828167, -23.16815417], [-46.30848639, -23.16805139], [-46.3085825, -23.16799944], [-46.308745, -23.167865], [-46.30883028, -23.16774972], [-46.30885722, -23.16769611], [-46.30889667, -23.16760667], [-46.30887806, -23.16733361], [-46.30883583, -23.16732139], [-46.30881056, -23.16692833], [-46.30886167, -23.16679556], [-46.30912861, -23.16659833], [-46.30917972, -23.16649361], [-46.30933111, -23.16638389], [-46.30937556, -23.16640694], [-46.3094125, -23.16627361], [-46.30948194, -23.16618528], [-46.30953944, -23.16615056], [-46.30963028, -23.16607167], [-46.30967556, -23.16591389], [-46.30967167, -23.16587833], [-46.30940889, -23.16558528], [-46.30922, -23.16532], [-46.3091225, -23.16511194], [-46.30903833, -23.16539667], [-46.30887, -23.16573389], [-46.30861778, -23.16604417], [-46.30832528, -23.16638917], [-46.30818611, -23.16648611], [-46.30810611, -23.16595583], [-46.30814167, -23.16557028], [-46.30814389, -23.16537111], [-46.30808639, -23.16514694], [-46.30802083, -23.16497972], [-46.30788889, -23.16481528], [-46.30777028, -23.16478944], [-46.30753583, -23.16481861], [-46.30735889, -23.16492361], [-46.30721528, -23.1650875], [-46.30687778, -23.16544972], [-46.30672167, -23.1655775], [-46.30657472, -23.16566278], [-46.30637889, -23.16561167], [-46.30626083, -23.16555444], [-46.30617417, -23.16548444], [-46.306045, -23.16551556], [-46.30602611, -23.16561361], [-46.30599694, -23.16571833], [-46.30593722, -23.16590361], [-46.30593278, -23.16609361], [-46.30596778, -23.16621444], [-46.30606361, -23.16623556], [-46.30613806, -23.16622833], [-46.30616444, -23.16619611], [-46.30616472, -23.1661475], [-46.30618722, -23.16607444], [-46.30626722, -23.16602778], [-46.30646583, -23.16604611], [-46.30656194, -23.166075], [-46.30669056, -23.16608472], [-46.30684861, -23.16605278], [-46.30701583, -23.16596667], [-46.30732278, -23.16558167], [-46.30745889, -23.16545833], [-46.30756278, -23.16535833], [-46.307645, -23.16533806], [-46.30773917, -23.16537833], [-46.30774583, -23.16544778], [-46.30762917, -23.16566861], [-46.3074575, -23.16589444], [-46.30729333, -23.16604611], [-46.30716611, -23.16627139], [-46.30719111, -23.1666025], [-46.30713361, -23.16708556], [-46.30709417, -23.16758583], [-46.30717722, -23.1676825], [-46.30723944, -23.16776778], [-46.30732056, -23.16795139], [-46.30737361, -23.1680225], [-46.30761694, -23.16800833], [-46.30777, -23.16829611], [-46.30783, -23.16832444], [-46.30788194, -23.16835472], [-46.30798111, -23.16832389], [-46.30809611, -23.16824917]]]]}}]}