{"type": "FeatureCollection", "features": [{"type": "Feature", "properties": {"name": "Área de Relevante Interesse Ecológico Pedra Branca"}, "geometry": {"type": "MultiPolygon", "coordinates": [[[[-45.67969808, -22.95497129], [-45.68447815, -22.95205456], [-45.68507784, -22.94800851], [-45.68878073, -22.94432583], [-45.69176588, -22.9459412], [-45.69496793, -22.94210092], [-45.69281677, -22.93803295], [-45.68922278, -22.93546181], [-45.68831019, -22.93325503], [-45.68457546, -22.9312008], [-45.68061176, -22.9307484], [-45.67565576, -22.92831304], [-45.67439466, -22.92473511], [-45.67178303, -22.92418198], [-45.66784096, -22.92413583], [-45.66718116, -22.92995142], [-45.66896176, -22.93374569], [-45.6663638, -22.93569462], [-45.669698, -22.93872333], [-45.65815604, -22.94202335], [-45.6630461, -22.94490712], [-45.66081191, -22.94640641], [-45.66061556, -22.94726658], [-45.66275468, -22.94882613], [-45.6649569, -22.94598537], [-45.67969808, -22.95497129]]]]}}]}