{"type": "FeatureCollection", "features": [{"type": "Feature", "properties": {"name": "Área de Proteção Ambiental Barreiro Rico"}, "geometry": {"type": "MultiPolygon", "coordinates": [[[[-47.93833432, -22.75694632], [-47.93864251, -22.75703246], [-47.93901708, -22.7571141], [-47.93933628, -22.75716481], [-47.939948, -22.75721074], [-47.94095645, -22.7572475], [-47.94125786, -22.75728929], [-47.94166351, -22.75736872], [-47.94216465, -22.75754329], [-47.94245512, -22.75767827], [-47.94269898, -22.75781317], [-47.94304723, -22.75804555], [-47.94328903, -22.75825143], [-47.94352007, -22.75841163], [-47.94377172, -22.75863421], [-47.94386211, -22.75868684], [-47.94397359, -22.75873645], [-47.94419649, -22.75879495], [-47.94456236, -22.75881712], [-47.94498416, -22.75900651], [-47.94513332, -22.75904248], [-47.94539674, -22.7590422], [-47.94599738, -22.75894378], [-47.94811075, -22.75846151], [-47.94846598, -22.75834981], [-47.94872931, -22.75824412], [-47.9491402, -22.75804504], [-47.94935528, -22.75791685], [-47.94973899, -22.75764848], [-47.95022936, -22.75723089], [-47.95432233, -22.75357392], [-47.95459021, -22.75330234], [-47.95469794, -22.75314818], [-47.95482712, -22.75290445], [-47.95490093, -22.75271327], [-47.95497451, -22.75233094], [-47.95496188, -22.75208432], [-47.95463934, -22.7503243], [-47.95458648, -22.74986502], [-47.95461076, -22.74953825], [-47.95465974, -22.74925147], [-47.95477036, -22.74888763], [-47.95540723, -22.74775869], [-47.95705337, -22.74492708], [-47.9575488, -22.74411581], [-47.95866598, -22.74240687], [-47.9590631, -22.74190391], [-47.95934445, -22.74160206], [-47.95961064, -22.74135678], [-47.96019313, -22.74091844], [-47.96123222, -22.74034873], [-47.96233072, -22.73971001], [-47.96578333, -22.73776512], [-47.96751915, -22.736757], [-47.9704035, -22.7351529], [-47.97071263, -22.73501933], [-47.97094329, -22.73494537], [-47.97124302, -22.73487606], [-47.97159516, -22.73482579], [-47.97361974, -22.73460489], [-47.9740955, -22.73452113], [-47.97442618, -22.73444708], [-47.97585324, -22.7340198], [-47.97600555, -22.73399579], [-47.97628389, -22.73397886], [-47.97655756, -22.73402384], [-47.97678136, -22.73410217], [-47.97692656, -22.73417098], [-47.97713374, -22.73430161], [-47.97727659, -22.73441569], [-47.97742908, -22.73458689], [-47.97752442, -22.73472], [-47.97766513, -22.73501498], [-47.97771057, -22.73520527], [-47.9777226, -22.73538365], [-47.97771355, -22.73782498], [-47.9777615, -22.73814853], [-47.97784032, -22.73845299], [-47.97795491, -22.73875505], [-47.97807172, -22.73900481], [-47.9782386, -22.73930913], [-47.97838164, -22.73952077], [-47.97867474, -22.73987269], [-47.97891049, -22.74009844], [-47.97916772, -22.74030763], [-47.9800297, -22.7408731], [-47.98038929, -22.74114876], [-47.98059654, -22.74133417], [-47.98078948, -22.74153384], [-47.98095144, -22.74171686], [-47.98115642, -22.74199265], [-47.98150207, -22.7426062], [-47.98164055, -22.74297252], [-47.9824434, -22.74599119], [-47.98259363, -22.74634564], [-47.98282961, -22.74671651], [-47.98304407, -22.74697335], [-47.98333444, -22.74722901], [-47.98353105, -22.74737261], [-47.98388661, -22.74757589], [-47.98414463, -22.74768338], [-47.98451666, -22.74779239], [-47.9878586, -22.74842867], [-47.98837268, -22.74850759], [-47.98884471, -22.74855152], [-47.98934476, -22.74855571], [-47.98989381, -22.74851788], [-47.99245668, -22.74818597], [-47.99372983, -22.74800247], [-47.99406625, -22.74792506], [-47.99439793, -22.74782896], [-47.99477865, -22.747679], [-47.99518266, -22.74750106], [-47.99574073, -22.74720146], [-47.99598129, -22.74704463], [-47.99621468, -22.74685985], [-47.99660919, -22.74650664], [-47.99784378, -22.74516195], [-48.00515337, -22.73747681], [-48.00746637, -22.73505833], [-48.00764824, -22.73487374], [-48.00796197, -22.73460336], [-48.00828418, -22.73436392], [-48.00865873, -22.73413746], [-48.00884772, -22.7340373], [-48.00932099, -22.7338394], [-48.00993714, -22.73365672], [-48.01154542, -22.73341129], [-48.01195689, -22.73333], [-48.01208041, -22.73329648], [-48.0122687, -22.7332149], [-48.01248494, -22.7330962], [-48.01268958, -22.73294688], [-48.01289715, -22.73274815], [-48.01308886, -22.73249127], [-48.01341342, -22.73184293], [-48.01364123, -22.73147806], [-48.01398705, -22.73102398], [-48.01484915, -22.73012459], [-48.01991059, -22.72507804], [-48.02022258, -22.72478269], [-48.02039496, -22.72465306], [-48.02059674, -22.72454067], [-48.02083823, -22.72444553], [-48.02106594, -22.72438489], [-48.02296719, -22.72409146], [-48.02331736, -22.72401856], [-48.02398331, -22.72383846], [-48.02430584, -22.72372083], [-48.02470243, -22.72353923], [-48.02641005, -22.72282789], [-48.03090787, -22.72089632], [-48.03139191, -22.72071416], [-48.0318593, -22.72056905], [-48.03258552, -22.72040357], [-48.03313028, -22.72032903], [-48.03358766, -22.72029159], [-48.03403835, -22.72028443], [-48.03600925, -22.72028581], [-48.0363557, -22.72031236], [-48.0367122, -22.72036916], [-48.03706547, -22.72044954], [-48.03739858, -22.72055346], [-48.03769468, -22.72067763], [-48.04424291, -22.72354675], [-48.04460641, -22.72375826], [-48.04608751, -22.72477924], [-48.04660929, -22.72522265], [-48.04687191, -22.72548815], [-48.0471246, -22.72580402], [-48.04729638, -22.726046], [-48.04768974, -22.72673874], [-48.04790685, -22.72712119], [-48.04837484, -22.72794527], [-48.04848935, -22.72811327], [-48.0487824, -22.72846616], [-48.04911571, -22.72877521], [-48.04946582, -22.72902716], [-48.04974509, -22.72918828], [-48.05007827, -22.72933595], [-48.05331194, -22.73066135], [-48.06608533, -22.73586545], [-48.06638814, -22.73595594], [-48.06672452, -22.73603297], [-48.06709793, -22.73607972], [-48.06745114, -22.73609288], [-48.06781429, -22.73606896], [-48.06832547, -22.73599784], [-48.06857427, -22.73593363], [-48.0706632, -22.7352225], [-48.07086658, -22.73517993], [-48.07119506, -22.73517115], [-48.07136455, -22.73519429], [-48.0715787, -22.73524497], [-48.07174616, -22.73530833], [-48.07193698, -22.73540353], [-48.07207703, -22.73551152], [-48.07221277, -22.73563431], [-48.07235706, -22.73580366], [-48.07415345, -22.73890451], [-48.0742532, -22.73902737], [-48.07438683, -22.73913532], [-48.07455653, -22.73922201], [-48.0747388, -22.73926208], [-48.07916626, -22.73956083], [-48.07930403, -22.73958402], [-48.07947367, -22.73963685], [-48.07963689, -22.73971728], [-48.0798914, -22.73989288], [-48.08262226, -22.74290613], [-48.08454702, -22.74085045], [-48.08599422, -22.73963532], [-48.08879749, -22.73738802], [-48.08925409, -22.73725699], [-48.08973676, -22.73704774], [-48.09010186, -22.73681251], [-48.09016687, -22.73657749], [-48.09017952, -22.73625127], [-48.09030949, -22.73572907], [-48.09049152, -22.73514167], [-48.0904827, -22.73464402], [-48.0905992, -22.73449064], [-48.09089994, -22.734211], [-48.09179216, -22.73367922], [-48.09218761, -22.73351719], [-48.09297916, -22.73312085], [-48.09347259, -22.73297703], [-48.09435619, -22.73287], [-48.09465166, -22.73279812], [-48.09486673, -22.73269002], [-48.09521885, -22.73220264], [-48.09556577, -22.73161579], [-48.09582561, -22.7312909], [-48.096025, -22.73112854], [-48.09639611, -22.73093935], [-48.09676008, -22.73069596], [-48.09705945, -22.73042531], [-48.09735168, -22.73009144], [-48.09801559, -22.72956828], [-48.09898092, -22.72903661], [-48.09912224, -22.72893746], [-48.09962241, -22.72845023], [-48.10001782, -22.72823402], [-48.10080534, -22.7280725], [-48.10110202, -22.72794647], [-48.10140005, -22.72775711], [-48.10183168, -22.72740536], [-48.10232326, -22.72690009], [-48.10249698, -22.72678284], [-48.1028924, -22.72662981], [-48.10348186, -22.72654934], [-48.10368048, -22.72643218], [-48.10402067, -22.7261526], [-48.10452936, -22.72562922], [-48.10492353, -22.72509663], [-48.10516891, -22.72469944], [-48.10576916, -22.72401354], [-48.10600199, -22.72384221], [-48.10687707, -22.72334648], [-48.10828696, -22.72267081], [-48.10894224, -22.72215665], [-48.10975272, -22.7216879], [-48.11014163, -22.72139935], [-48.11036119, -22.72115566], [-48.11039907, -22.7210382], [-48.11074834, -22.72084893], [-48.11153703, -22.72060605], [-48.11193111, -22.72053438], [-48.11310142, -22.72040047], [-48.11333165, -22.72029235], [-48.11405474, -22.7196608], [-48.1145007, -22.71946261], [-48.11476248, -22.71941779], [-48.11593819, -22.71938333], [-48.11646243, -22.71930272], [-48.11724791, -22.71924956], [-48.1176413, -22.71917777], [-48.11803476, -22.71905183], [-48.1186774, -22.71879969], [-48.11998002, -22.71819607], [-48.1203734, -22.7180972], [-48.12089774, -22.71802559], [-48.12114432, -22.71795359], [-48.12163583, -22.71766107], [-48.12216283, -22.71762002], [-48.12352154, -22.71726405], [-48.12399311, -22.71729213], [-48.1239912, -22.71710409], [-48.12432526, -22.71712914], [-48.12476386, -22.71682132], [-48.1249208, -22.71669498], [-48.12506148, -22.71661141], [-48.12538693, -22.71655959], [-48.12628395, -22.71650316], [-48.12664053, -22.71643754], [-48.12698054, -22.71642904], [-48.12790679, -22.71645904], [-48.12816679, -22.71659242], [-48.12838528, -22.71648154], [-48.12861774, -22.71644249], [-48.12952883, -22.71645795], [-48.13039673, -22.71631505], [-48.13137416, -22.71610226], [-48.13163665, -22.7161067], [-48.13217401, -22.71627349], [-48.13239021, -22.7162771], [-48.13285882, -22.71601275], [-48.1340348, -22.71591804], [-48.13527044, -22.71592458], [-48.13577784, -22.71525963], [-48.13635635, -22.71412291], [-48.1367609, -22.71397212], [-48.13718181, -22.71377856], [-48.13744798, -22.71359677], [-48.13754793, -22.71322588], [-48.13718097, -22.71303338], [-48.13650714, -22.71273537], [-48.13610707, -22.7126569], [-48.13584737, -22.71250918], [-48.13559016, -22.71223253], [-48.13568703, -22.71201928], [-48.13642938, -22.71197445], [-48.13671072, -22.71180728], [-48.13680957, -22.7114936], [-48.13681435, -22.71125008], [-48.13672535, -22.71106228], [-48.13659593, -22.71057284], [-48.13659261, -22.7099565], [-48.13642387, -22.70910812], [-48.13616829, -22.70852896], [-48.13609963, -22.70826625], [-48.13587968, -22.70792908], [-48.13558552, -22.70752152], [-48.13547055, -22.70731494], [-48.13485398, -22.70666468], [-48.13438111, -22.70610292], [-48.13425408, -22.70554601], [-48.13429702, -22.70535291], [-48.13462662, -22.70508597], [-48.13491301, -22.70497882], [-48.13526036, -22.70488287], [-48.13591861, -22.70476415], [-48.13661941, -22.70447091], [-48.13736262, -22.70399493], [-48.13778296, -22.70369648], [-48.13796564, -22.70358937], [-48.13816055, -22.70340918], [-48.13842867, -22.70326831], [-48.13870879, -22.70303188], [-48.13919008, -22.70274454], [-48.13970191, -22.70251343], [-48.13992738, -22.70244002], [-48.14023336, -22.70228393], [-48.14138662, -22.70179694], [-48.14211743, -22.70155124], [-48.14268252, -22.70108784], [-48.14298266, -22.70074896], [-48.14358249, -22.70048637], [-48.14343928, -22.69991067], [-48.14340119, -22.69983345], [-48.14333196, -22.69957381], [-48.14317912, -22.69925616], [-48.14302034, -22.69900891], [-48.14284323, -22.69877287], [-48.14253818, -22.69854259], [-48.1421904, -22.69837418], [-48.14204659, -22.69824913], [-48.14199172, -22.69810924], [-48.14170419, -22.69780336], [-48.14140407, -22.6977247], [-48.1408542, -22.69748408], [-48.14064684, -22.6973606], [-48.14042693, -22.69704022], [-48.14031082, -22.69683227], [-48.14022253, -22.69676958], [-48.14013731, -22.69657319], [-48.13981728, -22.69635283], [-48.13946444, -22.69623216], [-48.13923837, -22.69594173], [-48.13888281, -22.6959378], [-48.1384625, -22.69590898], [-48.13802339, -22.69579688], [-48.13740123, -22.69548256], [-48.13702302, -22.69531423], [-48.13713254, -22.69517918], [-48.13749857, -22.695325], [-48.1378402, -22.69554963], [-48.138322, -22.69568127], [-48.13849534, -22.69568591], [-48.13865559, -22.69573129], [-48.13902917, -22.69569185], [-48.13939507, -22.6957364], [-48.13960708, -22.69574335], [-48.14018145, -22.69590029], [-48.14055055, -22.6959782], [-48.14073764, -22.69587829], [-48.14083399, -22.69588118], [-48.14097401, -22.695701], [-48.14111382, -22.69532965], [-48.14126587, -22.69502017], [-48.14127317, -22.69490765], [-48.14129871, -22.6948443], [-48.14128123, -22.69428059], [-48.14130123, -22.69401054], [-48.141386, -22.69354921], [-48.14139764, -22.69311049], [-48.14120199, -22.69261571], [-48.14107925, -22.69196339], [-48.140969, -22.69158107], [-48.14082229, -22.69122129], [-48.14065098, -22.69072081], [-48.14038218, -22.69022618], [-48.1401496, -22.68997326], [-48.14007937, -22.68980467], [-48.13988059, -22.68968053], [-48.13975222, -22.68956216], [-48.13966677, -22.68944294], [-48.13948401, -22.68931087], [-48.1394674, -22.68923503], [-48.13994241, -22.68956574], [-48.14028427, -22.68994778], [-48.14051613, -22.69012757], [-48.14071128, -22.69014983], [-48.14109013, -22.69088626], [-48.14130993, -22.69112233], [-48.14143215, -22.69139213], [-48.14145689, -22.69166208], [-48.14166479, -22.69219065], [-48.14174469, -22.69257306], [-48.14184856, -22.69288784], [-48.14183717, -22.6936191], [-48.14179668, -22.69386379], [-48.14181341, -22.69406094], [-48.14181372, -22.69435031], [-48.14183178, -22.69444116], [-48.14182758, -22.69465257], [-48.14198521, -22.69500198], [-48.14198559, -22.69531193], [-48.14213246, -22.69579545], [-48.14258537, -22.69618444], [-48.14295259, -22.69636258], [-48.14333696, -22.6964551], [-48.1433942, -22.69644385], [-48.1435599, -22.69651676], [-48.14368396, -22.696881], [-48.14366681, -22.6969622], [-48.14403699, -22.69777608], [-48.14472616, -22.69849999], [-48.14545643, -22.69944306], [-48.14555513, -22.69950565], [-48.14560595, -22.69958833], [-48.14577319, -22.69964385], [-48.14599047, -22.69978158], [-48.14636326, -22.69967325], [-48.14648887, -22.69959209], [-48.14675822, -22.69956467], [-48.14734333, -22.69946283], [-48.14807472, -22.69925393], [-48.14830619, -22.69912998], [-48.14872671, -22.69900859], [-48.14886076, -22.69894266], [-48.14946999, -22.69877959], [-48.14979441, -22.6986249], [-48.150232, -22.69850092], [-48.15077435, -22.69829784], [-48.15123402, -22.69808526], [-48.15265885, -22.6976292], [-48.15320131, -22.69753804], [-48.15339051, -22.69734049], [-48.15405435, -22.69656344], [-48.15400951, -22.69641299], [-48.15408849, -22.69627666], [-48.15410653, -22.69609096], [-48.15402696, -22.69583239], [-48.15407573, -22.69582108], [-48.15417958, -22.69595028], [-48.154253, -22.69615837], [-48.15447541, -22.69621315], [-48.15449312, -22.69624117], [-48.15492382, -22.69636572], [-48.15506414, -22.69638248], [-48.15549628, -22.69628664], [-48.15729975, -22.69568617], [-48.1588569, -22.69503861], [-48.16057131, -22.69425041], [-48.16197155, -22.6937292], [-48.16223912, -22.69347571], [-48.16244564, -22.69317818], [-48.16246633, -22.69290623], [-48.16251714, -22.69267769], [-48.16244604, -22.69236125], [-48.16219078, -22.69198431], [-48.16204168, -22.69170953], [-48.16183162, -22.6913907], [-48.1615735, -22.69115713], [-48.16148369, -22.6910123], [-48.16140016, -22.69096821], [-48.16128821, -22.69083571], [-48.16121031, -22.6907688], [-48.16113546, -22.69064815], [-48.16096815, -22.69051638], [-48.16089655, -22.6904976], [-48.16061255, -22.69023622], [-48.16063568, -22.69013815], [-48.16039362, -22.68987617], [-48.16035207, -22.68963182], [-48.16037402, -22.68960964], [-48.16081163, -22.68993621], [-48.16114114, -22.69021708], [-48.16160481, -22.69046413], [-48.16220256, -22.69069976], [-48.16241928, -22.69084667], [-48.16260545, -22.69114927], [-48.16272757, -22.69128421], [-48.1629887, -22.69140934], [-48.1632334, -22.69158607], [-48.163329, -22.69161557], [-48.16349647, -22.69183462], [-48.16404586, -22.69243024], [-48.16466258, -22.69275654], [-48.16526785, -22.69260896], [-48.16559914, -22.69225623], [-48.16587864, -22.69186719], [-48.16598388, -22.69178701], [-48.16627635, -22.69165175], [-48.1663967, -22.69168863], [-48.16667032, -22.69197311], [-48.16683939, -22.6920577], [-48.16691099, -22.6921235], [-48.16698449, -22.69213022], [-48.16714461, -22.69221032], [-48.16743878, -22.6921722], [-48.16776279, -22.69219193], [-48.168132, -22.69226977], [-48.16905989, -22.69221354], [-48.16972828, -22.69199539], [-48.1707116, -22.69146717], [-48.17135602, -22.69089025], [-48.17161965, -22.69083733], [-48.17184175, -22.69055206], [-48.17234852, -22.69025522], [-48.17297658, -22.69015756], [-48.17316379, -22.69006032], [-48.17335839, -22.69002467], [-48.17378566, -22.69001264], [-48.17483097, -22.69011676], [-48.1754968, -22.69002743], [-48.17600763, -22.68981206], [-48.17599981, -22.68977555], [-48.17644337, -22.6896386], [-48.176809, -22.68943574], [-48.17728452, -22.68942401], [-48.177699, -22.68936733], [-48.17829627, -22.68912477], [-48.17866177, -22.68889943], [-48.17906412, -22.68883152], [-48.1808933, -22.68891955], [-48.18149061, -22.68878395], [-48.1817952, -22.68859237], [-48.18203884, -22.6883896], [-48.18220929, -22.68816442], [-48.1823065, -22.68784932], [-48.18229395, -22.68760188], [-48.18225704, -22.68730932], [-48.18247628, -22.68712914], [-48.18272008, -22.68702765], [-48.18270725, -22.68653261], [-48.18307216, -22.68581217], [-48.18320564, -22.68522142], [-48.18329003, -22.68443375], [-48.18335051, -22.68403993], [-48.18323998, -22.68343251], [-48.18321518, -22.68306128], [-48.18332462, -22.68281364], [-48.18314136, -22.68256634], [-48.18288496, -22.68228536], [-48.18262843, -22.68192558], [-48.18243298, -22.68159954], [-48.18259136, -22.68149808], [-48.18299402, -22.68175646], [-48.18337248, -22.68207109], [-48.18360404, -22.68199204], [-48.18384791, -22.68195806], [-48.18398201, -22.68196918], [-48.18393371, -22.68238551], [-48.18414198, -22.68315594], [-48.18426429, -22.68348204], [-48.18428916, -22.6838308], [-48.1842407, -22.68405587], [-48.1840461, -22.68447234], [-48.18397345, -22.68493373], [-48.18393828, -22.68609252], [-48.18408557, -22.68685745], [-48.18414714, -22.68735235], [-48.18416007, -22.68797114], [-48.18413628, -22.68842121], [-48.18397842, -22.68900071], [-48.18396676, -22.68942825], [-48.18427223, -22.6899454], [-48.18495567, -22.69041722], [-48.18574855, -22.69064139], [-48.18612685, -22.69092226], [-48.18648075, -22.69113564], [-48.18708188, -22.69172803], [-48.18751851, -22.69215831], [-48.18822617, -22.69248387], [-48.18900654, -22.69248306], [-48.18999426, -22.69252695], [-48.19103116, -22.6928072], [-48.19216533, -22.6929635], [-48.19287237, -22.69273771], [-48.19357951, -22.69266952], [-48.19458005, -22.69316347], [-48.195544, -22.69366869], [-48.19623959, -22.69412922], [-48.19706904, -22.69430839], [-48.19771499, -22.69404893], [-48.1982137, -22.69301343], [-48.19885868, -22.69192146], [-48.19940646, -22.69112213], [-48.19993013, -22.69058016], [-48.20029548, -22.69016919], [-48.2007831, -22.6900843], [-48.20139882, -22.6900049], [-48.20180714, -22.68985824], [-48.20239212, -22.68955382], [-48.20306831, -22.68902994], [-48.20331805, -22.68886091], [-48.20437881, -22.68877548], [-48.20507371, -22.68862849], [-48.20544547, -22.68847621], [-48.2062374, -22.68785235], [-48.2065175, -22.68761019], [-48.20674288, -22.68738495], [-48.20679737, -22.68712044], [-48.20716292, -22.68686136], [-48.20762007, -22.68671454], [-48.20793668, -22.68642735], [-48.20830816, -22.68599101], [-48.20851492, -22.68561389], [-48.20864259, -22.68530435], [-48.2087401, -22.68522545], [-48.20893481, -22.68491022], [-48.20939137, -22.68430223], [-48.2095374, -22.68403201], [-48.20961632, -22.6838238], [-48.20976755, -22.68284059], [-48.20986465, -22.68244107], [-48.20993124, -22.68205843], [-48.20989381, -22.68134687], [-48.20990558, -22.68098675], [-48.21008094, -22.6798108], [-48.21008049, -22.67950138], [-48.21025719, -22.6793493], [-48.21041527, -22.67904119], [-48.21048171, -22.67847848], [-48.21051802, -22.67830409], [-48.2108586, -22.67756672], [-48.21110175, -22.6769476], [-48.21132635, -22.67617806], [-48.2113807, -22.67575604], [-48.21144133, -22.67548035], [-48.21156331, -22.67548022], [-48.21157593, -22.67580367], [-48.21163095, -22.67594426], [-48.21155219, -22.67636631], [-48.21138898, -22.67753381], [-48.21138983, -22.67823706], [-48.21143296, -22.67855201], [-48.21173853, -22.67913114], [-48.21208014, -22.67929956], [-48.21254976, -22.6793666], [-48.21298882, -22.67940547], [-48.2138301, -22.67934268], [-48.21431779, -22.67928591], [-48.21481157, -22.67917292], [-48.21526867, -22.67899801], [-48.21624371, -22.67856375], [-48.21674342, -22.67841701], [-48.21782833, -22.67801363], [-48.21825502, -22.67792311], [-48.21879761, -22.67788317], [-48.2194256, -22.67787684], [-48.2206696, -22.67797121], [-48.22201101, -22.67802041], [-48.22253541, -22.67801417], [-48.22312059, -22.67787855], [-48.22346791, -22.67772066], [-48.22436993, -22.67739899], [-48.22477812, -22.67714539], [-48.22513749, -22.67681873], [-48.22537463, -22.6763403], [-48.22549561, -22.67555395], [-48.22554418, -22.67533446], [-48.22558027, -22.67495742], [-48.2255371, -22.67454119], [-48.22558537, -22.67419235], [-48.22556658, -22.67375352], [-48.22522966, -22.67254005], [-48.22508927, -22.67234888], [-48.22485124, -22.67215222], [-48.22463762, -22.67202305], [-48.22453381, -22.67192755], [-48.22466187, -22.6718767], [-48.22489896, -22.67134203], [-48.2249654, -22.67084403], [-48.22499513, -22.67020819], [-48.22477502, -22.66976397], [-48.22477488, -22.66964022], [-48.22490268, -22.66943754], [-48.22504865, -22.66915321], [-48.22494428, -22.66857381], [-48.22444898, -22.66742655], [-48.22471726, -22.6674488], [-48.22488834, -22.66775803], [-48.22516925, -22.66802783], [-48.22544385, -22.66825824], [-48.22573662, -22.66832542], [-48.22646805, -22.66809673], [-48.22648639, -22.66814742], [-48.22636464, -22.66827691], [-48.22617594, -22.66855283], [-48.22606047, -22.66886801], [-48.22589623, -22.66920013], [-48.22585409, -22.66958275], [-48.22585445, -22.66993722], [-48.2258975, -22.67019034], [-48.22598903, -22.67029149], [-48.22605639, -22.67048699], [-48.22602602, -22.67059957], [-48.22605055, -22.67072889], [-48.22619096, -22.67081319], [-48.22627646, -22.67091432], [-48.22616747, -22.67158399], [-48.22635132, -22.67226451], [-48.22652271, -22.67281006], [-48.22680387, -22.67338223], [-48.22692606, -22.67354529], [-48.22720058, -22.67367434], [-48.22743836, -22.67368541], [-48.22753606, -22.67377529], [-48.22751178, -22.67389907], [-48.22727435, -22.67417504], [-48.22724417, -22.67442257], [-48.22737861, -22.67462501], [-48.22759837, -22.67488923], [-48.22773292, -22.6751535], [-48.22778194, -22.67539535], [-48.22780046, -22.67558658], [-48.22779457, -22.67571041], [-48.22798997, -22.67595769], [-48.22824623, -22.67607559], [-48.22847185, -22.67612598], [-48.22875842, -22.67608635], [-48.22900833, -22.67600728], [-48.22919103, -22.67589454], [-48.22935559, -22.67583249], [-48.2296178, -22.67580409], [-48.23012998, -22.67582044], [-48.23029447, -22.67574711], [-48.23041631, -22.67565697], [-48.2304893, -22.67550496], [-48.23046466, -22.67527437], [-48.23048889, -22.67516737], [-48.23059256, -22.67517296], [-48.23090986, -22.67534137], [-48.23103803, -22.67549316], [-48.2311116, -22.67575746], [-48.23117865, -22.67577992], [-48.23145303, -22.67578521], [-48.2318373, -22.67583545], [-48.23211165, -22.67585202], [-48.2322397, -22.67583501], [-48.23233094, -22.67566058], [-48.23237956, -22.67552548], [-48.23233054, -22.67531739], [-48.23233026, -22.67510355], [-48.23237264, -22.6749066], [-48.23253698, -22.67460824], [-48.2326283, -22.67450692], [-48.23279894, -22.67449542], [-48.23292142, -22.67487223], [-48.23320837, -22.67522073], [-48.23355011, -22.67545103], [-48.23411735, -22.67560237], [-48.23442843, -22.67566958], [-48.23475162, -22.67571425], [-48.23591686, -22.67615185], [-48.23636202, -22.67624132], [-48.23666079, -22.6762185], [-48.23689851, -22.67615075], [-48.23714828, -22.67598176], [-48.23726386, -22.67572839], [-48.23726348, -22.67544144], [-48.23695183, -22.67485954], [-48.23684747, -22.67436454], [-48.23685309, -22.6739144], [-48.2368893, -22.67365561], [-48.2369561, -22.67341919], [-48.23701698, -22.67331788], [-48.23709629, -22.67337404], [-48.23720629, -22.67355394], [-48.23729206, -22.67391395], [-48.23729837, -22.67409395], [-48.23749395, -22.67447355], [-48.23769552, -22.67470964], [-48.23806787, -22.67506367], [-48.23845243, -22.67536141], [-48.23862321, -22.67547375], [-48.23887354, -22.67570418], [-48.2390932, -22.67583335], [-48.23933718, -22.67586121], [-48.23972119, -22.67582703], [-48.23977009, -22.67587202], [-48.23986784, -22.67605197], [-48.2399841, -22.67640068], [-48.23966135, -22.67672169], [-48.2394969, -22.67685127], [-48.23924121, -22.67720458], [-48.23917437, -22.67738467], [-48.23924772, -22.67752522], [-48.23968093, -22.67774987], [-48.23979092, -22.67793536], [-48.24010856, -22.67837952], [-48.24012106, -22.67861018], [-48.24005418, -22.67884092], [-48.24006086, -22.67927971], [-48.24009779, -22.67953851], [-48.24023839, -22.67981822], [-48.24036662, -22.68002064], [-48.2407639, -22.68079654], [-48.24102067, -22.68134201], [-48.2412841, -22.68233187], [-48.24133323, -22.68258925], [-48.24137644, -22.68304484], [-48.24147473, -22.68359615], [-48.24153018, -22.68413048], [-48.24154901, -22.68450179], [-48.24150084, -22.68504191], [-48.24150103, -22.68519238], [-48.24153772, -22.68529366], [-48.24153807, -22.68555805], [-48.24144109, -22.68605319], [-48.24117405, -22.6870886], [-48.2410038, -22.6874488], [-48.24084564, -22.68773031], [-48.24076033, -22.68784149], [-48.24063261, -22.68805538], [-48.24049275, -22.68836492], [-48.24034505, -22.68874491], [-48.24014012, -22.68927249], [-48.23987235, -22.68968344], [-48.23942167, -22.69006642], [-48.23920848, -22.69029724], [-48.23843541, -22.69135009], [-48.23832588, -22.69159209], [-48.23833825, -22.69172707], [-48.23847865, -22.69186191], [-48.23868607, -22.6918997], [-48.23897883, -22.69198943], [-48.23903997, -22.6920793], [-48.23886953, -22.69236078], [-48.23856479, -22.69245111], [-48.23765016, -22.69248577], [-48.23699209, -22.69285775], [-48.2368704, -22.6930267], [-48.2370779, -22.69324024], [-48.23722453, -22.69347637], [-48.23718813, -22.69358885], [-48.23693222, -22.69371287], [-48.23650574, -22.69402837], [-48.23643451, -22.69425677], [-48.2363478, -22.69453482], [-48.23589728, -22.69513153], [-48.23554399, -22.69539631], [-48.2350931, -22.69563304], [-48.23465451, -22.69599355], [-48.23437454, -22.69644381], [-48.23400893, -22.696658], [-48.23336344, -22.69732246], [-48.23299879, -22.69830156], [-48.23279235, -22.69906685], [-48.2329273, -22.69971917], [-48.23354974, -22.70013477], [-48.23446426, -22.70005509], [-48.23553757, -22.70021149], [-48.23637922, -22.70037939], [-48.23674441, -22.69982779], [-48.23686553, -22.69916382], [-48.23676734, -22.69864645], [-48.23680335, -22.69811768], [-48.23721752, -22.69779095], [-48.23803427, -22.69753138], [-48.23858279, -22.69727205], [-48.23998445, -22.69667992], [-48.24072219, -22.69659481], [-48.24159426, -22.69673451], [-48.24224086, -22.6969307], [-48.24390024, -22.6976631], [-48.24465667, -22.69789854], [-48.24546784, -22.69811155], [-48.24585205, -22.69817296], [-48.24609615, -22.69831337], [-48.24629751, -22.69846505], [-48.24684139, -22.69946859], [-48.24694567, -22.69994102], [-48.24699478, -22.70027287], [-48.24708658, -22.70053712], [-48.24726376, -22.70081818], [-48.2475996, -22.70117789], [-48.24789245, -22.70131823], [-48.24822764, -22.70123347], [-48.24847138, -22.70107573], [-48.24867241, -22.70088431], [-48.24868418, -22.70052427], [-48.24846977, -22.69970603], [-48.24786465, -22.6984803], [-48.24770582, -22.69823015], [-48.24744914, -22.69774102], [-48.2473936, -22.69723476], [-48.24732623, -22.69696488], [-48.24725894, -22.69677363], [-48.24717341, -22.69663306], [-48.24700875, -22.69661641], [-48.24687474, -22.69670654], [-48.24672859, -22.696898], [-48.24654579, -22.69697131], [-48.24641151, -22.69690951], [-48.24627049, -22.69621214], [-48.24625773, -22.69575085], [-48.24628137, -22.69557569], [-48.24617152, -22.69506606], [-48.24587805, -22.69444198], [-48.24564617, -22.69424527], [-48.24554235, -22.69411043], [-48.2455253, -22.69371776], [-48.24552348, -22.69367729], [-48.24543179, -22.69348047], [-48.24518781, -22.69337382], [-48.24494997, -22.69336846], [-48.24476108, -22.69346431], [-48.24446872, -22.69372339], [-48.24437115, -22.69372342], [-48.24436462, -22.69340278], [-48.24447418, -22.69321701], [-48.24457772, -22.69309884], [-48.24474199, -22.69285254], [-48.24472966, -22.69270068], [-48.24460754, -22.69260515], [-48.24440629, -22.69256034], [-48.24423556, -22.69256056], [-48.24418676, -22.69250999], [-48.24421062, -22.69207117], [-48.24407008, -22.69184625], [-48.24361849, -22.69153166], [-48.24344759, -22.69137996], [-48.24342917, -22.69128441], [-48.24345339, -22.69117751], [-48.2435082, -22.69109306], [-48.24350796, -22.69092986], [-48.24342847, -22.69075554], [-48.24341618, -22.69062616], [-48.24348924, -22.69058671], [-48.24364171, -22.69054159], [-48.24375127, -22.69042334], [-48.24383639, -22.69020944], [-48.24385445, -22.69003644], [-48.24382977, -22.68981144], [-48.24390875, -22.68956385], [-48.24408539, -22.6893555], [-48.24420089, -22.68913038], [-48.24414564, -22.68877036], [-48.24401709, -22.68839364], [-48.24393741, -22.68800548], [-48.24383344, -22.68774689], [-48.24374171, -22.68756695], [-48.24360751, -22.6875066], [-48.24353421, -22.68741669], [-48.24364978, -22.68716342], [-48.24355785, -22.68684284], [-48.24352707, -22.68657278], [-48.24346576, -22.68629723], [-48.24333116, -22.685926], [-48.24303708, -22.68478993], [-48.24285922, -22.68390263], [-48.24281555, -22.68311505], [-48.24283353, -22.68283373], [-48.2429424, -22.68211359], [-48.24310598, -22.68125962], [-48.24334874, -22.68037614], [-48.24359181, -22.67966697], [-48.24358556, -22.67953192], [-48.24351216, -22.6793745], [-48.24356088, -22.67930692], [-48.24366443, -22.67921681], [-48.24370067, -22.6789805], [-48.24369427, -22.67874137], [-48.24371211, -22.67835038], [-48.24368151, -22.67822664], [-48.24370575, -22.67814781], [-48.24379101, -22.67805775], [-48.24387636, -22.67800695], [-48.24387621, -22.67791696], [-48.2438152, -22.67785516], [-48.24351034, -22.67789486], [-48.24330302, -22.67790636], [-48.24316883, -22.67788961], [-48.24313222, -22.67783337], [-48.24316863, -22.67771521], [-48.24323563, -22.67761383], [-48.2435523, -22.67734344], [-48.24385105, -22.67725877], [-48.24413132, -22.67714029], [-48.24422271, -22.67705016], [-48.24429548, -22.67675751], [-48.24437462, -22.67662808], [-48.2445756, -22.67644217], [-48.24488578, -22.6758005], [-48.2449404, -22.67562741], [-48.24495856, -22.67549232], [-48.24504373, -22.67536282], [-48.24509842, -22.67521085], [-48.2451654, -22.67508139], [-48.24518343, -22.67492383], [-48.24515895, -22.6748057], [-48.24508567, -22.6747102], [-48.24478667, -22.67456415], [-48.2446403, -22.6745193], [-48.24457927, -22.67446319], [-48.24457307, -22.67438437], [-48.24465194, -22.67406358], [-48.24465178, -22.67397918], [-48.2447858, -22.67387777], [-48.24491986, -22.67379884], [-48.24510271, -22.67373113], [-48.24532182, -22.67338215], [-48.24573584, -22.67289779], [-48.24580878, -22.67268394], [-48.24580856, -22.6725489], [-48.24573515, -22.67232396], [-48.24551542, -22.67214408], [-48.24523472, -22.67203192], [-48.24490542, -22.67197597], [-48.24462497, -22.67198758], [-48.24402762, -22.67217948], [-48.24393025, -22.67232584], [-48.24379612, -22.67232597], [-48.24369832, -22.67216298], [-48.24364937, -22.672028], [-48.24378338, -22.67189275], [-48.24367349, -22.67181413], [-48.24362461, -22.67169044], [-48.24416076, -22.67139729], [-48.24483097, -22.67091264], [-48.24518418, -22.67060848], [-48.24550081, -22.67020305], [-48.24571978, -22.66983141], [-48.24589006, -22.6694824], [-48.24588975, -22.66923489], [-48.24529199, -22.66904416], [-48.24507242, -22.66898821], [-48.24502263, -22.66815548], [-48.2449244, -22.66768297], [-48.24450866, -22.66679447], [-48.24425205, -22.66639244], [-48.24386142, -22.66607773], [-48.24363608, -22.66595543], [-48.24338553, -22.66581942], [-48.24231221, -22.66571933], [-48.2420317, -22.66565213], [-48.24194612, -22.66553972], [-48.24227522, -22.66533679], [-48.24240872, -22.66485274], [-48.24242046, -22.66450389], [-48.24249334, -22.66427868], [-48.24232224, -22.66399753], [-48.24211414, -22.66331977], [-48.24214403, -22.66289496], [-48.24232658, -22.66257405], [-48.24239342, -22.66238827], [-48.24222865, -22.66232089], [-48.24199074, -22.66218049], [-48.24124014, -22.66169746], [-48.24061197, -22.6616137], [-48.24000786, -22.66127112], [-48.23967828, -22.66097325], [-48.23963537, -22.66083829], [-48.23986698, -22.6607874], [-48.24019049, -22.66102902], [-48.24078225, -22.6612647], [-48.24145303, -22.66134269], [-48.24177035, -22.66146613], [-48.24208776, -22.66176965], [-48.24244162, -22.6619718], [-48.24305175, -22.66221871], [-48.24351547, -22.66247709], [-48.24399145, -22.66280293], [-48.2443086, -22.66284756], [-48.24443056, -22.66281364], [-48.2444668, -22.66261108], [-48.24453886, -22.66171076], [-48.24462365, -22.6612155], [-48.24475724, -22.66077929], [-48.24496382, -22.66023882], [-48.24508512, -22.65968732], [-48.24514539, -22.65915832], [-48.24505842, -22.657898], [-48.24511913, -22.65767284], [-48.2453388, -22.6577964], [-48.24548655, -22.65891037], [-48.24570668, -22.65940528], [-48.24582311, -22.65987215], [-48.24593317, -22.66012245], [-48.24631824, -22.6608029], [-48.24619665, -22.66113496], [-48.24621559, -22.6616526], [-48.24625869, -22.66195365], [-48.24641161, -22.66230795], [-48.24668033, -22.66267336], [-48.24734089, -22.6642481], [-48.24747528, -22.66451244], [-48.24755508, -22.66490484], [-48.24755023, -22.66591762], [-48.24764825, -22.66628885], [-48.24792304, -22.66656987], [-48.24822819, -22.66677776], [-48.24858192, -22.66685614], [-48.24889288, -22.66681644], [-48.24920371, -22.66675418], [-48.24950242, -22.66667509], [-48.24970962, -22.66655671], [-48.24993507, -22.66644955], [-48.25047754, -22.66629143], [-48.25091028, -22.666139], [-48.25106879, -22.66611077], [-48.2510872, -22.666212], [-48.25060027, -22.66690183], [-48.25025304, -22.66715538], [-48.24967471, -22.66788742], [-48.2494682, -22.66853188], [-48.24943801, -22.66876262], [-48.24953028, -22.66939831], [-48.24976829, -22.6696175], [-48.25011593, -22.66968468], [-48.2504392, -22.66970115], [-48.25082312, -22.66954888], [-48.25108504, -22.66933476], [-48.25126159, -22.66907575], [-48.25157179, -22.66850853], [-48.25168126, -22.66823275], [-48.25187003, -22.66809184], [-48.25205906, -22.66804102], [-48.25222958, -22.66792263], [-48.25293615, -22.66731987], [-48.25348446, -22.66693663], [-48.25394755, -22.6666717], [-48.25423979, -22.66631692], [-48.25438578, -22.66598481], [-48.25453806, -22.66587911], [-48.25472084, -22.66579451], [-48.25484875, -22.66568188], [-48.25490949, -22.6654792], [-48.25497611, -22.66514717], [-48.25512223, -22.66491065], [-48.25567669, -22.66458934], [-48.25581678, -22.66446546], [-48.25603578, -22.66407133], [-48.25617047, -22.66397922], [-48.25664533, -22.66389899], [-48.25674885, -22.66377511], [-48.25682796, -22.66365127], [-48.25685807, -22.66333053], [-48.25691278, -22.66320104], [-48.25704057, -22.66305456], [-48.25715015, -22.66288006], [-48.2573453, -22.66286291], [-48.25755868, -22.66286837], [-48.25787587, -22.66293555], [-48.25819292, -22.66294639], [-48.25874168, -22.66294017], [-48.25897945, -22.66291743], [-48.25911967, -22.66288915], [-48.25932733, -22.66311403], [-48.26016952, -22.66371517], [-48.26052339, -22.66385545], [-48.26076736, -22.66387768], [-48.26104779, -22.66383238], [-48.26131591, -22.66373081], [-48.26178512, -22.66349954], [-48.26268164, -22.66358862], [-48.26289503, -22.66355463], [-48.26309614, -22.66348685], [-48.26333382, -22.66334595], [-48.26409521, -22.6627318], [-48.26443042, -22.66259644], [-48.2646986, -22.66251166], [-48.26498507, -22.66238197], [-48.26522879, -22.66223539], [-48.2655273, -22.66200859], [-48.26588664, -22.66168183], [-48.26611788, -22.66135523], [-48.26621522, -22.66116941], [-48.26645884, -22.66094971], [-48.26681248, -22.66087053], [-48.26704418, -22.66089841], [-48.26759931, -22.66106666], [-48.26802013, -22.66115616], [-48.26892273, -22.66122274], [-48.26950193, -22.66118271], [-48.26975184, -22.66108677], [-48.27000177, -22.661019], [-48.27025789, -22.66104684], [-48.2704653, -22.66110291], [-48.27099593, -22.66119238], [-48.27148986, -22.66121434], [-48.27198389, -22.66127565], [-48.27270349, -22.66133115], [-48.27294738, -22.6613084], [-48.27347785, -22.66130218], [-48.27374004, -22.66127379], [-48.27412418, -22.66129026], [-48.27439254, -22.66128427], [-48.27463025, -22.66120527], [-48.27479454, -22.66092373], [-48.27492216, -22.66060284], [-48.27492801, -22.66039045], [-48.27492753, -22.66007533], [-48.27487229, -22.65976026], [-48.27473153, -22.6593384], [-48.27468236, -22.65904582], [-48.2744928, -22.6586521], [-48.27429728, -22.65830911], [-48.27407127, -22.6579886], [-48.27367422, -22.65748394], [-48.27339351, -22.65729863], [-48.2731496, -22.65729321], [-48.27298491, -22.65726531], [-48.27298477, -22.65716394], [-48.27318581, -22.65704559], [-48.27347213, -22.65681451], [-48.27362424, -22.65649928], [-48.27364199, -22.65612787], [-48.27353723, -22.65525294], [-48.27356716, -22.65483082], [-48.27356666, -22.65444258], [-48.2735173, -22.6539924], [-48.27340139, -22.65390819], [-48.27337074, -22.65379565], [-48.2734072, -22.65368308], [-48.27338271, -22.65359862], [-48.27327285, -22.6535425], [-48.2731751, -22.65339063], [-48.27322359, -22.65316128], [-48.27324166, -22.65296995], [-48.27310082, -22.65250864], [-48.27286867, -22.65223317], [-48.27270979, -22.65190695], [-48.27264244, -22.65169323], [-48.27226423, -22.65160925], [-48.271629, -22.65075733], [-48.27136651, -22.65056068], [-48.27062827, -22.65020699], [-48.27051226, -22.65012269], [-48.27076215, -22.65002676], [-48.27130472, -22.6499136], [-48.27133501, -22.64973909], [-48.27153582, -22.64943497], [-48.27168194, -22.64926036], [-48.27184055, -22.64929962], [-48.27182253, -22.64954727], [-48.27189614, -22.64986229], [-48.27209748, -22.64996899], [-48.27228683, -22.65024454], [-48.27256175, -22.65060442], [-48.27283653, -22.65091221], [-48.27317255, -22.65141828], [-48.27328871, -22.65167697], [-48.27380793, -22.65239115], [-48.27405229, -22.65268344], [-48.27416242, -22.65302101], [-48.274273, -22.65362163], [-48.27434648, -22.65387472], [-48.27446269, -22.65415598], [-48.27463984, -22.65437528], [-48.27487178, -22.65453818], [-48.27519496, -22.65457726], [-48.27542668, -22.65455448], [-48.27545732, -22.65467262], [-48.27538436, -22.65487529], [-48.27529322, -22.65507792], [-48.27506792, -22.65537648], [-48.27497081, -22.65570854], [-48.27497123, -22.65605183], [-48.27503289, -22.65661307], [-48.27508809, -22.65682686], [-48.27529564, -22.6569842], [-48.2755701, -22.65702326], [-48.27582613, -22.65700613], [-48.27605802, -22.6571128], [-48.27614967, -22.65729841], [-48.27620518, -22.65774284], [-48.27626648, -22.65800727], [-48.27655996, -22.6586203], [-48.27672463, -22.65865388], [-48.27700495, -22.65852984], [-48.27736443, -22.65828745], [-48.27790048, -22.65787041], [-48.2783147, -22.65747604], [-48.27877729, -22.656858], [-48.27907535, -22.65627245], [-48.27964077, -22.65491281], [-48.27971974, -22.65467639], [-48.28020669, -22.65400053], [-48.28058427, -22.65366808], [-48.28078567, -22.65375789], [-48.28046944, -22.65444621], [-48.280196, -22.65518934], [-48.28012309, -22.65542432], [-48.28004405, -22.6556101], [-48.27994139, -22.65639241], [-48.27998471, -22.65685387], [-48.27993023, -22.65718025], [-48.27957127, -22.65781089], [-48.27940749, -22.65853565], [-48.27926164, -22.65887907], [-48.27911554, -22.65908177], [-48.27881091, -22.65928465], [-48.27860384, -22.65948748], [-48.27826264, -22.65969047], [-48.27809827, -22.65996633], [-48.27773924, -22.66050128], [-48.2776299, -22.66087141], [-48.27764843, -22.66101209], [-48.27782549, -22.66119193], [-48.27808162, -22.6612536], [-48.27839271, -22.66135448], [-48.27896, -22.66148896], [-48.2791858, -22.66158433], [-48.27941758, -22.66162347], [-48.28008832, -22.66165093], [-48.28027732, -22.66160567], [-48.28069793, -22.66146451], [-48.28077145, -22.66144509], [-48.28099662, -22.66138545], [-48.28125875, -22.66137952], [-48.28177731, -22.6615787], [-48.28204574, -22.66162343], [-48.28231399, -22.6616232], [-48.28271628, -22.66145391], [-48.28294774, -22.66126232], [-48.283021, -22.66129597], [-48.2829358, -22.66145367], [-48.28283254, -22.66177308], [-48.28301571, -22.66194454], [-48.28303724, -22.66211054], [-48.28300992, -22.66222869], [-48.28286065, -22.66231606], [-48.28269004, -22.66238096], [-48.28251032, -22.66252323], [-48.28241595, -22.66263311], [-48.28236117, -22.66274285], [-48.28235829, -22.66288921], [-48.28241029, -22.66304391], [-48.28248062, -22.66318167], [-48.28266686, -22.66336997], [-48.2827951, -22.66353021], [-48.28298743, -22.66371572], [-48.28353991, -22.66419267], [-48.28409549, -22.66471535], [-48.28455956, -22.66524244], [-48.28476456, -22.66580205], [-48.28505493, -22.6663483], [-48.28511606, -22.66648889], [-48.28518347, -22.66677997], [-48.28525683, -22.66693187], [-48.28530584, -22.66710059], [-48.28570334, -22.66800052], [-48.2857707, -22.66826488], [-48.28581411, -22.66877689], [-48.28590619, -22.66928737], [-48.28594363, -22.66995977], [-48.28599276, -22.67024106], [-48.28609044, -22.67035347], [-48.28652895, -22.66993665], [-48.28674798, -22.66949752], [-48.2869184, -22.66924974], [-48.28716214, -22.66909193], [-48.28788098, -22.66855096], [-48.28796664, -22.66876472], [-48.28791825, -22.66911359], [-48.28768719, -22.66962031], [-48.28749249, -22.66993556], [-48.28727362, -22.67050974], [-48.28683586, -22.67154553], [-48.28655594, -22.67198472], [-48.28639775, -22.67232252], [-48.28638603, -22.67270514], [-48.28641083, -22.67303143], [-48.28652099, -22.67335491], [-48.28671678, -22.67384982], [-48.28703439, -22.67428831], [-48.28730328, -22.67476072], [-48.28765766, -22.67532295], [-48.28786557, -22.67575036], [-48.28802462, -22.67615528], [-48.28826885, -22.67644764], [-48.28854958, -22.6765711], [-48.28917208, -22.67699805], [-48.28979434, -22.67719995], [-48.29063615, -22.67744664], [-48.29145346, -22.67760328], [-48.2922947, -22.67736892], [-48.29267248, -22.67717718], [-48.2927574, -22.67676077], [-48.29293944, -22.67608541], [-48.29301224, -22.6757364], [-48.29324394, -22.67573617], [-48.29337857, -22.67610737], [-48.29396466, -22.67668072], [-48.29461117, -22.67674753], [-48.29514757, -22.67656686], [-48.29565932, -22.67619503], [-48.2959394, -22.67584583], [-48.29593871, -22.67533102], [-48.29591386, -22.67489218], [-48.29575402, -22.673857], [-48.29574115, -22.67337313], [-48.29588704, -22.67300162], [-48.29603333, -22.67292267], [-48.29614328, -22.67311391], [-48.29658303, -22.67366484], [-48.29715699, -22.67422688], [-48.29777953, -22.67468764], [-48.29869436, -22.67477665], [-48.29929175, -22.67462976], [-48.30012062, -22.67424621], [-48.30027902, -22.67409976], [-48.30016901, -22.67388605], [-48.29998585, -22.67371741], [-48.29985108, -22.67323365], [-48.29980192, -22.67295236], [-48.29969178, -22.67262617], [-48.29966698, -22.6722886], [-48.2997277, -22.67210846], [-48.29999632, -22.67237829], [-48.30027716, -22.67262557], [-48.30087508, -22.67283876], [-48.30144843, -22.67295061], [-48.3019606, -22.6728938], [-48.30235074, -22.67276958], [-48.30272861, -22.67261166], [-48.30298452, -22.67248761], [-48.30336243, -22.67235217], [-48.30377708, -22.67231791], [-48.30416732, -22.67223872], [-48.30450844, -22.67198513], [-48.30469106, -22.67174864], [-48.30492266, -22.67157958], [-48.30522753, -22.67156802], [-48.30567883, -22.67162382], [-48.30656884, -22.67137522], [-48.30700782, -22.67128475], [-48.3073004, -22.67120564], [-48.30751957, -22.67093536], [-48.30776309, -22.67056367], [-48.30820143, -22.67002303], [-48.30856688, -22.66962875], [-48.30892021, -22.66934701], [-48.30951746, -22.66907631], [-48.31010267, -22.66888431], [-48.31055356, -22.66862217], [-48.31091932, -22.66852053], [-48.31146797, -22.66831735], [-48.31190702, -22.66832815], [-48.31226066, -22.66829401], [-48.31263837, -22.6680235], [-48.31305286, -22.66783169], [-48.31336958, -22.66751619], [-48.31373479, -22.66699813], [-48.3139802, -22.66699792], [-48.31406404, -22.66699779], [-48.31445464, -22.66723371], [-48.31476003, -22.66755974], [-48.31510154, -22.66760437], [-48.31550391, -22.66748014], [-48.31596725, -22.66741218], [-48.31647911, -22.66713019], [-48.31693004, -22.66685963], [-48.3174297, -22.66650458], [-48.31758796, -22.66627931], [-48.317673, -22.66604288], [-48.31750101, -22.66501888], [-48.31704844, -22.664029], [-48.31663276, -22.6632079], [-48.31633968, -22.66294934], [-48.31633954, -22.66279173], [-48.31654679, -22.66275774], [-48.31694942, -22.66282488], [-48.31736418, -22.66294818], [-48.31746212, -22.66321819], [-48.3177065, -22.66355555], [-48.31803615, -22.66385914], [-48.31825636, -22.66435407], [-48.31839117, -22.66489415], [-48.31856253, -22.66540044], [-48.31875809, -22.66569285], [-48.31896544, -22.66574886], [-48.31918497, -22.66574865], [-48.31948973, -22.66560201], [-48.31984339, -22.66560162], [-48.32018487, -22.66556743], [-48.3205628, -22.66545452], [-48.32101412, -22.66549908], [-48.32141661, -22.66549859], [-48.32166046, -22.6653633], [-48.32179424, -22.66511558], [-48.32201345, -22.66481143], [-48.32233019, -22.66451849], [-48.3225494, -22.66425938], [-48.32265874, -22.6639329], [-48.32267048, -22.66358394], [-48.32257262, -22.66331394], [-48.32247449, -22.6628976], [-48.32251082, -22.66269501], [-48.32281597, -22.6628635], [-48.32301158, -22.66322342], [-48.32323133, -22.66339202], [-48.32351177, -22.66333542], [-48.3236459, -22.66333531], [-48.32350006, -22.66371814], [-48.3235126, -22.66399944], [-48.32358612, -22.66428078], [-48.32374501, -22.6645732], [-48.32374531, -22.66479833], [-48.32384317, -22.66502329], [-48.32419701, -22.66512417], [-48.32459965, -22.66528137], [-48.32540496, -22.66549432], [-48.32635656, -22.66570709], [-48.3273569, -22.66587482], [-48.32853994, -22.66588481], [-48.32896682, -22.66585059], [-48.32914948, -22.66562526], [-48.32901504, -22.66540033], [-48.32896595, -22.66519785], [-48.32901452, -22.66504023], [-48.32931969, -22.66525367], [-48.32962483, -22.66538847], [-48.33021049, -22.66556786], [-48.33028319, -22.66517387], [-48.33072187, -22.66489205], [-48.33138054, -22.66494763], [-48.33221049, -22.66538563], [-48.33289372, -22.66556501], [-48.3336986, -22.66542902], [-48.33471075, -22.66533791], [-48.33591789, -22.66507772], [-48.33672243, -22.66467172], [-48.33806344, -22.66415249], [-48.33955083, -22.66372316], [-48.34137925, -22.66284335], [-48.34250023, -22.66187414], [-48.34323071, -22.66088291], [-48.34449838, -22.66018368], [-48.34539419, -22.65966215], [-48.34618001, -22.65897748], [-48.34688611, -22.65795243], [-48.3478734, -22.6574111], [-48.34836083, -22.65703914], [-48.3487249, -22.65562612], [-48.3492919, -22.65408828], [-48.3495636, -22.65335148], [-48.35043906, -22.65121185], [-48.35139921, -22.64853461], [-48.3516299, -22.64772392], [-48.35149489, -22.6470712], [-48.35082164, -22.64521459], [-48.3502312, -22.64371094], [-48.35002605, -22.64376948], [-48.34945868, -22.64393142], [-48.34898489, -22.64535861], [-48.34898589, -22.64612673], [-48.34744135, -22.64706118], [-48.3453019, -22.647722], [-48.34476704, -22.64788717], [-48.34375744, -22.6487113], [-48.34239035, -22.64893235], [-48.34167722, -22.6491526], [-48.33977479, -22.64915469], [-48.33811061, -22.64954056], [-48.33513839, -22.64976331], [-48.33246204, -22.64894335], [-48.33263918, -22.64801038], [-48.33186529, -22.64724312], [-48.33055652, -22.64658618], [-48.33049621, -22.64587295], [-48.33013893, -22.64543443], [-48.32954397, -22.64505107], [-48.32941317, -22.64462399], [-48.32900659, -22.64329586], [-48.32811336, -22.64214466], [-48.32698064, -22.63967686], [-48.32620716, -22.63923879], [-48.32519472, -22.63786813], [-48.32335114, -22.63737643], [-48.32133017, -22.63759812], [-48.31990304, -22.63732539], [-48.3191298, -22.63705194], [-48.3178796, -22.6356816], [-48.31549972, -22.63425766], [-48.31252514, -22.63261494], [-48.30919287, -22.63025927], [-48.30889345, -22.62861344], [-48.30966484, -22.6275151], [-48.31019846, -22.62647197], [-48.31043472, -22.62526445], [-48.30995765, -22.62416754], [-48.30942226, -22.6238938], [-48.3085903, -22.62411426], [-48.30858941, -22.62351062], [-48.30924166, -22.6222478], [-48.31042887, -22.6209294], [-48.31084285, -22.61928263], [-48.31036569, -22.61813084], [-48.31054083, -22.61571603], [-48.3102413, -22.61407002], [-48.30976406, -22.61280837], [-48.30910831, -22.61149209], [-48.30833387, -22.61028566], [-48.30559905, -22.6101242], [-48.3047068, -22.60974109], [-48.30440958, -22.60974143], [-48.30411303, -22.6102906], [-48.30197668, -22.613037], [-48.29811531, -22.61507189], [-48.29449166, -22.61705166], [-48.29365946, -22.6170526], [-48.28836941, -22.61760756], [-48.28498064, -22.61739198], [-48.28462338, -22.61695337], [-48.2847402, -22.61541675], [-48.28372777, -22.61404605], [-48.28223947, -22.61245633], [-48.2803361, -22.61163541], [-48.27926595, -22.6115269], [-48.27795798, -22.61141868], [-48.27671153, -22.61279205], [-48.27617666, -22.61290239], [-48.27564137, -22.61268352], [-48.27492785, -22.61257463], [-48.27469054, -22.61290413], [-48.27272697, -22.61153454], [-48.27296445, -22.61131481], [-48.27439022, -22.61065464], [-48.27486392, -22.60928216], [-48.27551442, -22.60675699], [-48.27527401, -22.60483655], [-48.27497546, -22.60384911], [-48.2737847, -22.60253337], [-48.27247523, -22.60132763], [-48.27122437, -22.59946313], [-48.27027304, -22.59929963], [-48.26973862, -22.59973934], [-48.27009639, -22.60050719], [-48.27069309, -22.60220775], [-48.27122908, -22.60292059], [-48.2708161, -22.605226], [-48.2698073, -22.60648935], [-48.26969257, -22.60950771], [-48.27082425, -22.61115266], [-48.27100338, -22.61175607], [-48.26999379, -22.61247068], [-48.26940081, -22.61356878], [-48.26904555, -22.61461189], [-48.26904677, -22.61548984], [-48.26922607, -22.61620302], [-48.26892973, -22.61686179], [-48.26803876, -22.61741159], [-48.2672679, -22.61883919], [-48.26679458, -22.62054076], [-48.26620155, -22.62158396], [-48.26542906, -22.6218043], [-48.26388622, -22.62383631], [-48.26050139, -22.62641904], [-48.25854258, -22.62861601], [-48.25711699, -22.62938578], [-48.25688167, -22.63125151], [-48.25604986, -22.63158172], [-48.25587003, -22.63037487], [-48.25355047, -22.62944476], [-48.25307465, -22.62928072], [-48.25093489, -22.62939288], [-48.25069795, -22.63005154], [-48.24909325, -22.63021799], [-48.24843957, -22.63032844], [-48.24695494, -22.63142747], [-48.24600494, -22.63225151], [-48.24541088, -22.63252645], [-48.24463645, -22.6312655], [-48.24380318, -22.63049827], [-48.24249459, -22.62978651], [-48.24190061, -22.6301164], [-48.24166262, -22.63000697], [-48.24148322, -22.62918419], [-48.24076982, -22.62913012], [-48.24017527, -22.62902104], [-48.24058993, -22.62792325], [-48.23975437, -22.62534545], [-48.23915855, -22.62430365], [-48.23773023, -22.62304332], [-48.23695701, -22.62271507], [-48.23671886, -22.6223861], [-48.23808545, -22.62200048], [-48.23790643, -22.62145193], [-48.23749024, -22.62134267], [-48.23671772, -22.62156305], [-48.236123, -22.62128941], [-48.23653729, -22.6199721], [-48.23671398, -22.6187647], [-48.2362961, -22.61739352], [-48.23593868, -22.61684523], [-48.23492636, -22.61547462], [-48.2343667, -22.61354713], [-48.23432296, -22.61339626], [-48.23373194, -22.61136063], [-48.23301693, -22.6100994], [-48.23164623, -22.60746703], [-48.23200117, -22.60620458], [-48.23098897, -22.60499851], [-48.23057156, -22.60401122], [-48.23092816, -22.60401078], [-48.23152292, -22.60422965], [-48.23265167, -22.60378932], [-48.23336441, -22.60334939], [-48.23300638, -22.60236213], [-48.23229139, -22.60115569], [-48.2313984, -22.60016895], [-48.23133859, -22.59983972], [-48.22890065, -22.59923899], [-48.22670188, -22.59968066], [-48.2258713, -22.60083405], [-48.22534032, -22.60368812], [-48.22612191, -22.61021716], [-48.22683836, -22.61257586], [-48.22785173, -22.6146598], [-48.22797417, -22.61734826], [-48.22654948, -22.61872162], [-48.2250049, -22.61938181], [-48.22423254, -22.6196571], [-48.22322272, -22.62015204], [-48.22209317, -22.62004366], [-48.22179568, -22.61982449], [-48.22030998, -22.6200457], [-48.21817081, -22.62054196], [-48.21781458, -22.62081668], [-48.2174586, -22.62131092], [-48.21740174, -22.62323128], [-48.21740217, -22.62361536], [-48.21680792, -22.62372581], [-48.21544044, -22.62345303], [-48.21205464, -22.62515774], [-48.21063222, -22.62823181], [-48.20938381, -22.62812352], [-48.21003699, -22.62762897], [-48.21009548, -22.62686077], [-48.21003472, -22.62587332], [-48.20807347, -22.62609506], [-48.20563702, -22.6264819], [-48.20278553, -22.62769214], [-48.19969698, -22.62934155], [-48.19951982, -22.6302195], [-48.19833149, -22.63060491], [-48.19759917, -22.63177238], [-48.19726385, -22.63230682], [-48.19613474, -22.63241786], [-48.19530285, -22.63258338], [-48.19274911, -22.63423207], [-48.19037265, -22.63500277], [-48.18775777, -22.63528004], [-48.18508329, -22.63544764], [-48.18329859, -22.63424279], [-48.1798503, -22.63347865], [-48.17877947, -22.6327118], [-48.17782692, -22.63150602], [-48.17645998, -22.63161725], [-48.17212357, -22.63343257], [-48.17164935, -22.63442049], [-48.17034207, -22.63464148], [-48.16885856, -22.63645343], [-48.16832534, -22.63777057], [-48.16838627, -22.63886759], [-48.16826797, -22.6393066], [-48.16690211, -22.64018587], [-48.16559639, -22.6416684], [-48.1652429, -22.64402751], [-48.1644104, -22.64375418], [-48.16310348, -22.64419444], [-48.15769563, -22.64480387], [-48.15520018, -22.64540998], [-48.15460535, -22.64497186], [-48.15139349, -22.64311049], [-48.14930958, -22.6402604], [-48.14746597, -22.63938483], [-48.14657544, -22.64015378], [-48.14550785, -22.64180058], [-48.14437986, -22.64278922], [-48.14295461, -22.64366847], [-48.14253842, -22.64350436], [-48.14218133, -22.64312079], [-48.1416459, -22.64273739], [-48.14004331, -22.64438471], [-48.13945028, -22.64537275], [-48.13843977, -22.64526417], [-48.13808266, -22.64482572], [-48.13796224, -22.64367404], [-48.13707002, -22.64307168], [-48.13564341, -22.64290872], [-48.13451334, -22.64225173], [-48.13421566, -22.64181326], [-48.13384175, -22.64164122], [-48.13017182, -22.63995285], [-48.12803294, -22.64050373], [-48.12417143, -22.64165999], [-48.12351709, -22.64116698], [-48.12108053, -22.64127945], [-48.12167574, -22.64199181], [-48.12048733, -22.64210286], [-48.11971521, -22.64248774], [-48.11906091, -22.6420496], [-48.11852388, -22.64040474], [-48.11733345, -22.63903479], [-48.11661977, -22.63865162], [-48.11572871, -22.63892684], [-48.11531356, -22.63958556], [-48.11448353, -22.64112232], [-48.11353129, -22.64008119], [-48.11323386, -22.63986211], [-48.11436067, -22.6381056], [-48.11245814, -22.63750442], [-48.11168562, -22.63756017], [-48.1106153, -22.63712253], [-48.10901086, -22.63723403], [-48.10895183, -22.63750834], [-48.10794133, -22.63739985], [-48.10669305, -22.63718181], [-48.10585214, -22.6367574], [-48.10484949, -22.63625145], [-48.10282763, -22.63532118], [-48.10110256, -22.63406159], [-48.09997145, -22.63258185], [-48.09901844, -22.63093737], [-48.09806692, -22.63044476], [-48.09729444, -22.63050045], [-48.09646281, -22.63077574], [-48.09628569, -22.6317084], [-48.0959307, -22.63291555], [-48.09622878, -22.63357342], [-48.09849144, -22.6369168], [-48.09956197, -22.63757385], [-48.1004545, -22.63834066], [-48.1020608, -22.63965534], [-48.10313189, -22.64075112], [-48.10349044, -22.64223158], [-48.10443969, -22.64352344], [-48.10485972, -22.64409496], [-48.10795527, -22.64815025], [-48.10861097, -22.64963039], [-48.10890907, -22.6503979], [-48.10855492, -22.65226299], [-48.10867491, -22.65314038], [-48.10897317, -22.65407243], [-48.10814174, -22.65445725], [-48.10695447, -22.65550066], [-48.10653921, -22.65610438], [-48.10594632, -22.65720192], [-48.10537155, -22.65726879], [-48.10452022, -22.65736794], [-48.10309336, -22.65693083], [-48.10255836, -22.65682169], [-48.10071585, -22.65665918], [-48.09988342, -22.65633109], [-48.09869439, -22.65600331], [-48.09780279, -22.65583977], [-48.09703099, -22.65649873], [-48.09566653, -22.65836485], [-48.09465842, -22.66006603], [-48.0932332, -22.66094507], [-48.09347237, -22.66209647], [-48.09323528, -22.66259029], [-48.09133305, -22.66215356], [-48.09062115, -22.66314147], [-48.08996889, -22.66429383], [-48.09020804, -22.66544514], [-48.0905073, -22.66714487], [-48.0893776, -22.66665256], [-48.08848427, -22.66517282], [-48.08866041, -22.66347262], [-48.08764793, -22.66171886], [-48.08728977, -22.66147903], [-48.08699365, -22.66128086], [-48.08580461, -22.66089829], [-48.08098813, -22.65860028], [-48.08045327, -22.6586009], [-48.07985739, -22.65734018], [-48.07914396, -22.65712157], [-48.07753634, -22.65465552], [-48.07670379, -22.65427254], [-48.07355064, -22.65147904], [-48.07164774, -22.65049396], [-48.07129065, -22.65005566], [-48.0690318, -22.64961938], [-48.06748535, -22.64852426], [-48.06641453, -22.64759308], [-48.06570088, -22.64720996], [-48.06397673, -22.64660859], [-48.06314524, -22.64693857], [-48.06183891, -22.64776273], [-48.06082993, -22.648751], [-48.05964355, -22.6503427], [-48.05807093, -22.6522384], [-48.05756973, -22.65555857], [-48.05710988, -22.65663795], [-48.05696748, -22.65697235], [-48.05627268, -22.65860346], [-48.05495393, -22.66001117], [-48.05073753, -22.66135884], [-48.04911538, -22.66397545], [-48.0459893, -22.66500336], [-48.04598124, -22.66631486], [-48.04832429, -22.67305769], [-48.04813322, -22.67497692], [-48.04859877, -22.67555844], [-48.04913689, -22.67623073], [-48.05033646, -22.6809139], [-48.05197111, -22.68321355], [-48.05000663, -22.68408979], [-48.04817321, -22.68166255], [-48.04769013, -22.68071382], [-48.04645337, -22.67990624], [-48.04679258, -22.67876466], [-48.04687021, -22.67644478], [-48.04598187, -22.67600483], [-48.04574011, -22.67413501], [-48.04542362, -22.67275208], [-48.04469641, -22.67250923], [-48.04382552, -22.67221833], [-48.04521626, -22.67158254], [-48.04540475, -22.67073367], [-48.04427864, -22.66662134], [-48.04457991, -22.66522428], [-48.04404576, -22.66445141], [-48.03947472, -22.66466017], [-48.03577659, -22.6648948], [-48.03127881, -22.66520133], [-48.02621038, -22.66802275], [-48.02450167, -22.66855164], [-48.02692221, -22.67092802], [-48.02633389, -22.67161041], [-48.02432569, -22.67008094], [-48.02202073, -22.67083851], [-48.01427913, -22.67171555], [-48.0158068, -22.67385602], [-48.01563721, -22.67585788], [-48.01441669, -22.67596914], [-48.01366236, -22.67435924], [-48.01274267, -22.67419613], [-48.01219318, -22.67475301], [-48.01105957, -22.67590186], [-48.00864831, -22.67693403], [-48.00726651, -22.67639719], [-48.0073368, -22.6754312], [-48.00943311, -22.67257162], [-48.0071789, -22.67214266], [-48.00451587, -22.67280482], [-48.00310735, -22.67315497], [-48.00200947, -22.67203308], [-48.00191153, -22.67000836], [-48.00109008, -22.66996292], [-47.99973217, -22.674038], [-47.99901158, -22.6741031], [-47.99944335, -22.67023611], [-47.99730812, -22.67026402], [-47.99336717, -22.67002017], [-47.99233341, -22.66909364], [-47.98696423, -22.66884139], [-47.98669294, -22.66710042], [-47.98548218, -22.66553705], [-47.98368684, -22.6654619], [-47.98171037, -22.66662414], [-47.98194791, -22.67062731], [-47.98189477, -22.67619308], [-47.98249747, -22.67835437], [-47.98256211, -22.68045173], [-47.98317, -22.68147534], [-47.98506897, -22.68014503], [-47.98722908, -22.68050647], [-47.98727527, -22.68152058], [-47.98632151, -22.68107023], [-47.98368057, -22.68201861], [-47.9833559, -22.68408047], [-47.98386933, -22.69532757], [-47.98260444, -22.69536038], [-47.9815225, -22.6865115], [-47.98146197, -22.6815784], [-47.97738624, -22.66744503], [-47.97563942, -22.67021915], [-47.97393566, -22.67292455], [-47.97301981, -22.67680491], [-47.97101877, -22.68044449], [-47.9700096, -22.68395763], [-47.97042401, -22.68524864], [-47.97193475, -22.68789247], [-47.97194775, -22.69125963], [-47.97091099, -22.69187589], [-47.96986081, -22.689805], [-47.96914342, -22.68990612], [-47.96858004, -22.69099936], [-47.96677509, -22.6915142], [-47.96678258, -22.69520036], [-47.96609218, -22.69518736], [-47.96457447, -22.69365213], [-47.96336788, -22.69375078], [-47.96227861, -22.69272401], [-47.95969675, -22.69218345], [-47.9589415, -22.69202532], [-47.95872829, -22.69187181], [-47.95593732, -22.68986304], [-47.95318782, -22.68896389], [-47.95160769, -22.68886067], [-47.95091079, -22.68798381], [-47.94757533, -22.68692999], [-47.94790814, -22.6841347], [-47.95048346, -22.6833225], [-47.95270977, -22.68343523], [-47.95353308, -22.68051398], [-47.95407333, -22.67619814], [-47.95517045, -22.67473562], [-47.95402222, -22.67218385], [-47.95484085, -22.66904598], [-47.95393379, -22.66820747], [-47.95047719, -22.6672906], [-47.94933901, -22.66698869], [-47.94606807, -22.66439695], [-47.94071979, -22.66358601], [-47.9388393, -22.66267728], [-47.93651904, -22.66294903], [-47.93307562, -22.66475237], [-47.9326296, -22.66633803], [-47.93298277, -22.66736558], [-47.93165203, -22.66900223], [-47.93121994, -22.66991221], [-47.93181732, -22.67150225], [-47.93356739, -22.67258907], [-47.93520573, -22.67473051], [-47.9368026, -22.67945655], [-47.93729545, -22.68276441], [-47.93410871, -22.68763634], [-47.93379511, -22.68903167], [-47.93400734, -22.68961179], [-47.93432309, -22.69047482], [-47.93566413, -22.69413972], [-47.93794446, -22.69772405], [-47.93686147, -22.70143645], [-47.93608156, -22.70269994], [-47.93642856, -22.70456341], [-47.93872046, -22.70594352], [-47.93908831, -22.70824445], [-47.93975441, -22.71095631], [-47.93816169, -22.71217752], [-47.93765371, -22.71475985], [-47.93965445, -22.71762543], [-47.94364119, -22.71834521], [-47.94807738, -22.72022882], [-47.9520899, -22.7214688], [-47.95319042, -22.7225502], [-47.95424346, -22.72532752], [-47.94759306, -22.72402104], [-47.94248499, -22.72045534], [-47.94061538, -22.72074661], [-47.93828738, -22.72465417], [-47.93653217, -22.72605138], [-47.93466839, -22.73202223], [-47.93190821, -22.72842706], [-47.93109071, -22.72496368], [-47.93641437, -22.72148066], [-47.93735343, -22.71807002], [-47.93516868, -22.71298714], [-47.93511014, -22.71141952], [-47.92602222, -22.71335563], [-47.92533462, -22.71130456], [-47.92476542, -22.71052787], [-47.92570547, -22.70776846], [-47.93086966, -22.69884354], [-47.93056655, -22.69739297], [-47.92953364, -22.69245065], [-47.93010869, -22.69201245], [-47.93126091, -22.69217932], [-47.93228827, -22.69119748], [-47.93168715, -22.68977693], [-47.93185627, -22.68691404], [-47.93272197, -22.68218422], [-47.93155453, -22.68059975], [-47.92940136, -22.67971003], [-47.92505057, -22.68557142], [-47.92116765, -22.68984774], [-47.91706802, -22.69224582], [-47.91745776, -22.69326968], [-47.91936631, -22.69564229], [-47.91978464, -22.70041], [-47.92235491, -22.70458797], [-47.92345892, -22.70638427], [-47.92310699, -22.70730206], [-47.92149121, -22.70779862], [-47.91993331, -22.7062522], [-47.91857487, -22.70187275], [-47.91832967, -22.701451], [-47.91794723, -22.69905772], [-47.9170377, -22.6985155], [-47.91768773, -22.69774614], [-47.91800769, -22.69654446], [-47.91592551, -22.6937391], [-47.91502842, -22.69380248], [-47.91356671, -22.69390576], [-47.91119672, -22.69383842], [-47.90910423, -22.6929255], [-47.9081222, -22.69182592], [-47.90537282, -22.68969557], [-47.90485598, -22.68816891], [-47.90343879, -22.68874765], [-47.90306273, -22.68764363], [-47.90453184, -22.68557234], [-47.9019877, -22.68466792], [-47.90078513, -22.68678676], [-47.90020599, -22.68654866], [-47.90002214, -22.68525442], [-47.89822962, -22.68522166], [-47.89652547, -22.6857344], [-47.89636013, -22.68467731], [-47.89666799, -22.68306521], [-47.89614919, -22.68151386], [-47.90350872, -22.68357013], [-47.90321173, -22.68072745], [-47.90441648, -22.67841162], [-47.90942588, -22.67460103], [-47.9093473, -22.67365149], [-47.90831462, -22.67312391], [-47.90650013, -22.67372967], [-47.90592199, -22.67278635], [-47.90719118, -22.67220787], [-47.90940934, -22.6721557], [-47.91164274, -22.67015639], [-47.9128301, -22.66968665], [-47.91113499, -22.66520683], [-47.91427993, -22.66434256], [-47.91769084, -22.66425857], [-47.91593641, -22.66029538], [-47.90659465, -22.66487845], [-47.90549775, -22.6653564], [-47.90176958, -22.66577629], [-47.89872947, -22.66591035], [-47.89678859, -22.6658184], [-47.89827324, -22.66408994], [-47.90283782, -22.66035005], [-47.90225047, -22.65943849], [-47.90428941, -22.65800026], [-47.90451168, -22.65616825], [-47.90434096, -22.65528353], [-47.90353738, -22.65485692], [-47.90353153, -22.65458887], [-47.90467185, -22.65411755], [-47.90501998, -22.65435847], [-47.90517374, -22.65480319], [-47.90556158, -22.65518981], [-47.90612431, -22.6551052], [-47.907144, -22.65430286], [-47.90715279, -22.65348577], [-47.90668504, -22.65318515], [-47.90493613, -22.65275671], [-47.90440534, -22.6524712], [-47.90442498, -22.65179077], [-47.90458757, -22.6513306], [-47.9056285, -22.65129666], [-47.90632499, -22.6513427], [-47.9069432, -22.65014075], [-47.90756574, -22.6499333], [-47.90757581, -22.64988756], [-47.9080998, -22.64750437], [-47.90747125, -22.64704777], [-47.9071894, -22.64637966], [-47.90739343, -22.64554856], [-47.91026574, -22.64526837], [-47.91022238, -22.64610619], [-47.91060242, -22.64616315], [-47.91141115, -22.64587688], [-47.91173719, -22.64611817], [-47.91147422, -22.64665574], [-47.91083096, -22.64687752], [-47.91031062, -22.64708904], [-47.91002596, -22.64757024], [-47.91003518, -22.64830899], [-47.91043568, -22.6485602], [-47.9111854, -22.64848216], [-47.91202814, -22.64849218], [-47.91259727, -22.64883743], [-47.91268467, -22.64934205], [-47.9118623, -22.64933802], [-47.91100123, -22.64917332], [-47.91006221, -22.64922947], [-47.90957826, -22.64956541], [-47.90937002, -22.65039761], [-47.9094835, -22.65137806], [-47.90998841, -22.65182982], [-47.9106597, -22.652233], [-47.9106561, -22.65258452], [-47.91009552, -22.65272965], [-47.90919219, -22.65291455], [-47.90895879, -22.65376259], [-47.90957505, -22.65420062], [-47.90982377, -22.65475601], [-47.91012024, -22.65547188], [-47.91096796, -22.65564364], [-47.91203591, -22.6556812], [-47.91272419, -22.65575232], [-47.91585596, -22.65660116], [-47.91954867, -22.65780971], [-47.92130055, -22.65737016], [-47.92198688, -22.65765581], [-47.92169023, -22.65848723], [-47.92142813, -22.6598311], [-47.92169599, -22.66213608], [-47.92135382, -22.6649486], [-47.92203203, -22.66742013], [-47.92100118, -22.66861194], [-47.92234151, -22.66983908], [-47.92482004, -22.66965714], [-47.92573017, -22.66771177], [-47.92328057, -22.6664378], [-47.92431801, -22.66563289], [-47.92290972, -22.66447152], [-47.92476387, -22.66262444], [-47.92460331, -22.66091227], [-47.92288292, -22.66102794], [-47.92233315, -22.6594025], [-47.92278759, -22.65803165], [-47.92390868, -22.65800283], [-47.92407092, -22.6559561], [-47.92069278, -22.65381], [-47.92081364, -22.6533222], [-47.92152934, -22.65281379], [-47.92351753, -22.65312374], [-47.92415344, -22.65120044], [-47.92368257, -22.6501005], [-47.92556948, -22.65035965], [-47.92675797, -22.65192468], [-47.92987359, -22.65055214], [-47.93097067, -22.64866256], [-47.93166461, -22.64785759], [-47.9327981, -22.64693947], [-47.93362612, -22.6478837], [-47.93715458, -22.64411165], [-47.93773774, -22.64318757], [-47.93926247, -22.64389664], [-47.93893414, -22.6454872], [-47.93982799, -22.64606913], [-47.94190847, -22.6454775], [-47.9430367, -22.64326541], [-47.94309063, -22.64306916], [-47.94222254, -22.64258024], [-47.94144406, -22.6418693], [-47.9408518, -22.64174031], [-47.93968702, -22.64189034], [-47.93877939, -22.64193978], [-47.93766126, -22.64189332], [-47.93687901, -22.64136648], [-47.93623886, -22.64081582], [-47.93573573, -22.64049115], [-47.93558705, -22.64014663], [-47.93557898, -22.63985723], [-47.93545809, -22.63953942], [-47.93509268, -22.63940139], [-47.93464233, -22.63926173], [-47.93376408, -22.63925909], [-47.93293082, -22.63913891], [-47.93241051, -22.63895856], [-47.93192964, -22.63892363], [-47.93132991, -22.63914949], [-47.93093233, -22.63919494], [-47.93035341, -22.6391056], [-47.92939275, -22.63898305], [-47.92853476, -22.63883439], [-47.92736037, -22.63863084], [-47.92674172, -22.63840924], [-47.92623912, -22.63805828], [-47.92561969, -22.63787619], [-47.92537731, -22.63795068], [-47.92493395, -22.63815308], [-47.92454167, -22.63861934], [-47.9239526, -22.63901631], [-47.92333799, -22.63928129], [-47.92265252, -22.63954509], [-47.92178573, -22.63967401], [-47.92094809, -22.63976404], [-47.92017014, -22.63971055], [-47.91931215, -22.63941889], [-47.91845699, -22.63899579], [-47.91730887, -22.63835705], [-47.91649542, -22.6379741], [-47.91569273, -22.63774919], [-47.91488593, -22.63772138], [-47.91362441, -22.63776431], [-47.91260488, -22.63774575], [-47.91100548, -22.63769046], [-47.91012097, -22.63798999], [-47.90950153, -22.63847836], [-47.9095116, -22.63867574], [-47.90949054, -22.6390041], [-47.9093597, -22.6391595], [-47.9088028, -22.63937293], [-47.9086562, -22.6396069], [-47.90859433, -22.6398556], [-47.90822532, -22.63988837], [-47.90754622, -22.63984972], [-47.90660312, -22.63956962], [-47.90516804, -22.63910963], [-47.90453702, -22.63880883], [-47.90317742, -22.63812674], [-47.9025273, -22.63806228], [-47.90183982, -22.63774739], [-47.90120665, -22.63755176], [-47.90083873, -22.63753192], [-47.90025522, -22.63766593], [-47.90001362, -22.63770096], [-47.89824654, -22.63820778], [-47.89738014, -22.63832348], [-47.89694649, -22.63806573], [-47.89661415, -22.63770472], [-47.89593379, -22.63706118], [-47.89574245, -22.63672899], [-47.89528586, -22.63622099], [-47.89453634, -22.63549742], [-47.89403967, -22.63487033], [-47.89335509, -22.63442398], [-47.8927386, -22.63411034], [-47.89224418, -22.63404868], [-47.89160986, -22.63390561], [-47.89113931, -22.63370778], [-47.89102783, -22.63402201], [-47.89106209, -22.63438266], [-47.89119493, -22.63503698], [-47.89112527, -22.63560498], [-47.89094219, -22.63632654], [-47.8907339, -22.63676055], [-47.89002495, -22.63855258], [-47.88969638, -22.63946615], [-47.88958279, -22.63987762], [-47.88965059, -22.64038485], [-47.88973418, -22.64064908], [-47.89005492, -22.64109281], [-47.89028606, -22.64180734], [-47.89057686, -22.64218245], [-47.89099359, -22.64279815], [-47.89129649, -22.64334378], [-47.89149233, -22.64399437], [-47.89210577, -22.64542473], [-47.89273389, -22.64635119], [-47.89299983, -22.64708805], [-47.89162225, -22.6496248], [-47.89198601, -22.649736], [-47.89238079, -22.64971704], [-47.89308845, -22.64954703], [-47.89419458, -22.65184157], [-47.89472268, -22.65349823], [-47.89481452, -22.65400953], [-47.89466114, -22.65440029], [-47.89443125, -22.65471711], [-47.89408458, -22.65528036], [-47.89398391, -22.65581708], [-47.89396132, -22.65639267], [-47.8943006, -22.65718989], [-47.89470631, -22.65752868], [-47.89473398, -22.65779851], [-47.8946511, -22.65802477], [-47.89438883, -22.65828924], [-47.89421672, -22.65851395], [-47.89334276, -22.65889479], [-47.89336441, -22.65890044], [-47.89256365, -22.66079176], [-47.89251225, -22.66107513], [-47.89233952, -22.66143473], [-47.89182598, -22.66230347], [-47.89167031, -22.6628162], [-47.89140019, -22.66384244], [-47.89117948, -22.66472562], [-47.89090413, -22.665065], [-47.89050557, -22.66538304], [-47.88956276, -22.66704994], [-47.88746462, -22.67066673], [-47.88673519, -22.67199302], [-47.87902814, -22.68136248], [-47.87864761, -22.68179562], [-47.87812919, -22.68203079], [-47.88037897, -22.68178211], [-47.88248131, -22.68164478], [-47.88353405, -22.68149834], [-47.88398147, -22.68146518], [-47.88428198, -22.6815121], [-47.88473585, -22.68169664], [-47.88510002, -22.68190028], [-47.88631006, -22.68223338], [-47.88791759, -22.68278113], [-47.88928034, -22.68381133], [-47.89143703, -22.68549489], [-47.89205329, -22.68602622], [-47.89307468, -22.68648185], [-47.89636484, -22.68776945], [-47.89734677, -22.68797467], [-47.89930626, -22.68859304], [-47.9035823, -22.69095944], [-47.90420857, -22.69140348], [-47.90523856, -22.69213382], [-47.90600828, -22.6928344], [-47.90665194, -22.69313735], [-47.90713748, -22.69349987], [-47.90763784, -22.69421626], [-47.91006281, -22.69509267], [-47.91041736, -22.69528633], [-47.91240239, -22.69682031], [-47.91315512, -22.69727082], [-47.91515657, -22.69803547], [-47.91637318, -22.69880654], [-47.91729691, -22.69931411], [-47.91792316, -22.70160028], [-47.91792306, -22.70160028], [-47.91828135, -22.70291837], [-47.91923787, -22.7053904], [-47.91938235, -22.70597545], [-47.91966055, -22.70660459], [-47.92000985, -22.70704784], [-47.92126303, -22.70821476], [-47.92241564, -22.70989992], [-47.92261341, -22.71009072], [-47.92432417, -22.7108292], [-47.92467774, -22.71106459], [-47.92474058, -22.71120821], [-47.9242952, -22.7137471], [-47.92429383, -22.71374743], [-47.92423259, -22.71409334], [-47.92390786, -22.71460744], [-47.92287937, -22.71552475], [-47.92269124, -22.71593734], [-47.9223924, -22.71628553], [-47.92154894, -22.71693574], [-47.91908145, -22.71909559], [-47.91858269, -22.71935688], [-47.91855799, -22.71946046], [-47.9192772, -22.72103521], [-47.92327189, -22.72978093], [-47.9250997, -22.73557642], [-47.92515678, -22.73605582], [-47.92496369, -22.73775802], [-47.92439915, -22.74215763], [-47.9242649, -22.74290805], [-47.92414659, -22.7433338], [-47.92370818, -22.74396754], [-47.92393007, -22.74495116], [-47.9242931, -22.74671434], [-47.92435615, -22.74815181], [-47.92788368, -22.74768152], [-47.92841336, -22.74764335], [-47.92875688, -22.74764969], [-47.9291846, -22.74770683], [-47.92966566, -22.74782384], [-47.93007358, -22.7479786], [-47.93045941, -22.74815993], [-47.93070781, -22.74831262], [-47.93109374, -22.7486026], [-47.93146203, -22.74895902], [-47.93160179, -22.74912731], [-47.93633821, -22.7555276], [-47.93655788, -22.7557956], [-47.9367997, -22.75603471], [-47.93701931, -22.75622284], [-47.93727438, -22.75640877], [-47.93773348, -22.75668318], [-47.93833432, -22.75694632]]]]}}]}