{"type": "FeatureCollection", "features": [{"type": "Feature", "properties": {"name": "Área de Proteção Ambiental Tanquã-Rio Piracicaba"}, "geometry": {"type": "MultiPolygon", "coordinates": [[[[-47.93466839, -22.73202223], [-47.93653217, -22.72605138], [-47.93828738, -22.72465417], [-47.94061538, -22.72074661], [-47.94248499, -22.72045534], [-47.94759306, -22.72402104], [-47.95424346, -22.72532752], [-47.95319042, -22.7225502], [-47.9520899, -22.7214688], [-47.94807738, -22.72022882], [-47.94364119, -22.71834521], [-47.93965445, -22.71762543], [-47.93765371, -22.71475985], [-47.93816169, -22.71217752], [-47.93975441, -22.71095631], [-47.93908831, -22.70824445], [-47.93872046, -22.70594352], [-47.93642856, -22.70456341], [-47.93608156, -22.70269994], [-47.93686147, -22.70143645], [-47.93794446, -22.69772405], [-47.93566413, -22.69413972], [-47.93432309, -22.69047482], [-47.93400734, -22.68961179], [-47.93379511, -22.68903167], [-47.93410871, -22.68763634], [-47.93729545, -22.68276441], [-47.9368026, -22.67945655], [-47.93520573, -22.67473051], [-47.93356739, -22.67258907], [-47.93181732, -22.67150225], [-47.93121994, -22.66991221], [-47.93165203, -22.66900223], [-47.93243238, -22.66804244], [-47.93298277, -22.66736567], [-47.93262959, -22.66633812], [-47.93307562, -22.66475237], [-47.93651904, -22.66294903], [-47.9388393, -22.66267728], [-47.94071979, -22.66358601], [-47.94606807, -22.66439695], [-47.94933901, -22.66698869], [-47.95047719, -22.6672906], [-47.95393379, -22.66820747], [-47.95484085, -22.66904608], [-47.95402222, -22.67218394], [-47.95517045, -22.67473562], [-47.95407333, -22.67619814], [-47.95385494, -22.67794317], [-47.95353308, -22.68051398], [-47.95270977, -22.68343523], [-47.95048346, -22.6833225], [-47.94790814, -22.6841347], [-47.94757533, -22.68692999], [-47.95091079, -22.68798381], [-47.95160769, -22.68886067], [-47.95318782, -22.68896398], [-47.95593732, -22.68986304], [-47.95872829, -22.69187181], [-47.9589415, -22.69202532], [-47.95969675, -22.69218345], [-47.96227861, -22.69272401], [-47.96336788, -22.69375078], [-47.96457447, -22.69365213], [-47.96609218, -22.69518736], [-47.96678258, -22.69520036], [-47.96677508, -22.69151429], [-47.96858004, -22.69099936], [-47.96914342, -22.68990612], [-47.96986081, -22.689805], [-47.97091099, -22.69187589], [-47.97194775, -22.69125963], [-47.97193475, -22.68789247], [-47.97069523, -22.68572334], [-47.97042401, -22.68524864], [-47.9700096, -22.68395763], [-47.97101877, -22.68044449], [-47.97301981, -22.67680491], [-47.97393566, -22.67292455], [-47.97563942, -22.67021915], [-47.97738624, -22.66744503], [-47.98146197, -22.6815784], [-47.9815225, -22.6865115], [-47.98206842, -22.69097624], [-47.98260444, -22.69536038], [-47.98386933, -22.69532757], [-47.98370523, -22.69173209], [-47.9833559, -22.68408047], [-47.98368057, -22.68201861], [-47.98632151, -22.68107023], [-47.98727527, -22.68152058], [-47.98722908, -22.68050647], [-47.98506897, -22.68014503], [-47.98317, -22.68147534], [-47.98256211, -22.68045173], [-47.98249747, -22.67835437], [-47.98189477, -22.67619308], [-47.98194791, -22.67062731], [-47.98171037, -22.66662414], [-47.98368684, -22.6654619], [-47.98548218, -22.66553705], [-47.98669294, -22.66710042], [-47.98696423, -22.66884139], [-47.98944189, -22.66895787], [-47.98987147, -22.66897805], [-47.99233341, -22.66909364], [-47.99336717, -22.67002017], [-47.99730812, -22.67026402], [-47.99944335, -22.67023611], [-47.99901158, -22.6741031], [-47.99973217, -22.67403809], [-48.00109008, -22.66996301], [-48.00191153, -22.67000836], [-48.00200947, -22.67203308], [-48.00310735, -22.67315497], [-48.00451587, -22.67280482], [-48.0071789, -22.67214266], [-48.00943311, -22.67257162], [-48.0073368, -22.6754312], [-48.00726651, -22.67639719], [-48.00864831, -22.67693403], [-48.01105957, -22.67590186], [-48.01219318, -22.67475301], [-48.01274267, -22.67419613], [-48.01366236, -22.67435924], [-48.01441669, -22.67596914], [-48.01563721, -22.67585788], [-48.0158068, -22.67385602], [-48.01427913, -22.67171555], [-48.02202073, -22.67083851], [-48.02432569, -22.67008094], [-48.02633389, -22.67161041], [-48.02692221, -22.67092802], [-48.02450167, -22.66855164], [-48.02621038, -22.66802275], [-48.03127881, -22.66520133], [-48.03577659, -22.6648948], [-48.03947472, -22.66466017], [-48.04404576, -22.66445141], [-48.04457991, -22.66522428], [-48.04427864, -22.66662134], [-48.04540475, -22.67073367], [-48.04521626, -22.67158254], [-48.04382552, -22.67221833], [-48.04469641, -22.67250923], [-48.04542362, -22.67275208], [-48.04574011, -22.67413501], [-48.04598187, -22.67600483], [-48.04687021, -22.67644478], [-48.04679258, -22.67876466], [-48.04645337, -22.67990624], [-48.04769013, -22.68071382], [-48.04817321, -22.68166255], [-48.05000663, -22.68408979], [-48.05197111, -22.68321355], [-48.05033646, -22.6809139], [-48.04913689, -22.67623073], [-48.04859877, -22.67555844], [-48.04813322, -22.67497692], [-48.04832429, -22.67305769], [-48.04598124, -22.66631486], [-48.0459893, -22.66500336], [-48.04911538, -22.66397545], [-48.05073753, -22.66135884], [-48.05495393, -22.66001126], [-48.05627268, -22.65860346], [-48.05696748, -22.65697235], [-48.05710988, -22.65663795], [-48.05756973, -22.65555857], [-48.05807093, -22.6522384], [-48.05964355, -22.65034279], [-48.06082993, -22.648751], [-48.06183891, -22.64776273], [-48.06314524, -22.64693857], [-48.06397673, -22.64660859], [-48.06570088, -22.64720996], [-48.06641453, -22.64759308], [-48.06748535, -22.64852426], [-48.0690318, -22.64961938], [-48.07129065, -22.65005566], [-48.07164774, -22.65049396], [-48.07355064, -22.65147904], [-48.07670389, -22.65427254], [-48.07753634, -22.65465552], [-48.07914396, -22.65712157], [-48.07985739, -22.65734018], [-48.08045327, -22.6586009], [-48.08098813, -22.65860028], [-48.08580461, -22.66089829], [-48.08699365, -22.66128086], [-48.08728977, -22.66147912], [-48.08764793, -22.66171886], [-48.08866041, -22.66347262], [-48.08848427, -22.66517282], [-48.0893776, -22.66665256], [-48.0905073, -22.66714487], [-48.09020804, -22.66544514], [-48.08996889, -22.66429383], [-48.09062115, -22.66314147], [-48.09133305, -22.66215356], [-48.09323528, -22.66259029], [-48.09347237, -22.66209647], [-48.0932332, -22.66094507], [-48.09465842, -22.66006603], [-48.09566653, -22.65836485], [-48.09703099, -22.65649873], [-48.09780279, -22.65583977], [-48.09869439, -22.65600331], [-48.09905908, -22.65610388], [-48.09937389, -22.65619063], [-48.09988342, -22.65633109], [-48.10071585, -22.65665918], [-48.10255836, -22.65682169], [-48.10309336, -22.65693083], [-48.10452021, -22.65736803], [-48.10537155, -22.65726879], [-48.10594632, -22.65720192], [-48.10653921, -22.65610438], [-48.10695447, -22.65550066], [-48.10814174, -22.65445725], [-48.10897317, -22.65407243], [-48.10867491, -22.65314047], [-48.10855492, -22.65226308], [-48.10890907, -22.6503979], [-48.10861097, -22.64963039], [-48.10795527, -22.64815025], [-48.10485972, -22.64409496], [-48.10443969, -22.64352344], [-48.10349044, -22.64223158], [-48.10313189, -22.64075112], [-48.1020608, -22.63965534], [-48.1004545, -22.63834075], [-48.09956206, -22.63757385], [-48.09849144, -22.6369168], [-48.09622878, -22.63357342], [-48.0959307, -22.63291555], [-48.09628569, -22.6317084], [-48.09646281, -22.63077574], [-48.09729444, -22.63050054], [-48.09806692, -22.63044476], [-48.09901844, -22.63093737], [-48.09997145, -22.63258185], [-48.10110256, -22.63406159], [-48.10282763, -22.63532127], [-48.10484949, -22.63625145], [-48.10585214, -22.6367574], [-48.10669305, -22.63718181], [-48.10794133, -22.63739985], [-48.10895183, -22.63750834], [-48.10901086, -22.63723403], [-48.1106153, -22.63712253], [-48.11168562, -22.63756017], [-48.11245814, -22.63750442], [-48.11436067, -22.63810569], [-48.11323386, -22.63986211], [-48.11353129, -22.64008119], [-48.11448353, -22.64112232], [-48.11531356, -22.63958556], [-48.11572871, -22.63892684], [-48.11661977, -22.63865162], [-48.11733345, -22.63903479], [-48.11852388, -22.64040474], [-48.11906091, -22.6420496], [-48.11971521, -22.64248774], [-48.12048733, -22.64210286], [-48.12167574, -22.64199181], [-48.12108053, -22.64127945], [-48.12351709, -22.64116707], [-48.12417143, -22.64165999], [-48.12803294, -22.64050373], [-48.13017182, -22.63995285], [-48.13384175, -22.64164122], [-48.13421566, -22.64181326], [-48.13451334, -22.64225173], [-48.13564341, -22.64290872], [-48.13707002, -22.64307168], [-48.13796224, -22.64367404], [-48.13808266, -22.64482572], [-48.13843977, -22.64526417], [-48.13945028, -22.64537275], [-48.14004331, -22.64438471], [-48.1416459, -22.64273739], [-48.14218133, -22.64312079], [-48.14253842, -22.64350436], [-48.14295461, -22.64366847], [-48.14437986, -22.64278922], [-48.14550785, -22.64180058], [-48.14657544, -22.64015378], [-48.14746597, -22.63938483], [-48.14930958, -22.6402604], [-48.15139349, -22.64311049], [-48.15460535, -22.64497186], [-48.15520018, -22.64540998], [-48.15769563, -22.64480387], [-48.16310348, -22.64419444], [-48.1644104, -22.64375418], [-48.1652429, -22.64402751], [-48.16559639, -22.6416684], [-48.16690211, -22.64018587], [-48.16826797, -22.6393066], [-48.16838627, -22.63886759], [-48.16832534, -22.63777057], [-48.16885856, -22.63645343], [-48.17034207, -22.63464148], [-48.17164935, -22.63442049], [-48.17212357, -22.63343257], [-48.17645998, -22.63161725], [-48.17782692, -22.63150602], [-48.17877947, -22.6327118], [-48.1798503, -22.63347865], [-48.18329859, -22.63424279], [-48.18508329, -22.63544764], [-48.18775777, -22.63528004], [-48.19037265, -22.63500277], [-48.19274911, -22.63423207], [-48.19530285, -22.63258338], [-48.19613474, -22.63241786], [-48.19726385, -22.63230682], [-48.19759917, -22.63177238], [-48.19833149, -22.63060491], [-48.19951982, -22.6302195], [-48.19969698, -22.62934155], [-48.20278553, -22.62769214], [-48.20563702, -22.6264819], [-48.20807347, -22.62609506], [-48.21003472, -22.62587332], [-48.21009548, -22.62686086], [-48.21003699, -22.62762897], [-48.20938381, -22.62812352], [-48.21063222, -22.62823181], [-48.21205464, -22.62515774], [-48.21544044, -22.62345303], [-48.21680792, -22.62372581], [-48.21740217, -22.62361536], [-48.21740174, -22.62323137], [-48.21743924, -22.62196292], [-48.2174507, -22.62157769], [-48.2174586, -22.62131092], [-48.21781458, -22.62081668], [-48.21817081, -22.62054196], [-48.22030998, -22.6200457], [-48.22179568, -22.61982449], [-48.22209317, -22.62004366], [-48.22322272, -22.62015204], [-48.22423254, -22.6196571], [-48.2250049, -22.61938181], [-48.22654948, -22.61872162], [-48.22797417, -22.61734826], [-48.22785173, -22.6146598], [-48.22683836, -22.61257586], [-48.22612191, -22.61021716], [-48.22534032, -22.60368812], [-48.2258713, -22.60083405], [-48.22670188, -22.59968066], [-48.22890065, -22.59923899], [-48.23133859, -22.59983972], [-48.2313984, -22.60016895], [-48.23229139, -22.60115569], [-48.23300638, -22.60236213], [-48.23336441, -22.60334948], [-48.23265167, -22.60378932], [-48.23152292, -22.60422965], [-48.23092816, -22.60401078], [-48.23057156, -22.60401122], [-48.23098897, -22.60499851], [-48.23200117, -22.60620458], [-48.23164623, -22.60746703], [-48.23301693, -22.6100994], [-48.23373194, -22.61136063], [-48.23432296, -22.61339626], [-48.2343667, -22.61354713], [-48.23492636, -22.61547462], [-48.23593868, -22.61684523], [-48.2362961, -22.61739352], [-48.23671398, -22.6187647], [-48.23653729, -22.6199721], [-48.236123, -22.62128941], [-48.23671772, -22.62156305], [-48.23749024, -22.62134267], [-48.23790643, -22.62145193], [-48.23808545, -22.62200048], [-48.23671886, -22.6223861], [-48.23695701, -22.62271507], [-48.23773023, -22.62304332], [-48.23915855, -22.62430365], [-48.23975437, -22.62534545], [-48.24058993, -22.62792325], [-48.24017527, -22.62902104], [-48.24076982, -22.62913012], [-48.24148322, -22.62918419], [-48.24166262, -22.63000697], [-48.24190061, -22.6301164], [-48.24249459, -22.62978651], [-48.24380318, -22.63049827], [-48.24463645, -22.6312655], [-48.24541088, -22.63252645], [-48.24600494, -22.63225151], [-48.24695494, -22.63142747], [-48.24843957, -22.63032844], [-48.24909325, -22.63021799], [-48.25069795, -22.63005154], [-48.25093489, -22.62939288], [-48.25307465, -22.62928072], [-48.25355047, -22.62944476], [-48.25587003, -22.63037487], [-48.25604986, -22.63158172], [-48.25688167, -22.63125151], [-48.25711699, -22.62938578], [-48.25854258, -22.62861601], [-48.26050139, -22.62641904], [-48.26388622, -22.62383631], [-48.26542906, -22.62180439], [-48.26620155, -22.62158396], [-48.26679458, -22.62054076], [-48.2672679, -22.61883919], [-48.26803876, -22.61741159], [-48.26892973, -22.61686179], [-48.26922607, -22.61620302], [-48.26904677, -22.61548984], [-48.26904555, -22.61461189], [-48.26940081, -22.61356887], [-48.26999379, -22.61247068], [-48.27100338, -22.61175607], [-48.27082425, -22.61115266], [-48.26969257, -22.60950771], [-48.2698073, -22.60648935], [-48.2708161, -22.605226], [-48.27122908, -22.60292059], [-48.27069309, -22.60220775], [-48.27009639, -22.60050719], [-48.26973862, -22.59973934], [-48.27027304, -22.59929963], [-48.27122437, -22.59946313], [-48.27247523, -22.60132763], [-48.2737847, -22.60253337], [-48.27497546, -22.60384911], [-48.27527401, -22.60483655], [-48.27551442, -22.60675699], [-48.27486392, -22.60928216], [-48.27439022, -22.61065464], [-48.27296445, -22.61131481], [-48.27272697, -22.61153454], [-48.27469054, -22.61290413], [-48.27492785, -22.61257463], [-48.27564137, -22.61268352], [-48.27617666, -22.61290239], [-48.27671153, -22.61279205], [-48.27795798, -22.61141868], [-48.27926595, -22.6115269], [-48.2803361, -22.61163541], [-48.28223947, -22.61245633], [-48.28372777, -22.61404605], [-48.2847402, -22.61541675], [-48.28462338, -22.61695337], [-48.28498064, -22.61739198], [-48.28836941, -22.61760756], [-48.29365945, -22.61705269], [-48.29449166, -22.61705166], [-48.2981153, -22.61507198], [-48.30197668, -22.613037], [-48.30411303, -22.6102906], [-48.30437871, -22.6097985], [-48.30544546, -22.61005825], [-48.30559905, -22.6101242], [-48.30833387, -22.61028566], [-48.30910831, -22.61149209], [-48.30976406, -22.61280837], [-48.3102413, -22.61407002], [-48.31054083, -22.61571603], [-48.31036569, -22.61813084], [-48.31084285, -22.61928263], [-48.31042887, -22.6209294], [-48.30924166, -22.6222478], [-48.30858941, -22.62351062], [-48.3085903, -22.62411426], [-48.30942226, -22.6238938], [-48.30995765, -22.62416754], [-48.31043472, -22.62526445], [-48.31019846, -22.62647197], [-48.30966483, -22.62751519], [-48.30889345, -22.62861344], [-48.30919287, -22.63025927], [-48.31252514, -22.63261494], [-48.31549972, -22.63425766], [-48.3178796, -22.6356816], [-48.3191298, -22.63705194], [-48.31990304, -22.63732539], [-48.32133017, -22.63759812], [-48.32335114, -22.63737643], [-48.32519472, -22.63786813], [-48.32620716, -22.63923879], [-48.32698064, -22.63967686], [-48.32811336, -22.64214466], [-48.32900659, -22.64329586], [-48.32941317, -22.64462399], [-48.32954397, -22.64505107], [-48.33013893, -22.64543443], [-48.33049621, -22.64587295], [-48.33055652, -22.64658618], [-48.33186529, -22.64724312], [-48.33263918, -22.64801038], [-48.33246204, -22.64894335], [-48.33513839, -22.6497634], [-48.33811061, -22.64954056], [-48.33977479, -22.64915469], [-48.34167722, -22.6491526], [-48.34239035, -22.64893235], [-48.34375744, -22.6487113], [-48.34476704, -22.64788717], [-48.3453019, -22.647722], [-48.34744135, -22.64706118], [-48.34898589, -22.64612673], [-48.34898489, -22.64535861], [-48.34945868, -22.64393142], [-48.35002605, -22.64376948], [-48.35018153, -22.64372511], [-48.33985087, -22.62526718], [-48.33316184, -22.61331315], [-48.32886081, -22.61158287], [-48.32600178, -22.60920295], [-48.3231006, -22.60761475], [-48.32228877, -22.60626928], [-48.31915828, -22.60538165], [-48.31771534, -22.60429227], [-48.31778633, -22.60111753], [-48.31581647, -22.6024805], [-48.31485438, -22.60026149], [-48.31319107, -22.60099741], [-48.31126643, -22.60094711], [-48.3089276, -22.59967971], [-48.30576832, -22.59987863], [-48.30360138, -22.5979262], [-48.3021046, -22.59485711], [-48.30168517, -22.59395731], [-48.3017209, -22.59175086], [-48.30324302, -22.59133801], [-48.30389939, -22.59052994], [-48.30516691, -22.58821428], [-48.30518559, -22.58753442], [-48.30439891, -22.58653431], [-48.30467289, -22.58515401], [-48.30682754, -22.58320797], [-48.30822602, -22.58304457], [-48.30866049, -22.58266623], [-48.30811825, -22.58182261], [-48.30756787, -22.57866851], [-48.30942406, -22.57507625], [-48.30958526, -22.57476427], [-48.31123331, -22.57370152], [-48.31240747, -22.57256528], [-48.31325436, -22.57066088], [-48.31352426, -22.56909842], [-48.31597975, -22.56776828], [-48.31764541, -22.56807359], [-48.31761898, -22.56765638], [-48.31579213, -22.56652539], [-48.31551306, -22.5643494], [-48.31668734, -22.56281919], [-48.31748696, -22.56231078], [-48.31872852, -22.56041022], [-48.31955362, -22.55911138], [-48.31948701, -22.55694697], [-48.31813583, -22.55506145], [-48.31726826, -22.55443277], [-48.31694779, -22.55377207], [-48.31719046, -22.55270228], [-48.3163668, -22.55289416], [-48.31572373, -22.55276336], [-48.31486697, -22.54996651], [-48.31551249, -22.54662127], [-48.31571124, -22.54465184], [-48.31583371, -22.54432946], [-48.31574138, -22.54341105], [-48.31519079, -22.54268178], [-48.31427946, -22.54242527], [-48.31343939, -22.54266462], [-48.31219269, -22.54352219], [-48.31203825, -22.54879863], [-48.31245214, -22.54974218], [-48.3119573, -22.5506885], [-48.31217805, -22.55151878], [-48.31191545, -22.55299273], [-48.31313058, -22.55398967], [-48.31386347, -22.55502259], [-48.31399696, -22.55629906], [-48.31472249, -22.55713543], [-48.31569153, -22.55778431], [-48.31560942, -22.55936942], [-48.31245058, -22.56337276], [-48.31280079, -22.56510582], [-48.31267617, -22.56562802], [-48.31198075, -22.56579809], [-48.3115396, -22.56570739], [-48.31019768, -22.56622067], [-48.30971877, -22.5666983], [-48.30922951, -22.56697752], [-48.30957024, -22.56780539], [-48.31010685, -22.56967789], [-48.30977025, -22.57045921], [-48.30836415, -22.5708063], [-48.30573645, -22.57172414], [-48.30503151, -22.57169724], [-48.30538798, -22.57270962], [-48.30525722, -22.57526374], [-48.30346717, -22.57775046], [-48.30193723, -22.5783078], [-48.30168773, -22.57867633], [-48.30213223, -22.57953475], [-48.3031657, -22.580298], [-48.30273961, -22.58169749], [-48.30082465, -22.58290036], [-48.29935477, -22.58437219], [-48.29844438, -22.5872589], [-48.29526876, -22.58960221], [-48.29485845, -22.58990491], [-48.28970361, -22.58770037], [-48.28418388, -22.5832339], [-48.28163007, -22.5808348], [-48.27849316, -22.58107114], [-48.27652118, -22.57974761], [-48.27413284, -22.57884865], [-48.27452179, -22.57600156], [-48.27116709, -22.57745971], [-48.2669965, -22.57688004], [-48.26646723, -22.57481305], [-48.26347807, -22.57541467], [-48.2641321, -22.57785118], [-48.262996, -22.58053276], [-48.25873788, -22.58140195], [-48.25727711, -22.58028415], [-48.25590678, -22.5824708], [-48.25426316, -22.58271666], [-48.25250447, -22.58236423], [-48.24927332, -22.58079596], [-48.2481007, -22.57850597], [-48.24772162, -22.57889736], [-48.24904915, -22.58228439], [-48.2502053, -22.58373129], [-48.25004376, -22.58569324], [-48.24901701, -22.5869881], [-48.24728456, -22.59173632], [-48.24710762, -22.59222117], [-48.24665071, -22.5972883], [-48.24712965, -22.59952191], [-48.2474418, -22.60097819], [-48.24705229, -22.6034092], [-48.2461681, -22.60892564], [-48.24500263, -22.61123762], [-48.24309853, -22.61009194], [-48.24260995, -22.60337082], [-48.243445, -22.59732389], [-48.24158633, -22.59334855], [-48.23900653, -22.58990148], [-48.23774134, -22.5905075], [-48.23770012, -22.58893962], [-48.23696747, -22.58790756], [-48.23554653, -22.58765878], [-48.23256998, -22.5862213], [-48.22941147, -22.5863023], [-48.22678172, -22.58742735], [-48.22364871, -22.58615869], [-48.22321873, -22.58489126], [-48.22029435, -22.58868814], [-48.21727719, -22.59037614], [-48.21646308, -22.59034758], [-48.21513992, -22.58887878], [-48.21453144, -22.58869429], [-48.21359566, -22.58686384], [-48.21386337, -22.58519735], [-48.21359851, -22.58393132], [-48.21323821, -22.58306558], [-48.21393129, -22.58130547], [-48.2136699, -22.58032104], [-48.21450432, -22.57777149], [-48.21474947, -22.57646124], [-48.21522352, -22.57392718], [-48.21592645, -22.56956403], [-48.21541839, -22.56812996], [-48.21378463, -22.56848254], [-48.21356591, -22.5697168], [-48.21380665, -22.57038874], [-48.21372533, -22.57154198], [-48.21288251, -22.57338074], [-48.21260618, -22.57468972], [-48.21270509, -22.57595693], [-48.21238831, -22.57774885], [-48.21184215, -22.57830974], [-48.2098305, -22.57857772], [-48.20894293, -22.57833943], [-48.20900483, -22.57881286], [-48.21024791, -22.57962706], [-48.21143103, -22.58116052], [-48.21097358, -22.58205015], [-48.21132755, -22.58501404], [-48.21016057, -22.5905927], [-48.20899467, -22.59252599], [-48.20606321, -22.59555791], [-48.20607601, -22.59816863], [-48.20661227, -22.60069865], [-48.20598086, -22.60271559], [-48.20558056, -22.60460494], [-48.20683675, -22.60596867], [-48.20698694, -22.60810103], [-48.20616136, -22.61089681], [-48.20223205, -22.61475283], [-48.20013835, -22.61447538], [-48.19931282, -22.61496571], [-48.19514651, -22.61297925], [-48.19070758, -22.61496602], [-48.18911173, -22.61649832], [-48.18685108, -22.61624674], [-48.18582121, -22.61390642], [-48.18445499, -22.61319428], [-48.18309762, -22.61303587], [-48.18049367, -22.61119616], [-48.17962254, -22.60906855], [-48.17928286, -22.60212518], [-48.17957096, -22.60052495], [-48.17982737, -22.5991008], [-48.17549324, -22.59811707], [-48.17449233, -22.59989411], [-48.17673173, -22.60113428], [-48.1777708, -22.60512261], [-48.17741544, -22.60789632], [-48.17632315, -22.60891365], [-48.17725937, -22.61023169], [-48.17681287, -22.61222492], [-48.17722199, -22.61320496], [-48.17619535, -22.61604582], [-48.17494975, -22.61969822], [-48.17162195, -22.6233276], [-48.16833176, -22.62416463], [-48.16653896, -22.62440789], [-48.16590597, -22.62592183], [-48.16428269, -22.6269099], [-48.1601916, -22.6329201], [-48.15834512, -22.63244482], [-48.15673109, -22.63041712], [-48.15597492, -22.62837764], [-48.15147642, -22.61953589], [-48.14742888, -22.6180178], [-48.1445466, -22.61467482], [-48.14176259, -22.61437665], [-48.13553927, -22.61586752], [-48.13189747, -22.61519173], [-48.1282291, -22.61521191], [-48.12742212, -22.61596817], [-48.12616439, -22.61714688], [-48.12583937, -22.61745145], [-48.12353181, -22.61559489], [-48.12167351, -22.6144919], [-48.12039097, -22.6140369], [-48.11873678, -22.61411324], [-48.1158915, -22.61793983], [-48.11393795, -22.61652563], [-48.11366959, -22.61465129], [-48.11324042, -22.61654394], [-48.11161417, -22.61697082], [-48.10566826, -22.61698662], [-48.10131285, -22.61585292], [-48.09638471, -22.6154002], [-48.09529963, -22.61530049], [-48.08438015, -22.62189326], [-48.08184524, -22.62948674], [-48.08321129, -22.63535864], [-48.09075191, -22.64425643], [-48.08760503, -22.64397641], [-48.082861, -22.64279312], [-48.08241161, -22.64248348], [-48.07775558, -22.63925701], [-48.07524661, -22.63849027], [-48.07611015, -22.63070174], [-48.07819026, -22.62823554], [-48.07962415, -22.62454631], [-48.07992692, -22.62335891], [-48.08049914, -22.62111457], [-48.07942014, -22.62083227], [-48.07671764, -22.62671776], [-48.07654864, -22.62777572], [-48.075354, -22.62876045], [-48.07393636, -22.63051856], [-48.07343776, -22.63241899], [-48.07368928, -22.63516761], [-48.07115226, -22.63762105], [-48.06624325, -22.63676687], [-48.06338897, -22.6357892], [-48.06261993, -22.63475857], [-48.06028208, -22.63566319], [-48.05661467, -22.63656356], [-48.05563746, -22.63788399], [-48.05144272, -22.63988954], [-48.04773437, -22.63863288], [-48.04490767, -22.63840288], [-48.04623517, -22.6361203], [-48.0453898, -22.6331795], [-48.04600943, -22.63030678], [-48.04477936, -22.62865259], [-48.04512774, -22.62542884], [-48.04309735, -22.62761506], [-48.04123098, -22.62852765], [-48.04357533, -22.63360389], [-48.0435967, -22.63553011], [-48.04230116, -22.6379666], [-48.04263231, -22.6392516], [-48.04455282, -22.63992252], [-48.04463262, -22.64068654], [-48.04430364, -22.64156089], [-48.04372581, -22.64364339], [-48.04202088, -22.64511066], [-48.03898567, -22.64490449], [-48.03570262, -22.64556796], [-48.03342719, -22.64664704], [-48.03222871, -22.64766725], [-48.03038707, -22.64923492], [-48.02935031, -22.64960234], [-48.03009042, -22.65028682], [-48.02925929, -22.65156662], [-48.02419532, -22.65208189], [-48.01951451, -22.65271505], [-48.01294617, -22.65469155], [-48.01090851, -22.65392944], [-48.00972161, -22.65238221], [-48.00801375, -22.65300923], [-48.00706206, -22.65378566], [-48.00415421, -22.65339825], [-48.0019783, -22.65394533], [-48.00157927, -22.65223059], [-47.99969574, -22.6516159], [-47.99951555, -22.65009189], [-47.99847018, -22.648456], [-47.99997317, -22.64704502], [-47.99818838, -22.6458866], [-47.99246109, -22.6441533], [-47.9906754, -22.64278686], [-47.98962179, -22.64344385], [-47.98946828, -22.64543107], [-47.98763742, -22.64602316], [-47.98552675, -22.64618688], [-47.98407187, -22.64491034], [-47.98138858, -22.64337762], [-47.98152281, -22.64251736], [-47.98029577, -22.64220264], [-47.97939, -22.64293057], [-47.97765605, -22.6440397], [-47.975758, -22.64443599], [-47.97522903, -22.64408333], [-47.97538915, -22.64290363], [-47.97538797, -22.64187052], [-47.97689592, -22.6400709], [-47.97724989, -22.63949492], [-47.97719913, -22.63878506], [-47.97627424, -22.63825147], [-47.9750437, -22.63808113], [-47.97426674, -22.63760366], [-47.97422567, -22.63635916], [-47.97389776, -22.63575921], [-47.97278125, -22.63512046], [-47.9714737, -22.63304204], [-47.9716381, -22.6317784], [-47.9701876, -22.63052333], [-47.96913627, -22.63090433], [-47.96733256, -22.63037312], [-47.96667597, -22.63053117], [-47.96634884, -22.63095537], [-47.96682396, -22.63167183], [-47.96715878, -22.63247804], [-47.9682333, -22.63262653], [-47.96869738, -22.63362967], [-47.96891634, -22.63501075], [-47.97031652, -22.6366156], [-47.97019921, -22.6379339], [-47.96956828, -22.63855543], [-47.9688154, -22.63823551], [-47.96797869, -22.63746059], [-47.9669104, -22.63618122], [-47.96624662, -22.63586903], [-47.9656928, -22.63511859], [-47.96500891, -22.63483245], [-47.96509772, -22.63386161], [-47.9632331, -22.63334517], [-47.96491089, -22.63640787], [-47.96617286, -22.63761521], [-47.96623482, -22.6384011], [-47.96697323, -22.6387379], [-47.96744289, -22.64011578], [-47.96810206, -22.64020966], [-47.96908292, -22.64095183], [-47.96934499, -22.64129053], [-47.97142254, -22.64141006], [-47.97190854, -22.64214747], [-47.97175989, -22.64282513], [-47.9708366, -22.64324168], [-47.97026158, -22.64415054], [-47.97064925, -22.64457049], [-47.97160662, -22.64460339], [-47.97188323, -22.64524163], [-47.97151583, -22.64557276], [-47.9707383, -22.64595696], [-47.97083788, -22.64727187], [-47.97210827, -22.64769859], [-47.97266107, -22.64806471], [-47.97288956, -22.64756426], [-47.97235222, -22.64889079], [-47.97218096, -22.64931353], [-47.97161632, -22.6534775], [-47.97205638, -22.65473695], [-47.96971234, -22.65802757], [-47.96473951, -22.65914749], [-47.96345389, -22.65997433], [-47.96336788, -22.66002965], [-47.96240698, -22.65845671], [-47.96165675, -22.65764178], [-47.96227509, -22.65730633], [-47.96237809, -22.65666075], [-47.96201071, -22.65574309], [-47.96140261, -22.65406511], [-47.96077498, -22.65345512], [-47.96039552, -22.65481626], [-47.96046782, -22.65628318], [-47.9591296, -22.65773622], [-47.95849822, -22.6573357], [-47.95820521, -22.65648614], [-47.95672002, -22.65621704], [-47.95595743, -22.65685856], [-47.95475723, -22.65572704], [-47.95396815, -22.65449476], [-47.95251804, -22.65373074], [-47.95104317, -22.65481344], [-47.95076017, -22.65600753], [-47.95156363, -22.65716456], [-47.95166098, -22.6579513], [-47.95066159, -22.65822756], [-47.949854, -22.65904236], [-47.94826417, -22.65920411], [-47.94595618, -22.660203], [-47.9450917, -22.65994951], [-47.94531893, -22.65902836], [-47.94421505, -22.65791999], [-47.94323945, -22.65708292], [-47.94229203, -22.65663741], [-47.94293087, -22.65614188], [-47.94466154, -22.65544987], [-47.94575173, -22.65525723], [-47.94708749, -22.65428466], [-47.94717751, -22.65345944], [-47.94862447, -22.65137053], [-47.94824697, -22.64905624], [-47.94746858, -22.64800401], [-47.94705755, -22.64761894], [-47.9459803, -22.64738767], [-47.94466507, -22.64763378], [-47.94425899, -22.64685469], [-47.94413988, -22.64552027], [-47.94467977, -22.64392705], [-47.94357408, -22.64330888], [-47.94356834, -22.6433178], [-47.94212598, -22.64505108], [-47.94190847, -22.6454775], [-47.93982799, -22.64606913], [-47.93893414, -22.6454872], [-47.93926247, -22.64389664], [-47.93773774, -22.64318757], [-47.93715458, -22.64411165], [-47.93362612, -22.6478837], [-47.9327981, -22.64693947], [-47.93166461, -22.64785759], [-47.93097067, -22.64866256], [-47.92987359, -22.65055214], [-47.92675797, -22.65192468], [-47.92556948, -22.65035965], [-47.92368257, -22.6501005], [-47.92415344, -22.65120044], [-47.92351753, -22.65312374], [-47.92152934, -22.65281379], [-47.92081364, -22.6533222], [-47.92069278, -22.65381], [-47.92407092, -22.6559561], [-47.92390868, -22.65800283], [-47.92278759, -22.65803165], [-47.92233315, -22.6594025], [-47.92288292, -22.66102794], [-47.92460331, -22.66091227], [-47.92476387, -22.66262444], [-47.92290972, -22.66447152], [-47.92431801, -22.66563289], [-47.92328057, -22.6664378], [-47.92573017, -22.66771177], [-47.92482004, -22.66965714], [-47.92234151, -22.66983908], [-47.92100118, -22.66861194], [-47.92203203, -22.66742022], [-47.92135382, -22.6649486], [-47.92169599, -22.66213608], [-47.92142813, -22.6598311], [-47.92169023, -22.65848723], [-47.92198688, -22.65765581], [-47.92130055, -22.65737016], [-47.91954867, -22.65780971], [-47.91585596, -22.65660116], [-47.91272419, -22.65575232], [-47.91203591, -22.6556812], [-47.91096796, -22.65564373], [-47.91012024, -22.65547188], [-47.90982377, -22.65475601], [-47.90957505, -22.65420062], [-47.90895879, -22.65376268], [-47.90919219, -22.65291455], [-47.91009552, -22.65272965], [-47.9106561, -22.65258452], [-47.9106598, -22.652233], [-47.90998841, -22.65182982], [-47.9094835, -22.65137806], [-47.90937002, -22.65039761], [-47.90957826, -22.64956541], [-47.91006221, -22.64922947], [-47.91100123, -22.64917332], [-47.9118623, -22.64933802], [-47.91268467, -22.64934205], [-47.91259727, -22.64883743], [-47.91202814, -22.64849218], [-47.9111854, -22.64848216], [-47.91043568, -22.6485602], [-47.91003518, -22.64830899], [-47.91002596, -22.64757024], [-47.91031062, -22.64708904], [-47.91083096, -22.64687752], [-47.91147422, -22.64665574], [-47.91173719, -22.64611817], [-47.91141115, -22.64587688], [-47.91060242, -22.64616315], [-47.91022238, -22.64610619], [-47.91026574, -22.64526837], [-47.90739343, -22.64554856], [-47.9071894, -22.64637966], [-47.90747125, -22.64704777], [-47.9080998, -22.64750446], [-47.90757581, -22.64988756], [-47.90756574, -22.6499333], [-47.9069432, -22.65014075], [-47.90632499, -22.6513427], [-47.9056285, -22.65129666], [-47.90458757, -22.6513306], [-47.90442498, -22.65179086], [-47.90440534, -22.6524712], [-47.90493613, -22.65275671], [-47.90668504, -22.65318515], [-47.90715279, -22.65348577], [-47.907144, -22.65430286], [-47.90612431, -22.65510529], [-47.90556158, -22.65518981], [-47.90517374, -22.65480319], [-47.90501998, -22.65435847], [-47.90467185, -22.65411764], [-47.90353153, -22.65458887], [-47.90353738, -22.65485692], [-47.90434096, -22.65528353], [-47.90451168, -22.65616825], [-47.90428941, -22.65800026], [-47.90225047, -22.65943849], [-47.90283782, -22.66035005], [-47.89827324, -22.66408994], [-47.89678859, -22.6658184], [-47.89872947, -22.66591035], [-47.90176958, -22.66577629], [-47.90549775, -22.6653564], [-47.90659465, -22.66487845], [-47.91593641, -22.66029538], [-47.91769084, -22.66425857], [-47.91427993, -22.66434256], [-47.91113499, -22.66520683], [-47.9128301, -22.66968665], [-47.91164274, -22.67015639], [-47.90940934, -22.6721557], [-47.90719118, -22.67220787], [-47.90592199, -22.67278635], [-47.90650013, -22.67372967], [-47.90831462, -22.67312391], [-47.9093473, -22.67365149], [-47.90942588, -22.67460103], [-47.90441648, -22.67841162], [-47.90321173, -22.68072745], [-47.90350872, -22.68357013], [-47.89614919, -22.68151386], [-47.89666799, -22.68306521], [-47.89636013, -22.68467731], [-47.89652547, -22.6857344], [-47.89822962, -22.68522166], [-47.90002214, -22.68525442], [-47.90020599, -22.68654866], [-47.90078513, -22.68678676], [-47.9019877, -22.68466792], [-47.90453184, -22.68557234], [-47.90306273, -22.68764363], [-47.90343879, -22.68874765], [-47.90485598, -22.68816891], [-47.90537282, -22.68969557], [-47.90778857, -22.69156741], [-47.90860472, -22.69236625], [-47.90910423, -22.6929255], [-47.91119672, -22.69383842], [-47.91356671, -22.69390576], [-47.91502842, -22.69380248], [-47.91592551, -22.6937391], [-47.91800769, -22.69654446], [-47.91768773, -22.69774614], [-47.9170377, -22.6985155], [-47.91794723, -22.69905772], [-47.91832967, -22.70145109], [-47.91857487, -22.70187275], [-47.91993331, -22.7062522], [-47.92149121, -22.70779862], [-47.92310699, -22.70730206], [-47.92345892, -22.70638436], [-47.92235491, -22.70458797], [-47.91978464, -22.70041], [-47.91936631, -22.69564229], [-47.91745776, -22.69326968], [-47.91706802, -22.69224582], [-47.92116765, -22.68984774], [-47.92505057, -22.68557142], [-47.92940136, -22.67971003], [-47.93155453, -22.68059975], [-47.93272197, -22.68218422], [-47.93185627, -22.68691404], [-47.93168715, -22.68977693], [-47.93228827, -22.69119748], [-47.93126091, -22.69217932], [-47.93010879, -22.69201245], [-47.92953364, -22.69245065], [-47.93056655, -22.69739297], [-47.93086966, -22.69884354], [-47.92570547, -22.70776846], [-47.92476542, -22.71052796], [-47.92533462, -22.71130465], [-47.92602222, -22.71335563], [-47.93511014, -22.71141952], [-47.93516868, -22.71298714], [-47.93735343, -22.71807002], [-47.93641447, -22.72148066], [-47.93109071, -22.72496368], [-47.93190821, -22.72842706], [-47.93466839, -22.73202223]]]]}}]}