{"type": "FeatureCollection", "features": [{"type": "Feature", "properties": {"name": "Área de Proteção Ambiental São Francisco Xavier"}, "geometry": {"type": "MultiPolygon", "coordinates": [[[[-45.88232649, -22.92409711], [-45.88257942, -22.92415141], [-45.88289235, -22.92418309], [-45.88324202, -22.92431484], [-45.8835193, -22.92441357], [-45.88381992, -22.92440076], [-45.88430094, -22.92438694], [-45.88450548, -22.92439694], [-45.88487754, -22.92427231], [-45.88514106, -22.92410372], [-45.88544167, -22.92409091], [-45.88587546, -22.92421104], [-45.88610412, -22.92423205], [-45.88626128, -22.92435373], [-45.88644278, -22.92451983], [-45.8865995, -22.92457466], [-45.88673158, -22.9245405], [-45.88685193, -22.92455097], [-45.88696054, -22.92460607], [-45.88710487, -22.92460526], [-45.88722522, -22.92461573], [-45.88732209, -22.92471546], [-45.8875859, -22.92459144], [-45.88779037, -22.92459029], [-45.88792296, -22.92463412], [-45.88825966, -22.92462109], [-45.88876481, -22.92461826], [-45.88910107, -22.92453839], [-45.88930488, -22.92443698], [-45.88964093, -22.92432369], [-45.88996538, -22.9242773], [-45.89031417, -22.92427535], [-45.89071108, -22.92427312], [-45.89131238, -22.92425861], [-45.89157691, -22.92424598], [-45.89173246, -22.92412255], [-45.89212842, -22.92397549], [-45.8923923, -22.9238626], [-45.89268, -22.92371614], [-45.89287157, -22.92358137], [-45.89303959, -22.92352472], [-45.89325586, -22.92349008], [-45.89362915, -22.92355483], [-45.89388209, -22.92360911], [-45.89405047, -22.92360816], [-45.89426638, -22.92351781], [-45.89446997, -22.92338297], [-45.89472196, -22.92329242], [-45.89501061, -22.9232908], [-45.89528783, -22.92337836], [-45.8956727, -22.92337619], [-45.89596107, -22.92333], [-45.89624928, -22.92326153], [-45.89647685, -22.92311541], [-45.89665594, -22.92291385], [-45.89684669, -22.92265653], [-45.89748194, -22.9223187], [-45.89774463, -22.92202754], [-45.89810339, -22.92171356], [-45.89842702, -22.92154461], [-45.89876334, -22.92147586], [-45.89940071, -22.92146111], [-45.8998694, -22.92140275], [-45.90016927, -22.92127849], [-45.90038517, -22.92118814], [-45.90100999, -22.92109546], [-45.90122648, -22.92109424], [-45.901455, -22.92109294], [-45.90175715, -22.92131405], [-45.90193889, -22.92151356], [-45.90212025, -22.92165737], [-45.90245738, -22.92171116], [-45.90268546, -22.92164301], [-45.90293722, -22.92151903], [-45.90312972, -22.92152907], [-45.90349017, -22.92147132], [-45.90405493, -22.92139011], [-45.90443965, -22.92136564], [-45.9048485, -22.92135217], [-45.90535394, -22.92139386], [-45.90606591, -22.92174631], [-45.90645234, -22.92197808], [-45.90669355, -22.92207697], [-45.90710373, -22.92226403], [-45.90748979, -22.92244008], [-45.90763479, -22.92253952], [-45.90767272, -22.92281784], [-45.9076748, -22.92312978], [-45.90773642, -22.92335225], [-45.90790607, -22.92354069], [-45.90820653, -22.92350554], [-45.90843505, -22.92350424], [-45.90868807, -22.92356964], [-45.90906084, -22.92355636], [-45.90939746, -22.92353215], [-45.90977142, -22.92369713], [-45.91026543, -22.92382799], [-45.91049388, -22.92381554], [-45.91059025, -22.92383727], [-45.91069767, -22.9237141], [-45.91069693, -22.92360269], [-45.91063575, -22.92344707], [-45.91062223, -22.92322432], [-45.91070561, -22.92310129], [-45.91081326, -22.92301154], [-45.91100539, -22.92296587], [-45.91114965, -22.9229539], [-45.91120911, -22.92285329], [-45.91125677, -22.92278617], [-45.91137638, -22.92268521], [-45.91155589, -22.92255049], [-45.9116873, -22.92241604], [-45.91160199, -22.92224941], [-45.91155313, -22.92213828], [-45.91172114, -22.92208161], [-45.91196064, -22.92192426], [-45.91201996, -22.92180136], [-45.91198097, -22.92136708], [-45.91194347, -22.92115561], [-45.91190552, -22.9208773], [-45.91192868, -22.92074347], [-45.91205986, -22.9205756], [-45.9122762, -22.92055207], [-45.91244436, -22.92051768], [-45.91270992, -22.92066099], [-45.91292723, -22.9207823], [-45.91325286, -22.92091412], [-45.91354151, -22.92091246], [-45.91361277, -22.92077835], [-45.91382806, -22.92059886], [-45.91398404, -22.92054225], [-45.91409259, -22.92058619], [-45.91418977, -22.92073047], [-45.91431049, -22.92079662], [-45.91488809, -22.92083786], [-45.91504444, -22.92083696], [-45.91529746, -22.92090235], [-45.91552635, -22.92095673], [-45.91563549, -22.9210898], [-45.91576929, -22.92131185], [-45.91579499, -22.92155681], [-45.91589225, -22.92171223], [-45.91585775, -22.92194639], [-45.91583481, -22.92211364], [-45.91581278, -22.92241458], [-45.91582713, -22.92275988], [-45.91594935, -22.92304884], [-45.91613141, -22.9232929], [-45.9163854, -22.92350312], [-45.91672284, -22.92360144], [-45.91729128, -22.92406609], [-45.91760609, -22.92437623], [-45.91772794, -22.92460949], [-45.91782581, -22.92485403], [-45.91802148, -22.92533197], [-45.91813213, -22.92568785], [-45.91831479, -22.92602103], [-45.91847288, -22.92627636], [-45.91859465, -22.92649848], [-45.91880085, -22.92675354], [-45.91892195, -22.92687539], [-45.91912747, -22.92703018], [-45.91924971, -22.92731914], [-45.91940817, -22.92763018], [-45.91966053, -22.92759529], [-45.92017749, -22.92755887], [-45.92060905, -22.92734469], [-45.92102851, -22.92711943], [-45.92137649, -22.92699486], [-45.92178512, -22.92694792], [-45.92219399, -22.92693441], [-45.92244672, -22.92695522], [-45.92265118, -22.92695403], [-45.92264983, -22.9267535], [-45.92267162, -22.92641914], [-45.92259621, -22.9259405], [-45.92240234, -22.92572995], [-45.92204045, -22.92557607], [-45.92183546, -22.92549927], [-45.9218341, -22.92529874], [-45.92209825, -22.92523036], [-45.92239909, -22.92525089], [-45.92271075, -22.92509311], [-45.92275682, -22.92479203], [-45.92262278, -22.92453656], [-45.92217521, -22.92416036], [-45.92190804, -22.92378311], [-45.92191788, -22.92345995], [-45.92232319, -22.92292282], [-45.92246503, -22.92255434], [-45.92259597, -22.92235304], [-45.92284741, -22.92218446], [-45.92324385, -22.9221153], [-45.92368908, -22.92214614], [-45.92409982, -22.92241114], [-45.92442607, -22.92263206], [-45.92479936, -22.92269674], [-45.92508711, -22.92256137], [-45.92583952, -22.9217771], [-45.92623415, -22.92144056], [-45.92657068, -22.92140517], [-45.92712506, -22.92156906], [-45.92763058, -22.92162181], [-45.9281836, -22.92158515], [-45.92853132, -22.92142715], [-45.92903334, -22.92096742], [-45.92936653, -22.92044183], [-45.92944821, -22.9200737], [-45.9294339, -22.91973954], [-45.92956263, -22.91921516], [-45.92934379, -22.91887106], [-45.92912465, -22.9184824], [-45.92920633, -22.91811426], [-45.92942228, -22.91803501], [-45.9298305, -22.91793235], [-45.93019001, -22.91774084], [-45.93064574, -22.91754877], [-45.93105411, -22.91746839], [-45.93130538, -22.91727752], [-45.93155528, -22.91688611], [-45.93202234, -22.9165937], [-45.9325018, -22.91635692], [-45.93291063, -22.91634338], [-45.93319919, -22.91633054], [-45.93336673, -22.916207], [-45.93337295, -22.91536024], [-45.93365877, -22.91494633], [-45.9339576, -22.91467719], [-45.9342084, -22.91441947], [-45.93450799, -22.91426173], [-45.93479563, -22.9141152], [-45.93550419, -22.91396619], [-45.93585273, -22.91393071], [-45.93612972, -22.91398479], [-45.93643153, -22.91415013], [-45.93663513, -22.91402637], [-45.937016, -22.91344479], [-45.93718077, -22.91292018], [-45.93733335, -22.91237336], [-45.93740367, -22.91210556], [-45.93767982, -22.91203708], [-45.93812463, -22.91201217], [-45.9384976, -22.91203225], [-45.93876256, -22.91208639], [-45.93902806, -22.91221851], [-45.93930551, -22.91233943], [-45.93953516, -22.91250519], [-45.93970383, -22.91254875], [-45.93984745, -22.91244763], [-45.93986974, -22.91219125], [-45.93980792, -22.91194651], [-45.93943411, -22.91180389], [-45.93920484, -22.91169383], [-45.93933552, -22.9114591], [-45.93956179, -22.91113466], [-45.93960867, -22.91095613], [-45.93961808, -22.91057727], [-45.93980896, -22.91035332], [-45.9400979, -22.91039617], [-45.94035136, -22.91052837], [-45.94062912, -22.91069384], [-45.94077428, -22.91081553], [-45.94091928, -22.91091495], [-45.94102698, -22.91083632], [-45.94103731, -22.91059115], [-45.94113214, -22.91039005], [-45.94137227, -22.91033292], [-45.9415293, -22.91043226], [-45.94173498, -22.9106093], [-45.94202361, -22.91060759], [-45.94226274, -22.91040563], [-45.94241777, -22.91021531], [-45.94277663, -22.90993465], [-45.94304035, -22.90981053], [-45.94315999, -22.90972069], [-45.94319499, -22.90956451], [-45.94341069, -22.90945182], [-45.94353103, -22.90946224], [-45.94382004, -22.90951623], [-45.94409632, -22.90947003], [-45.94448077, -22.90941204], [-45.94480578, -22.90945467], [-45.94496312, -22.90959857], [-45.94522947, -22.90985323], [-45.945508, -22.9101301], [-45.94582199, -22.91031763], [-45.94617175, -22.91046038], [-45.94673837, -22.91065755], [-45.94717208, -22.91076638], [-45.94755691, -22.91076408], [-45.94767663, -22.91068538], [-45.9478443, -22.91058411], [-45.94814503, -22.91059346], [-45.94862747, -22.91079112], [-45.94908609, -22.91102234], [-45.94972642, -22.91144188], [-45.95005206, -22.91157363], [-45.95043806, -22.91173843], [-45.95069099, -22.91179263], [-45.95084679, -22.91171371], [-45.9511223, -22.91155608], [-45.95136088, -22.91127612], [-45.95167162, -22.91099573], [-45.95188708, -22.91084961], [-45.95205497, -22.91078175], [-45.95227144, -22.91078046], [-45.9526323, -22.91078943], [-45.95299246, -22.91069814], [-45.95317199, -22.91057451], [-45.95337628, -22.91055101], [-45.95358119, -22.91061662], [-45.95376205, -22.91068238], [-45.9537839, -22.91064361], [-45.95383204, -22.91057116], [-45.95386053, -22.91047183], [-45.95387439, -22.91037259], [-45.95388851, -22.91030035], [-45.95388291, -22.91020123], [-45.95385778, -22.91007964], [-45.95385715, -22.90998943], [-45.95388571, -22.90989913], [-45.95395748, -22.90972287], [-45.95399974, -22.90967349], [-45.95613756, -22.91042591], [-45.95643876, -22.91051928], [-45.95653858, -22.91050323], [-45.95742823, -22.91067696], [-45.95771438, -22.91066503], [-45.95803575, -22.91058597], [-45.95866787, -22.91048453], [-45.95912213, -22.91035843], [-45.95928809, -22.9102803], [-45.95969667, -22.90996952], [-45.96000083, -22.90967247], [-45.9601438, -22.90948141], [-45.96014257, -22.90930676], [-45.96008547, -22.90907583], [-45.96008471, -22.90896782], [-45.96011176, -22.90887004], [-45.9603184, -22.90846159], [-45.96037484, -22.90847281], [-45.96045014, -22.90850134], [-45.9606447, -22.90856979], [-45.961555, -22.90895875], [-45.96186641, -22.90805008], [-45.96200194, -22.90777328], [-45.96212261, -22.90756737], [-45.96227357, -22.90731179], [-45.96238645, -22.90708461], [-45.96245312, -22.90685925], [-45.96316251, -22.90699944], [-45.96315799, -22.90727066], [-45.96308619, -22.90777077], [-45.96326557, -22.90839796], [-45.96347504, -22.90903996], [-45.96383409, -22.9093106], [-45.96384864, -22.90952526], [-45.9638507, -22.90955596], [-45.96352516, -22.90981712], [-45.96298433, -22.91008319], [-45.96289005, -22.91018969], [-45.96208724, -22.91057602], [-45.96155414, -22.91093389], [-45.96152583, -22.91113861], [-45.96179893, -22.91188714], [-45.96172591, -22.9120785], [-45.9616595, -22.91293349], [-45.9618382, -22.91323719], [-45.96263926, -22.91367025], [-45.96280163, -22.91415404], [-45.96295586, -22.91459105], [-45.96316935, -22.91444703], [-45.96357903, -22.91455596], [-45.96392977, -22.91483236], [-45.96413603, -22.91508735], [-45.96424568, -22.91528723], [-45.96429623, -22.9156323], [-45.96440605, -22.91585445], [-45.96460068, -22.91616522], [-45.96486723, -22.91644213], [-45.96503718, -22.91666392], [-45.96531513, -22.91685163], [-45.96552006, -22.91691723], [-45.96569998, -22.91684929], [-45.96585578, -22.91677036], [-45.96597509, -22.91663594], [-45.96616665, -22.91651222], [-45.96634681, -22.9164777], [-45.96643171, -22.91657745], [-45.96642126, -22.91680034], [-45.96642268, -22.91700087], [-45.96650845, -22.91722317], [-45.96650892, -22.91729002], [-45.96657119, -22.91759045], [-45.96662119, -22.91785753], [-45.96670696, -22.91807983], [-45.96681638, -22.91824628], [-45.96690184, -22.91842402], [-45.9670115, -22.91862389], [-45.96709703, -22.91881277], [-45.9671699, -22.91891259], [-45.96725448, -22.91896778], [-45.96744699, -22.91897775], [-45.96765137, -22.91896537], [-45.96786713, -22.91886378], [-45.96813133, -22.91880647], [-45.96845629, -22.91883791], [-45.96864927, -22.91891472], [-45.96891433, -22.91897995], [-45.96908334, -22.91906805], [-45.96938519, -22.91923332], [-45.96977076, -22.91933124], [-45.97002341, -22.91934084], [-45.9704085, -22.91937191], [-45.97067317, -22.91938143], [-45.97103437, -22.91943493], [-45.97121517, -22.91948953], [-45.97134873, -22.91966697], [-45.97143419, -22.9198447], [-45.97162741, -22.91995493], [-45.97188005, -22.91996453], [-45.97215564, -22.91981801], [-45.97240701, -22.91964935], [-45.9727667, -22.91949117], [-45.9730183, -22.91935594], [-45.97337839, -22.91925346], [-45.97379893, -22.91919518], [-45.97420823, -22.91924837], [-45.97443754, -22.91935838], [-45.97473932, -22.9195125], [-45.9748494, -22.91976807], [-45.97494713, -22.91997915], [-45.97522542, -22.9202114], [-45.97555253, -22.92054363], [-45.97568706, -22.92085475], [-45.97581976, -22.92090964], [-45.97588125, -22.92109866], [-45.97582231, -22.92126614], [-45.97576361, -22.92146704], [-45.97580081, -22.92162279], [-45.97592195, -22.9217446], [-45.97610276, -22.92179919], [-45.97625911, -22.92179823], [-45.97641434, -22.9216413], [-45.97653269, -22.92137319], [-45.97667542, -22.92114949], [-45.9768434, -22.92109275], [-45.97701193, -22.92111399], [-45.9771334, -22.92128036], [-45.97731508, -22.9214575], [-45.97753332, -22.92170126], [-45.97760661, -22.92185679], [-45.9777041, -22.92203444], [-45.97784978, -22.92222294], [-45.97785098, -22.92239005], [-45.9778764, -22.9225793], [-45.97769695, -22.92271409], [-45.97762583, -22.92285937], [-45.977651, -22.92301519], [-45.97774842, -22.9231817], [-45.97796698, -22.92347002], [-45.97811283, -22.92368081], [-45.97833043, -22.92383544], [-45.97858268, -22.92378932], [-45.97882267, -22.92370986], [-45.97908694, -22.92366366], [-45.97943533, -22.92360581], [-45.97988001, -22.9235585], [-45.98010884, -22.92360165], [-45.98018149, -22.92366805], [-45.98018205, -22.92374603], [-45.98018301, -22.92387972], [-45.98004069, -22.92415913], [-45.97996973, -22.92432668], [-45.97993549, -22.92458314], [-45.97999707, -22.9247833], [-45.98009417, -22.92490525], [-45.98034762, -22.92502624], [-45.98061302, -22.92513601], [-45.98079399, -22.92521288], [-45.98110638, -22.92516638], [-45.98125054, -22.92514321], [-45.98143031, -22.92505297], [-45.98163405, -22.92495144], [-45.98197025, -22.92487137], [-45.9822945, -22.92480252], [-45.98255878, -22.92475632], [-45.98281047, -22.92463221], [-45.98306272, -22.92458609], [-45.98355655, -22.9246833], [-45.98367795, -22.92483852], [-45.98389677, -22.92516026], [-45.98423643, -22.92555923], [-45.98450264, -22.9257804], [-45.98472018, -22.92592389], [-45.98493724, -22.92600053], [-45.985202, -22.92602117], [-45.98534584, -22.92595343], [-45.98556185, -22.92588524], [-45.9857785, -22.92590618], [-45.98623538, -22.92588106], [-45.98670428, -22.92585586], [-45.98720853, -22.92573018], [-45.98761698, -22.92566079], [-45.98792993, -22.92569227], [-45.98815877, -22.92573541], [-45.98824288, -22.92572374], [-45.98847075, -22.9256332], [-45.98854089, -22.92535423], [-45.98864712, -22.92507505], [-45.98875399, -22.92488498], [-45.98886142, -22.9247729], [-45.98912473, -22.92459301], [-45.98935227, -22.9244579], [-45.98977314, -22.92444413], [-45.99001344, -22.92440921], [-45.99024187, -22.92439664], [-45.99039733, -22.92427312], [-45.99055231, -22.92408276], [-45.99063593, -22.92400425], [-45.99076766, -22.92392544], [-45.99093612, -22.92393553], [-45.9911531, -22.92400102], [-45.99127369, -22.92404483], [-45.99141818, -22.92406621], [-45.99137129, -22.92423362], [-45.99126369, -22.92432342], [-45.99118039, -22.92444649], [-45.99128904, -22.92450152], [-45.99156567, -22.92449979], [-45.99187594, -22.92416362], [-45.99212721, -22.9239838], [-45.99247583, -22.92395934], [-45.99314967, -22.92399969], [-45.99340216, -22.92398697], [-45.99443633, -22.92395821], [-45.99467663, -22.92392328], [-45.99496487, -22.92386577], [-45.99522938, -22.92385297], [-45.99560247, -22.92388406], [-45.99587974, -22.92397145], [-45.9962655, -22.92409158], [-45.99666321, -22.92420049], [-45.99695251, -22.92428781], [-45.99716924, -22.92431987], [-45.99726611, -22.92440839], [-45.99737517, -22.92451911], [-45.99742442, -22.92467478], [-45.99744962, -22.9248306], [-45.99764279, -22.92492965], [-45.99783522, -22.92492844], [-45.99802806, -22.92498294], [-45.99811381, -22.92519408], [-45.99817459, -22.92528282], [-45.99828219, -22.92519302], [-45.99835386, -22.92512572], [-45.99860643, -22.92512413], [-45.99895595, -22.9252222], [-45.99928158, -22.9253427], [-45.99992066, -22.9255615], [-46.00005288, -22.92554953], [-46.00017397, -22.92566018], [-46.00034284, -22.92572596], [-46.00037966, -22.925826], [-46.00061087, -22.92619219], [-46.00074457, -22.92638075], [-46.00103445, -22.92654604], [-46.00126329, -22.92658916], [-46.00143299, -22.92676634], [-46.0016026, -22.92693239], [-46.00168843, -22.92715467], [-46.00179741, -22.92725425], [-46.00215905, -22.92736338], [-46.00235157, -22.9273733], [-46.00246047, -22.92746174], [-46.00266592, -22.92759414], [-46.00286981, -22.92751486], [-46.00289132, -22.92716936], [-46.00292585, -22.92695746], [-46.00302124, -22.92684544], [-46.00332193, -22.92684355], [-46.00350242, -22.92685355], [-46.00374288, -22.92684088], [-46.0039354, -22.92685081], [-46.00410485, -22.92699457], [-46.00434564, -22.92702647], [-46.00448874, -22.92685845], [-46.00457235, -22.92677993], [-46.00490936, -22.92681122], [-46.0051018, -22.92681001], [-46.00513673, -22.92665381], [-46.00526903, -22.92665297], [-46.00542588, -22.92671883], [-46.00563133, -22.92685122], [-46.00569254, -22.92699566], [-46.00568158, -22.92714056], [-46.00562259, -22.92729691], [-46.0055884, -22.92755337], [-46.00565018, -22.9277758], [-46.00576024, -22.92802021], [-46.00588175, -22.92818655], [-46.00595539, -22.92838662], [-46.00601627, -22.92848651], [-46.0059689, -22.92858708], [-46.00588561, -22.92871015], [-46.00583841, -22.928833], [-46.00601981, -22.92896555], [-46.00634554, -22.92909717], [-46.00647858, -22.9291966], [-46.00652801, -22.92937454], [-46.00665001, -22.92960773], [-46.00665108, -22.92975256], [-46.00677202, -22.92984092], [-46.0069404, -22.92983985], [-46.00704824, -22.92978346], [-46.00716645, -22.92950419], [-46.00732108, -22.92926924], [-46.00747604, -22.92907886], [-46.00798037, -22.92896425], [-46.0083047, -22.92890649], [-46.00849639, -22.928805], [-46.00879626, -22.92869169], [-46.00915708, -22.92868939], [-46.00963908, -22.92880888], [-46.0098564, -22.92891891], [-46.01013361, -22.92899513], [-46.01038619, -22.92899352], [-46.01065055, -22.92895842], [-46.01099959, -22.92898962], [-46.01107176, -22.92898916], [-46.01132574, -22.92917694], [-46.01148408, -22.92944331], [-46.01182251, -22.92966398], [-46.0122569, -22.9298506], [-46.01253453, -22.92998253], [-46.01288449, -22.93013627], [-46.01318659, -22.93032374], [-46.01358391, -22.9303769], [-46.01392068, -22.93037475], [-46.01417326, -22.93037314], [-46.01448672, -22.93047141], [-46.01484847, -22.93059165], [-46.01524538, -22.93058911], [-46.01553412, -22.9305984], [-46.01577426, -22.93054116], [-46.01602684, -22.93053954], [-46.01621894, -22.93049375], [-46.01636386, -22.93057081], [-46.01642607, -22.93084894], [-46.0164989, -22.9309376], [-46.01672784, -22.93099184], [-46.01704048, -22.93097869], [-46.01726925, -22.93101065], [-46.01751288, -22.9314213], [-46.01758655, -22.93162137], [-46.01773213, -22.93178755], [-46.01803382, -22.93191931], [-46.01826268, -22.9319624], [-46.01858709, -22.93191576], [-46.01909209, -22.93189024], [-46.01930842, -22.93186657], [-46.01950178, -22.93198787], [-46.01953928, -22.93217703], [-46.01954037, -22.93232186], [-46.01955365, -22.93248889], [-46.01981976, -22.93268771], [-46.01983204, -22.93272106], [-46.0199757, -22.93263101], [-46.0201187, -22.93245183], [-46.02021342, -22.93225069], [-46.02030797, -22.93202726], [-46.020354, -22.93174844], [-46.02035149, -22.93141423], [-46.02032527, -22.93112473], [-46.02026321, -22.93086889], [-46.02023798, -22.93071307], [-46.02045373, -22.93061142], [-46.02080236, -22.9305869], [-46.02110305, -22.93058496], [-46.02130752, -22.93058365], [-46.0215246, -22.93066024], [-46.02172907, -22.93065892], [-46.02199159, -22.93037871], [-46.02207469, -22.93023334], [-46.02236076, -22.92988613], [-46.02238314, -22.92966316], [-46.02264499, -22.92929382], [-46.02287234, -22.92913639], [-46.02307605, -22.92903481], [-46.02324343, -22.92890004], [-46.02336287, -22.92878786], [-46.02344488, -22.92849766], [-46.02358762, -22.92828506], [-46.02369453, -22.92810612], [-46.02383785, -22.9279715], [-46.02398167, -22.92790373], [-46.02423467, -22.9279578], [-46.02443997, -22.92806789], [-46.02459657, -22.9281003], [-46.02478826, -22.92799879], [-46.02482233, -22.92773119], [-46.02488104, -22.92754142], [-46.02502403, -22.92736224], [-46.02526382, -22.92726042], [-46.02567123, -22.92705725], [-46.02595821, -22.92683258], [-46.02612583, -22.92673123], [-46.02626865, -22.92652977], [-46.02635158, -22.92636211], [-46.02643426, -22.92616104], [-46.02663704, -22.92593691], [-46.02671964, -22.9257247], [-46.02695875, -22.92553376], [-46.02738921, -22.92519674], [-46.02758038, -22.92502839], [-46.02780814, -22.92492665], [-46.02810881, -22.9249247], [-46.02843329, -22.92488918], [-46.02875785, -22.92486479], [-46.02896223, -22.92485233], [-46.0292756, -22.92493943], [-46.02955323, -22.92507132], [-46.02978175, -22.92506984], [-46.03003356, -22.92496793], [-46.0302487, -22.92478828], [-46.03029529, -22.92458744], [-46.03039024, -22.92441971], [-46.03056989, -22.92431828], [-46.0310148, -22.92430425], [-46.03153238, -22.92435659], [-46.03170067, -22.92434436], [-46.03193011, -22.92446542], [-46.03212305, -22.92453101], [-46.03234954, -22.92426215], [-46.03264852, -22.92403739], [-46.03297156, -22.92381247], [-46.03325877, -22.92362121], [-46.03346238, -22.92350847], [-46.03375111, -22.92351773], [-46.03405263, -22.92362718], [-46.03459384, -22.92362365], [-46.0353041, -22.92370815], [-46.03576147, -22.92374973], [-46.03621908, -22.92382473], [-46.0365444, -22.9239006], [-46.03690538, -22.92392052], [-46.03737434, -22.92390632], [-46.03778292, -22.92385908], [-46.03818014, -22.92390105], [-46.0387942, -22.92398616], [-46.0392513, -22.92399431], [-46.03976837, -22.92397979], [-46.04036989, -22.92399813], [-46.04085063, -22.92395041], [-46.04125911, -22.92389203], [-46.04158324, -22.92381192], [-46.04174974, -22.92368016], [-46.04164233, -22.92330175], [-46.04148284, -22.92239396], [-46.04128833, -22.9207113], [-46.04110052, -22.9191462], [-46.04117272, -22.91793474], [-46.04116319, -22.91759214], [-46.04108308, -22.91682923], [-46.04106163, -22.91633376], [-46.0410252, -22.91541791], [-46.04108098, -22.91430739], [-46.0412022, -22.91379692], [-46.04145926, -22.91349181], [-46.04177828, -22.91321295], [-46.04228885, -22.91291261], [-46.04320609, -22.91245038], [-46.04365022, -22.9119909], [-46.04391036, -22.91134611], [-46.04398315, -22.91076081], [-46.04400624, -22.91000759], [-46.04392758, -22.90899713], [-46.04372201, -22.90738749], [-46.04380305, -22.90677701], [-46.04401076, -22.90606275], [-46.04415345, -22.90571614], [-46.04432553, -22.90530674], [-46.04451604, -22.90506839], [-46.04482983, -22.90486263], [-46.04508176, -22.90479056], [-46.04595648, -22.90474331], [-46.04646027, -22.90465879], [-46.04689912, -22.90455071], [-46.04739635, -22.90439562], [-46.04786862, -22.90427267], [-46.04878346, -22.90416277], [-46.04908278, -22.90405798], [-46.04934314, -22.90395079], [-46.04951212, -22.90382595], [-46.04971357, -22.90363022], [-46.05023758, -22.90300749], [-46.05070169, -22.9022971], [-46.05099951, -22.90167003], [-46.05110347, -22.90130567], [-46.0511398, -22.90079481], [-46.05109255, -22.89993572], [-46.05102234, -22.89877539], [-46.05093113, -22.89792105], [-46.0508436, -22.89746524], [-46.05070061, -22.89694714], [-46.05042252, -22.89684444], [-46.05022552, -22.89673393], [-46.0498333, -22.89657799], [-46.04763453, -22.89589136], [-46.04731172, -22.89572562], [-46.04631953, -22.89497416], [-46.04555892, -22.8941982], [-46.04463516, -22.89316314], [-46.04421595, -22.89243934], [-46.04362013, -22.89172099], [-46.04286833, -22.8911096], [-46.04202168, -22.89062326], [-46.04127235, -22.89031368], [-46.03957192, -22.8899092], [-46.03891628, -22.88959652], [-46.0371413, -22.88833882], [-46.0365831, -22.88814057], [-46.03602409, -22.88804349], [-46.0349925, -22.88808829], [-46.03442113, -22.88802807], [-46.0331939, -22.88739401], [-46.03279836, -22.88720816], [-46.03180611, -22.88679634], [-46.03146647, -22.88664749], [-46.03096688, -22.88644469], [-46.03059994, -22.88629541], [-46.02988294, -22.88603507], [-46.02863286, -22.88537171], [-46.02765391, -22.88498175], [-46.02715328, -22.88483765], [-46.02604321, -22.88491011], [-46.02466718, -22.8851863], [-46.02353568, -22.88569393], [-46.02219398, -22.88655885], [-46.02087246, -22.8873843], [-46.0197006, -22.88807471], [-46.01912466, -22.88832519], [-46.01875997, -22.88843163], [-46.01825769, -22.88843475], [-46.01748097, -22.88818789], [-46.01561149, -22.88699085], [-46.01458845, -22.88650436], [-46.01400867, -22.88626142], [-46.01365294, -22.88614029], [-46.01313054, -22.88596057], [-46.01281844, -22.88596299], [-46.01235703, -22.88607967], [-46.00984562, -22.88799719], [-46.00883581, -22.88916348], [-46.00872831, -22.88928471], [-46.00863075, -22.88939525], [-46.00854943, -22.8894708], [-46.00844514, -22.88952159], [-46.00826605, -22.88955678], [-46.00814457, -22.88953322], [-46.00797993, -22.88946924], [-46.00775963, -22.88935561], [-46.00763639, -22.88926696], [-46.00753079, -22.88911986], [-46.00693942, -22.88811049], [-46.00622804, -22.88661767], [-46.00568473, -22.88575722], [-46.00363237, -22.88372955], [-46.00315192, -22.88311674], [-46.00300023, -22.88271321], [-46.00294588, -22.88172388], [-46.00275582, -22.88133963], [-46.00147698, -22.88000879], [-46.00085629, -22.87954921], [-46.00057411, -22.87935329], [-46.00030568, -22.87915126], [-46.00013184, -22.879004], [-45.99980974, -22.87885805], [-45.99952265, -22.87877229], [-45.99914471, -22.87869506], [-45.99858371, -22.87865746], [-45.99784099, -22.87869294], [-45.99745362, -22.87870591], [-45.99704411, -22.8787574], [-45.99662446, -22.87883041], [-45.99615179, -22.87892338], [-45.99581761, -22.87901488], [-45.99545239, -22.87909777], [-45.99508661, -22.87915715], [-45.99472126, -22.87919305], [-45.99440623, -22.8791963], [-45.99409511, -22.87914539], [-45.99383695, -22.87907723], [-45.99359841, -22.87894884], [-45.99332667, -22.8786609], [-45.99252438, -22.87783795], [-45.99165594, -22.87711517], [-45.99113556, -22.87671856], [-45.99081136, -22.87642076], [-45.99040954, -22.87599346], [-45.99029889, -22.87569537], [-45.990308, -22.8755157], [-45.99041449, -22.87523454], [-45.99051913, -22.87489462], [-45.99060361, -22.87464474], [-45.99082485, -22.87416567], [-45.99103648, -22.87362501], [-45.99124836, -22.87312411], [-45.99147388, -22.87267764], [-45.9917637, -22.87218066], [-45.99200076, -22.87179671], [-45.99221099, -22.87138705], [-45.99247569, -22.87103876], [-45.99288108, -22.87062038], [-45.9929663, -22.8705449], [-45.99310068, -22.87039338], [-45.99322537, -22.87023809], [-45.99327339, -22.87011686], [-45.99328388, -22.87002215], [-45.99324412, -22.86990226], [-45.99311756, -22.86978283], [-45.9929788, -22.86974544], [-45.99273939, -22.86972004], [-45.9923847, -22.8697073], [-45.99208267, -22.86969358], [-45.99172133, -22.8696708], [-45.99115361, -22.86957524], [-45.99074812, -22.86951382], [-45.9902612, -22.86942584], [-45.9898978, -22.86930092], [-45.98948923, -22.86919428], [-45.98904001, -22.86907073], [-45.98871456, -22.86900423], [-45.98841467, -22.86892638], [-45.98809398, -22.86881297], [-45.98745421, -22.86860423], [-45.98718954, -22.86857391], [-45.98668903, -22.86859052], [-45.9859171, -22.86862639], [-45.98547192, -22.8686032], [-45.98519326, -22.86859163], [-45.9847846, -22.86854371], [-45.98454598, -22.86852824], [-45.98437341, -22.86852736], [-45.98410008, -22.86854479], [-45.98388723, -22.86856045], [-45.98374276, -22.86856904], [-45.98364626, -22.86856754], [-45.98355253, -22.86857421], [-45.98341551, -22.86854859], [-45.9832699, -22.86851288], [-45.98296204, -22.86844484], [-45.9827539, -22.86836208], [-45.98225892, -22.86812757], [-45.98179148, -22.86787993], [-45.9815899, -22.86775842], [-45.98133993, -22.86756297], [-45.98114081, -22.86741349], [-45.98076468, -22.86707782], [-45.98062377, -22.86699791], [-45.98042807, -22.8669289], [-45.98007505, -22.86693152], [-45.97981715, -22.86695822], [-45.97953475, -22.86704508], [-45.97922731, -22.86716859], [-45.97843883, -22.86741831], [-45.97760623, -22.86762669], [-45.97685781, -22.86754994], [-45.97653603, -22.86755034], [-45.97623084, -22.8676034], [-45.97596054, -22.86766875], [-45.97563567, -22.86783896], [-45.97516397, -22.86804032], [-45.97497192, -22.86809153], [-45.97476854, -22.86806937], [-45.97457531, -22.86797148], [-45.97439213, -22.86774995], [-45.9743068, -22.86756338], [-45.97429915, -22.86744761], [-45.97432548, -22.86728718], [-45.97448664, -22.86662919], [-45.97451656, -22.8660568], [-45.97451497, -22.8656086], [-45.97447499, -22.86501975], [-45.9743106, -22.86440908], [-45.97401883, -22.86377925], [-45.97375225, -22.86337299], [-45.97348635, -22.86308963], [-45.97327087, -22.86292904], [-45.97301917, -22.86277601], [-45.97283773, -22.86267378], [-45.97246816, -22.86251529], [-45.97214086, -22.86233759], [-45.97189871, -22.86214224], [-45.97153558, -22.86168387], [-45.97114728, -22.86126937], [-45.97084069, -22.86102603], [-45.97072208, -22.86095369], [-45.97028362, -22.86083027], [-45.96995033, -22.86076812], [-45.9696168, -22.86071862], [-45.96921959, -22.86057867], [-45.96882966, -22.86041443], [-45.96841795, -22.86016131], [-45.96810211, -22.85994402], [-45.96782592, -22.8596912], [-45.96754875, -22.85943928], [-45.96728049, -22.85917936], [-45.96693982, -22.85877374], [-45.96668709, -22.85841106], [-45.96622631, -22.85774874], [-45.96606475, -22.85751941], [-45.96584182, -22.85718068], [-45.96554206, -22.8567775], [-45.96512288, -22.85618722], [-45.96491356, -22.85595714], [-45.96475891, -22.8557767], [-45.96454479, -22.85559624], [-45.96421699, -22.85539412], [-45.96405394, -22.85535361], [-45.96390671, -22.85535401], [-45.96369555, -22.85538503], [-45.96345513, -22.8554698], [-45.96317327, -22.85563434], [-45.962839, -22.85589293], [-45.96255946, -22.85609094], [-45.9620936, -22.85645409], [-45.96196295, -22.85656046], [-45.96176897, -22.85677156], [-45.96161735, -22.85695803], [-45.9615139, -22.85712356], [-45.96135078, -22.85735322], [-45.96116543, -22.85773161], [-45.96101024, -22.85800657], [-45.96092544, -22.85811186], [-45.96082549, -22.85819251], [-45.96071397, -22.85826575], [-45.96049233, -22.85828305], [-45.96043122, -22.85826583], [-45.96035708, -22.85821496], [-45.96026305, -22.85813216], [-45.96021033, -22.85802923], [-45.96019158, -22.85788165], [-45.9601623, -22.85745742], [-45.96011868, -22.85707091], [-45.96006744, -22.85662102], [-45.96001088, -22.85635539], [-45.95990504, -22.85590555], [-45.95974996, -22.85553626], [-45.95949582, -22.85514553], [-45.95921198, -22.85472633], [-45.95903327, -22.85452925], [-45.95853464, -22.85412654], [-45.95811894, -22.85377393], [-45.95797459, -22.85361715], [-45.95787102, -22.85336342], [-45.95777297, -22.85296792], [-45.95771684, -22.85283873], [-45.95740439, -22.8522257], [-45.95721135, -22.8518531], [-45.95706486, -22.85160051], [-45.95698197, -22.85144198], [-45.95682957, -22.85113959], [-45.95671671, -22.85086132], [-45.95668404, -22.85062226], [-45.95665757, -22.85015199], [-45.95663537, -22.85003327], [-45.95662009, -22.84996255], [-45.95659702, -22.84989171], [-45.95655458, -22.84981333], [-45.95648791, -22.84978066], [-45.95636664, -22.84974803], [-45.956162, -22.84974299], [-45.95588826, -22.84978386], [-45.95564247, -22.84978993], [-45.95538926, -22.84972179], [-45.95517694, -22.84960369], [-45.95460547, -22.84908055], [-45.95429593, -22.84884164], [-45.95408557, -22.84872267], [-45.95398254, -22.84870568], [-45.95378765, -22.8487008], [-45.95359885, -22.84878818], [-45.95329913, -22.84891719], [-45.95291638, -22.84900151], [-45.95258881, -22.84905417], [-45.95225801, -22.84907064], [-45.95214493, -22.84906976], [-45.95187017, -22.84900759], [-45.95169237, -22.84892076], [-45.95149392, -22.84873781], [-45.95130654, -22.84853607], [-45.95089919, -22.84778419], [-45.95081026, -22.84747738], [-45.95079672, -22.84720609], [-45.95082766, -22.8470611], [-45.95093555, -22.84681342], [-45.95116583, -22.84637792], [-45.95125869, -22.84609927], [-45.95124384, -22.84595266], [-45.95117063, -22.84585121], [-45.95106809, -22.84580802], [-45.95088606, -22.84584581], [-45.95065017, -22.84594961], [-45.95017081, -22.84625197], [-45.94997361, -22.84631934], [-45.9497615, -22.84634942], [-45.94951748, -22.84636545], [-45.94927339, -22.84633177], [-45.9488388, -22.84631949], [-45.94859378, -22.84628399], [-45.94837281, -22.84621273], [-45.94816603, -22.84611188], [-45.94757255, -22.84572752], [-45.94716866, -22.84558379], [-45.94686931, -22.84553388], [-45.94653837, -22.84555756], [-45.94604161, -22.84569247], [-45.9456239, -22.84571659], [-45.94533875, -22.84568949], [-45.94459176, -22.84554213], [-45.94426695, -22.84549814], [-45.94385878, -22.84548083], [-45.94348048, -22.84548298], [-45.94305648, -22.84547807], [-45.94284551, -22.84549913], [-45.94241281, -22.84559619], [-45.94220053, -22.84563529], [-45.9419486, -22.84570992], [-45.94163375, -22.84581336], [-45.94112316, -22.8461161], [-45.94082424, -22.84635985], [-45.94054981, -22.84654434], [-45.94029092, -22.84662608], [-45.93982544, -22.84665033], [-45.93947087, -22.84663386], [-45.93933716, -22.84664168], [-45.93924112, -22.84661576], [-45.93905899, -22.84655324], [-45.93883775, -22.84644401], [-45.93863109, -22.84628442], [-45.93824162, -22.84578218], [-45.9379949, -22.84546924], [-45.93789016, -22.84522813], [-45.93775292, -22.84468832], [-45.93767182, -22.84438163], [-45.93762342, -22.84425707], [-45.93746348, -22.8439437], [-45.93732017, -22.8437327], [-45.93715375, -22.84355838], [-45.9369545, -22.84342058], [-45.93684393, -22.8433366], [-45.93649107, -22.84317559], [-45.93624239, -22.84302164], [-45.93609365, -22.84289368], [-45.93556103, -22.84233133], [-45.93530672, -22.84211315], [-45.93493403, -22.84191748], [-45.93451512, -22.84179607], [-45.93416033, -22.84173983], [-45.93387494, -22.84172626], [-45.93306266, -22.84178925], [-45.93287236, -22.84174737], [-45.93271496, -22.84166626], [-45.93251737, -22.84154385], [-45.93232616, -22.84134021], [-45.93219041, -22.84114288], [-45.93215007, -22.84100489], [-45.93209365, -22.84073473], [-45.93205216, -22.84050095], [-45.93200333, -22.84034747], [-45.93189265, -22.84016499], [-45.93182785, -22.84008444], [-45.93166955, -22.83994639], [-45.93153395, -22.83979334], [-45.93146326, -22.8396621], [-45.9313956, -22.83952548], [-45.93124395, -22.83913363], [-45.93103744, -22.83875626], [-45.93076813, -22.83840139], [-45.93035046, -22.8380559], [-45.93001119, -22.83784629], [-45.92968792, -22.83761525], [-45.9294043, -22.8373487], [-45.92928501, -22.83721036], [-45.92918183, -22.83704426], [-45.92903553, -22.83657478], [-45.92893926, -22.83624615], [-45.92884246, -22.83599884], [-45.92867503, -22.83566998], [-45.92852337, -22.83543715], [-45.92833317, -22.83523263], [-45.9281264, -22.83508024], [-45.92788006, -22.83490645], [-45.92772252, -22.83483346], [-45.9275332, -22.83479159], [-45.92729677, -22.83476704], [-45.92708275, -22.83474285], [-45.92688579, -22.83469272], [-45.92668881, -22.83459109], [-45.92648178, -22.83445316], [-45.92615626, -22.83413352], [-45.92544344, -22.83351496], [-45.92527549, -22.83331981], [-45.9251481, -22.83309279], [-45.92508337, -22.83285141], [-45.92500257, -22.83253025], [-45.92489874, -22.83239938], [-45.92470955, -22.83229878], [-45.92442448, -22.83221652], [-45.92425783, -22.83216146], [-45.92406001, -22.83205258], [-45.9239372, -22.83194671], [-45.92386693, -22.8318462], [-45.92382932, -22.83166669], [-45.92381278, -22.83145499], [-45.92384849, -22.83100196], [-45.92383031, -22.83051102], [-45.92380572, -22.83036515], [-45.92372544, -22.83022653], [-45.92355832, -22.82993471], [-45.92350937, -22.82978846], [-45.92349382, -22.82962827], [-45.92348271, -22.82938684], [-45.92349114, -22.82924782], [-45.92351249, -22.82904305], [-45.92351125, -22.82879455], [-45.92347102, -22.82854632], [-45.92337498, -22.82831167], [-45.9232073, -22.82804966], [-45.92302406, -22.82783891], [-45.92288919, -22.82770032], [-45.92278965, -22.82754874], [-45.92274653, -22.82735107], [-45.9227768, -22.8271383], [-45.92287057, -22.82691842], [-45.92300366, -22.8267326], [-45.92348194, -22.8262261], [-45.92361295, -22.82599506], [-45.92368449, -22.82576489], [-45.9236748, -22.82560389], [-45.9234369, -22.82523957], [-45.92322162, -22.82496957], [-45.92291102, -22.82463571], [-45.9227136, -22.82445365], [-45.92249096, -22.82426486], [-45.92196784, -22.82387972], [-45.92145239, -22.82350192], [-45.9212374, -22.82326898], [-45.92113397, -22.82311733], [-45.92077855, -22.8224683], [-45.92060049, -22.82224137], [-45.92020284, -22.82181937], [-45.91959368, -22.82118706], [-45.91919575, -22.82078042], [-45.91901397, -22.8206492], [-45.91872911, -22.82050459], [-45.91839276, -22.82040344], [-45.91764494, -22.82020444], [-45.91685121, -22.81980139], [-45.91663423, -22.81967593], [-45.91576153, -22.81911711], [-45.91560329, -22.81903054], [-45.91544507, -22.81899458], [-45.91522421, -22.81902538], [-45.91491733, -22.81912167], [-45.91459487, -22.8192168], [-45.91439776, -22.8192281], [-45.91419248, -22.81920765], [-45.91395458, -22.81905384], [-45.91374825, -22.81882825], [-45.9135796, -22.81851562], [-45.91347648, -22.81834771], [-45.91343528, -22.81820519], [-45.91341907, -22.81813355], [-45.91331176, -22.8170927], [-45.91327065, -22.81694476], [-45.91319054, -22.81685041], [-45.91296821, -22.81664625], [-45.91269245, -22.81648461], [-45.91232749, -22.81635045], [-45.91208184, -22.81629952], [-45.9118544, -22.81626516], [-45.91145961, -22.81626696], [-45.91077349, -22.81631469], [-45.91034779, -22.81635395], [-45.90973314, -22.81648957], [-45.90909277, -22.81674946], [-45.90874312, -22.81699595], [-45.90778749, -22.81785258], [-45.90723, -22.818215], [-45.90563175, -22.81872063], [-45.9052391, -22.81892034], [-45.90487002, -22.81926681], [-45.90465177, -22.81962654], [-45.90461514, -22.82002173], [-45.90480249, -22.82094911], [-45.90487529, -22.82127828], [-45.90494044, -22.82159919], [-45.9049528, -22.82182439], [-45.90482761, -22.82268078], [-45.90469876, -22.82321183], [-45.90471137, -22.82337106], [-45.90478289, -22.82356016], [-45.90494186, -22.82381662], [-45.90521297, -22.82407036], [-45.90569522, -22.82439708], [-45.90620309, -22.82470884], [-45.90650313, -22.8248754], [-45.90668478, -22.82496145], [-45.90709682, -22.82518583], [-45.90725521, -22.82531668], [-45.90742963, -22.82547671], [-45.90753458, -22.82570248], [-45.90757562, -22.82601036], [-45.9076815, -22.8265], [-45.90777743, -22.82679159], [-45.90788281, -22.82709869], [-45.90801799, -22.82727254], [-45.90848887, -22.82773912], [-45.90863605, -22.8279484], [-45.9087999, -22.82820494], [-45.90896845, -22.82867932], [-45.90902578, -22.828898], [-45.90908217, -22.82927118], [-45.90906085, -22.82957806], [-45.9090067, -22.82971092], [-45.90892026, -22.82985049], [-45.90871628, -22.83012462], [-45.90845268, -22.83051164], [-45.90817717, -22.8308054], [-45.90776215, -22.83126137], [-45.90739196, -22.83177047], [-45.90720063, -22.83214962], [-45.90699105, -22.83261883], [-45.90674158, -22.8332401], [-45.90655045, -22.8336084], [-45.90638605, -22.83385063], [-45.90607445, -22.83419712], [-45.90590209, -22.83439585], [-45.90542217, -22.8348806], [-45.90522041, -22.83503548], [-45.90481103, -22.83534516], [-45.90455648, -22.83555973], [-45.90441088, -22.8357345], [-45.904335, -22.83588237], [-45.90410235, -22.83654186], [-45.90403179, -22.83671783], [-45.90390037, -22.83691631], [-45.90375055, -22.83700426], [-45.90355293, -22.83704174], [-45.9033866, -22.83696949], [-45.90318935, -22.83688319], [-45.90302259, -22.83678202], [-45.90216734, -22.8361213], [-45.90194517, -22.836012], [-45.90177134, -22.83597668], [-45.90128204, -22.83597242], [-45.90104501, -22.83603185], [-45.90085662, -22.836149], [-45.90009587, -22.83668884], [-45.89967142, -22.83691784], [-45.89955034, -22.83698005], [-45.89914462, -22.83725001], [-45.89889328, -22.83744837], [-45.89865851, -22.83769939], [-45.89808353, -22.83867684], [-45.89780777, -22.83913775], [-45.8976361, -22.83935094], [-45.8972668, -22.83965311], [-45.89667585, -22.83981797], [-45.89624284, -22.83982726], [-45.89591886, -22.83979221], [-45.89549264, -22.839751], [-45.89509682, -22.83964794], [-45.89462075, -22.83940623], [-45.89425179, -22.83911926], [-45.89416533, -22.839051], [-45.89409142, -22.83898927], [-45.89401938, -22.83893208], [-45.89395596, -22.83888317], [-45.89390871, -22.8388553], [-45.893868, -22.8388429], [-45.89382416, -22.83884129], [-45.89377607, -22.83885858], [-45.89372861, -22.83889396], [-45.89369875, -22.83892691], [-45.89367458, -22.83901959], [-45.89366682, -22.83912157], [-45.8936589, -22.83923168], [-45.89367693, -22.83941359], [-45.89377342, -22.83967447], [-45.89390277, -22.84000185], [-45.8941177, -22.84039296], [-45.89426656, -22.84077215], [-45.8943374, -22.8411528], [-45.89437412, -22.84142989], [-45.89436702, -22.84165206], [-45.89430872, -22.84195291], [-45.89404804, -22.84249266], [-45.89368842, -22.84305702], [-45.89352298, -22.84330103], [-45.89329464, -22.84357203], [-45.89310738, -22.84373166], [-45.89280073, -22.84391555], [-45.89240071, -22.84413951], [-45.89194962, -22.84443493], [-45.89179739, -22.84454632], [-45.89152486, -22.84483377], [-45.89138996, -22.8450087], [-45.89129654, -22.84520688], [-45.89118766, -22.8455015], [-45.8911811, -22.84574626], [-45.89121661, -22.84598357], [-45.89141525, -22.84630755], [-45.89175903, -22.8466384], [-45.89192949, -22.84680199], [-45.89219667, -22.8470069], [-45.89246236, -22.84718739], [-45.89277193, -22.84741918], [-45.89385335, -22.84828962], [-45.89410415, -22.84858823], [-45.89423678, -22.84889759], [-45.89426144, -22.84914196], [-45.89422326, -22.8494097], [-45.89413982, -22.84980322], [-45.89398617, -22.85019742], [-45.89377598, -22.8505916], [-45.89357486, -22.85096967], [-45.89326742, -22.85135053], [-45.89267286, -22.85186049], [-45.89254619, -22.85201206], [-45.89243013, -22.85222162], [-45.89237009, -22.85261461], [-45.89238121, -22.85300876], [-45.89243419, -22.85330237], [-45.89268523, -22.85384767], [-45.89283162, -22.85409942], [-45.89302855, -22.85441162], [-45.89326419, -22.85473891], [-45.8934885, -22.85504704], [-45.89376351, -22.85540658], [-45.89412665, -22.85600609], [-45.89426635, -22.85635442], [-45.89434569, -22.85675056], [-45.89434646, -22.85691683], [-45.89431349, -22.85701118], [-45.894237, -22.85713825], [-45.894084, -22.8572903], [-45.89381122, -22.85743408], [-45.89328304, -22.85762706], [-45.89310408, -22.8577073], [-45.892687, -22.85795537], [-45.89248216, -22.8580117], [-45.8923536, -22.85800421], [-45.89219202, -22.85798985], [-45.89201111, -22.85796615], [-45.89166972, -22.85792178], [-45.8911917, -22.85788424], [-45.89085791, -22.85790234], [-45.89062756, -22.85796729], [-45.89040609, -22.85807847], [-45.89022623, -22.85820658], [-45.89009215, -22.85838875], [-45.88998266, -22.85871498], [-45.88951443, -22.86033295], [-45.88940584, -22.86061131], [-45.88932129, -22.86095962], [-45.88924046, -22.86147245], [-45.88923805, -22.86196306], [-45.88936535, -22.86250365], [-45.88954764, -22.86292044], [-45.88966889, -22.86321335], [-45.88967004, -22.86341125], [-45.88949321, -22.86379241], [-45.88936767, -22.86414188], [-45.88930218, -22.864617], [-45.889289, -22.86526556], [-45.88926463, -22.86547209], [-45.88918965, -22.86572568], [-45.88906216, -22.86597211], [-45.88888183, -22.86648694], [-45.88878181, -22.86687929], [-45.88868985, -22.86725821], [-45.88857545, -22.86763767], [-45.88850392, -22.86801872], [-45.88842879, -22.86838346], [-45.88828669, -22.86883566], [-45.88822364, -22.86918071], [-45.88817946, -22.8695595], [-45.88817291, -22.86980336], [-45.88814214, -22.87024652], [-45.88808399, -22.87069375], [-45.88806891, -22.87087332], [-45.88800211, -22.87105476], [-45.88783132, -22.87126976], [-45.88761942, -22.87149314], [-45.88745912, -22.87166855], [-45.88734924, -22.87185923], [-45.88730715, -22.872023], [-45.88734264, -22.87215821], [-45.88745407, -22.87229916], [-45.88775455, -22.87265371], [-45.88815354, -22.87305864], [-45.88823852, -22.87320639], [-45.88830824, -22.87349124], [-45.88830298, -22.87366735], [-45.88824381, -22.87411638], [-45.88828007, -22.87441786], [-45.88837468, -22.87462359], [-45.88869415, -22.87495405], [-45.88895208, -22.87523832], [-45.88902105, -22.875356], [-45.88904793, -22.87548203], [-45.88904292, -22.87564459], [-45.88900239, -22.87577767], [-45.88891759, -22.87587931], [-45.88878758, -22.87594768], [-45.88855101, -22.8759791], [-45.88824428, -22.87595607], [-45.88661844, -22.87576442], [-45.88566329, -22.87568752], [-45.88516156, -22.87566313], [-45.88386892, -22.87548769], [-45.88340655, -22.87544406], [-45.88214597, -22.87537846], [-45.88175262, -22.87539828], [-45.88109246, -22.87550143], [-45.88052241, -22.87553195], [-45.88006819, -22.87547037], [-45.87979209, -22.87542613], [-45.87947641, -22.87530897], [-45.87911977, -22.87503753], [-45.87778519, -22.87414121], [-45.87727229, -22.87393409], [-45.87672904, -22.87368221], [-45.8765798, -22.87358129], [-45.87631379, -22.87336463], [-45.87545345, -22.87286453], [-45.87497311, -22.87279257], [-45.87422762, -22.87287081], [-45.87387988, -22.8727992], [-45.87299476, -22.87201225], [-45.87267894, -22.87174869], [-45.87238436, -22.87170233], [-45.87208322, -22.87169382], [-45.87131017, -22.87168304], [-45.87116165, -22.87164719], [-45.87100323, -22.87146571], [-45.87098083, -22.87182406], [-45.87099023, -22.87209981], [-45.87099945, -22.87223098], [-45.87100451, -22.87237563], [-45.87096956, -22.87272746], [-45.87098206, -22.87299422], [-45.87102643, -22.87327686], [-45.87106306, -22.87340215], [-45.87121699, -22.87371819], [-45.87133784, -22.8741331], [-45.87137465, -22.87460898], [-45.87135867, -22.87488612], [-45.87134988, -22.87524741], [-45.8713086, -22.87562443], [-45.87126231, -22.8759571], [-45.87117279, -22.87646164], [-45.8710975, -22.87678119], [-45.87103579, -22.87689855], [-45.87091195, -22.87705286], [-45.87070264, -22.87729161], [-45.87044937, -22.87753507], [-45.87037473, -22.87761427], [-45.87031637, -22.8777091], [-45.87025659, -22.8778274], [-45.87018719, -22.87804222], [-45.87008019, -22.87890249], [-45.87004408, -22.87952086], [-45.87002446, -22.88081265], [-45.87005544, -22.88133904], [-45.87003167, -22.88182116], [-45.86999537, -22.88193533], [-45.86987379, -22.88222701], [-45.8695556, -22.88255073], [-45.86898231, -22.88280163], [-45.86828932, -22.88309033], [-45.86746308, -22.8835151], [-45.86594431, -22.8847689], [-45.8657325, -22.88503562], [-45.86548201, -22.88543905], [-45.86517861, -22.88600968], [-45.86490122, -22.88649399], [-45.86476238, -22.88671852], [-45.86467025, -22.88689683], [-45.86459985, -22.88711164], [-45.86454727, -22.88746679], [-45.8645491, -22.88788337], [-45.86453579, -22.8882762], [-45.86453056, -22.88865381], [-45.86453284, -22.88904691], [-45.86452732, -22.88943987], [-45.86450186, -22.88990751], [-45.86444561, -22.89030145], [-45.86436609, -22.89063719], [-45.8643006, -22.89079877], [-45.86421584, -22.89094828], [-45.86407717, -22.89121438], [-45.86389858, -22.89158012], [-45.86386109, -22.89180812], [-45.86382982, -22.89206784], [-45.86384079, -22.89241409], [-45.86393324, -22.89262974], [-45.86410858, -22.89284585], [-45.8642282, -22.89296617], [-45.86441663, -22.89310929], [-45.86471191, -22.89327495], [-45.86508683, -22.89345816], [-45.86540313, -22.89359524], [-45.86613639, -22.8939108], [-45.86641508, -22.89407709], [-45.86715483, -22.89461593], [-45.86779326, -22.89489198], [-45.86832061, -22.8950605], [-45.86848642, -22.8951626], [-45.8687176, -22.89536605], [-45.86901042, -22.89571328], [-45.86925897, -22.89608056], [-45.8693136, -22.89623416], [-45.86938925, -22.89646218], [-45.86948439, -22.89684504], [-45.86958043, -22.89728303], [-45.86978116, -22.89780676], [-45.87004698, -22.89818968], [-45.87063235, -22.89879647], [-45.8708476, -22.89901774], [-45.87110848, -22.89919818], [-45.87125538, -22.89932075], [-45.87165159, -22.89956573], [-45.87194584, -22.89978648], [-45.87222462, -22.90000064], [-45.8724196, -22.90021073], [-45.87274245, -22.90051868], [-45.87298105, -22.90079453], [-45.87326224, -22.90113885], [-45.87345839, -22.90144202], [-45.87386854, -22.9020324], [-45.87400835, -22.9022208], [-45.87412248, -22.90242596], [-45.8742528, -22.90275427], [-45.87437054, -22.90297485], [-45.87451736, -22.90330794], [-45.87465999, -22.90365633], [-45.87484708, -22.90402622], [-45.87502351, -22.90439232], [-45.87516659, -22.90476872], [-45.87531033, -22.9051614], [-45.87546189, -22.9055533], [-45.87561775, -22.90587299], [-45.87582782, -22.90626584], [-45.87600297, -22.90669969], [-45.8760712, -22.90690862], [-45.87613118, -22.90729542], [-45.87610402, -22.90769977], [-45.876006, -22.90803431], [-45.87601103, -22.90812927], [-45.87606605, -22.90831449], [-45.87620482, -22.908661], [-45.87634886, -22.90903832], [-45.87651604, -22.90943048], [-45.87686397, -22.90985719], [-45.87725374, -22.9102385], [-45.87775035, -22.91069473], [-45.87802159, -22.91105153], [-45.87819674, -22.91143477], [-45.87827867, -22.91174422], [-45.87830832, -22.91223985], [-45.87828472, -22.91261084], [-45.87822014, -22.91298297], [-45.87812886, -22.91321912], [-45.87791597, -22.91354186], [-45.87766616, -22.91406368], [-45.87736218, -22.91456113], [-45.87707759, -22.91501281], [-45.87622743, -22.91602275], [-45.8760745, -22.91626966], [-45.87604555, -22.91640743], [-45.87609818, -22.9165646], [-45.87652394, -22.91715793], [-45.87668135, -22.91749933], [-45.87686239, -22.91803537], [-45.87690894, -22.91846261], [-45.87702331, -22.91901655], [-45.87721996, -22.91970736], [-45.87726513, -22.92000085], [-45.8773728, -22.92090978], [-45.87747311, -22.92117615], [-45.87765172, -22.92142843], [-45.8789821, -22.92267435], [-45.87934913, -22.92291885], [-45.87977148, -22.92307478], [-45.88016675, -22.92306402], [-45.8807781, -22.92292304], [-45.88087579, -22.92291559], [-45.88094872, -22.92292761], [-45.8810686, -22.92298467], [-45.88115221, -22.92305108], [-45.88122361, -22.92314441], [-45.881265, -22.92322549], [-45.88181607, -22.92328663], [-45.88219303, -22.92391959], [-45.88232649, -22.92409711]]]]}}]}