{"type": "FeatureCollection", "features": [{"type": "Feature", "properties": {"name": "Área de Proteção Ambiental Cajamar"}, "geometry": {"type": "MultiPolygon", "coordinates": [[[[-46.83076741, -23.43016385], [-46.8318787, -23.43014998], [-46.83225111, -23.43003457], [-46.8329054, -23.42960047], [-46.8333625, -23.42944438], [-46.83371908, -23.42926195], [-46.8339476, -23.42906376], [-46.83409113, -23.42885205], [-46.83416964, -23.42867309], [-46.8343145, -23.42810728], [-46.83470115, -23.42729735], [-46.83538544, -23.42632155], [-46.83575661, -23.42598389], [-46.83605242, -23.42580626], [-46.83655802, -23.42568588], [-46.83685198, -23.4256627], [-46.83724819, -23.42568393], [-46.83762264, -23.42580429], [-46.83806762, -23.42551527], [-46.83857476, -23.42502182], [-46.83868924, -23.42494441], [-46.83908024, -23.42458527], [-46.83938302, -23.42439777], [-46.8397222, -23.42411398], [-46.84005326, -23.42369099], [-46.84021767, -23.42345058], [-46.84042221, -23.42304708], [-46.84055751, -23.42270339], [-46.84060699, -23.42265873], [-46.84076871, -23.42256101], [-46.84098815, -23.422547], [-46.84132081, -23.42256124], [-46.84185057, -23.42246458], [-46.84201768, -23.42232537], [-46.8421961, -23.4220589], [-46.84225491, -23.42164487], [-46.84229508, -23.42131556], [-46.84231077, -23.42114951], [-46.84243297, -23.4209186], [-46.84260895, -23.42077406], [-46.84281996, -23.42072834], [-46.84332111, -23.42081295], [-46.84373986, -23.42091298], [-46.84548474, -23.42103467], [-46.84577964, -23.42101329], [-46.84661734, -23.42103267], [-46.84746177, -23.42114335], [-46.84790686, -23.42125086], [-46.84844119, -23.42142704], [-46.84876733, -23.42149449], [-46.84897284, -23.4214993], [-46.84971807, -23.42147526], [-46.8498096, -23.42135153], [-46.84988364, -23.42129989], [-46.85007237, -23.42123406], [-46.85030885, -23.42118678], [-46.850843, -23.42113169], [-46.8515858, -23.42114647], [-46.85204494, -23.42122521], [-46.85284033, -23.4212631], [-46.85319926, -23.42120802], [-46.85333207, -23.42115246], [-46.85390437, -23.42077164], [-46.85457365, -23.42021927], [-46.85660473, -23.41907636], [-46.85701309, -23.41889712], [-46.85761305, -23.4187406], [-46.85787484, -23.41870441], [-46.85853983, -23.41884031], [-46.85893609, -23.41885607], [-46.85973155, -23.41880449], [-46.86050025, -23.41894505], [-46.86189474, -23.41906212], [-46.86289636, -23.41904243], [-46.8632937, -23.41896694], [-46.86342257, -23.41891314], [-46.86376701, -23.41859322], [-46.86391141, -23.4183851], [-46.8639989, -23.41818815], [-46.86401569, -23.41801037], [-46.86395305, -23.41776222], [-46.8637009, -23.41731524], [-46.86368869, -23.41718865], [-46.86372169, -23.41704716], [-46.86383837, -23.41686586], [-46.86391631, -23.41681425], [-46.8640429, -23.41678752], [-46.86428952, -23.41679182], [-46.86472181, -23.41698768], [-46.86490673, -23.41699497], [-46.86501992, -23.41694281], [-46.86517654, -23.41677727], [-46.86520241, -23.41641078], [-46.86527904, -23.41622185], [-46.8654994, -23.41604612], [-46.86612081, -23.41581209], [-46.86733562, -23.41547563], [-46.86772193, -23.41542171], [-46.8681027, -23.41542193], [-46.86841045, -23.41538799], [-46.86864482, -23.4152693], [-46.86889839, -23.41518242], [-46.86898701, -23.41505503], [-46.86901901, -23.41483223], [-46.86895584, -23.41462744], [-46.86882519, -23.41441836], [-46.86818946, -23.41371188], [-46.86808555, -23.41339286], [-46.8681348, -23.41311874], [-46.86833944, -23.41286425], [-46.86839231, -23.41261456], [-46.86832556, -23.41246484], [-46.86789464, -23.41198806], [-46.86782088, -23.41176871], [-46.86787506, -23.41157413], [-46.86794822, -23.41151254], [-46.86810283, -23.4115159], [-46.8683492, -23.41162407], [-46.86876509, -23.41188209], [-46.86902857, -23.41194978], [-46.86918192, -23.41189441], [-46.86964903, -23.41121257], [-46.86968197, -23.41107559], [-46.86963219, -23.41089804], [-46.8693617, -23.4104292], [-46.86921917, -23.41006553], [-46.86904208, -23.4097277], [-46.86896747, -23.40949751], [-46.86894777, -23.40925883], [-46.86899939, -23.40886639], [-46.86883623, -23.40842663], [-46.86883493, -23.40762446], [-46.86879179, -23.4070504], [-46.86865774, -23.4064664], [-46.8684815, -23.40614033], [-46.86787594, -23.40569973], [-46.86765086, -23.40544814], [-46.86728863, -23.40512381], [-46.86726513, -23.40504137], [-46.86728615, -23.40491963], [-46.86736755, -23.40482289], [-46.86780221, -23.40473332], [-46.86788804, -23.40459326], [-46.8679552, -23.40429312], [-46.86813551, -23.40410885], [-46.86826007, -23.40408752], [-46.86867267, -23.40412509], [-46.86884214, -23.40411235], [-46.86904981, -23.40401507], [-46.86919568, -23.40351518], [-46.86925271, -23.40341006], [-46.86942721, -23.40330342], [-46.86985842, -23.40317315], [-46.86994854, -23.40308372], [-46.86998967, -23.40283301], [-46.86981185, -23.4023922], [-46.86976069, -23.40216585], [-46.86977713, -23.40209917], [-46.86997609, -23.40199367], [-46.8702504, -23.40213735], [-46.87034244, -23.40213376], [-46.87040072, -23.40208917], [-46.87048697, -23.40182988], [-46.87045635, -23.40119001], [-46.87049276, -23.40100699], [-46.87057066, -23.40087498], [-46.87088425, -23.40059268], [-46.87101371, -23.4007358], [-46.87115948, -23.40074178], [-46.87129057, -23.40066361], [-46.87155841, -23.40027696], [-46.87168982, -23.40025479], [-46.87180314, -23.4003562], [-46.87188726, -23.40069309], [-46.87194839, -23.40082107], [-46.87204269, -23.40087531], [-46.87215063, -23.40085201], [-46.87220541, -23.40043883], [-46.87227684, -23.40035734], [-46.87254738, -23.40023991], [-46.87265421, -23.40014432], [-46.87268547, -23.40006605], [-46.87270179, -23.39967777], [-46.8727743, -23.39950416], [-46.87292002, -23.39934753], [-46.87312821, -23.39920509], [-46.87324048, -23.39914569], [-46.87359991, -23.3990427], [-46.87436904, -23.39897272], [-46.8744874, -23.39889532], [-46.87467589, -23.39868041], [-46.874788, -23.39863456], [-46.87505697, -23.3986499], [-46.87526729, -23.39874234], [-46.87536981, -23.39876324], [-46.87543173, -23.39874128], [-46.87545576, -23.39861234], [-46.87531525, -23.39815926], [-46.87533069, -23.39809528], [-46.87544998, -23.39793839], [-46.87567008, -23.39794782], [-46.8758401, -23.39813832], [-46.87598384, -23.39823281], [-46.87606497, -23.39824175], [-46.87635333, -23.39810552], [-46.87650746, -23.3979824], [-46.87666196, -23.39791078], [-46.87695222, -23.397864], [-46.87712357, -23.39777448], [-46.8771529, -23.39769347], [-46.87718084, -23.39723124], [-46.87724555, -23.39713794], [-46.87737757, -23.39706428], [-46.87761401, -23.39709917], [-46.87769564, -23.39714876], [-46.87790285, -23.39750585], [-46.87798094, -23.39752289], [-46.87813203, -23.39749188], [-46.87816403, -23.39743439], [-46.87818123, -23.39705245], [-46.87809452, -23.39668573], [-46.8781188, -23.39661822], [-46.87817403, -23.39658173], [-46.87842703, -23.39662401], [-46.87874468, -23.39691084], [-46.87900598, -23.39699565], [-46.87929783, -23.39714581], [-46.87940935, -23.39715054], [-46.87953049, -23.39708581], [-46.87956919, -23.39704103], [-46.8795703, -23.39694619], [-46.87944024, -23.39643631], [-46.87942624, -23.39621123], [-46.87949811, -23.3960087], [-46.87955841, -23.39595691], [-46.87983907, -23.39597688], [-46.88005554, -23.3962121], [-46.88015949, -23.39627818], [-46.88025334, -23.39628725], [-46.88104336, -23.3958525], [-46.88120049, -23.39580709], [-46.88148347, -23.39579546], [-46.88202109, -23.39585232], [-46.88255329, -23.39562005], [-46.88268385, -23.39558702], [-46.88331733, -23.39556534], [-46.88366919, -23.39552187], [-46.88379856, -23.39542289], [-46.88381995, -23.39526773], [-46.88365297, -23.39490021], [-46.88367532, -23.39483087], [-46.88379112, -23.39480402], [-46.88445863, -23.39488475], [-46.88462313, -23.39496136], [-46.8854207, -23.39547066], [-46.88578931, -23.39575256], [-46.88602692, -23.3959383], [-46.88613152, -23.3961164], [-46.88609159, -23.39618375], [-46.88574494, -23.39636729], [-46.88570411, -23.39642741], [-46.88570164, -23.39655476], [-46.88575679, -23.39660951], [-46.88617236, -23.39680967], [-46.88623566, -23.39692051], [-46.88621024, -23.39700246], [-46.88613716, -23.39705864], [-46.8857583, -23.39715062], [-46.88555492, -23.39730126], [-46.88552534, -23.39757107], [-46.88563267, -23.39793438], [-46.8857563, -23.39799162], [-46.88605308, -23.39797199], [-46.88640687, -23.39801525], [-46.88671036, -23.39817636], [-46.88709242, -23.39822894], [-46.88721532, -23.3983494], [-46.88720253, -23.3984387], [-46.8871391, -23.39850673], [-46.88666597, -23.39862488], [-46.88638819, -23.39877749], [-46.88628739, -23.39886049], [-46.8862303, -23.39897194], [-46.88624342, -23.39910486], [-46.88632506, -23.39915445], [-46.88652663, -23.39915827], [-46.88670556, -23.39908959], [-46.88696197, -23.39892412], [-46.88703063, -23.39891125], [-46.8872278, -23.39895657], [-46.88754491, -23.39929215], [-46.88782337, -23.39924885], [-46.88784282, -23.39917587], [-46.88781936, -23.39883779], [-46.88794231, -23.39878571], [-46.8884429, -23.39874643], [-46.88866275, -23.3986095], [-46.88864923, -23.39834288], [-46.88854243, -23.39784949], [-46.88854182, -23.39773386], [-46.88864295, -23.39762195], [-46.88877325, -23.3976106], [-46.88896154, -23.39766305], [-46.88916096, -23.39785112], [-46.88927341, -23.39802749], [-46.88943236, -23.3984979], [-46.88956498, -23.39862297], [-46.88967066, -23.39862493], [-46.88977203, -23.39857715], [-46.88996018, -23.3982213], [-46.8900372, -23.39816244], [-46.89026561, -23.39813129], [-46.89049144, -23.39823741], [-46.8906664, -23.39842524], [-46.89107369, -23.39900109], [-46.89134437, -23.39954307], [-46.89150663, -23.39972896], [-46.89161152, -23.39971464], [-46.89168361, -23.39965935], [-46.89174327, -23.3992426], [-46.89182805, -23.39910613], [-46.89197951, -23.3990435], [-46.89219971, -23.39904478], [-46.89253747, -23.39912039], [-46.89283878, -23.39930043], [-46.893028, -23.39935651], [-46.89326383, -23.39936065], [-46.89356497, -23.39930311], [-46.89386525, -23.39931964], [-46.89414078, -23.39944432], [-46.89445928, -23.39974557], [-46.89462589, -23.39981045], [-46.89503063, -23.39976568], [-46.89537314, -23.39960105], [-46.89560528, -23.39958528], [-46.89578953, -23.39973254], [-46.8958566, -23.39985696], [-46.89595153, -23.39994191], [-46.89611456, -23.39997785], [-46.89620336, -23.39991639], [-46.89624022, -23.39960782], [-46.89632322, -23.39937196], [-46.89648638, -23.39922814], [-46.89678488, -23.39922928], [-46.89713912, -23.3993186], [-46.89769496, -23.39940991], [-46.89828528, -23.3995666], [-46.89843538, -23.39962048], [-46.8986227, -23.39967201], [-46.89903895, -23.39973122], [-46.89957224, -23.39982592], [-46.89995762, -23.39984688], [-46.90029044, -23.39984294], [-46.90091005, -23.39975239], [-46.90174425, -23.39955556], [-46.90209194, -23.39945058], [-46.90268719, -23.39918093], [-46.90458071, -23.39810743], [-46.90485935, -23.39796292], [-46.90513049, -23.39779034], [-46.90581042, -23.39730651], [-46.90727113, -23.39616188], [-46.90766372, -23.39581162], [-46.90777654, -23.39570343], [-46.90786603, -23.39558145], [-46.90816201, -23.39512094], [-46.90882793, -23.39406605], [-46.90899237, -23.39389423], [-46.90928151, -23.39368749], [-46.90988779, -23.3933068], [-46.91058503, -23.39293062], [-46.91119989, -23.39256808], [-46.91162005, -23.39237166], [-46.91226014, -23.39211324], [-46.912433, -23.39205983], [-46.91263501, -23.39202477], [-46.9128366, -23.39202675], [-46.91302773, -23.39200152], [-46.9131677, -23.39191526], [-46.91324065, -23.39178409], [-46.91331854, -23.39156353], [-46.9134029, -23.39111991], [-46.91341739, -23.39088067], [-46.91341562, -23.39077948], [-46.91335653, -23.39055577], [-46.91315773, -23.39022682], [-46.91300378, -23.38999677], [-46.91290593, -23.38982508], [-46.91284797, -23.38967365], [-46.91281356, -23.38960195], [-46.91281175, -23.38950437], [-46.91284342, -23.38930324], [-46.91301693, -23.38902219], [-46.9130866, -23.38883588], [-46.91315149, -23.38855467], [-46.91319264, -23.38820909], [-46.91322031, -23.38767458], [-46.91320836, -23.38684068], [-46.91322052, -23.38671885], [-46.91325747, -23.38665417], [-46.91330506, -23.38660134], [-46.91339542, -23.38657241], [-46.91356731, -23.386603], [-46.91376109, -23.386688], [-46.91390842, -23.3868114], [-46.91411433, -23.38703292], [-46.91471348, -23.38769641], [-46.91494223, -23.38788926], [-46.9151676, -23.38803509], [-46.91694121, -23.38903435], [-46.91781746, -23.38951715], [-46.91815869, -23.38980142], [-46.91835919, -23.38989823], [-46.91860544, -23.38993044], [-46.91872665, -23.38994336], [-46.91886176, -23.38993836], [-46.9193121, -23.38983977], [-46.91971296, -23.38978857], [-46.91989344, -23.38975239], [-46.92010584, -23.38974994], [-46.92051655, -23.38977924], [-46.92131871, -23.38972291], [-46.92164059, -23.38964655], [-46.92181306, -23.38954073], [-46.92191701, -23.38943695], [-46.9220155, -23.38929609], [-46.92212537, -23.38918785], [-46.92226643, -23.38909076], [-46.92247837, -23.38895642], [-46.9227857, -23.38886817], [-46.9231422, -23.38884453], [-46.92354123, -23.38886738], [-46.92409436, -23.3889369], [-46.9251753, -23.38897901], [-46.92579119, -23.38895067], [-46.92593177, -23.38898184], [-46.9260297, -23.38906138], [-46.92633673, -23.38942931], [-46.92647368, -23.38952007], [-46.92670902, -23.38956572], [-46.92711667, -23.3896058], [-46.92784491, -23.3895957], [-46.9279383, -23.38955867], [-46.92801735, -23.38949259], [-46.9281375, -23.38934018], [-46.92818068, -23.38924304], [-46.92819027, -23.38917448], [-46.92808533, -23.38885007], [-46.92802983, -23.38848096], [-46.92802383, -23.38806266], [-46.92806262, -23.38783539], [-46.92822146, -23.38763729], [-46.92840606, -23.38749726], [-46.92881672, -23.38735761], [-46.92852552, -23.38723374], [-46.92851251, -23.38717218], [-46.92849715, -23.3869742], [-46.92850735, -23.38676563], [-46.92854713, -23.38662419], [-46.9286601, -23.38641481], [-46.92882815, -23.38618066], [-46.92904866, -23.38589463], [-46.92910044, -23.38572982], [-46.92906584, -23.38558857], [-46.92891137, -23.3854886], [-46.92865339, -23.38545539], [-46.92849275, -23.38538247], [-46.92846027, -23.3853126], [-46.92845561, -23.3849476], [-46.92838709, -23.38486293], [-46.92832186, -23.38483339], [-46.92817924, -23.38481033], [-46.92803812, -23.38456957], [-46.92788986, -23.38452658], [-46.9277732, -23.38454442], [-46.92757365, -23.3847087], [-46.9273463, -23.38482212], [-46.92705826, -23.38485004], [-46.92690081, -23.38475457], [-46.92684026, -23.38457151], [-46.92685062, -23.38434938], [-46.92706866, -23.38359269], [-46.92705595, -23.38342003], [-46.9269906, -23.38331461], [-46.92641401, -23.3829007], [-46.9262911, -23.38269445], [-46.92625258, -23.38255406], [-46.92619431, -23.38122558], [-46.92610846, -23.38068725], [-46.92611884, -23.38029079], [-46.92601454, -23.37991127], [-46.92589366, -23.37969872], [-46.92585293, -23.3796658], [-46.92586538, -23.37900286], [-46.92584058, -23.37731427], [-46.92575458, -23.37687441], [-46.92564857, -23.37664574], [-46.92547103, -23.37651032], [-46.92519714, -23.37650043], [-46.92353674, -23.37665232], [-46.92253192, -23.37663713], [-46.92181263, -23.37655515], [-46.92144566, -23.37655519], [-46.92121673, -23.37663607], [-46.92097654, -23.37667529], [-46.92069097, -23.37665986], [-46.92049621, -23.37666158], [-46.92022223, -23.3765749], [-46.91978126, -23.37628605], [-46.91925767, -23.37577778], [-46.91910246, -23.37565883], [-46.91891748, -23.37557572], [-46.91859862, -23.37547686], [-46.91800443, -23.37540964], [-46.91722701, -23.3753623], [-46.91683705, -23.37523474], [-46.91643761, -23.37499506], [-46.91563961, -23.37435312], [-46.91546171, -23.37408038], [-46.91541383, -23.37398867], [-46.91510597, -23.37352857], [-46.91482562, -23.37322953], [-46.91457823, -23.37304373], [-46.91419696, -23.37284127], [-46.91384507, -23.3727222], [-46.91285321, -23.37243336], [-46.91245021, -23.37216383], [-46.91175621, -23.3715021], [-46.91137168, -23.37107286], [-46.91112114, -23.37065125], [-46.91097693, -23.3703427], [-46.91066949, -23.36959261], [-46.91044247, -23.36899689], [-46.91036199, -23.36884795], [-46.91022595, -23.3686804], [-46.91016755, -23.36865363], [-46.91010494, -23.36865211], [-46.9096577, -23.36874167], [-46.90950542, -23.36871037], [-46.90925661, -23.36856339], [-46.90906338, -23.36851814], [-46.90878751, -23.36851272], [-46.90843011, -23.36861852], [-46.90828112, -23.36872546], [-46.90799931, -23.36906506], [-46.90767275, -23.36963638], [-46.90765189, -23.36966328], [-46.90761241, -23.3696927], [-46.90755732, -23.36971836], [-46.90733741, -23.36978124], [-46.90718647, -23.36980234], [-46.90704553, -23.36980547], [-46.90685701, -23.36977652], [-46.9067634, -23.3697476], [-46.90633639, -23.36952569], [-46.90579437, -23.36934873], [-46.90569791, -23.36931345], [-46.90545578, -23.36909607], [-46.90530787, -23.36885523], [-46.90524936, -23.36858365], [-46.90524326, -23.36817979], [-46.90515719, -23.36766765], [-46.90502219, -23.36740977], [-46.90483303, -23.36726699], [-46.904155, -23.36709139], [-46.90267994, -23.36679231], [-46.90207356, -23.36642861], [-46.90193742, -23.36618607], [-46.90191321, -23.36599432], [-46.90192078, -23.36567822], [-46.90194351, -23.36540563], [-46.90201642, -23.36485441], [-46.90212917, -23.36441197], [-46.90220122, -23.36376588], [-46.90236713, -23.36321015], [-46.90269676, -23.36245819], [-46.90306683, -23.36167863], [-46.90308264, -23.36149541], [-46.90303872, -23.3612321], [-46.90256932, -23.36053189], [-46.90243264, -23.3601674], [-46.90233844, -23.35959826], [-46.902325, -23.35906786], [-46.90250333, -23.35879229], [-46.90356075, -23.35805382], [-46.9045392, -23.35703634], [-46.90472814, -23.35694244], [-46.90630171, -23.3564963], [-46.90739856, -23.35623878], [-46.90808449, -23.35614976], [-46.90858752, -23.35605443], [-46.90884085, -23.35597652], [-46.90911473, -23.35581299], [-46.90921541, -23.35573629], [-46.90950697, -23.35539768], [-46.91028919, -23.35450651], [-46.91051141, -23.35432622], [-46.91077147, -23.35400265], [-46.91097547, -23.35361982], [-46.9110463, -23.35350128], [-46.91142161, -23.35311019], [-46.91156114, -23.35305826], [-46.91181791, -23.35302102], [-46.91219498, -23.3530726], [-46.91260447, -23.35319856], [-46.91310516, -23.35347627], [-46.91448222, -23.35446085], [-46.91460474, -23.35452709], [-46.91500691, -23.35477945], [-46.91550568, -23.35514024], [-46.91577141, -23.35543101], [-46.91593128, -23.35565299], [-46.91613695, -23.3559775], [-46.91631647, -23.35619244], [-46.91653939, -23.3563771], [-46.91674069, -23.35648476], [-46.91709997, -23.35655331], [-46.91749685, -23.35658518], [-46.91833254, -23.35657527], [-46.91895092, -23.35657408], [-46.91924764, -23.35663749], [-46.9195679, -23.35678064], [-46.91984652, -23.35688724], [-46.9201184, -23.35698293], [-46.92040556, -23.35702728], [-46.92102535, -23.35698815], [-46.92157573, -23.35702965], [-46.92212438, -23.35696633], [-46.92261387, -23.35685637], [-46.92322313, -23.35662562], [-46.92366805, -23.35647728], [-46.92389597, -23.35639638], [-46.92440985, -23.35620626], [-46.9249226, -23.35594384], [-46.92539791, -23.35579037], [-46.92591403, -23.35574661], [-46.92615181, -23.3557444], [-46.9267493, -23.35577368], [-46.9271026, -23.35585119], [-46.92738719, -23.3559488], [-46.92802646, -23.35634796], [-46.92903108, -23.35671181], [-46.9292165, -23.35692589], [-46.92926157, -23.35717927], [-46.92918299, -23.35737815], [-46.92900536, -23.35768266], [-46.92880231, -23.35807275], [-46.92868934, -23.35845648], [-46.92865099, -23.35864491], [-46.92867006, -23.35877518], [-46.9288927, -23.35915855], [-46.92898832, -23.35944042], [-46.92903388, -23.35982208], [-46.92904187, -23.36041024], [-46.92912773, -23.36077602], [-46.92917249, -23.36114231], [-46.92941422, -23.36139669], [-46.92965468, -23.36150381], [-46.93009281, -23.36160923], [-46.93045322, -23.36175183], [-46.93088924, -23.3619575], [-46.93128052, -23.36222507], [-46.93157713, -23.36247184], [-46.93193826, -23.36272466], [-46.93241878, -23.36297502], [-46.9327402, -23.36319131], [-46.93302262, -23.36348221], [-46.93336293, -23.36384503], [-46.93375686, -23.36439808], [-46.93381007, -23.36445189], [-46.93385751, -23.36449661], [-46.93391881, -23.36452701], [-46.93405342, -23.36456354], [-46.9341034, -23.3645568], [-46.93421827, -23.36452268], [-46.93434914, -23.364458], [-46.93470113, -23.36404947], [-46.93479888, -23.36379928], [-46.93480646, -23.36312997], [-46.93491613, -23.36243093], [-46.9349122, -23.36217344], [-46.93475124, -23.36187107], [-46.93454602, -23.36158995], [-46.93449052, -23.36147921], [-46.93445587, -23.36116903], [-46.93452339, -23.36073697], [-46.93492038, -23.36024125], [-46.93527771, -23.35996556], [-46.93578871, -23.35968413], [-46.93638008, -23.35921738], [-46.93673318, -23.35888203], [-46.93724086, -23.358288], [-46.93890177, -23.35607814], [-46.9395017, -23.35502429], [-46.93991911, -23.35375729], [-46.93995863, -23.35320301], [-46.93981581, -23.35224769], [-46.93941675, -23.35041637], [-46.93932325, -23.34942629], [-46.93926734, -23.34839864], [-46.93914815, -23.34751762], [-46.9386941, -23.34631269], [-46.93831482, -23.34576522], [-46.93812814, -23.34488265], [-46.93707262, -23.32090631], [-46.93697136, -23.32077887], [-46.93695263, -23.32061879], [-46.93697396, -23.32037599], [-46.9368201, -23.32022816], [-46.93680306, -23.32017741], [-46.9367994, -23.32006897], [-46.93690266, -23.31993356], [-46.93691166, -23.31974303], [-46.93678215, -23.31960447], [-46.93650218, -23.31953763], [-46.93634467, -23.31945301], [-46.93627527, -23.31918946], [-46.93634333, -23.31887936], [-46.93632872, -23.31878797], [-46.93614774, -23.31870312], [-46.9359145, -23.3186557], [-46.93583569, -23.31853208], [-46.93582867, -23.31837393], [-46.93593148, -23.31801899], [-46.93586651, -23.31779614], [-46.93572691, -23.31759876], [-46.93548374, -23.31739135], [-46.93500438, -23.31722502], [-46.93484234, -23.31702291], [-46.93469759, -23.31676224], [-46.93456896, -23.31671944], [-46.93430589, -23.31671419], [-46.93401108, -23.31692183], [-46.9337528, -23.31701238], [-46.93354377, -23.31698597], [-46.93341583, -23.31688265], [-46.93336121, -23.31678275], [-46.93331896, -23.3163677], [-46.93336048, -23.3157249], [-46.93330179, -23.31520671], [-46.933261, -23.3150952], [-46.93307637, -23.31472845], [-46.93285871, -23.31451587], [-46.93204677, -23.31400574], [-46.93191057, -23.31385446], [-46.93167716, -23.31278804], [-46.93154422, -23.31243625], [-46.93126162, -23.31199809], [-46.93086877, -23.31153628], [-46.93075229, -23.31145746], [-46.93048821, -23.31137089], [-46.93023412, -23.31135126], [-46.92904743, -23.31145901], [-46.9283214, -23.31139777], [-46.92795736, -23.31132739], [-46.9277684, -23.3112578], [-46.92745637, -23.31108675], [-46.92676302, -23.31081804], [-46.92587602, -23.31037581], [-46.92547589, -23.31012621], [-46.92455418, -23.30938372], [-46.92411249, -23.30909035], [-46.9238993, -23.30900155], [-46.92364517, -23.30890061], [-46.92348589, -23.3088015], [-46.92314998, -23.3084956], [-46.92286352, -23.30814231], [-46.92249382, -23.30779814], [-46.92216726, -23.30770191], [-46.92165067, -23.30771585], [-46.92133393, -23.30778775], [-46.92090927, -23.30797422], [-46.9206052, -23.30822149], [-46.91989654, -23.30895173], [-46.91932452, -23.30945114], [-46.91907871, -23.30973421], [-46.91877798, -23.31020193], [-46.91856654, -23.31038777], [-46.91828457, -23.31049703], [-46.91802332, -23.31050532], [-46.9177666, -23.31037454], [-46.91762747, -23.31022503], [-46.91735642, -23.30955118], [-46.91696832, -23.30884999], [-46.91675073, -23.30863376], [-46.91638657, -23.30840436], [-46.91620556, -23.3083249], [-46.9157237, -23.30820998], [-46.91540226, -23.30809392], [-46.91502195, -23.30807936], [-46.91453342, -23.30811975], [-46.91430595, -23.30816811], [-46.9136729, -23.30844377], [-46.91305247, -23.30881259], [-46.91272756, -23.30882929], [-46.91232387, -23.30872145], [-46.9119998, -23.30857915], [-46.91168084, -23.30850285], [-46.91096797, -23.30857446], [-46.91065987, -23.30857415], [-46.91030244, -23.30852638], [-46.90967357, -23.30835308], [-46.90920737, -23.30806756], [-46.90897006, -23.30803542], [-46.90890812, -23.30806372], [-46.90858614, -23.3084201], [-46.90831948, -23.30864332], [-46.90809733, -23.30873961], [-46.90779966, -23.3087683], [-46.90761587, -23.30867526], [-46.9073803, -23.30840735], [-46.90716136, -23.30822453], [-46.90686732, -23.30810781], [-46.90676473, -23.30809867], [-46.90661726, -23.30816407], [-46.90631911, -23.30857398], [-46.90615306, -23.3086392], [-46.90590861, -23.30863318], [-46.90543228, -23.30846318], [-46.90501043, -23.30848884], [-46.90489431, -23.30846511], [-46.90468843, -23.30833751], [-46.90435181, -23.30826645], [-46.90417774, -23.30817891], [-46.90405177, -23.3080765], [-46.90373124, -23.30762888], [-46.90341716, -23.30738459], [-46.90319094, -23.30732454], [-46.90302457, -23.30733284], [-46.90224479, -23.3075239], [-46.90194367, -23.3075128], [-46.90180058, -23.30745267], [-46.90172343, -23.30735796], [-46.90159795, -23.30704415], [-46.90156191, -23.3067782], [-46.90157264, -23.30635734], [-46.901437, -23.30590703], [-46.90116422, -23.30539122], [-46.90088162, -23.30504786], [-46.90068058, -23.30492482], [-46.9003301, -23.30486897], [-46.89968339, -23.30488698], [-46.89917793, -23.30495425], [-46.89882976, -23.30495262], [-46.8983616, -23.30483959], [-46.89812945, -23.30470089], [-46.89791242, -23.30452349], [-46.8976037, -23.30424039], [-46.89746823, -23.3041984], [-46.89731677, -23.30418696], [-46.89704593, -23.30417977], [-46.89687211, -23.30407145], [-46.89667738, -23.30382652], [-46.89623656, -23.30346532], [-46.89611394, -23.3033277], [-46.89603211, -23.30313086], [-46.89594165, -23.30258252], [-46.89584912, -23.30229614], [-46.89556156, -23.30187593], [-46.89512855, -23.30151662], [-46.89464808, -23.30145404], [-46.89451555, -23.30141208], [-46.89428545, -23.30126616], [-46.89414502, -23.30114733], [-46.89394293, -23.3010315], [-46.89343578, -23.30099215], [-46.8930621, -23.30066233], [-46.89279398, -23.30050519], [-46.8920109, -23.30047755], [-46.89180403, -23.30043665], [-46.89165714, -23.30036925], [-46.89134112, -23.30021073], [-46.89044352, -23.29993893], [-46.89005521, -23.29977337], [-46.88988175, -23.29963524], [-46.88971351, -23.29938514], [-46.88962197, -23.29918368], [-46.88946881, -23.2983104], [-46.88934327, -23.29808873], [-46.88863986, -23.29777188], [-46.88828883, -23.29742962], [-46.88783775, -23.29694454], [-46.88729015, -23.29651812], [-46.88683501, -23.29596253], [-46.88679599, -23.29561886], [-46.8867875, -23.29492137], [-46.88694172, -23.29419297], [-46.88694533, -23.29380004], [-46.88690767, -23.29350697], [-46.88683067, -23.2933174], [-46.88651873, -23.29289513], [-46.88626477, -23.29261616], [-46.88597833, -23.29235585], [-46.88590535, -23.29224039], [-46.88580884, -23.291963], [-46.88587419, -23.29164295], [-46.8859774, -23.29151389], [-46.88616642, -23.29140647], [-46.88610493, -23.29106167], [-46.88589957, -23.29072537], [-46.88568286, -23.29052357], [-46.88525207, -23.29023019], [-46.88462277, -23.28993574], [-46.88401073, -23.28975439], [-46.88343785, -23.2895698], [-46.88246239, -23.28918878], [-46.88145568, -23.28888874], [-46.8812402, -23.2889164], [-46.88102908, -23.28899018], [-46.8806296, -23.28919758], [-46.88026691, -23.28943696], [-46.87995616, -23.28983405], [-46.87967501, -23.29012484], [-46.87905625, -23.29060105], [-46.87876214, -23.29074536], [-46.87830932, -23.29091428], [-46.87789867, -23.29098967], [-46.87742549, -23.29130924], [-46.87723477, -23.29139406], [-46.87703789, -23.29142009], [-46.87677311, -23.29139937], [-46.8765083, -23.29129735], [-46.87624697, -23.29114838], [-46.87585807, -23.29087076], [-46.87562057, -23.29060821], [-46.87545218, -23.29037435], [-46.87536186, -23.29015392], [-46.87533564, -23.28997208], [-46.87538726, -23.28965642], [-46.87545963, -23.28940691], [-46.87554762, -23.28924247], [-46.87641233, -23.28789336], [-46.8764968, -23.28769546], [-46.87652565, -23.28748707], [-46.87655243, -23.28720548], [-46.87654415, -23.28657755], [-46.87650114, -23.2857433], [-46.8764715, -23.28535274], [-46.87640364, -23.28505214], [-46.87629752, -23.28476199], [-46.87609572, -23.28445824], [-46.87582358, -23.28414927], [-46.87543024, -23.28358432], [-46.8751956, -23.28332993], [-46.87453224, -23.28277583], [-46.87413991, -23.28245932], [-46.87400784, -23.2823803], [-46.87387163, -23.28232112], [-46.87338583, -23.28221958], [-46.87306945, -23.28218027], [-46.87275247, -23.28219245], [-46.87190465, -23.28227336], [-46.87094617, -23.28253384], [-46.87074452, -23.28255079], [-46.87056081, -23.282539], [-46.8703008, -23.28244605], [-46.86998157, -23.28231727], [-46.86966758, -23.28215782], [-46.86946342, -23.28197329], [-46.86940544, -23.28191489], [-46.86935391, -23.28180596], [-46.86932094, -23.28169993], [-46.86930094, -23.28157145], [-46.86930782, -23.28123637], [-46.86929932, -23.28063102], [-46.86926223, -23.27996124], [-46.86920229, -23.27965439], [-46.86893162, -23.27913944], [-46.86865484, -23.27864522], [-46.86835437, -23.27833594], [-46.86813043, -23.27817018], [-46.86783753, -23.27804888], [-46.86748907, -23.27791167], [-46.86716327, -23.27792555], [-46.86700528, -23.27797184], [-46.86683603, -23.27806138], [-46.86623074, -23.27905351], [-46.86608231, -23.27920107], [-46.86581353, -23.27935555], [-46.86536071, -23.27952534], [-46.86515633, -23.27960819], [-46.8648155, -23.27965263], [-46.86452327, -23.27955664], [-46.86411695, -23.27926797], [-46.86364919, -23.27888292], [-46.86310475, -23.27853233], [-46.86283304, -23.27843744], [-46.86256376, -23.27846814], [-46.86238508, -23.27861088], [-46.8622231, -23.27882877], [-46.86212486, -23.27919726], [-46.86204279, -23.27968606], [-46.86167579, -23.28111421], [-46.86160087, -23.28124716], [-46.86146879, -23.28141746], [-46.86128213, -23.28157276], [-46.86099242, -23.28175864], [-46.8607241, -23.28187337], [-46.86027004, -23.28214701], [-46.85995855, -23.28227305], [-46.85946838, -23.28237559], [-46.85819077, -23.28257946], [-46.85653811, -23.28299], [-46.85584757, -23.28324769], [-46.85387344, -23.2839639], [-46.85310617, -23.28434095], [-46.85277491, -23.28448393], [-46.8525719, -23.28453246], [-46.85241453, -23.28452634], [-46.85169275, -23.28436813], [-46.85149088, -23.28440312], [-46.85127011, -23.28454722], [-46.85101265, -23.28489782], [-46.85085106, -23.28508137], [-46.85063343, -23.28528964], [-46.85032031, -23.28546894], [-46.84996388, -23.28558908], [-46.84964354, -23.2856364], [-46.84927002, -23.28563169], [-46.84901012, -23.28561279], [-46.84852395, -23.28546058], [-46.84760698, -23.28502393], [-46.84690344, -23.28448557], [-46.84682088, -23.28435644], [-46.84674479, -23.28409549], [-46.84665802, -23.28341888], [-46.84653476, -23.2828503], [-46.84645129, -23.28238872], [-46.84642574, -23.28231709], [-46.84635661, -23.28220979], [-46.84621493, -23.2821189], [-46.8461001, -23.28207166], [-46.84562964, -23.28191509], [-46.84540335, -23.28186671], [-46.84508865, -23.28185084], [-46.84474806, -23.28187447], [-46.84439575, -23.28197837], [-46.84401894, -23.28216784], [-46.84344587, -23.28249534], [-46.84287446, -23.28292944], [-46.84256399, -23.28321354], [-46.84211338, -23.28368592], [-46.8416221, -23.28436837], [-46.841206, -23.28497931], [-46.84063898, -23.28569802], [-46.83989322, -23.28680515], [-46.83975963, -23.28693568], [-46.83948687, -23.28717228], [-46.83898017, -23.28767118], [-46.83877928, -23.28778746], [-46.83852862, -23.28796518], [-46.83857611, -23.2880186], [-46.83865443, -23.28808914], [-46.83874146, -23.28814309], [-46.83885613, -23.28825993], [-46.83893137, -23.28832226], [-46.83904871, -23.28841708], [-46.83927417, -23.28858484], [-46.83940925, -23.28867121], [-46.8395235, -23.28875782], [-46.83962585, -23.28884457], [-46.83970727, -23.28892332], [-46.83975905, -23.28901067], [-46.83984062, -23.28910041], [-46.83987715, -23.28916045], [-46.83993236, -23.28928073], [-46.8399597, -23.28932164], [-46.83998162, -23.28940109], [-46.83999756, -23.28947786], [-46.84004015, -23.28954607], [-46.84006478, -23.28960625], [-46.84012044, -23.28975951], [-46.84013668, -23.28985827], [-46.84016764, -23.28994586], [-46.84022082, -23.29013488], [-46.84031806, -23.29028215], [-46.8403965, -23.29036094], [-46.84045634, -23.29038497], [-46.84068127, -23.29051426], [-46.84076246, -23.29057652], [-46.84084945, -23.29062772], [-46.84091875, -23.29069012], [-46.84101485, -23.29075496], [-46.84106908, -23.29080379], [-46.84113852, -23.29087719], [-46.84120786, -23.29094234], [-46.84127444, -23.29102401], [-46.84131715, -23.29110047], [-46.84137759, -23.29116847], [-46.84145058, -23.29128305], [-46.84154996, -23.29136983], [-46.8416577, -23.29141529], [-46.84177429, -23.29145515], [-46.84195049, -23.29150255], [-46.84227341, -23.29161694], [-46.84233344, -23.29165472], [-46.84246784, -23.29169162], [-46.84259915, -23.29172031], [-46.84284416, -23.29179438], [-46.84295762, -23.29182328], [-46.84306235, -23.29186603], [-46.84312227, -23.29189556], [-46.84319736, -23.2919469], [-46.84322786, -23.29200151], [-46.84324655, -23.29206175], [-46.84326493, -23.29210002], [-46.84331675, -23.29219011], [-46.84332583, -23.29228891], [-46.84331778, -23.29235222], [-46.84329214, -23.29243498], [-46.84327539, -23.29251488], [-46.84328082, -23.29269347], [-46.84327319, -23.29278701], [-46.8432689, -23.29290799], [-46.84324978, -23.2930319], [-46.843226, -23.29324931], [-46.84319249, -23.29340911], [-46.84316388, -23.2934919], [-46.84311196, -23.2936107], [-46.84303177, -23.29383702], [-46.84289874, -23.29411618], [-46.84282046, -23.29426552], [-46.84275313, -23.29434601], [-46.84272124, -23.29440686], [-46.84266875, -23.29448443], [-46.84259853, -23.29457046], [-46.84252555, -23.29467301], [-46.84245559, -23.29477827], [-46.84239882, -23.29497683], [-46.84234068, -23.29507646], [-46.84226835, -23.29522573], [-46.84225698, -23.29526434], [-46.84221623, -23.29533078], [-46.84219037, -23.29539705], [-46.84217651, -23.29547142], [-46.84211131, -23.29570581], [-46.84207422, -23.29582168], [-46.84206647, -23.29590698], [-46.84205273, -23.29598959], [-46.8420182, -23.2960752], [-46.84201896, -23.29613016], [-46.84205549, -23.2961902], [-46.84208886, -23.29623653], [-46.84208977, -23.29630248], [-46.84203995, -23.29635804], [-46.84199883, -23.296397], [-46.84198441, -23.29643015], [-46.84199123, -23.29649329], [-46.84200701, -23.29655907], [-46.84205372, -23.29670968], [-46.84206899, -23.29695412], [-46.84207897, -23.29703096], [-46.84210391, -23.29711312], [-46.84211672, -23.29717893], [-46.84214173, -23.29726659], [-46.84221442, -23.29735919], [-46.84226602, -23.29743279], [-46.84226986, -23.29749596], [-46.84223759, -23.29752932], [-46.84220253, -23.29757646], [-46.8422031, -23.29761768], [-46.84221557, -23.29765876], [-46.84226091, -23.29771045], [-46.8422735, -23.29775977], [-46.8422651, -23.29779835], [-46.84222695, -23.29783727], [-46.84223057, -23.29788396], [-46.8422459, -23.29791676], [-46.84228488, -23.29793829], [-46.84229438, -23.2979794], [-46.84229498, -23.29802337], [-46.8422669, -23.29814463], [-46.84224397, -23.29820812], [-46.84222831, -23.29836772], [-46.8421997, -23.29845051], [-46.84218573, -23.29851663], [-46.842148, -23.29858579], [-46.84211046, -23.29866869], [-46.84208772, -23.29874591], [-46.84205888, -23.29881221], [-46.84206287, -23.29888637], [-46.84208423, -23.2989246], [-46.84207331, -23.29899619], [-46.84201491, -23.29907658], [-46.84199759, -23.29911527], [-46.84200192, -23.29921416], [-46.84196977, -23.29925576], [-46.84191061, -23.2992812], [-46.8418699, -23.29935039], [-46.84187096, -23.29942733], [-46.84188392, -23.29950414], [-46.84188498, -23.29958108], [-46.8418979, -23.29965514], [-46.84188382, -23.29971302], [-46.8418816, -23.29976802], [-46.84184353, -23.29981244], [-46.8418203, -23.29985394], [-46.84182064, -23.29987867], [-46.84182693, -23.29990334], [-46.84184542, -23.29994984], [-46.84184904, -23.29999652], [-46.84184694, -23.30005976], [-46.84183602, -23.30013135], [-46.84180981, -23.30017289], [-46.84178052, -23.30020621], [-46.84170961, -23.30024278], [-46.84165982, -23.30030108], [-46.84159378, -23.30047501], [-46.84159446, -23.30052448], [-46.84161115, -23.30065621], [-46.84158235, -23.30072526], [-46.84155968, -23.30080798], [-46.84153736, -23.30091543], [-46.8415478, -23.30102525], [-46.84155767, -23.30109385], [-46.84156257, -23.30123396], [-46.84153701, -23.30132221], [-46.84152022, -23.30139937], [-46.84146325, -23.30158419], [-46.84134608, -23.30193462], [-46.84127713, -23.30211408], [-46.84119128, -23.30236245], [-46.84109338, -23.30259997], [-46.84105008, -23.30269668], [-46.8409513, -23.30287099], [-46.84085287, -23.30307004], [-46.84079168, -23.30316421], [-46.8407335, -23.30326108], [-46.84066632, -23.30335257], [-46.84061398, -23.30344114], [-46.84054962, -23.3035216], [-46.8404496, -23.30360523], [-46.84034065, -23.30368897], [-46.8402549, -23.30372845], [-46.84020172, -23.30375656], [-46.8401307, -23.30378488], [-46.84004716, -23.30376937], [-46.83994288, -23.3037596], [-46.83978188, -23.30373675], [-46.83967134, -23.30370507], [-46.83923865, -23.3036167], [-46.83917316, -23.30361472], [-46.83907837, -23.30364607], [-46.83900173, -23.30369918], [-46.83886959, -23.30382717], [-46.83878414, -23.30388863], [-46.83871021, -23.30392248], [-46.83860608, -23.3039237], [-46.83855535, -23.30391331], [-46.83848334, -23.30387018], [-46.83837318, -23.30386597], [-46.83828392, -23.30386702], [-46.83820989, -23.30389262], [-46.83813615, -23.30394021], [-46.83805092, -23.30401817], [-46.83800743, -23.30410113], [-46.83791136, -23.30425618], [-46.83784678, -23.30432015], [-46.83774332, -23.30437083], [-46.83767825, -23.30439908], [-46.83760447, -23.30444392], [-46.83754568, -23.30449683], [-46.83749887, -23.3045551], [-46.83746701, -23.30461869], [-46.83742013, -23.30467146], [-46.83735547, -23.30472994], [-46.83730572, -23.30479099], [-46.83721759, -23.30487447], [-46.83718005, -23.30495737], [-46.83711392, -23.3051258], [-46.83706779, -23.30523353], [-46.83687004, -23.30556842], [-46.83679371, -23.30564352], [-46.83670585, -23.30574624], [-46.83656462, -23.30586334], [-46.83650022, -23.30594105], [-46.83641808, -23.30602721], [-46.83635689, -23.30612138], [-46.83630465, -23.30621819], [-46.83626737, -23.30632032], [-46.83622693, -23.30640875], [-46.83621597, -23.30647758], [-46.83621669, -23.3065298], [-46.83622618, -23.30657091], [-46.83626233, -23.30660347], [-46.83628388, -23.30665544], [-46.83629333, -23.30669381], [-46.83627706, -23.30680944], [-46.8362907, -23.30693571], [-46.836322, -23.30704803], [-46.8363205, -23.30715524], [-46.83634819, -23.30743801], [-46.83634402, -23.30756723], [-46.83631822, -23.307639], [-46.83628975, -23.30773278], [-46.83624599, -23.30779651], [-46.83616965, -23.30787161], [-46.83612039, -23.30796838], [-46.83609169, -23.30804568], [-46.83603633, -23.30813153], [-46.8358611, -23.3083727], [-46.83575546, -23.30848113], [-46.83567001, -23.3085426], [-46.83559103, -23.30864247], [-46.8355322, -23.30869263], [-46.83547955, -23.30875921], [-46.83543605, -23.30884217], [-46.8353718, -23.30893088], [-46.83528356, -23.30900612], [-46.83518606, -23.30905674], [-46.8350916, -23.30911281], [-46.83498509, -23.30915804], [-46.83479626, -23.30927568], [-46.8346429, -23.30937642], [-46.83433716, -23.30964935], [-46.83423683, -23.309711], [-46.83409755, -23.30975385], [-46.83403247, -23.3097821], [-46.83394359, -23.30981063], [-46.83387263, -23.30984444], [-46.83382288, -23.30990549], [-46.83372153, -23.31011006], [-46.83369848, -23.3101653], [-46.8336731, -23.31026729], [-46.83364708, -23.31032257], [-46.83356207, -23.31041701], [-46.83349145, -23.31047555], [-46.83337606, -23.31052363], [-46.8332071, -23.31057233], [-46.8330792, -23.31057658], [-46.83299615, -23.31059679], [-46.83287149, -23.31062023], [-46.83263357, -23.31063126], [-46.83237788, -23.310648], [-46.83206237, -23.31064344], [-46.83195808, -23.31063367], [-46.8304678, -23.31024431], [-46.83034841, -23.31021822], [-46.83009784, -23.31017442], [-46.82994553, -23.31013497], [-46.82978144, -23.31010391], [-46.82967462, -23.31012714], [-46.82962476, -23.31017995], [-46.8295599, -23.31022468], [-46.82948891, -23.31025574], [-46.82938748, -23.31023769], [-46.82931558, -23.3102028], [-46.82924342, -23.31014867], [-46.82914497, -23.31013058], [-46.82908866, -23.31014773], [-46.82901183, -23.3101871], [-46.82876386, -23.31033292], [-46.82867523, -23.31038068], [-46.8285836, -23.31042573], [-46.8283766, -23.31052159], [-46.8282847, -23.3105474], [-46.82820482, -23.31058131], [-46.82813985, -23.3106178], [-46.8280275, -23.31067133], [-46.82792987, -23.3107137], [-46.82781477, -23.31078376], [-46.82775858, -23.31080915], [-46.82768502, -23.31087047], [-46.82761097, -23.31089607], [-46.82754887, -23.31092428], [-46.82746303, -23.31095827], [-46.82738006, -23.31098397], [-46.82720195, -23.31101628], [-46.82680509, -23.31115559], [-46.82673417, -23.31119214], [-46.82662908, -23.31134179], [-46.82656505, -23.31144698], [-46.82650659, -23.31152462], [-46.82644539, -23.31161878], [-46.82638392, -23.3116937], [-46.82634316, -23.31176014], [-46.8262461, -23.31184373], [-46.82614294, -23.31191639], [-46.82605167, -23.31198892], [-46.82592478, -23.31206735], [-46.82578279, -23.31212948], [-46.82545827, -23.31233665], [-46.82523669, -23.31245467], [-46.82516275, -23.31248851], [-46.82508242, -23.31248945], [-46.82487339, -23.31243691], [-46.82458387, -23.31237432], [-46.82448229, -23.31234527], [-46.82438682, -23.31232714], [-46.82427665, -23.31232293], [-46.82415176, -23.31232988], [-46.8240599, -23.31235843], [-46.82396536, -23.31240901], [-46.82390652, -23.31245916], [-46.82386856, -23.31251183], [-46.8238278, -23.31257827], [-46.8237991, -23.31265556], [-46.82377359, -23.3127493], [-46.82373592, -23.31282395], [-46.82370097, -23.31287933], [-46.82365396, -23.31292385], [-46.82357694, -23.31294949], [-46.82351487, -23.31298044], [-46.82348214, -23.31298082], [-46.82343107, -23.31294569], [-46.82337725, -23.31292707], [-46.82331781, -23.31293326], [-46.82325555, -23.31295048], [-46.82320546, -23.31298679], [-46.8231464, -23.31302046], [-46.82303932, -23.31302446], [-46.82298851, -23.31300856], [-46.82297627, -23.31298396], [-46.82297869, -23.31294271], [-46.82300174, -23.31288747], [-46.82300988, -23.31282966], [-46.82300329, -23.31278301], [-46.82297625, -23.31276408], [-46.82294947, -23.31276439], [-46.8228987, -23.31275124], [-46.8228656, -23.31272414], [-46.82282375, -23.31271089], [-46.82272285, -23.3127313], [-46.8226575, -23.31274031], [-46.8225717, -23.31277704], [-46.82253362, -23.31282146], [-46.82251369, -23.31288765], [-46.82251158, -23.31295089], [-46.82253673, -23.31304954], [-46.82256159, -23.31312621], [-46.8225954, -23.31320553], [-46.82258165, -23.31328814], [-46.822556, -23.3133709], [-46.82244819, -23.31353981], [-46.82237764, -23.31360384], [-46.82230355, -23.31362669], [-46.82225639, -23.31366022], [-46.8222391, -23.31370165], [-46.82223982, -23.31375386], [-46.8222316, -23.31380618], [-46.82216482, -23.31392789], [-46.82211528, -23.31400543], [-46.82206594, -23.3140967], [-46.82202808, -23.31415761], [-46.82194336, -23.31427403], [-46.82194408, -23.31432625], [-46.82196, -23.31440302], [-46.82198776, -23.31447416], [-46.82203332, -23.31454234], [-46.82210352, -23.3146707], [-46.82214913, -23.31474163], [-46.82217703, -23.31482376], [-46.82215733, -23.31490645], [-46.8221345, -23.31497817], [-46.82209393, -23.31505835], [-46.82204726, -23.31512761], [-46.82201535, -23.31518844], [-46.82199248, -23.31525742], [-46.82199056, -23.3153344], [-46.82199748, -23.31540578], [-46.82202606, -23.31553738], [-46.82205728, -23.31564421], [-46.82211825, -23.31575069], [-46.82240323, -23.31613491], [-46.82256434, -23.31638315], [-46.82267966, -23.31654672], [-46.82282511, -23.31673742], [-46.82294668, -23.3169229], [-46.82300415, -23.31699095], [-46.82313044, -23.31708568], [-46.8232803, -23.31716364], [-46.8234334, -23.3172608], [-46.82357795, -23.31738555], [-46.82380943, -23.31755601], [-46.82401919, -23.31766076], [-46.82419345, -23.31776434], [-46.82423433, -23.31779256], [-46.82440795, -23.31788794], [-46.82464253, -23.31803392], [-46.82471261, -23.31808179], [-46.82472805, -23.31812284], [-46.82479204, -23.31823203], [-46.82484642, -23.31829186], [-46.82490107, -23.31837093], [-46.82491979, -23.31843393], [-46.82495952, -23.31851042], [-46.82499899, -23.31856768], [-46.8250089, -23.31863903], [-46.82503349, -23.31869646], [-46.82506091, -23.31874287], [-46.82509284, -23.31890191], [-46.82514817, -23.31903044], [-46.82526308, -23.31916378], [-46.82532334, -23.31921804], [-46.82537166, -23.3192697], [-46.82539893, -23.31930511], [-46.82547414, -23.31936471], [-46.82554025, -23.31941066], [-46.82564872, -23.31950834], [-46.82575746, -23.31962526], [-46.82587485, -23.31972284], [-46.82592943, -23.31979641], [-46.82598088, -23.31985902], [-46.82601737, -23.31991632], [-46.82602995, -23.31996564], [-46.82603093, -23.32003709], [-46.82604061, -23.32009195], [-46.82607763, -23.32018772], [-46.82609593, -23.32022048], [-46.8261322, -23.32026129], [-46.8261713, -23.32029107], [-46.82622218, -23.32031246], [-46.82626991, -23.32032015], [-46.82629981, -23.32033079], [-46.82632113, -23.32036628], [-46.82630117, -23.32042972], [-46.82624836, -23.32048531], [-46.82610364, -23.3205667], [-46.82604793, -23.32062782], [-46.82600989, -23.32067499], [-46.82594793, -23.32071419], [-46.82588871, -23.32073687], [-46.82580238, -23.32073512], [-46.82565895, -23.32069282], [-46.82561123, -23.32068513], [-46.82554871, -23.32068311], [-46.82548351, -23.32070311], [-46.82541804, -23.32070388], [-46.82534384, -23.32071848], [-46.82527276, -23.32074405], [-46.82518703, -23.32078627], [-46.82511618, -23.32082833], [-46.82505403, -23.32085379], [-46.82497395, -23.32087396], [-46.82491173, -23.32089393], [-46.82472118, -23.3208879], [-46.82465289, -23.32089969], [-46.82458482, -23.32092797], [-46.82454079, -23.32097246], [-46.82449683, -23.32102244], [-46.82445596, -23.32108064], [-46.8244329, -23.32113588], [-46.82443377, -23.32119908], [-46.8244433, -23.32124294], [-46.82446186, -23.32129495], [-46.82448642, -23.32134963], [-46.8245167, -23.32138776], [-46.82460111, -23.32146648], [-46.82463131, -23.32149911], [-46.8246556, -23.32153456], [-46.82468581, -23.32156719], [-46.82472637, -23.32170414], [-46.82468165, -23.3219163], [-46.82466444, -23.32196322], [-46.82465336, -23.32202382], [-46.8246659, -23.3220704], [-46.82469456, -23.32220749], [-46.82470905, -23.32239696], [-46.824711, -23.32253986], [-46.82473936, -23.32265497], [-46.82476079, -23.3226987], [-46.82479985, -23.32272573], [-46.82485654, -23.32273606], [-46.82492769, -23.32271599], [-46.82496283, -23.32267435], [-46.82500077, -23.32261894], [-46.82503565, -23.32255807], [-46.82508861, -23.32251347], [-46.82514503, -23.32250457], [-46.82519871, -23.32251219], [-46.82524379, -23.32254465], [-46.82529532, -23.32261276], [-46.82532549, -23.32264264], [-46.82533528, -23.32270574], [-46.8253598, -23.32275768], [-46.82544142, -23.32285018], [-46.82550835, -23.32295659], [-46.82556691, -23.32310432], [-46.82558548, -23.32315633], [-46.82559531, -23.32322218], [-46.82561098, -23.32327971], [-46.82566031, -23.32340557], [-46.82569146, -23.3235069], [-46.82571055, -23.32359738], [-46.8257324, -23.32367133], [-46.82576008, -23.32373697], [-46.82577289, -23.32380279], [-46.82578007, -23.3238934], [-46.82578975, -23.32394826], [-46.82575607, -23.32409707], [-46.82574805, -23.32416313], [-46.82574597, -23.32422912], [-46.82573825, -23.32431716], [-46.82574243, -23.32440506], [-46.82575576, -23.32450935], [-46.82577154, -23.32457513], [-46.82580822, -23.32464616], [-46.82582992, -23.32470912], [-46.82580234, -23.32486886], [-46.8257884, -23.32493773], [-46.82576256, -23.32500675], [-46.82573359, -23.3250648], [-46.82571652, -23.32512272], [-46.82568767, -23.32518902], [-46.82561478, -23.32529981], [-46.82555861, -23.32532795], [-46.82548731, -23.32533703], [-46.82543966, -23.32533483], [-46.82538866, -23.32530519], [-46.82536745, -23.32527796], [-46.82536324, -23.32518731], [-46.82537458, -23.32514595], [-46.825371, -23.32510201], [-46.82535835, -23.32504719], [-46.82527936, -23.32492993], [-46.82519831, -23.32487865], [-46.82512678, -23.32487124], [-46.82509405, -23.32487162], [-46.82502583, -23.3248889], [-46.82493418, -23.32493395], [-46.82488966, -23.32494271], [-46.82482717, -23.32494344], [-46.82477651, -23.32493854], [-46.82473447, -23.32491154], [-46.82469229, -23.32487355], [-46.82464991, -23.32482182], [-46.82460735, -23.32475636], [-46.82457703, -23.32471548], [-46.8245379, -23.32468296], [-46.824493, -23.32466424], [-46.82444837, -23.32466476], [-46.82440682, -23.32467349], [-46.82437145, -23.32469864], [-46.82435114, -23.32473735], [-46.824343, -23.32479517], [-46.82434353, -23.32483364], [-46.8243743, -23.32490749], [-46.82437795, -23.32495692], [-46.82435783, -23.32500938], [-46.82433463, -23.32505362], [-46.82430826, -23.32508416], [-46.82425865, -23.3251562], [-46.82424757, -23.3252168], [-46.82424553, -23.32528553], [-46.8242641, -23.32533754], [-46.82427047, -23.3253677], [-46.82429476, -23.32540315], [-46.82432787, -23.32543025], [-46.82443533, -23.32545373], [-46.82451609, -23.32548302], [-46.82453745, -23.32552125], [-46.82457078, -23.32556484], [-46.82458034, -23.32561145], [-46.82458486, -23.32572409], [-46.82456772, -23.32577651], [-46.82453001, -23.32584841], [-46.82453027, -23.32586764], [-46.82458511, -23.32596046], [-46.82459208, -23.32603458], [-46.82454619, -23.32616155], [-46.82450227, -23.32621428], [-46.82446664, -23.32622019], [-46.82443665, -23.32620405], [-46.82438301, -23.32619918], [-46.82435348, -23.32621602], [-46.82431544, -23.32626318], [-46.82428959, -23.3263322], [-46.8242633, -23.32636823], [-46.8242013, -23.32640469], [-46.82413918, -23.32643289], [-46.82410422, -23.32648827], [-46.82409872, -23.32652132], [-46.82412332, -23.32657875], [-46.82413021, -23.32664738], [-46.82414621, -23.32672965], [-46.82414413, -23.32679564], [-46.82412447, -23.32688107], [-46.82409599, -23.32697485], [-46.82406129, -23.32704946], [-46.82400704, -23.32721775], [-46.82400813, -23.32729745], [-46.82398843, -23.32738013], [-46.82398061, -23.32743764], [-46.82396728, -23.32762347], [-46.82396386, -23.32776032], [-46.82394436, -23.3278827], [-46.82391931, -23.32798561], [-46.82391107, -23.32815672], [-46.82390791, -23.32831311], [-46.82386919, -23.32857742], [-46.82385077, -23.32877797], [-46.82386368, -23.32894884], [-46.8238604, -23.32909546], [-46.82386193, -23.32920783], [-46.82384793, -23.3293448], [-46.82385106, -23.32957442], [-46.82386894, -23.3297208], [-46.82383411, -23.32988245], [-46.8238201, -23.33001942], [-46.82381628, -23.33012696], [-46.82381788, -23.33024421], [-46.82382497, -23.33037606], [-46.82379992, -23.33047896], [-46.82371072, -23.33053375], [-46.82363157, -23.33054933], [-46.82352589, -23.33056033], [-46.82332446, -23.33053336], [-46.82319729, -23.33052019], [-46.82300697, -23.33053217], [-46.82280567, -23.33051497], [-46.82273656, -23.33049135], [-46.82263015, -23.33044861], [-46.82256144, -23.3304543], [-46.82271058, -23.40082069], [-46.82279702, -23.40111788], [-46.82298947, -23.40138907], [-46.82317367, -23.4015346], [-46.82346279, -23.40166406], [-46.82353709, -23.40175155], [-46.82363126, -23.40197655], [-46.82389702, -23.40298291], [-46.82403318, -23.40321558], [-46.82426327, -23.40345102], [-46.82443118, -23.40364878], [-46.82463782, -23.40404206], [-46.82477042, -23.40481127], [-46.82471279, -23.40528583], [-46.82448384, -23.40616603], [-46.82454271, -23.40647739], [-46.8247233, -23.40675929], [-46.82499003, -23.40704118], [-46.8255737, -23.40782318], [-46.82571043, -23.40809017], [-46.82581714, -23.40841196], [-46.82584176, -23.40880336], [-46.82581724, -23.40896932], [-46.82574035, -23.40917539], [-46.82535893, -23.40971436], [-46.82512288, -23.41013108], [-46.82477768, -23.41058912], [-46.82443757, -23.41086925], [-46.82371044, -23.41134232], [-46.82346136, -23.41146079], [-46.82310277, -23.4115691], [-46.82228894, -23.41192654], [-46.8221128, -23.41240619], [-46.82200894, -23.41257585], [-46.82192307, -23.41279538], [-46.82186864, -23.41324739], [-46.82179807, -23.41349688], [-46.82170913, -23.41364682], [-46.82100597, -23.41415896], [-46.82083643, -23.41441737], [-46.82073119, -23.41469993], [-46.82026422, -23.41550991], [-46.81995505, -23.41662504], [-46.81946724, -23.41769857], [-46.81942078, -23.41789682], [-46.81944939, -23.41803985], [-46.81954276, -23.41824949], [-46.81979618, -23.41858093], [-46.81999406, -23.41872932], [-46.8204979, -23.41899379], [-46.82064205, -23.4191344], [-46.82101907, -23.42000731], [-46.8213424, -23.42014435], [-46.82170525, -23.42017069], [-46.82178486, -23.42022481], [-46.82192421, -23.42043763], [-46.82220477, -23.42054984], [-46.82261285, -23.42063988], [-46.82278823, -23.42078803], [-46.82282432, -23.42096004], [-46.82273462, -23.42133309], [-46.82275233, -23.42148684], [-46.82282953, -23.42165928], [-46.82323629, -23.4220203], [-46.82354789, -23.42215541], [-46.82369445, -23.4220973], [-46.82377473, -23.42185513], [-46.8239153, -23.4217256], [-46.82399577, -23.42170927], [-46.82411769, -23.42174576], [-46.82436426, -23.42199672], [-46.82455188, -23.42242775], [-46.82478702, -23.4226533], [-46.82513973, -23.42270843], [-46.82566526, -23.42288188], [-46.82620013, -23.42301116], [-46.82639192, -23.42309805], [-46.82671405, -23.42349613], [-46.82715528, -23.42375994], [-46.8278793, -23.42403389], [-46.82842673, -23.42409644], [-46.82875244, -23.42420006], [-46.82899539, -23.4244275], [-46.82910443, -23.4246391], [-46.82913263, -23.42497814], [-46.82910822, -23.42513507], [-46.82901342, -23.42544574], [-46.82894217, -23.42591384], [-46.82908294, -23.42738682], [-46.82927857, -23.42788567], [-46.82958054, -23.42825192], [-46.82982023, -23.42866992], [-46.82984211, -23.42928893], [-46.82978984, -23.4298069], [-46.83020906, -23.43003073], [-46.83076741, -23.43016385]]]]}}]}