{"type": "FeatureCollection", "features": [{"type": "Feature", "properties": {"name": "Área de Relevante Interesse Ecológico Guará"}, "geometry": {"type": "MultiPolygon", "coordinates": [[[[-47.47438154, -24.70544779], [-47.48479484, -24.70643353], [-47.49142675, -24.70590779], [-47.49190633, -24.70645485], [-47.49554451, -24.70521292], [-47.50090461, -24.70416427], [-47.5003983, -24.70073205], [-47.47961628, -24.70096126], [-47.46880507, -24.69905534], [-47.45486696, -24.69279969], [-47.43570789, -24.6752933], [-47.43402783, -24.67641827], [-47.43241232, -24.67571264], [-47.43072868, -24.67665469], [-47.42889624, -24.68025197], [-47.42950726, -24.68568586], [-47.43250669, -24.69003745], [-47.4350722, -24.69161695], [-47.43772617, -24.69122648], [-47.44384189, -24.68637945], [-47.44706354, -24.68910599], [-47.44634858, -24.69143352], [-47.44860881, -24.69035451], [-47.4475115, -24.69257249], [-47.44866087, -24.6930169], [-47.45028534, -24.69183245], [-47.45324479, -24.69409995], [-47.45226744, -24.69596862], [-47.45380831, -24.69698556], [-47.45529926, -24.69545585], [-47.46917649, -24.70228059], [-47.47438154, -24.70544779]]]]}}]}