{"type": "FeatureCollection", "features": [{"type": "Feature", "properties": {"name": "Área de Proteção Ambiental Serra do Itapeti"}, "geometry": {"type": "MultiPolygon", "coordinates": [[[[-46.245296, -23.505042], [-46.244956, -23.5051], [-46.244874003102844, -23.50508501579544], [-46.24487401, -23.5050227], [-46.24453298084561, -23.50502269700732], [-46.244168, -23.504956], [-46.244033, -23.504993], [-46.243999799356125, -23.505022692328414], [-46.24145538, -23.50502267], [-46.24160634, -23.50555072], [-46.23889334, -23.50531607], [-46.23535955, -23.50143927], [-46.23038438, -23.50021619], [-46.22999539, -23.49814012], [-46.23029833, -23.49524129], [-46.22994667, -23.49367007], [-46.23819855, -23.4942555], [-46.24283563, -23.49500927], [-46.24347358, -23.49449928], [-46.2434736, -23.49413811], [-46.24366939, -23.49413812], [-46.24366941, -23.49386725], [-46.24425678, -23.49386727], [-46.24425675, -23.49431873], [-46.24455044, -23.49431875], [-46.24455042, -23.4947702], [-46.244942, -23.49477022], [-46.24494199, -23.49509653], [-46.25723273, -23.4934234], [-46.2574441, -23.48989952], [-46.25722473, -23.4874177], [-46.25150313, -23.48290297], [-46.24660968, -23.48312281], [-46.23464403, -23.48091508], [-46.23179061, -23.47940233], [-46.22834693, -23.47757809], [-46.22803103, -23.47740903], [-46.22569007, -23.47615613], [-46.21063714, -23.46809824], [-46.20378498, -23.4677219], [-46.20092373, -23.46756467], [-46.20054837, -23.46754403], [-46.19573287, -23.46550382], [-46.19227096, -23.4615565], [-46.18835053, -23.46104454], [-46.18021369, -23.4597516], [-46.16961706, -23.45703167], [-46.16158401, -23.45636917], [-46.15415157, -23.45159248], [-46.14265424, -23.45212868], [-46.13095246, -23.45167206], [-46.13108517, -23.44426521], [-46.1250511, -23.44837303], [-46.11432961, -23.44804355], [-46.10688755, -23.44773525], [-46.0802849, -23.44453481], [-46.08809725, -23.46019561], [-46.09222246, -23.46183763], [-46.10347096, -23.4665452], [-46.10949004, -23.46632186], [-46.11678249, -23.4661795], [-46.12173765, -23.46749866], [-46.13665185, -23.47136454], [-46.14126784, -23.47304681], [-46.1482397, -23.47543413], [-46.15653752, -23.47826286], [-46.16675395, -23.48211541], [-46.17241983, -23.4861822], [-46.17606686, -23.4889093], [-46.18387691, -23.49178537], [-46.20419738, -23.50282851], [-46.20715141, -23.49923827], [-46.21409603, -23.49837149], [-46.22413597, -23.50398264], [-46.23374054, -23.5153314], [-46.2316021, -23.51706427], [-46.23347856, -23.51844589], [-46.23321468, -23.51843235], [-46.23261161, -23.51869342], [-46.23211483, -23.51926162], [-46.23195921, -23.51990321], [-46.23170173, -23.51963943], [-46.23155925, -23.51922652], [-46.23140037, -23.51882899], [-46.23124048, -23.51821893], [-46.23084146, -23.51802302], [-46.23062839, -23.51797251], [-46.2305947, -23.5179995], [-46.22993749, -23.51845102], [-46.22966191, -23.5190688], [-46.23013451, -23.51901963], [-46.23036948, -23.51889941], [-46.23110522, -23.51928668], [-46.23113574, -23.51969858], [-46.23080774, -23.52018325], [-46.23034513, -23.52008174], [-46.23033304, -23.51991863], [-46.23033804, -23.51982827], [-46.23033137, -23.51973801], [-46.23034091, -23.51956534], [-46.23012462, -23.51945918], [-46.22922273, -23.51959069], [-46.22890342, -23.52144823], [-46.22965555, -23.52141563], [-46.2304705, -23.52161917], [-46.23053688, -23.52163835], [-46.23081557, -23.52192463], [-46.23098556, -23.52215212], [-46.23103487, -23.52225205], [-46.23115195, -23.5223613], [-46.23189566, -23.52267758], [-46.23256184, -23.52236673], [-46.23270924, -23.52197737], [-46.23250625, -23.52130168], [-46.23266584, -23.52089617], [-46.23317974, -23.52102598], [-46.23290227, -23.52175893], [-46.23316258, -23.52211502], [-46.23342282, -23.52184176], [-46.23390561, -23.52149057], [-46.23435841, -23.52167789], [-46.23446399, -23.52178504], [-46.23464248, -23.52192955], [-46.23476453, -23.52250516], [-46.23501759, -23.52308763], [-46.23514898, -23.52314655], [-46.23541017, -23.52317483], [-46.23547352, -23.52296362], [-46.23596074, -23.52283098], [-46.23592608, -23.52259075], [-46.23534952, -23.52250294], [-46.23510182, -23.52237134], [-46.23496371, -23.52198248], [-46.23522598, -23.52133687], [-46.23558496, -23.52091563], [-46.23545013, -23.52062662], [-46.23555479, -23.52017811], [-46.23614826, -23.52012117], [-46.23973027, -23.52223787], [-46.24413552, -23.5220221], [-46.24416537, -23.52202407], [-46.24420531, -23.52299206], [-46.24411129, -23.52310537], [-46.2441681, -23.52342726], [-46.24405061, -23.52380012], [-46.24430825, -23.52403362], [-46.24449961, -23.52436682], [-46.24438188, -23.5247149], [-46.24361704, -23.52639502], [-46.24376936, -23.52639051], [-46.24469208, -23.52649448], [-46.24494773, -23.52653399], [-46.24503704, -23.52653596], [-46.24566975, -23.5264059], [-46.24575659, -23.52636766], [-46.24592385, -23.5262922], [-46.2459712, -23.52624151], [-46.24636639, -23.52509403], [-46.24652547, -23.52485243], [-46.24652003, -23.52475977], [-46.2465717, -23.5245362], [-46.24677727, -23.52451648], [-46.24716519, -23.52401165], [-46.24723425, -23.52385395], [-46.24723538, -23.5235586], [-46.24708241, -23.52312275], [-46.24706488, -23.52277932], [-46.24656388, -23.52231016], [-46.24642759, -23.5219558], [-46.25304561, -23.52177001], [-46.26173997, -23.51944198], [-46.26149033, -23.51379951], [-46.27029409, -23.50763189], [-46.27015417, -23.50325291], [-46.26563014, -23.50121256], [-46.26081252, -23.50432224], [-46.25904227, -23.50352375], [-46.25481979, -23.50149306], [-46.25483843, -23.50314812], [-46.25679646, -23.50314803], [-46.25679672, -23.50721112], [-46.25562186, -23.50721117], [-46.25562189, -23.50766263], [-46.25337007, -23.50766271], [-46.25337006, -23.50786136], [-46.24896432, -23.50786143], [-46.24895657, -23.50673832], [-46.24756633, -23.50673832], [-46.24756634, -23.50637715], [-46.24697891, -23.50637715], [-46.24697892, -23.50565482], [-46.2464894, -23.50565482], [-46.24648941, -23.50538395], [-46.24609779, -23.50538394], [-46.24609779, -23.50511307], [-46.245492985251445, -23.505113060115875], [-46.245296, -23.505042]]]]}}]}