{"type": "FeatureCollection", "features": [{"type": "Feature", "properties": {"name": "Área de Proteção Ambiental Tietê - Jumirim"}, "geometry": {"type": "MultiPolygon", "coordinates": [[[[-47.68911362, -23.22323219], [-47.68952261, -23.22332819], [-47.68963298, -23.22334319], [-47.68977673, -23.22333127], [-47.68997953, -23.22325188], [-47.69017286, -23.22311825], [-47.69047942, -23.22284606], [-47.69058278, -23.22272101], [-47.69061934, -23.22265344], [-47.69062859, -23.2225758], [-47.6906684, -23.22228783], [-47.69070331, -23.22183451], [-47.6906672, -23.22115681], [-47.6906156, -23.22078708], [-47.69060431, -23.22021158], [-47.69067303, -23.21982529], [-47.6907901, -23.21952957], [-47.69105285, -23.21922374], [-47.69140147, -23.21894363], [-47.69184194, -23.2186685], [-47.69193493, -23.21864547], [-47.69203368, -23.21863964], [-47.69227094, -23.21868328], [-47.69268861, -23.21879738], [-47.69304539, -23.21879193], [-47.69388713, -23.21859197], [-47.69490137, -23.21814352], [-47.69570783, -23.2177889], [-47.69633652, -23.21758334], [-47.69673002, -23.21748411], [-47.69704795, -23.21743691], [-47.69775461, -23.21726787], [-47.69833105, -23.21713883], [-47.69864054, -23.21703015], [-47.6989145, -23.21681199], [-47.6992966, -23.21648415], [-47.6994922, -23.21629542], [-47.69995056, -23.2157936], [-47.70003305, -23.21572716], [-47.70011426, -23.21571221], [-47.70034974, -23.21572511], [-47.70090939, -23.21596185], [-47.70142615, -23.2161803], [-47.70203038, -23.21631426], [-47.70265391, -23.21632275], [-47.70331896, -23.21625015], [-47.70424135, -23.21595838], [-47.70425315, -23.21509572], [-47.70399056, -23.21350903], [-47.70374667, -23.21292065], [-47.70374077, -23.21258818], [-47.70386039, -23.21218225], [-47.70392834, -23.21175349], [-47.70393599, -23.21144277], [-47.70386247, -23.21097176], [-47.70348998, -23.21031228], [-47.70317577, -23.21005689], [-47.70273603, -23.20987405], [-47.70232312, -23.2097862], [-47.70181449, -23.20968703], [-47.70110472, -23.20938723], [-47.7008868, -23.20921271], [-47.70079679, -23.20905959], [-47.70075341, -23.20895459], [-47.70074383, -23.20875309], [-47.70076246, -23.20857251], [-47.70071388, -23.20767794], [-47.70059988, -23.20710916], [-47.70040937, -23.20659059], [-47.70019204, -23.20597704], [-47.70010893, -23.20564599], [-47.69992305, -23.20534064], [-47.69979911, -23.20513948], [-47.69966693, -23.20501326], [-47.69955435, -23.2048772], [-47.69943284, -23.20476368], [-47.69922064, -23.20461628], [-47.69840977, -23.20422653], [-47.69745454, -23.20395802], [-47.69647325, -23.20363336], [-47.69617058, -23.20341505], [-47.69605396, -23.20313443], [-47.69581294, -23.20206003], [-47.6957665, -23.20181138], [-47.69572016, -23.20154465], [-47.69549848, -23.20101237], [-47.6953813, -23.20082841], [-47.6949675, -23.20022652], [-47.6944676, -23.19964136], [-47.69414922, -23.19943742], [-47.69402961, -23.19933474], [-47.69388842, -23.19924732], [-47.69367385, -23.19917398], [-47.6933995, -23.19912835], [-47.69312582, -23.19913602], [-47.69258334, -23.19915138], [-47.69184263, -23.19930668], [-47.69135857, -23.1995283], [-47.69069619, -23.19982491], [-47.69033903, -23.19990262], [-47.68982731, -23.20000575], [-47.68946693, -23.1999642], [-47.68889921, -23.1997843], [-47.68815669, -23.1992485], [-47.68787548, -23.19887399], [-47.68756102, -23.1981705], [-47.68722192, -23.19766924], [-47.68685861, -23.19729613], [-47.68655307, -23.19707236], [-47.68625842, -23.19698958], [-47.68601909, -23.19697392], [-47.68535414, -23.19704375], [-47.68518394, -23.1970709], [-47.68486341, -23.1972337], [-47.68459929, -23.19727754], [-47.68439102, -23.19729727], [-47.68414196, -23.19727343], [-47.68395816, -23.19711983], [-47.68386788, -23.1970182], [-47.68378972, -23.19684888], [-47.683757, -23.19676289], [-47.68366441, -23.19638843], [-47.68358206, -23.19610165], [-47.6836553, -23.1956133], [-47.68375499, -23.19544667], [-47.68480376, -23.19309416], [-47.68540987, -23.19189302], [-47.68585518, -23.19094853], [-47.68633115, -23.19010536], [-47.68656578, -23.18959072], [-47.68661211, -23.18918895], [-47.68665899, -23.18886217], [-47.68661443, -23.18829643], [-47.68659825, -23.18805605], [-47.68652872, -23.18758324], [-47.68640388, -23.18687708], [-47.68616454, -23.18586771], [-47.68598749, -23.18506824], [-47.6858155, -23.18457052], [-47.68575488, -23.18424501], [-47.6857495, -23.18399565], [-47.68574346, -23.18369479], [-47.6858155, -23.18324257], [-47.68593319, -23.1825042], [-47.68637004, -23.1813302], [-47.68690264, -23.18032381], [-47.68723498, -23.17980513], [-47.68748735, -23.17942698], [-47.68788504, -23.17876229], [-47.68817253, -23.17822622], [-47.68825293, -23.17801253], [-47.6882779, -23.17775248], [-47.68829789, -23.1776767], [-47.68828782, -23.17756011], [-47.68824981, -23.17737744], [-47.68812449, -23.17708683], [-47.68792021, -23.17643176], [-47.68766091, -23.17582791], [-47.68744284, -23.17535886], [-47.68717026, -23.17452007], [-47.68700417, -23.17385254], [-47.68696549, -23.17361657], [-47.68697114, -23.17348651], [-47.68700348, -23.17330509], [-47.68707273, -23.17315909], [-47.68714853, -23.17273037], [-47.68738194, -23.17225004], [-47.68769963, -23.1718939], [-47.68873833, -23.17104993], [-47.68989018, -23.17040437], [-47.69103937, -23.16970819], [-47.69181577, -23.16927032], [-47.69232531, -23.16901901], [-47.69332088, -23.16869243], [-47.69399024, -23.16851148], [-47.69467289, -23.16839834], [-47.69524379, -23.16834788], [-47.69534543, -23.16783888], [-47.69554941, -23.16754087], [-47.6959351, -23.16724648], [-47.6960931, -23.16712712], [-47.69626834, -23.16706656], [-47.69664359, -23.16705668], [-47.69774185, -23.16721479], [-47.69812557, -23.16725915], [-47.69835148, -23.16722233], [-47.6986439, -23.16717409], [-47.69937505, -23.16678203], [-47.70002108, -23.16623958], [-47.70069599, -23.16577135], [-47.70129032, -23.16538132], [-47.70230017, -23.16477381], [-47.70297856, -23.16437695], [-47.70503805, -23.16320275], [-47.70571375, -23.1627598], [-47.70646683, -23.16211396], [-47.70716753, -23.16156994], [-47.70806807, -23.16093295], [-47.70848852, -23.16070374], [-47.70905633, -23.16050236], [-47.71012669, -23.16040731], [-47.71061443, -23.16036994], [-47.7109879, -23.16032478], [-47.71120201, -23.16029782], [-47.71185417, -23.16003902], [-47.71241492, -23.15970298], [-47.71292, -23.15919322], [-47.71351828, -23.15809762], [-47.71372369, -23.15753942], [-47.71387908, -23.15701351], [-47.7142427, -23.15526091], [-47.71432352, -23.15427481], [-47.71425136, -23.15356259], [-47.71416316, -23.15292257], [-47.71394996, -23.15244546], [-47.71341335, -23.15129013], [-47.71336915, -23.150644], [-47.71349061, -23.15007275], [-47.71372563, -23.14945869], [-47.71410558, -23.14860955], [-47.71433146, -23.14805687], [-47.71442353, -23.14767067], [-47.71452024, -23.14715441], [-47.71454639, -23.14616171], [-47.71450403, -23.14519037], [-47.71438206, -23.14378863], [-47.71392926, -23.14215583], [-47.7136724, -23.14094314], [-47.71359607, -23.14045133], [-47.71343571, -23.13996272], [-47.71345447, -23.1392383], [-47.71369895, -23.13884742], [-47.71383627, -23.13874871], [-47.71396261, -23.13869151], [-47.71412617, -23.13861642], [-47.71427755, -23.13862167], [-47.71492613, -23.13863024], [-47.71539445, -23.13873007], [-47.71604418, -23.13888047], [-47.71639722, -23.13898246], [-47.71735096, -23.13926893], [-47.71756714, -23.13939012], [-47.71790648, -23.13949565], [-47.71829107, -23.1395472], [-47.71904886, -23.13959241], [-47.71985408, -23.13971283], [-47.72226087, -23.14026735], [-47.72299675, -23.14038651], [-47.7257791, -23.14068983], [-47.72641251, -23.14079313], [-47.72749858, -23.14082813], [-47.72908165, -23.14072908], [-47.73033266, -23.14079195], [-47.73085859, -23.14072398], [-47.73127018, -23.14066451], [-47.73183102, -23.14046572], [-47.7323791, -23.13974922], [-47.73263582, -23.13890307], [-47.73288704, -23.13799184], [-47.73327181, -23.13712822], [-47.73421078, -23.13602782], [-47.73469752, -23.13579976], [-47.73515934, -23.13566282], [-47.73576195, -23.13568012], [-47.73617709, -23.13568118], [-47.736857, -23.13585151], [-47.73713138, -23.13604794], [-47.73756264, -23.13631556], [-47.73822924, -23.13713085], [-47.7394044, -23.13872543], [-47.73960636, -23.13894861], [-47.73981546, -23.13911581], [-47.74009571, -23.13931316], [-47.74034511, -23.13943719], [-47.74067089, -23.13952545], [-47.74091988, -23.13954468], [-47.74109766, -23.13954642], [-47.74148692, -23.13946062], [-47.74172098, -23.1393515], [-47.74183591, -23.13887866], [-47.74195991, -23.13853235], [-47.74209129, -23.13826556], [-47.74234922, -23.1379009], [-47.74296502, -23.13729399], [-47.74364812, -23.13670366], [-47.74494025, -23.13549103], [-47.74562536, -23.13488805], [-47.74611282, -23.13434377], [-47.7465716, -23.13368644], [-47.74706735, -23.13287479], [-47.74759163, -23.13184376], [-47.74788399, -23.13107092], [-47.74820651, -23.13049876], [-47.74846889, -23.13020729], [-47.74908469, -23.12976839], [-47.74935655, -23.12953025], [-47.74945087, -23.12924883], [-47.74944076, -23.12895157], [-47.74928064, -23.12857863], [-47.74896776, -23.12809658], [-47.74888268, -23.1277547], [-47.74894349, -23.12734846], [-47.74908061, -23.12709886], [-47.74956551, -23.12648138], [-47.75038491, -23.12577783], [-47.75061308, -23.12566958], [-47.75077805, -23.12550773], [-47.75086265, -23.12521723], [-47.75101309, -23.12503183], [-47.75122598, -23.12467869], [-47.75137372, -23.12427013], [-47.75145892, -23.12386852], [-47.75145376, -23.12355773], [-47.751308, -23.12287771], [-47.75110265, -23.12237809], [-47.75085122, -23.12191349], [-47.75081991, -23.1217435], [-47.75121582, -23.1216812], [-47.75156992, -23.12158346], [-47.75192978, -23.12150472], [-47.75255618, -23.12144619], [-47.75279446, -23.12145271], [-47.75312501, -23.12155632], [-47.75331691, -23.12165206], [-47.75359424, -23.12184485], [-47.7538503, -23.121996], [-47.75399638, -23.12207617], [-47.75469609, -23.12237119], [-47.75506773, -23.12264301], [-47.75525037, -23.12282724], [-47.75540925, -23.12307008], [-47.75568047, -23.12367208], [-47.7558114, -23.12384523], [-47.75625619, -23.12413907], [-47.75714668, -23.12455962], [-47.7574209, -23.12478853], [-47.75777721, -23.12519037], [-47.75836736, -23.12570078], [-47.75865346, -23.12589993], [-47.75883954, -23.12598931], [-47.75905214, -23.12605172], [-47.75934105, -23.12609098], [-47.75984626, -23.12604812], [-47.76003664, -23.12606616], [-47.76049017, -23.12619019], [-47.76073411, -23.12623557], [-47.76108402, -23.1261929], [-47.76147834, -23.12606461], [-47.76182052, -23.12600565], [-47.76217354, -23.12611115], [-47.76250831, -23.12615874], [-47.76316963, -23.1261482], [-47.76352277, -23.12623292], [-47.76381617, -23.12634718], [-47.76406748, -23.12647661], [-47.76434717, -23.12659803], [-47.76463869, -23.12669692], [-47.76490113, -23.12675502], [-47.76518, -23.12684663], [-47.76538144, -23.12698757], [-47.76568269, -23.12727983], [-47.76604564, -23.12772413], [-47.76613281, -23.12786455], [-47.76629452, -23.12831517], [-47.76643247, -23.12864102], [-47.7664712, -23.12870624], [-47.76669577, -23.128906], [-47.76732883, -23.12943915], [-47.7676227, -23.12965097], [-47.768015, -23.12990479], [-47.76866697, -23.13037298], [-47.76912857, -23.13082315], [-47.76945687, -23.13117424], [-47.77014323, -23.13216202], [-47.77035236, -23.13251619], [-47.77057599, -23.13289662], [-47.77112699, -23.13362271], [-47.77141311, -23.13401155], [-47.7717055, -23.13432092], [-47.77194489, -23.13467974], [-47.77222349, -23.13501073], [-47.77264407, -23.13546522], [-47.77324322, -23.13595483], [-47.77363223, -23.13609751], [-47.7739761, -23.13609092], [-47.77410981, -23.1361141], [-47.7744766, -23.1362088], [-47.77494107, -23.13630393], [-47.77518004, -23.13637185], [-47.77553587, -23.13650804], [-47.77571111, -23.13661994], [-47.77594301, -23.13673119], [-47.77629496, -23.13686286], [-47.7764645, -23.13694582], [-47.77695812, -23.13707179], [-47.77759454, -23.13734926], [-47.77797152, -23.1375524], [-47.77826947, -23.13773621], [-47.77866256, -23.13803427], [-47.77911209, -23.13856295], [-47.77927351, -23.13889069], [-47.77972714, -23.13957025], [-47.77981505, -23.13975944], [-47.77985611, -23.1399403], [-47.77977167, -23.14039975], [-47.7798126, -23.14060681], [-47.7805211, -23.14168047], [-47.78063135, -23.14189415], [-47.78080382, -23.14235474], [-47.78092875, -23.14256307], [-47.78197648, -23.14396887], [-47.7824327, -23.14434309], [-47.78290408, -23.1446198], [-47.78306381, -23.14471175], [-47.78336269, -23.14472121], [-47.78367936, -23.14469009], [-47.78446581, -23.1444903], [-47.78554474, -23.14440383], [-47.78636409, -23.14445351], [-47.78718329, -23.14472272], [-47.78774244, -23.14522023], [-47.78821646, -23.14574537], [-47.78878021, -23.14706046], [-47.7890559, -23.14759286], [-47.78932164, -23.14853897], [-47.78933036, -23.14893468], [-47.78928853, -23.14985053], [-47.78915313, -23.15034499], [-47.78914913, -23.15131429], [-47.78968771, -23.15202039], [-47.79028377, -23.15237532], [-47.79096624, -23.15264662], [-47.7916449, -23.15270831], [-47.79236589, -23.15251723], [-47.79306735, -23.15213185], [-47.79356846, -23.151377], [-47.79402048, -23.15028769], [-47.7939562, -23.1494825], [-47.79365501, -23.14896626], [-47.79365124, -23.14798156], [-47.79388079, -23.14702949], [-47.79440215, -23.14651323], [-47.79506984, -23.14603825], [-47.7965522, -23.14403558], [-47.79697668, -23.1435505], [-47.79776543, -23.14270023], [-47.7988355, -23.14107788], [-47.79976588, -23.14003127], [-47.80068016, -23.13907583], [-47.80188946, -23.13830866], [-47.80374754, -23.13808901], [-47.80515259, -23.13821249], [-47.80649152, -23.13827785], [-47.80728478, -23.13845831], [-47.80794685, -23.13850541], [-47.8089643, -23.13819718], [-47.80959951, -23.13775362], [-47.81061848, -23.13713825], [-47.81183947, -23.13695283], [-47.81309285, -23.13673592], [-47.81359357, -23.13642096], [-47.81433037, -23.13616933], [-47.81507645, -23.13561871], [-47.81618576, -23.13470376], [-47.81720528, -23.13337286], [-47.81797889, -23.13258385], [-47.81859917, -23.13218446], [-47.81931671, -23.13167165], [-47.82056315, -23.13126313], [-47.82197952, -23.13105858], [-47.82283527, -23.1310432], [-47.82466356, -23.13089636], [-47.82573906, -23.13068312], [-47.82636196, -23.13054208], [-47.82720145, -23.13025287], [-47.82780599, -23.12986874], [-47.82881253, -23.12937244], [-47.83108419, -23.12802406], [-47.83258143, -23.12704103], [-47.83319936, -23.12650697], [-47.83396699, -23.12591931], [-47.83564198, -23.12432088], [-47.83579907, -23.12415169], [-47.83601172, -23.12380295], [-47.83607932, -23.1235557], [-47.83609727, -23.12327663], [-47.83604333, -23.12291325], [-47.83586806, -23.12259815], [-47.835632, -23.12232978], [-47.83529919, -23.12207275], [-47.83502132, -23.12197043], [-47.83469919, -23.12193026], [-47.83447365, -23.12191398], [-47.83424886, -23.12194287], [-47.83401325, -23.12198887], [-47.83358378, -23.12213074], [-47.83260315, -23.1227392], [-47.83220367, -23.12294081], [-47.83159591, -23.12319035], [-47.83091974, -23.12324718], [-47.83001437, -23.1232335], [-47.82975275, -23.1232026], [-47.8285317, -23.12302861], [-47.82675545, -23.12294083], [-47.82552408, -23.12308205], [-47.82440905, -23.12340081], [-47.82330432, -23.12380995], [-47.8216608, -23.12433968], [-47.82092627, -23.12474131], [-47.82044887, -23.12509344], [-47.82006461, -23.12517494], [-47.81954537, -23.12509506], [-47.81921818, -23.12489133], [-47.81885498, -23.1244643], [-47.81843017, -23.12345705], [-47.81814632, -23.12298338], [-47.81791462, -23.12282792], [-47.81731644, -23.12271519], [-47.81580971, -23.12283892], [-47.81419835, -23.12298748], [-47.81361819, -23.12298231], [-47.81325863, -23.12281004], [-47.81305987, -23.1225147], [-47.81253841, -23.12150791], [-47.81222475, -23.12035476], [-47.81209449, -23.11924666], [-47.81193796, -23.11792253], [-47.8119772, -23.11729845], [-47.812127, -23.1166342], [-47.81226402, -23.11618489], [-47.81242001, -23.11584678], [-47.81256677, -23.11559807], [-47.81290354, -23.11524266], [-47.81341753, -23.11479586], [-47.81375419, -23.11446123], [-47.81402017, -23.11419856], [-47.81414306, -23.11403557], [-47.81430524, -23.11382848], [-47.81442442, -23.11362663], [-47.81447126, -23.11343621], [-47.81446822, -23.11326094], [-47.81440843, -23.11310711], [-47.81428707, -23.11296115], [-47.81404658, -23.11281107], [-47.81373554, -23.11270767], [-47.81346507, -23.11269297], [-47.81283887, -23.11272555], [-47.81185834, -23.11291561], [-47.81057355, -23.11320735], [-47.80933022, -23.1132147], [-47.80771196, -23.11300452], [-47.80696414, -23.11274928], [-47.80671837, -23.11248353], [-47.80657257, -23.11215046], [-47.80679261, -23.11111612], [-47.80721183, -23.11028679], [-47.80847613, -23.10900939], [-47.80925087, -23.10817254], [-47.80935711, -23.10802032], [-47.8094156, -23.10784441], [-47.80944495, -23.10763856], [-47.80939532, -23.10740799], [-47.80923748, -23.1071381], [-47.80897386, -23.10692739], [-47.80865527, -23.10677426], [-47.80825267, -23.10662619], [-47.80745775, -23.1062262], [-47.80671056, -23.10565657], [-47.80648523, -23.10540898], [-47.80634589, -23.10515002], [-47.80626121, -23.10489941], [-47.80624551, -23.10471867], [-47.80628244, -23.10455983], [-47.80633523, -23.10435318], [-47.80644543, -23.10399591], [-47.80652746, -23.10380113], [-47.80669436, -23.10343145], [-47.80689878, -23.10297792], [-47.80694009, -23.10291938], [-47.80702369, -23.10280139], [-47.8072617, -23.10246725], [-47.80727546, -23.10244834], [-47.8074489, -23.10213651], [-47.80755588, -23.10183613], [-47.80759051, -23.10174504], [-47.8076519, -23.10157727], [-47.80774093, -23.10135], [-47.80846517, -23.10005672], [-47.80873534, -23.09895122], [-47.80899072, -23.09846177], [-47.80946326, -23.09750438], [-47.81028028, -23.0963994], [-47.810895, -23.09571634], [-47.81135241, -23.09524491], [-47.81355759, -23.09304639], [-47.81402205, -23.09272494], [-47.81445393, -23.09247563], [-47.81513347, -23.0921045], [-47.81578043, -23.0918046], [-47.81639496, -23.09154611], [-47.81692949, -23.09127013], [-47.81714022, -23.09111202], [-47.81751585, -23.09078296], [-47.81811002, -23.09009437], [-47.81842961, -23.0896413], [-47.81878312, -23.08904384], [-47.819665, -23.08763103], [-47.82049356, -23.08633271], [-47.82119152, -23.08538256], [-47.82226015, -23.08470678], [-47.82315704, -23.08440609], [-47.82373376, -23.08428203], [-47.8245853, -23.08406787], [-47.82514823, -23.08396723], [-47.82588957, -23.08392424], [-47.82650692, -23.08407768], [-47.82734128, -23.08458525], [-47.82785544, -23.08527848], [-47.82882677, -23.08734497], [-47.8290689, -23.08816084], [-47.82914242, -23.08830207], [-47.82931049, -23.08848164], [-47.82954567, -23.08871389], [-47.82977347, -23.08885847], [-47.82996744, -23.08893245], [-47.83013628, -23.08895031], [-47.83028866, -23.08894191], [-47.830488, -23.08891382], [-47.83063659, -23.08887921], [-47.83079698, -23.08882928], [-47.83269609, -23.08825443], [-47.83349699, -23.08801562], [-47.83452777, -23.08789339], [-47.8354461, -23.0878014], [-47.83697843, -23.08734786], [-47.83786412, -23.08652579], [-47.83882322, -23.08546189], [-47.83929066, -23.08449807], [-47.83933199, -23.08402215], [-47.83934852, -23.0838316], [-47.83918836, -23.08301789], [-47.83916358, -23.08288951], [-47.8382908, -23.08183348], [-47.83734927, -23.08127133], [-47.83585143, -23.08086137], [-47.8350655, -23.08083917], [-47.83336214, -23.08113841], [-47.83105408, -23.08189677], [-47.82991812, -23.08196976], [-47.8289306, -23.08183739], [-47.82776004, -23.08139529], [-47.82710502, -23.08095893], [-47.82631633, -23.08030069], [-47.82570303, -23.0795194], [-47.82540714, -23.07852353], [-47.82489855, -23.07649418], [-47.82469801, -23.07617083], [-47.82459231, -23.07602313], [-47.82445147, -23.07587077], [-47.82426853, -23.07574353], [-47.82405802, -23.07566225], [-47.82387077, -23.07561901], [-47.82337104, -23.07557988], [-47.82296313, -23.075533], [-47.82257384, -23.07547356], [-47.8222335, -23.07538721], [-47.82196742, -23.07528943], [-47.8217679, -23.07515941], [-47.82163493, -23.07499624], [-47.82142903, -23.07457439], [-47.82123893, -23.07411467], [-47.82116949, -23.07374037], [-47.82114225, -23.07351983], [-47.82110915, -23.07310322], [-47.82109098, -23.07222865], [-47.82113032, -23.07197044], [-47.82078603, -23.07169708], [-47.79200831, -23.04880158], [-47.79174689, -23.04837945], [-47.79186255, -23.04828781], [-47.79200592, -23.04812221], [-47.79223603, -23.04779437], [-47.79243957, -23.04731736], [-47.79259489, -23.04691422], [-47.79265011, -23.04661453], [-47.79264459, -23.04635703], [-47.79255977, -23.04576312], [-47.79227803, -23.04492443], [-47.79195608, -23.04431322], [-47.79166559, -23.04385031], [-47.79113482, -23.04322644], [-47.79071602, -23.04284878], [-47.79050901, -23.04267081], [-47.79041765, -23.04259181], [-47.79005476, -23.04235443], [-47.79001876, -23.04233078], [-47.78974712, -23.04219317], [-47.78954169, -23.04208838], [-47.78913092, -23.04185982], [-47.78863124, -23.04164713], [-47.78849291, -23.04159141], [-47.78834678, -23.04153385], [-47.78793357, -23.04140194], [-47.78591361, -23.04088803], [-47.78419191, -23.04027604], [-47.78257141, -23.03991563], [-47.78052443, -23.03972856], [-47.77851167, -23.03990389], [-47.77583022, -23.03971123], [-47.77377728, -23.03917172], [-47.77214097, -23.0388563], [-47.77074603, -23.03849317], [-47.76946967, -23.03841062], [-47.76675493, -23.03861426], [-47.7650678, -23.03868248], [-47.76414172, -23.03863039], [-47.76339593, -23.03844903], [-47.762284, -23.03810247], [-47.76146497, -23.03756301], [-47.76100005, -23.03688423], [-47.76095851, -23.03643685], [-47.76096807, -23.03610805], [-47.76121729, -23.03568459], [-47.7617857, -23.03507738], [-47.76275841, -23.03406548], [-47.76363422, -23.03273513], [-47.76443307, -23.0315562], [-47.76599277, -23.03010066], [-47.76620647, -23.02992817], [-47.76680695, -23.02952255], [-47.76729886, -23.0293441], [-47.76764665, -23.02928605], [-47.76803426, -23.02926431], [-47.76846272, -23.02927258], [-47.76896503, -23.0293408], [-47.76970044, -23.0294462], [-47.77033644, -23.02952315], [-47.7704506, -23.02952999], [-47.77282248, -23.02989933], [-47.77405612, -23.03029515], [-47.77514529, -23.03069482], [-47.77579612, -23.03092269], [-47.77612919, -23.03106601], [-47.77652596, -23.03116084], [-47.77983124, -23.03224072], [-47.78112567, -23.03240457], [-47.78177166, -23.03243906], [-47.78236909, -23.03242816], [-47.78348435, -23.03213137], [-47.78447076, -23.03145727], [-47.78489474, -23.03100925], [-47.78509495, -23.03079783], [-47.7851558, -23.03073396], [-47.78624847, -23.030082], [-47.78624945, -23.0300811], [-47.78641828, -23.02989665], [-47.78648602, -23.02982196], [-47.786536, -23.02959272], [-47.7866, -23.02929668], [-47.78660397, -23.02928224], [-47.78691203, -23.02878853], [-47.78756619, -23.02647145], [-47.78757127, -23.02643262], [-47.78770096, -23.0255081], [-47.78774557, -23.02518397], [-47.78820001, -23.02412175], [-47.78888374, -23.0232629], [-47.78963658, -23.02224896], [-47.79023643, -23.0215659], [-47.79134447, -23.0201786], [-47.79185626, -23.01915366], [-47.79194968, -23.01882613], [-47.7920491, -23.01846881], [-47.79210951, -23.01810771], [-47.79212641, -23.01785573], [-47.79209924, -23.01763428], [-47.79200993, -23.01734841], [-47.79178973, -23.01708545], [-47.7913536, -23.0166761], [-47.79071536, -23.01628483], [-47.79052851, -23.01618012], [-47.78898219, -23.01549035], [-47.78701693, -23.01485201], [-47.78411183, -23.01440283], [-47.78202552, -23.01415508], [-47.78076574, -23.01411696], [-47.77809873, -23.01424601], [-47.77642557, -23.01449962], [-47.77517235, -23.01470089], [-47.7746395, -23.01469488], [-47.77159047, -23.0150841], [-47.76984745, -23.01506992], [-47.76860508, -23.01506159], [-47.76699425, -23.01478328], [-47.76608197, -23.01436537], [-47.76516683, -23.01375412], [-47.76408434, -23.01286204], [-47.76281875, -23.01171797], [-47.75999139, -23.00953234], [-47.75899203, -23.00880231], [-47.75851587, -23.00841889], [-47.75711457, -23.00730306], [-47.75546577, -23.00630081], [-47.75314948, -23.00511568], [-47.75038453, -23.00371253], [-47.74940384, -23.00315689], [-47.74911881, -23.00298934], [-47.74808891, -23.0021525], [-47.74777462, -23.00180232], [-47.74758101, -23.00151503], [-47.74739036, -23.00103985], [-47.74735761, -23.00078222], [-47.74738619, -23.0003704], [-47.74746156, -23.00032829], [-47.74780313, -23.00014558], [-47.74814459, -22.99980296], [-47.74886104, -22.99923352], [-47.74967525, -22.99880908], [-47.75021037, -22.99856493], [-47.75029781, -22.99845602], [-47.75038527, -22.9983444], [-47.75057839, -22.99818178], [-47.75247865, -22.99777048], [-47.75303085, -22.99761313], [-47.75430427, -22.99744465], [-47.7559082, -22.99733188], [-47.75687594, -22.99738873], [-47.75787302, -22.99761374], [-47.75909233, -22.99807466], [-47.75978379, -22.99851779], [-47.76056828, -22.99926761], [-47.76111291, -22.99998199], [-47.76119641, -23.00006187], [-47.76123319, -23.00011896], [-47.76129707, -23.00021682], [-47.76130862, -23.00024759], [-47.76132067, -23.0003678], [-47.76136828, -23.00058935], [-47.761399, -23.00068345], [-47.76147182, -23.00093764], [-47.76185374, -23.00142091], [-47.76250247, -23.00182951], [-47.76323053, -23.00218787], [-47.76395547, -23.00239715], [-47.76478199, -23.00240724], [-47.76624505, -23.00218441], [-47.76804383, -23.00269577], [-47.76876807, -23.00285624], [-47.76978555, -23.00311018], [-47.77102499, -23.00365692], [-47.77215935, -23.00432876], [-47.77370313, -23.00546226], [-47.77640327, -23.00699573], [-47.77923137, -23.00833006], [-47.78006674, -23.0087096], [-47.78062913, -23.00884852], [-47.7811328, -23.00864207], [-47.78168135, -23.00806361], [-47.78228893, -23.00644828], [-47.78240043, -23.00545773], [-47.78243542, -23.00454272], [-47.78242385, -23.00395093], [-47.78206628, -23.0034624], [-47.78133697, -23.00295776], [-47.78036395, -23.00240596], [-47.77907048, -23.00173709], [-47.77795932, -23.00091725], [-47.77730054, -23.00036864], [-47.77710043, -23.00019248], [-47.77700138, -23.00009899], [-47.77532352, -22.99773806], [-47.77488262, -22.99714254], [-47.77356027, -22.99492322], [-47.77270781, -22.99354257], [-47.77080434, -22.99087794], [-47.77020382, -22.99021211], [-47.76843285, -22.98853007], [-47.76745086, -22.98785618], [-47.76673987, -22.98723592], [-47.76635088, -22.98680232], [-47.76581067, -22.98636352], [-47.76517577, -22.98556562], [-47.76460103, -22.98464964], [-47.76433727, -22.98415427], [-47.76422544, -22.9833479], [-47.76458295, -22.98180467], [-47.76517136, -22.98032483], [-47.76551125, -22.97989273], [-47.76631317, -22.97917995], [-47.76733135, -22.97853049], [-47.7683824, -22.97793808], [-47.76902462, -22.97752993], [-47.76961448, -22.97687309], [-47.77001688, -22.9764241], [-47.77089431, -22.97544604], [-47.77145724, -22.97508359], [-47.77193275, -22.97501617], [-47.77252457, -22.97528444], [-47.77356603, -22.97576704], [-47.77467317, -22.97637911], [-47.77569634, -22.97681734], [-47.77635108, -22.97699644], [-47.77744098, -22.97717568], [-47.77875815, -22.97718246], [-47.78029377, -22.97702217], [-47.78175176, -22.97696813], [-47.78246753, -22.97704358], [-47.78301716, -22.9771734], [-47.78419033, -22.97785797], [-47.78593562, -22.97866522], [-47.78725345, -22.97949496], [-47.78811793, -22.97987731], [-47.78882111, -22.98012884], [-47.78937165, -22.98027401], [-47.78991286, -22.98033691], [-47.79021341, -22.98033191], [-47.79071783, -22.98014711], [-47.79156604, -22.97970544], [-47.79278753, -22.97896366], [-47.79424808, -22.97821749], [-47.79501851, -22.97790917], [-47.7956411, -22.97769958], [-47.79622846, -22.97770394], [-47.79705684, -22.97789546], [-47.79763084, -22.97803256], [-47.79817027, -22.97883173], [-47.79864341, -22.97942552], [-47.79903188, -22.97978587], [-47.80028314, -22.98048331], [-47.80122361, -22.98070239], [-47.8033168, -22.98181903], [-47.80395749, -22.98208649], [-47.80469035, -22.98226491], [-47.80537321, -22.98229765], [-47.8062275, -22.98219381], [-47.80741167, -22.98187908], [-47.8089967, -22.98140253], [-47.81061053, -22.98121247], [-47.81221907, -22.9807125], [-47.8128642, -22.98048126], [-47.81346007, -22.98014772], [-47.81483017, -22.97932147], [-47.81611132, -22.97832861], [-47.81684162, -22.97763968], [-47.81699052, -22.97712265], [-47.81704358, -22.97665128], [-47.81704576, -22.97561416], [-47.81675904, -22.97479625], [-47.81666259, -22.97397463], [-47.81672686, -22.97320879], [-47.81688297, -22.97122824], [-47.816912, -22.9702879], [-47.81673963, -22.96962857], [-47.81581938, -22.96690355], [-47.8157655, -22.96635495], [-47.81571909, -22.96587593], [-47.81577995, -22.9638245], [-47.81600676, -22.96254169], [-47.81616003, -22.96192891], [-47.81654298, -22.96123038], [-47.81721468, -22.96073362], [-47.81799262, -22.96005843], [-47.81850543, -22.95953479], [-47.81887572, -22.95902772], [-47.81931332, -22.95832128], [-47.8196601, -22.95743376], [-47.81986111, -22.95642999], [-47.81992196, -22.95556115], [-47.82050758, -22.95430785], [-47.82146638, -22.95314464], [-47.82256995, -22.95209677], [-47.82450973, -22.95040734], [-47.82507271, -22.94998599], [-47.82524082, -22.94971837], [-47.82523688, -22.94952682], [-47.82489618, -22.94917668], [-47.82481934, -22.94893062], [-47.82461993, -22.94761078], [-47.82464043, -22.94740759], [-47.82472755, -22.94714686], [-47.82488504, -22.94685571], [-47.82522581, -22.94638916], [-47.8253217, -22.94612847], [-47.82542661, -22.94521825], [-47.82571778, -22.94391671], [-47.82597422, -22.94313541], [-47.82621966, -22.94261154], [-47.82644404, -22.94180209], [-47.82639092, -22.9414929], [-47.82627086, -22.941309], [-47.82605618, -22.94112471], [-47.8256475, -22.94091612], [-47.82530043, -22.94067797], [-47.82509311, -22.94038529], [-47.82503527, -22.94024321], [-47.82479122, -22.94008138], [-47.82451058, -22.94002239], [-47.82424607, -22.94005561], [-47.8240301, -22.94013783], [-47.82382066, -22.94048026], [-47.82352065, -22.94139328], [-47.82316922, -22.94204679], [-47.82295304, -22.94256988], [-47.82273597, -22.94287614], [-47.8223365, -22.94317802], [-47.82206062, -22.94334219], [-47.82175269, -22.94347641], [-47.82133382, -22.94355686], [-47.82081121, -22.94350769], [-47.82054298, -22.94330419], [-47.82031304, -22.94304846], [-47.82019822, -22.9427914], [-47.82017252, -22.94266301], [-47.82019487, -22.94188434], [-47.82030404, -22.94110423], [-47.82033975, -22.94058581], [-47.82043691, -22.94006584], [-47.82050316, -22.93988453], [-47.82099678, -22.93927769], [-47.82097713, -22.93910596], [-47.82082881, -22.93871957], [-47.82087088, -22.93849479], [-47.82120845, -22.93828029], [-47.82131538, -22.93815696], [-47.82140406, -22.93797484], [-47.82141738, -22.9378439], [-47.82150543, -22.93759131], [-47.82196551, -22.93725897], [-47.82217821, -22.93704665], [-47.82238957, -22.93671146], [-47.82240015, -22.93614234], [-47.82247814, -22.93575238], [-47.82250856, -22.93571547], [-47.82250833, -22.93536223], [-47.8224101, -22.93510524], [-47.82213788, -22.93472104], [-47.82199736, -22.93433468], [-47.82199171, -22.93329752], [-47.82190821, -22.93301891], [-47.82162276, -22.93275029], [-47.82128421, -22.93256909], [-47.8211417, -22.93239142], [-47.82079921, -22.93162025], [-47.82052603, -22.93123605], [-47.82020161, -22.93096094], [-47.81942433, -22.93054299], [-47.81933533, -22.93039265], [-47.81925954, -22.93013485], [-47.81929151, -22.92978174], [-47.81962351, -22.92930793], [-47.81973501, -22.92904731], [-47.81968488, -22.92852852], [-47.81971224, -22.92831994], [-47.81974255, -22.92830471], [-47.81974963, -22.92825415], [-47.81984781, -22.92812266], [-47.82022982, -22.92779271], [-47.82082674, -22.92739319], [-47.8213968, -22.92710197], [-47.82148739, -22.92692708], [-47.82142945, -22.92641007], [-47.82144356, -22.92631617], [-47.82158529, -22.92605477], [-47.82177773, -22.92599324], [-47.82219717, -22.92598597], [-47.82279225, -22.92616192], [-47.82281649, -22.92619093], [-47.82302617, -22.92619362], [-47.82318831, -22.92614732], [-47.8233333, -22.92601602], [-47.8233317, -22.92594374], [-47.82325907, -22.92583683], [-47.82288794, -22.92554076], [-47.8227741, -22.9252837], [-47.8228248, -22.92508877], [-47.8230741, -22.92476819], [-47.8230725, -22.92469591], [-47.82294372, -22.92450384], [-47.82175613, -22.92422874], [-47.8215051, -22.92410482], [-47.8210007, -22.92373861], [-47.82071544, -22.92343476], [-47.820323, -22.92291092], [-47.82010923, -22.9227465], [-47.81985512, -22.92245633], [-47.81971234, -22.92233558], [-47.81884761, -22.92186215], [-47.81741684, -22.92146221], [-47.81704402, -22.92111552], [-47.81678517, -22.92099879], [-47.81549004, -22.92117941], [-47.81538503, -22.92131177], [-47.81539432, -22.92140396], [-47.8154745, -22.9215615], [-47.81566653, -22.92178095], [-47.81567502, -22.9218388], [-47.81570717, -22.92184526], [-47.81577962, -22.92198831], [-47.81578956, -22.92214646], [-47.81574781, -22.92230619], [-47.81561124, -22.92250979], [-47.81548881, -22.92261317], [-47.81498137, -22.92286669], [-47.8142992, -22.92295052], [-47.81378443, -22.92290949], [-47.8124403, -22.92254421], [-47.81209193, -22.92238282], [-47.81198338, -22.92224594], [-47.81189764, -22.92203056], [-47.81200751, -22.92190364], [-47.81241355, -22.92164518], [-47.81252748, -22.92148395], [-47.81261384, -22.92117985], [-47.81261382, -22.92079138], [-47.81252578, -22.92025255], [-47.81230023, -22.919911], [-47.8121826, -22.91983461], [-47.81187142, -22.91984683], [-47.81175748, -22.91981111], [-47.81147769, -22.91959039], [-47.81115805, -22.91914724], [-47.81096067, -22.91863144], [-47.81075093, -22.91785811], [-47.81039203, -22.91707149], [-47.81031633, -22.91680013], [-47.81035533, -22.91641001], [-47.81046666, -22.91618553], [-47.81063438, -22.91599472], [-47.81091802, -22.9158315], [-47.81147379, -22.91566312], [-47.81190898, -22.9156189], [-47.81234395, -22.91561804], [-47.81332636, -22.91575231], [-47.81352591, -22.9156339], [-47.81353763, -22.91543249], [-47.81349939, -22.91507998], [-47.81371215, -22.91485322], [-47.81385692, -22.91476439], [-47.81391623, -22.91460383], [-47.81389054, -22.91447544], [-47.81369086, -22.91422705], [-47.8136643, -22.91407606], [-47.81370572, -22.91378713], [-47.81417171, -22.91264084], [-47.81435544, -22.91236697], [-47.81427214, -22.91225098], [-47.81401324, -22.91214689], [-47.81401008, -22.911996], [-47.81406779, -22.91176496], [-47.81400388, -22.91167254], [-47.8138057, -22.91151721], [-47.81380527, -22.91121004], [-47.81397953, -22.91048441], [-47.81418181, -22.9094147], [-47.81422776, -22.9089975], [-47.81418418, -22.90873803], [-47.81411861, -22.90858868], [-47.81349645, -22.90818853], [-47.81337803, -22.90807509], [-47.81309712, -22.90769174], [-47.8129999, -22.90743385], [-47.81267986, -22.90628783], [-47.81234824, -22.90531431], [-47.81217848, -22.90493595], [-47.81205829, -22.90478728], [-47.81100257, -22.90411423], [-47.81043751, -22.90380736], [-47.80987216, -22.90355831], [-47.80954393, -22.9034774], [-47.80941906, -22.90348681], [-47.80925088, -22.90357643], [-47.8085447, -22.90438832], [-47.80822983, -22.90455953], [-47.80791944, -22.90461602], [-47.80745246, -22.90458782], [-47.80713979, -22.9045142], [-47.80699104, -22.90442231], [-47.8068304, -22.90417408], [-47.80677813, -22.90390102], [-47.80677957, -22.90361283], [-47.80683272, -22.90331944], [-47.80759934, -22.90192781], [-47.80764485, -22.901797], [-47.80765243, -22.90145102], [-47.80760503, -22.90137402], [-47.80747778, -22.901275], [-47.80685426, -22.90115578], [-47.80668103, -22.90108638], [-47.80649009, -22.90085247], [-47.80643229, -22.90071038], [-47.80641116, -22.900451], [-47.80644009, -22.89993165], [-47.80641657, -22.89956475], [-47.80609765, -22.89918212], [-47.80604784, -22.89900303], [-47.80607438, -22.89876554], [-47.80655654, -22.89809454], [-47.80693857, -22.89774926], [-47.80793948, -22.89727743], [-47.80824569, -22.89707818], [-47.80849055, -22.89686421], [-47.8086089, -22.89659549], [-47.80865025, -22.89632102], [-47.80861267, -22.89603447], [-47.80851627, -22.89581271], [-47.80841476, -22.89544006], [-47.80844361, -22.89532454], [-47.80854937, -22.89523555], [-47.80873509, -22.8951469], [-47.80893522, -22.89509988], [-47.809036, -22.89503255], [-47.80924186, -22.89481389], [-47.80924045, -22.89470547], [-47.80917479, -22.8945769], [-47.80906314, -22.89447795], [-47.80887441, -22.8943877], [-47.80853147, -22.89432842], [-47.80839035, -22.89427361], [-47.80826255, -22.89408876], [-47.80825767, -22.89389449], [-47.80837079, -22.89369803], [-47.80862647, -22.89365756], [-47.80901928, -22.89369086], [-47.80921345, -22.89366549], [-47.80932405, -22.89358375], [-47.80932878, -22.89302545], [-47.80939406, -22.89244842], [-47.80952363, -22.89188523], [-47.80975017, -22.891233], [-47.80972138, -22.89094468], [-47.80955361, -22.89076057], [-47.80907818, -22.89067542], [-47.80823478, -22.89046763], [-47.80781054, -22.89028783], [-47.80741776, -22.89005667], [-47.80719403, -22.88975125], [-47.80706921, -22.88936404], [-47.80707148, -22.88910477], [-47.80715176, -22.88884492], [-47.80744632, -22.88843602], [-47.80807674, -22.88774758], [-47.80841499, -22.88718076], [-47.80853904, -22.88674583], [-47.80854911, -22.88648659], [-47.80850457, -22.88622891], [-47.80844768, -22.88609948], [-47.80826456, -22.8858656], [-47.80813728, -22.88577471], [-47.80804381, -22.88574721], [-47.80771797, -22.88578195], [-47.80650708, -22.88614356], [-47.80624712, -22.88606746], [-47.80609063, -22.88596831], [-47.80596956, -22.88580517], [-47.80596815, -22.88569765], [-47.80605624, -22.88543693], [-47.80622234, -22.88517384], [-47.8070084, -22.88416626], [-47.80715888, -22.8839049], [-47.8074184, -22.88328806], [-47.80752356, -22.88312137], [-47.8078066, -22.88287052], [-47.808013, -22.8827377], [-47.80812767, -22.88261984], [-47.80827115, -22.88239459], [-47.80827179, -22.88207025], [-47.80813367, -22.88180676], [-47.80791058, -22.88157362], [-47.8075085, -22.88125569], [-47.80732366, -22.88097844], [-47.80727919, -22.88070541], [-47.80729706, -22.8804462], [-47.80742415, -22.88018474], [-47.80833335, -22.87930687], [-47.80820977, -22.87906151], [-47.8081575, -22.87878935], [-47.80815363, -22.87858786], [-47.80822733, -22.87808225], [-47.80838333, -22.87768991], [-47.80858665, -22.87739174], [-47.80883259, -22.87714706], [-47.80863317, -22.87705586], [-47.80730176, -22.87657765], [-47.80719855, -22.8765492], [-47.80688636, -22.87639157], [-47.80670283, -22.87643866], [-47.80637629, -22.8764219], [-47.80617187, -22.87635507], [-47.76901022, -22.8995959], [-47.76623309, -22.90086078], [-47.76493391, -22.90164448], [-47.76405687, -22.90244817], [-47.76359992, -22.9029204], [-47.76318895, -22.90336754], [-47.76307988, -22.90352243], [-47.76277821, -22.9039529], [-47.76254877, -22.90418675], [-47.76213316, -22.90476938], [-47.7619773, -22.90510384], [-47.76179462, -22.90571283], [-47.7615683, -22.90682484], [-47.76147389, -22.90715778], [-47.76137813, -22.90737507], [-47.7611588, -22.90772461], [-47.76107174, -22.9079573], [-47.76091771, -22.90922774], [-47.76077188, -22.90969054], [-47.76045227, -22.91037298], [-47.76021896, -22.91078027], [-47.75993201, -22.91118912], [-47.75974953, -22.91139336], [-47.75922226, -22.9118779], [-47.7584698, -22.91234424], [-47.75807208, -22.91267488], [-47.75771653, -22.91314213], [-47.75732988, -22.91395526], [-47.75730708, -22.91438791], [-47.75748395, -22.91468776], [-47.75788914, -22.91514857], [-47.75814946, -22.91534581], [-47.7587032, -22.91538629], [-47.75892227, -22.91545506], [-47.75918259, -22.91565139], [-47.75944843, -22.91609349], [-47.75950999, -22.91643799], [-47.75952397, -22.9167407], [-47.75945832, -22.91734661], [-47.75947216, -22.91767733], [-47.75958187, -22.91813588], [-47.76001058, -22.91930961], [-47.76018036, -22.92002772], [-47.7602114, -22.92078946], [-47.76019516, -22.92109204], [-47.76005689, -22.92159914], [-47.75974874, -22.92213708], [-47.75957419, -22.92231335], [-47.75902995, -22.92231538], [-47.75884432, -22.92237596], [-47.75872353, -22.92252989], [-47.75855358, -22.92257609], [-47.75830402, -22.92255146], [-47.75792731, -22.92241331], [-47.75755396, -22.92237726], [-47.75730515, -22.92239599], [-47.75674383, -22.92267258], [-47.7563088, -22.92267961], [-47.75618477, -22.92271066], [-47.75595006, -22.92301042], [-47.75547738, -22.92312569], [-47.75538792, -22.92325718], [-47.75539093, -22.92342253], [-47.75527549, -22.92348885], [-47.75505812, -22.92346436], [-47.75488496, -22.92338135], [-47.75462835, -22.92340004], [-47.75448477, -22.92361891], [-47.75452131, -22.92389825], [-47.75450894, -22.92402196], [-47.75438734, -22.92414517], [-47.75340146, -22.92465287], [-47.75226769, -22.92545711], [-47.75095519, -22.92630117], [-47.75040777, -22.92670789], [-47.75040386, -22.92671058], [-47.75038525, -22.92672404], [-47.75021706, -22.92680277], [-47.75002423, -22.92693016], [-47.74957589, -22.9275912], [-47.74928821, -22.92812199], [-47.7491834, -22.92838531], [-47.74903793, -22.92859152], [-47.74877374, -22.92910616], [-47.74837938, -22.93024266], [-47.7477436, -22.93111242], [-47.74752866, -22.93135715], [-47.74700641, -22.93179379], [-47.74676784, -22.93189929], [-47.74658568, -22.93203395], [-47.74578559, -22.93244219], [-47.74547142, -22.9324606], [-47.7425865, -22.93240735], [-47.73629477, -22.93231089], [-47.73407944, -22.93234919], [-47.73018603, -22.93228371], [-47.72608371, -22.93225147], [-47.72500864, -22.93228517], [-47.72353765, -22.93230341], [-47.72280022, -22.9323089], [-47.72267146, -22.93231099], [-47.72268634, -22.93226589], [-47.72268943, -22.93206172], [-47.72258336, -22.93184529], [-47.72257946, -22.93167091], [-47.72267811, -22.93147263], [-47.72309384, -22.93108615], [-47.72318545, -22.93092487], [-47.72322159, -22.93074165], [-47.72311227, -22.93040775], [-47.72257895, -22.92967431], [-47.72246036, -22.92925364], [-47.72248459, -22.92893303], [-47.72256296, -22.92852415], [-47.72255215, -22.92836419], [-47.7222944, -22.92806211], [-47.72226961, -22.9279599], [-47.72232514, -22.92762409], [-47.72229573, -22.92730413], [-47.72222006, -22.92705712], [-47.72217089, -22.92660697], [-47.72218748, -22.92625742], [-47.72257355, -22.92507035], [-47.72262038, -22.92472004], [-47.72260554, -22.92440919], [-47.7224575, -22.92402361], [-47.72226226, -22.92370647], [-47.72198123, -22.92338349], [-47.72194123, -22.9233842], [-47.72166162, -22.92315609], [-47.72158038, -22.92303373], [-47.72157807, -22.92292441], [-47.7217782, -22.92271668], [-47.72191817, -22.92262701], [-47.72200195, -22.92247202], [-47.72198317, -22.92234183], [-47.72176692, -22.92211945], [-47.72166934, -22.92195365], [-47.72164127, -22.92174301], [-47.72176431, -22.92119431], [-47.72187539, -22.92086509], [-47.72223106, -22.92057409], [-47.7224618, -22.92030055], [-47.72256828, -22.92009508], [-47.72257386, -22.9196217], [-47.72245146, -22.91936092], [-47.72212796, -22.91895914], [-47.72122836, -22.91798361], [-47.72067603, -22.91751929], [-47.72015315, -22.9173686], [-47.7199072, -22.91722648], [-47.71966358, -22.91684495], [-47.71955889, -22.91672971], [-47.71910031, -22.91659288], [-47.71898864, -22.91650651], [-47.71895597, -22.91641962], [-47.71873009, -22.91617641], [-47.71850756, -22.9160344], [-47.71706308, -22.91535976], [-47.7156326, -22.91462646], [-47.71531217, -22.91437736], [-47.71508725, -22.91414047], [-47.71482654, -22.91367844], [-47.7146368, -22.91360163], [-47.71435403, -22.91359213], [-47.71414071, -22.91354501], [-47.71395622, -22.91340228], [-47.71394607, -22.91330014], [-47.71399006, -22.91310972], [-47.71415113, -22.91291085], [-47.71425759, -22.9127117], [-47.71433125, -22.91244916], [-47.71436836, -22.91192263], [-47.71433233, -22.91174177], [-47.71424403, -22.91166274], [-47.71425098, -22.91164109], [-47.7141098, -22.91160065], [-47.71361513, -22.911638], [-47.7127325, -22.91198785], [-47.71257349, -22.91233942], [-47.71229619, -22.9127401], [-47.71181705, -22.91330513], [-47.71132021, -22.91372461], [-47.71071265, -22.91423299], [-47.70997919, -22.91475792], [-47.70900934, -22.91534584], [-47.70857444, -22.91567527], [-47.70810395, -22.9159178], [-47.70763298, -22.91607269], [-47.70727197, -22.91626968], [-47.70694406, -22.91647947], [-47.70644251, -22.91669293], [-47.70545647, -22.91720847], [-47.70497126, -22.91746537], [-47.70459473, -22.91764782], [-47.70431074, -22.91784879], [-47.70410738, -22.91810527], [-47.70397466, -22.91828892], [-47.70352082, -22.91851706], [-47.70308105, -22.91867029], [-47.70265536, -22.9187504], [-47.70221007, -22.91884668], [-47.70178586, -22.91900811], [-47.70137883, -22.91923467], [-47.70119958, -22.9193693], [-47.70094275, -22.91959389], [-47.7007182, -22.91980328], [-47.70031431, -22.92016176], [-47.70001995, -22.92046747], [-47.69984141, -22.92064637], [-47.69967928, -22.92085517], [-47.69956267, -22.92095035], [-47.69932251, -22.92115967], [-47.69916653, -22.92131609], [-47.69866637, -22.92196138], [-47.69847586, -22.92235343], [-47.6981692, -22.9232671], [-47.69804367, -22.92372362], [-47.69788544, -22.92409957], [-47.69772301, -22.92469684], [-47.69747987, -22.92558733], [-47.69740214, -22.92604227], [-47.69739293, -22.92679028], [-47.69744891, -22.92756571], [-47.6975415, -22.92825278], [-47.69766063, -22.928734], [-47.69781294, -22.92921449], [-47.69790022, -22.92963863], [-47.69795548, -22.93003371], [-47.69799988, -22.93045222], [-47.6979925, -22.93071599], [-47.69785417, -22.93119232], [-47.69774752, -22.93141855], [-47.69746435, -22.93180743], [-47.69732647, -22.93203713], [-47.69719568, -22.93221988], [-47.69699044, -22.93262721], [-47.69670339, -22.93334944], [-47.69647487, -22.93373497], [-47.69629622, -22.93392833], [-47.69618646, -22.93401812], [-47.69588214, -22.93418465], [-47.69553753, -22.93440337], [-47.69523389, -22.93462049], [-47.69500918, -22.93485156], [-47.69483218, -22.93509641], [-47.69461061, -22.93545939], [-47.69442936, -22.93593189], [-47.69434873, -22.93621156], [-47.69436046, -22.93654227], [-47.69435477, -22.93701836], [-47.69432794, -22.93727119], [-47.69425715, -22.93753554], [-47.69406909, -22.93800439], [-47.69379543, -22.93876734], [-47.69338595, -22.93957026], [-47.69296093, -22.94052939], [-47.69262153, -22.94135615], [-47.69223931, -22.94199929], [-47.69198454, -22.94236301], [-47.69158365, -22.94286151], [-47.6911433, -22.94343299], [-47.69045629, -22.94431672], [-47.69003826, -22.94474105], [-47.68984398, -22.94493522], [-47.68956444, -22.94519581], [-47.68921435, -22.94551026], [-47.6884776, -22.94588872], [-47.68807203, -22.9461812], [-47.68754437, -22.94666641], [-47.68692017, -22.94714661], [-47.6864479, -22.94766732], [-47.68602325, -22.94821718], [-47.68570911, -22.94872062], [-47.68549018, -22.94928868], [-47.6852564, -22.94989371], [-47.685059, -22.9502848], [-47.68476843, -22.95075945], [-47.68441148, -22.95124099], [-47.68421389, -22.95149747], [-47.68403393, -22.95174229], [-47.68387626, -22.95201162], [-47.68381115, -22.95213507], [-47.68374331, -22.9523904], [-47.68365632, -22.9525842], [-47.68356865, -22.9527274], [-47.68350676, -22.95280117], [-47.68340573, -22.95289461], [-47.68326662, -22.95299419], [-47.68287502, -22.95322891], [-47.68236524, -22.95348653], [-47.68177342, -22.95375998], [-47.68066493, -22.95446718], [-47.68011818, -22.95487185], [-47.67980822, -22.95515577], [-47.67935536, -22.95568378], [-47.6787975, -22.95631607], [-47.67844353, -22.95678405], [-47.67816672, -22.95723527], [-47.67805396, -22.95749488], [-47.67790234, -22.95789253], [-47.67779955, -22.95828229], [-47.67773452, -22.95855479], [-47.67767846, -22.95895925], [-47.67759262, -22.95945118], [-47.67751705, -22.95969111], [-47.67731588, -22.96021769], [-47.677158, -22.96068306], [-47.67696198, -22.96116269], [-47.67658495, -22.96189526], [-47.67635804, -22.96248404], [-47.67614502, -22.96286872], [-47.67599133, -22.9631209], [-47.67596627, -22.9632337], [-47.67596765, -22.9634939], [-47.67602239, -22.96380496], [-47.67622126, -22.96415831], [-47.67632381, -22.96446871], [-47.67636586, -22.96494413], [-47.67640632, -22.96535992], [-47.67644538, -22.96584616], [-47.67667733, -22.96621685], [-47.67695324, -22.96657872], [-47.67708292, -22.96692088], [-47.67712873, -22.96725719], [-47.67710257, -22.96755519], [-47.67688311, -22.96803741], [-47.67631772, -22.96877715], [-47.67582656, -22.96933838], [-47.67540318, -22.96982137], [-47.67506034, -22.97037704], [-47.67473444, -22.97087316], [-47.67424106, -22.97147775], [-47.67397521, -22.97188384], [-47.67360154, -22.97237249], [-47.67335407, -22.97264045], [-47.67306847, -22.97292176], [-47.67284688, -22.97310403], [-47.67259327, -22.97325631], [-47.67224923, -22.97335573], [-47.67222084, -22.97337185], [-47.67165499, -22.97352796], [-47.67078896, -22.97379093], [-47.67022355, -22.97403557], [-47.66983663, -22.97445278], [-47.66962339, -22.97486726], [-47.66954952, -22.97514604], [-47.66951229, -22.9756599], [-47.66955313, -22.97617235], [-47.66967176, -22.97656595], [-47.66988341, -22.97706845], [-47.67005154, -22.97750566], [-47.67018658, -22.97792826], [-47.67033796, -22.9783943], [-47.67048232, -22.97889012], [-47.6706274, -22.97943021], [-47.67068008, -22.97975843], [-47.67068402, -22.98007736], [-47.67042509, -22.98062803], [-47.67014771, -22.98099882], [-47.66996178, -22.98125172], [-47.66963648, -22.98164124], [-47.66930362, -22.98198825], [-47.66918231, -22.98220355], [-47.66916038, -22.98228203], [-47.66911482, -22.98239473], [-47.6690529, -22.98246939], [-47.66896762, -22.9825331], [-47.66865979, -22.98261192], [-47.66803543, -22.98275416], [-47.66767982, -22.98282732], [-47.66721124, -22.98286375], [-47.66676093, -22.98294545], [-47.66639042, -22.98306189], [-47.6661536, -22.9831754], [-47.66595941, -22.98334063], [-47.66571075, -22.98363929], [-47.66551008, -22.98390657], [-47.66528236, -22.98445468], [-47.66514406, -22.98505926], [-47.66491993, -22.98581969], [-47.66468271, -22.98664691], [-47.66454183, -22.98719366], [-47.66412399, -22.98852315], [-47.66383366, -22.98909352], [-47.66366882, -22.98956787], [-47.66364252, -22.98988393], [-47.66372046, -22.99022764], [-47.66393245, -22.99051151], [-47.66445212, -22.99106799], [-47.66510275, -22.99143182], [-47.66600707, -22.99179876], [-47.6668964, -22.99222525], [-47.66739195, -22.99241481], [-47.66785796, -22.99264939], [-47.66809121, -22.99280688], [-47.66819599, -22.99290861], [-47.66822243, -22.9930551], [-47.66821933, -22.99324661], [-47.66805844, -22.99355114], [-47.66776984, -22.99383513], [-47.66730735, -22.99415166], [-47.66690544, -22.99429143], [-47.66644796, -22.99442368], [-47.66576845, -22.99464061], [-47.66511591, -22.9949164], [-47.66451788, -22.99521325], [-47.66406975, -22.9954115], [-47.66352749, -22.99568514], [-47.66310961, -22.99588354], [-47.66228515, -22.99634544], [-47.6616872, -22.99662782], [-47.66119049, -22.99679057], [-47.6606444, -22.99688802], [-47.6601063, -22.99695569], [-47.66003218, -22.99694717], [-47.65996965, -22.99712031], [-47.65985102, -22.99737265], [-47.65985983, -22.99752899], [-47.66000734, -22.99782608], [-47.6599996, -22.99861924], [-47.65995321, -22.99902825], [-47.65997931, -22.99955238], [-47.6600387, -23.0000577], [-47.66013998, -23.00041417], [-47.66006554, -23.00062158], [-47.65993094, -23.00077084], [-47.65933412, -23.00102251], [-47.65924984, -23.0010817], [-47.65920666, -23.00112213], [-47.65917614, -23.00116533], [-47.65914949, -23.00121488], [-47.65913046, -23.00129519], [-47.6591361, -23.00133135], [-47.6591671, -23.00136946], [-47.65947791, -23.00161139], [-47.65953507, -23.00167944], [-47.65955915, -23.00173287], [-47.65956472, -23.00177897], [-47.65955474, -23.00181596], [-47.65952428, -23.00185013], [-47.65947528, -23.00188421], [-47.65938922, -23.00191357], [-47.65930724, -23.00191586], [-47.65920585, -23.00189816], [-47.6589936, -23.00181665], [-47.65875843, -23.00165281], [-47.65865325, -23.00161794], [-47.65859669, -23.00161042], [-47.65854098, -23.00162548], [-47.65850466, -23.00166053], [-47.65847912, -23.0016875], [-47.65843658, -23.00178214], [-47.65842263, -23.00182904], [-47.65842223, -23.00189499], [-47.65843627, -23.00199354], [-47.65852481, -23.00235898], [-47.65860827, -23.00291773], [-47.65888987, -23.00411533], [-47.65905731, -23.0049871], [-47.65905925, -23.00515063], [-47.65904827, -23.00551284], [-47.65898295, -23.00566247], [-47.65878115, -23.00594871], [-47.65871767, -23.00611642], [-47.65868464, -23.00625357], [-47.65867479, -23.00642878], [-47.65868738, -23.00660592], [-47.65873426, -23.00676064], [-47.6588435, -23.00693106], [-47.65920466, -23.00740271], [-47.65955935, -23.007653], [-47.66011815, -23.00788176], [-47.66102835, -23.00842131], [-47.66126348, -23.00859328], [-47.66137595, -23.00871492], [-47.6614716, -23.00887532], [-47.66148101, -23.0090949], [-47.66146066, -23.00923211], [-47.66145052, -23.0092944], [-47.66142263, -23.00938821], [-47.66128721, -23.00967208], [-47.66119259, -23.00982518], [-47.66115505, -23.00989996], [-47.66113134, -23.00994772], [-47.66110935, -23.01003343], [-47.66110114, -23.01010024], [-47.66122565, -23.0109745], [-47.6612293, -23.0113386], [-47.6611982, -23.01147756], [-47.66115264, -23.01158845], [-47.6609098, -23.01188261], [-47.66084969, -23.01197715], [-47.66081885, -23.01207456], [-47.66080385, -23.01213321], [-47.66079632, -23.0122479], [-47.66086437, -23.01261504], [-47.66085751, -23.01278034], [-47.66082925, -23.01293467], [-47.66075962, -23.01315113], [-47.66060778, -23.01340692], [-47.66058166, -23.01352965], [-47.660562, -23.01371294], [-47.66075961, -23.01395879], [-47.66084341, -23.01414262], [-47.66092146, -23.01430835], [-47.66096154, -23.01445762], [-47.66096563, -23.01458864], [-47.6609236, -23.0150835], [-47.66096627, -23.0152897], [-47.66101925, -23.01540471], [-47.66115111, -23.01554813], [-47.66146106, -23.0157774], [-47.66164461, -23.01625175], [-47.66197032, -23.01661842], [-47.66271083, -23.01763137], [-47.66278566, -23.01784677], [-47.66281234, -23.01811432], [-47.66283235, -23.01819483], [-47.66287394, -23.01825829], [-47.66285005, -23.01833495], [-47.66281245, -23.01858139], [-47.66273222, -23.01877611], [-47.6622708, -23.01954434], [-47.66210881, -23.01986331], [-47.66201047, -23.02014648], [-47.66187567, -23.02113231], [-47.6616939, -23.02181706], [-47.66145241, -23.02236871], [-47.66117071, -23.02295176], [-47.66102709, -23.02313621], [-47.66100552, -23.02331317], [-47.6609666, -23.0234548], [-47.66087395, -23.02360339], [-47.66069299, -23.02382921], [-47.66064194, -23.02387953], [-47.66056749, -23.02392341], [-47.66047522, -23.02400966], [-47.66037662, -23.02417448], [-47.66026394, -23.02456778], [-47.65995999, -23.02495558], [-47.65993754, -23.02511717], [-47.65994905, -23.02531147], [-47.66002873, -23.02569222], [-47.660038, -23.02593438], [-47.66009626, -23.02598437], [-47.66022882, -23.02633649], [-47.66046338, -23.02676954], [-47.66062638, -23.0269312], [-47.66077704, -23.02703497], [-47.66113392, -23.02725454], [-47.66120496, -23.02745095], [-47.66128454, -23.02784977], [-47.66129763, -23.02826722], [-47.66127158, -23.0283773], [-47.6611764, -23.02862164], [-47.66106101, -23.02881889], [-47.6609486, -23.02900621], [-47.66075098, -23.02924188], [-47.66052113, -23.029481], [-47.66025327, -23.02970998], [-47.65997109, -23.02988739], [-47.6598406, -23.02999693], [-47.65976877, -23.03009232], [-47.65973012, -23.03018788], [-47.65972052, -23.03032244], [-47.65975005, -23.03044275], [-47.65998571, -23.03085683], [-47.66001449, -23.0311], [-47.65997865, -23.03121545], [-47.65990089, -23.03132255], [-47.65979881, -23.03141598], [-47.65962544, -23.03151445], [-47.65921932, -23.0316867], [-47.65859204, -23.03211166], [-47.65835148, -23.03234439], [-47.65816937, -23.0325964], [-47.65800876, -23.03284491], [-47.65749914, -23.03318013], [-47.65616232, -23.03374954], [-47.65589578, -23.0339198], [-47.65556982, -23.03422978], [-47.65544973, -23.03439448], [-47.65491733, -23.03526259], [-47.65473033, -23.03551547], [-47.65454884, -23.03566359], [-47.65440685, -23.03573783], [-47.65401632, -23.03591014], [-47.65387954, -23.03625092], [-47.65379568, -23.03735536], [-47.65375557, -23.03752951], [-47.65368117, -23.03772335], [-47.65345333, -23.03810882], [-47.6531511, -23.03852733], [-47.65271209, -23.0392839], [-47.65245916, -23.03978035], [-47.65223107, -23.04036457], [-47.6521514, -23.04078063], [-47.6521173, -23.04109032], [-47.65207798, -23.04193119], [-47.65211408, -23.0424138], [-47.6521774, -23.04275291], [-47.6520977, -23.0431762], [-47.65202886, -23.04325805], [-47.65194846, -23.04331544], [-47.65184087, -23.04335102], [-47.65175196, -23.0433632], [-47.65106991, -23.04331445], [-47.65026617, -23.04321176], [-47.64956146, -23.04303821], [-47.64887811, -23.04272475], [-47.64768315, -23.04179336], [-47.64650338, -23.04093431], [-47.64556168, -23.04041078], [-47.6453403, -23.04037799], [-47.64512836, -23.04039585], [-47.64486829, -23.04046313], [-47.64471069, -23.04053367], [-47.64359917, -23.04127039], [-47.64009717, -23.04276684], [-47.63898661, -23.04302924], [-47.63848661, -23.04306182], [-47.63780785, -23.04295611], [-47.63694948, -23.04269226], [-47.6364212, -23.04256205], [-47.63601716, -23.04254725], [-47.63547017, -23.04260124], [-47.63335427, -23.04330994], [-47.63267992, -23.04343642], [-47.63192984, -23.04349563], [-47.63094796, -23.0433151], [-47.63014597, -23.04324664], [-47.62959106, -23.04331684], [-47.62943851, -23.04336028], [-47.62929253, -23.04344351], [-47.62916783, -23.04355938], [-47.62909898, -23.04364122], [-47.62903755, -23.04378634], [-47.62895656, -23.04393678], [-47.62894477, -23.04410294], [-47.62911854, -23.04503439], [-47.62908744, -23.04656461], [-47.62909173, -23.04681397], [-47.62916203, -23.04712151], [-47.62926307, -23.04735514], [-47.62945676, -23.047601], [-47.63004968, -23.04816612], [-47.63083913, -23.04883618], [-47.63108157, -23.04909405], [-47.63132081, -23.04939527], [-47.63148197, -23.04969245], [-47.63157113, -23.04995221], [-47.63160941, -23.05023066], [-47.63156506, -23.05216644], [-47.63151429, -23.05356916], [-47.63153186, -23.05450339], [-47.63152504, -23.05481322], [-47.63148943, -23.0550434], [-47.63135913, -23.05558384], [-47.63113906, -23.05627106], [-47.6307259, -23.05692472], [-47.63066382, -23.05701653], [-47.63054605, -23.05711527], [-47.63030501, -23.05725491], [-47.629647, -23.05740947], [-47.62926502, -23.05760526], [-47.62913753, -23.05769672], [-47.62903525, -23.05781542], [-47.62897087, -23.05796323], [-47.62896042, -23.05807158], [-47.62896817, -23.05839143], [-47.62901526, -23.05882171], [-47.62921334, -23.05961507], [-47.6290527, -23.05985361], [-47.62896458, -23.06004917], [-47.62892354, -23.06021066], [-47.62891987, -23.06032899], [-47.62892898, -23.06043203], [-47.6290369, -23.06081385], [-47.6290818, -23.06112576], [-47.62907089, -23.06130819], [-47.62904363, -23.06145259], [-47.62891697, -23.06172022], [-47.62828547, -23.06262475], [-47.62809392, -23.0629652], [-47.6279979, -23.06317518], [-47.62795981, -23.06333217], [-47.62794067, -23.0635805], [-47.6279672, -23.06432867], [-47.62794848, -23.06451106], [-47.62788874, -23.06469503], [-47.62740334, -23.06565183], [-47.62694408, -23.06679668], [-47.62664292, -23.06733259], [-47.62621664, -23.06820027], [-47.62617112, -23.06891462], [-47.62618873, -23.06952812], [-47.62613782, -23.07094258], [-47.62618212, -23.07166013], [-47.62612041, -23.07261921], [-47.62600464, -23.07348134], [-47.62605696, -23.07401012], [-47.62625661, -23.07470953], [-47.62638648, -23.07532816], [-47.62631563, -23.07572437], [-47.6262428, -23.07581613], [-47.62616336, -23.0758708], [-47.62585075, -23.07589712], [-47.62569369, -23.07587369], [-47.62526806, -23.07570606], [-47.62479403, -23.07531775], [-47.62424135, -23.07485944], [-47.6237668, -23.07440065], [-47.6231907, -23.07394131], [-47.62297024, -23.07375491], [-47.62250717, -23.0734868], [-47.62113937, -23.0730069], [-47.62035782, -23.07276776], [-47.62014137, -23.07271961], [-47.61991048, -23.07263885], [-47.61977526, -23.07256042], [-47.61917987, -23.07206844], [-47.61874539, -23.07175892], [-47.61831444, -23.07151084], [-47.61736759, -23.0711669], [-47.61652862, -23.07090304], [-47.61588768, -23.07051198], [-47.61504893, -23.06990844], [-47.61395749, -23.06912372], [-47.61327341, -23.06876403], [-47.61283369, -23.06866857], [-47.61260814, -23.06866914], [-47.61234631, -23.06869571], [-47.61111022, -23.06900331], [-47.60893001, -23.06961106], [-47.6087172, -23.06960446], [-47.60821884, -23.0695168], [-47.60762757, -23.06945391], [-47.6066675, -23.06950191], [-47.60578958, -23.06967955], [-47.60480225, -23.07001648], [-47.60378411, -23.07028548], [-47.60325128, -23.07039546], [-47.60273168, -23.07057145], [-47.60245223, -23.07090597], [-47.60227986, -23.07098632], [-47.60129828, -23.07163945], [-47.60030448, -23.07206666], [-47.599447, -23.07254973], [-47.59878379, -23.07273756], [-47.59841438, -23.07293877], [-47.59827897, -23.07304191], [-47.59783296, -23.07361037], [-47.59752073, -23.07387694], [-47.59727804, -23.07396051], [-47.59696047, -23.07399758], [-47.59684791, -23.07404032], [-47.59646736, -23.07400206], [-47.59625102, -23.07393761], [-47.59591152, -23.07389416], [-47.59553735, -23.0739264], [-47.59531588, -23.07389986], [-47.59438456, -23.07432467], [-47.59400623, -23.07469386], [-47.59378373, -23.07497447], [-47.59314348, -23.07597638], [-47.59286161, -23.07652497], [-47.59264172, -23.07715161], [-47.59258133, -23.07757587], [-47.5928442, -23.0779902], [-47.59365331, -23.07864067], [-47.5937998, -23.07878604], [-47.59420071, -23.07929509], [-47.59455101, -23.07963041], [-47.59476201, -23.07976529], [-47.59491829, -23.079908], [-47.59525585, -23.08010141], [-47.59561416, -23.08025699], [-47.59599071, -23.0803115], [-47.59625445, -23.08044577], [-47.59674361, -23.08090111], [-47.59715949, -23.0812133], [-47.59755812, -23.08162657], [-47.59778048, -23.08196659], [-47.59781875, -23.08208876], [-47.59832756, -23.08237527], [-47.59862746, -23.08265699], [-47.59903128, -23.08287335], [-47.59928204, -23.08305181], [-47.60006051, -23.08391799], [-47.60037431, -23.08416456], [-47.60046746, -23.08425451], [-47.60135206, -23.08471926], [-47.60235683, -23.0853238], [-47.60245582, -23.0854192], [-47.60254766, -23.08556155], [-47.60259671, -23.08567655], [-47.60261169, -23.08577601], [-47.60269629, -23.08643416], [-47.6027434, -23.08654734], [-47.60289065, -23.08672974], [-47.60302205, -23.08679552], [-47.60341149, -23.08682297], [-47.60374899, -23.08717988], [-47.60405417, -23.08725113], [-47.60424082, -23.08738135], [-47.60425849, -23.08766783], [-47.60419838, -23.08805415], [-47.60402955, -23.0883405], [-47.60362947, -23.08874933], [-47.60352775, -23.08892583], [-47.60342868, -23.08929568], [-47.60344518, -23.08976283], [-47.60424706, -23.09034184], [-47.60445147, -23.09059411], [-47.60462631, -23.09088869], [-47.60468667, -23.0910688], [-47.60468976, -23.09119439], [-47.60457953, -23.09193276], [-47.60465168, -23.09225206], [-47.60478386, -23.09234855], [-47.60488916, -23.09237353], [-47.60512856, -23.09235046], [-47.60540456, -23.09225532], [-47.60554601, -23.09227779], [-47.60576022, -23.09237473], [-47.60602381, -23.09268696], [-47.60610625, -23.09322945], [-47.60623278, -23.09359603], [-47.60634665, -23.09380715], [-47.6066298, -23.09411768], [-47.6069701, -23.09434721], [-47.60713314, -23.09450531], [-47.6076647, -23.09521379], [-47.60780811, -23.09553891], [-47.60803461, -23.09645801], [-47.60813982, -23.09801334], [-47.60819533, -23.09834068], [-47.60838338, -23.09886298], [-47.60860847, -23.09924274], [-47.60880391, -23.09937571], [-47.60905775, -23.09968969], [-47.60929538, -23.10009482], [-47.60941866, -23.10021113], [-47.60961265, -23.1002655], [-47.60999722, -23.10029652], [-47.61016865, -23.10036612], [-47.61037213, -23.10061658], [-47.61046074, -23.10096126], [-47.61061997, -23.10110488], [-47.61091805, -23.10122305], [-47.61117768, -23.10124526], [-47.61146114, -23.10120616], [-47.61171357, -23.10128434], [-47.6117909, -23.1015621], [-47.61181324, -23.10188564], [-47.61192549, -23.10219883], [-47.61219644, -23.10243611], [-47.61270354, -23.10270268], [-47.61279367, -23.10280978], [-47.61287658, -23.10297917], [-47.61290355, -23.1031889], [-47.61287169, -23.10389428], [-47.61301587, -23.10425463], [-47.61309831, -23.10434361], [-47.61333771, -23.10447682], [-47.61376171, -23.10460562], [-47.61370778, -23.10479233], [-47.61347073, -23.10505482], [-47.61334712, -23.10514268], [-47.61295241, -23.10531939], [-47.61281701, -23.10541621], [-47.61269097, -23.10557813], [-47.61262918, -23.10577112], [-47.61275917, -23.10621269], [-47.6129494, -23.10639803], [-47.61307292, -23.1064782], [-47.61325234, -23.10652164], [-47.61354132, -23.10653768], [-47.61389608, -23.10649988], [-47.61495795, -23.10630333], [-47.61562923, -23.10625008], [-47.61586219, -23.10632001], [-47.61603609, -23.1064646], [-47.61608139, -23.1065588], [-47.61603855, -23.10684404], [-47.61562889, -23.107373], [-47.6153672, -23.10797685], [-47.61525184, -23.10814786], [-47.61509796, -23.10823465], [-47.61477536, -23.10828348], [-47.61449943, -23.10851595], [-47.61436473, -23.10880972], [-47.61441676, -23.10907379], [-47.61455849, -23.10936004], [-47.61476328, -23.10956081], [-47.61484512, -23.10959288], [-47.61526285, -23.10963492], [-47.61544547, -23.10994307], [-47.6156711, -23.11009246], [-47.61587623, -23.11008726], [-47.61601827, -23.11001937], [-47.61640615, -23.10969085], [-47.61659727, -23.10958439], [-47.61673421, -23.10955171], [-47.61687965, -23.10956515], [-47.61702236, -23.10969873], [-47.61708735, -23.10992132], [-47.61711293, -23.1101988], [-47.61700906, -23.11101852], [-47.61702139, -23.11153623], [-47.61708973, -23.11169289], [-47.61727727, -23.11184298], [-47.61770079, -23.11189859], [-47.61782449, -23.11195075], [-47.61800367, -23.11218661], [-47.61801033, -23.11236823], [-47.61795381, -23.11250163], [-47.61795421, -23.11259106], [-47.61807829, -23.11289077], [-47.61818172, -23.11306026], [-47.61844895, -23.11327311], [-47.61874979, -23.11342291], [-47.61891962, -23.11359367], [-47.619058, -23.11394856], [-47.61920477, -23.11421405], [-47.61948095, -23.11440165], [-47.61993098, -23.1145893], [-47.62023649, -23.11492702], [-47.62034246, -23.11500348], [-47.62051792, -23.11505774], [-47.62077528, -23.11498054], [-47.62092574, -23.11497323], [-47.62133944, -23.11534586], [-47.62163955, -23.1154568], [-47.62192557, -23.11532736], [-47.62297943, -23.11455345], [-47.62324798, -23.11440494], [-47.62356104, -23.11432262], [-47.62428904, -23.11426332], [-47.6243831, -23.11421595], [-47.62455001, -23.11392325], [-47.62461501, -23.11352972], [-47.624452, -23.11227764], [-47.62442414, -23.11158729], [-47.62452991, -23.11107745], [-47.62466854, -23.11077737], [-47.62489891, -23.11048681], [-47.625159, -23.11028586], [-47.62591557, -23.10987439], [-47.6267511, -23.10933144], [-47.62702547, -23.10918657], [-47.62732702, -23.10906895], [-47.62745716, -23.1090299], [-47.62756747, -23.10903772], [-47.62762784, -23.10906605], [-47.62767543, -23.10910786], [-47.62774597, -23.1092284], [-47.62778227, -23.10935687], [-47.62777844, -23.10949959], [-47.62775451, -23.10957715], [-47.62774938, -23.10961778], [-47.62767624, -23.11006456], [-47.62768849, -23.11029048], [-47.62787462, -23.11113074], [-47.6283435, -23.11235827], [-47.62912908, -23.11385762], [-47.63010217, -23.11582773], [-47.6301674, -23.11601599], [-47.6302252, -23.11629816], [-47.63025477, -23.11656663], [-47.63025635, -23.11693703], [-47.63010873, -23.11851356], [-47.6294226, -23.12185333], [-47.62888527, -23.12513337], [-47.62859926, -23.12587984], [-47.62810913, -23.12646892], [-47.62720621, -23.12730511], [-47.62706663, -23.12744528], [-47.62615817, -23.12822904], [-47.6254951, -23.1288217], [-47.62527089, -23.12905898], [-47.62490292, -23.12947888], [-47.62450776, -23.13033677], [-47.62442605, -23.13059108], [-47.6240554, -23.13205076], [-47.6240289, -23.13238036], [-47.62405434, -23.13283671], [-47.62415079, -23.13581028], [-47.62412378, -23.1360658], [-47.62408687, -23.13634023], [-47.62407617, -23.13695176], [-47.62408427, -23.13736917], [-47.62419134, -23.13773924], [-47.62432078, -23.1379685], [-47.62447578, -23.1381744], [-47.62495829, -23.13849139], [-47.62523905, -23.13873682], [-47.62536073, -23.13895791], [-47.62555232, -23.1394016], [-47.62563911, -23.13989081], [-47.62556239, -23.14043784], [-47.62535021, -23.14093356], [-47.62506785, -23.14124912], [-47.62442153, -23.14180934], [-47.62370615, -23.14216592], [-47.62316414, -23.14229579], [-47.62263514, -23.14237603], [-47.62161366, -23.14232352], [-47.62125852, -23.14225474], [-47.62089743, -23.14219857], [-47.62052606, -23.14207008], [-47.62017652, -23.1418875], [-47.61873146, -23.14116145], [-47.61691625, -23.13996631], [-47.61473222, -23.13870771], [-47.61293456, -23.13783332], [-47.6124021, -23.13754042], [-47.61194863, -23.13726962], [-47.6117598, -23.13716379], [-47.6116568, -23.13707921], [-47.61146651, -23.13689659], [-47.61109091, -23.13651691], [-47.61073601, -23.13610934], [-47.61057077, -23.13583018], [-47.6105372, -23.13573243], [-47.61043463, -23.135581], [-47.61022927, -23.1351607], [-47.61008802, -23.13494763], [-47.60888363, -23.13342512], [-47.6086487, -23.13319797], [-47.60809879, -23.13273783], [-47.60737162, -23.13219721], [-47.6068872, -23.13188286], [-47.60655635, -23.13168771], [-47.60629725, -23.13157426], [-47.60503173, -23.13105776], [-47.60414814, -23.13084238], [-47.60383797, -23.13077291], [-47.60357341, -23.13074976], [-47.602536, -23.1306076], [-47.6017949, -23.13056284], [-47.60125082, -23.13056343], [-47.60077988, -23.1305834], [-47.59898807, -23.13079025], [-47.59730399, -23.13110247], [-47.5971111, -23.13117276], [-47.59694548, -23.13125586], [-47.59646842, -23.13161365], [-47.59610281, -23.1319567], [-47.59596549, -23.13219353], [-47.59590479, -23.13236393], [-47.5958558, -23.13253711], [-47.59586368, -23.13267627], [-47.59592354, -23.13293317], [-47.59608367, -23.13324302], [-47.59695877, -23.13460932], [-47.59730361, -23.13535563], [-47.59741916, -23.13561103], [-47.59743784, -23.13574213], [-47.59745817, -23.13592111], [-47.59743847, -23.13609626], [-47.59737082, -23.13628289], [-47.59732929, -23.13636035], [-47.59723825, -23.13654052], [-47.5970385, -23.1369125], [-47.59664286, -23.13751466], [-47.59545283, -23.13919465], [-47.59386471, -23.14094827], [-47.59209849, -23.14259339], [-47.5917833, -23.14283915], [-47.59156068, -23.14297069], [-47.591211, -23.14311327], [-47.59089368, -23.14323616], [-47.59007037, -23.14350255], [-47.58832462, -23.14425338], [-47.58819421, -23.14432672], [-47.58799808, -23.14444125], [-47.58780291, -23.14455669], [-47.58745619, -23.14484201], [-47.58704541, -23.14521099], [-47.58659626, -23.1456213], [-47.58616134, -23.14609584], [-47.58595766, -23.14646508], [-47.58572678, -23.14681158], [-47.58550915, -23.14722139], [-47.58540439, -23.14740418], [-47.58531688, -23.14763676], [-47.58507562, -23.14836985], [-47.58488033, -23.14879876], [-47.58473739, -23.14899399], [-47.58455361, -23.14916008], [-47.58439744, -23.14928567], [-47.58396028, -23.14965358], [-47.58357833, -23.15009137], [-47.58339975, -23.15035595], [-47.58335376, -23.15051559], [-47.58332546, -23.15065817], [-47.58336479, -23.1510622], [-47.58344169, -23.15125145], [-47.58355861, -23.15144634], [-47.5836866, -23.15159251], [-47.58397023, -23.15184074], [-47.58440803, -23.15211604], [-47.58553077, -23.15267345], [-47.58665351, -23.15323175], [-47.58692664, -23.15329563], [-47.58732297, -23.15334303], [-47.58759153, -23.1533581], [-47.58790139, -23.15333364], [-47.58821937, -23.15326226], [-47.58896339, -23.15302796], [-47.58993436, -23.1526007], [-47.59085729, -23.1520503], [-47.5918481, -23.15127714], [-47.59308955, -23.15012054], [-47.59332113, -23.14996465], [-47.59363492, -23.14978573], [-47.59401315, -23.14961169], [-47.5942256, -23.14954241], [-47.59451225, -23.14947988], [-47.59487496, -23.14943854], [-47.59530565, -23.14945992], [-47.59548049, -23.14946451], [-47.59568345, -23.14950088], [-47.5960512, -23.14958604], [-47.59685418, -23.14989316], [-47.59716096, -23.15003941], [-47.59795353, -23.15044674], [-47.59940952, -23.15129228], [-47.60014443, -23.15155384], [-47.60037935, -23.15163554], [-47.60106604, -23.15180016], [-47.60127106, -23.15182208], [-47.60147133, -23.15182228], [-47.60201289, -23.15177199], [-47.60268828, -23.15172153], [-47.60297964, -23.15168611], [-47.60328599, -23.15159927], [-47.60425593, -23.15117102], [-47.60522471, -23.15061989], [-47.60666822, -23.14931976], [-47.60774212, -23.14852167], [-47.60801072, -23.14837861], [-47.60821341, -23.14830565], [-47.60831908, -23.14828093], [-47.6084422, -23.14827529], [-47.6087556, -23.14830592], [-47.60897414, -23.14835049], [-47.60927624, -23.14846688], [-47.60944474, -23.1485446], [-47.60961388, -23.14867652], [-47.60985176, -23.14890458], [-47.61076999, -23.14982837], [-47.61224543, -23.15146165], [-47.61244151, -23.15165876], [-47.61269168, -23.15195193], [-47.61292315, -23.15226667], [-47.61375293, -23.154349], [-47.61469446, -23.15713928], [-47.61568797, -23.16020989], [-47.61595302, -23.16169469], [-47.61599071, -23.16191261], [-47.61601681, -23.16226236], [-47.61603606, -23.16246031], [-47.61602763, -23.16286227], [-47.61593361, -23.1639684], [-47.6157927, -23.16446178], [-47.61570883, -23.16474317], [-47.61553194, -23.16505658], [-47.61541536, -23.16525921], [-47.6151697, -23.16563006], [-47.61412426, -23.16669936], [-47.61352883, -23.16722187], [-47.61347947, -23.1673002], [-47.61342426, -23.16737758], [-47.61338346, -23.16749299], [-47.61333385, -23.16806908], [-47.61343355, -23.16836864], [-47.61351096, -23.16848651], [-47.61357407, -23.16854738], [-47.61373181, -23.16863316], [-47.61395901, -23.16870487], [-47.61417917, -23.16880635], [-47.61477862, -23.1693381], [-47.61481861, -23.16950093], [-47.61496654, -23.16989922], [-47.61503121, -23.17017601], [-47.61506749, -23.17046168], [-47.61505815, -23.17069922], [-47.61502756, -23.1708987], [-47.61489302, -23.17131171], [-47.61480306, -23.17178097], [-47.61480726, -23.17188759], [-47.61489735, -23.17216181], [-47.61498549, -23.17228244], [-47.61511764, -23.17239789], [-47.61522091, -23.17244453], [-47.61536731, -23.17247062], [-47.61587818, -23.17249329], [-47.61600214, -23.17251474], [-47.6162215, -23.17259002], [-47.61639563, -23.17271021], [-47.61666088, -23.17294473], [-47.61684694, -23.17318695], [-47.61708869, -23.17358214], [-47.61720006, -23.1738908], [-47.61731504, -23.17409469], [-47.61730217, -23.17473331], [-47.61713477, -23.17539638], [-47.61646681, -23.17701881], [-47.61629602, -23.17759965], [-47.61621835, -23.17798046], [-47.61615723, -23.17852305], [-47.61580255, -23.1802032], [-47.61575718, -23.18057424], [-47.61572154, -23.18125881], [-47.6157832, -23.18154913], [-47.615852, -23.18179251], [-47.61597995, -23.18195401], [-47.61634658, -23.18222973], [-47.61663511, -23.18249419], [-47.61715391, -23.1828114], [-47.61756803, -23.18299613], [-47.61815515, -23.18332636], [-47.61895304, -23.18385827], [-47.61980985, -23.18434533], [-47.62057572, -23.18499721], [-47.62154895, -23.1856195], [-47.62239692, -23.18642539], [-47.622755, -23.18666582], [-47.62352067, -23.18704487], [-47.62472592, -23.18775873], [-47.62494956, -23.18793519], [-47.62536872, -23.18840721], [-47.62563735, -23.1885785], [-47.6265386, -23.18930967], [-47.62728702, -23.19010416], [-47.6283859, -23.19111101], [-47.62878675, -23.19139141], [-47.62928546, -23.19165065], [-47.62937329, -23.19166919], [-47.62950416, -23.19168254], [-47.62981354, -23.19174563], [-47.63014583, -23.19174019], [-47.63034837, -23.19169972], [-47.6305039, -23.19167617], [-47.63061447, -23.19165327], [-47.63107862, -23.19150219], [-47.63117154, -23.19148914], [-47.63127702, -23.19149874], [-47.63136199, -23.19150642], [-47.63145659, -23.19153674], [-47.63184011, -23.19177729], [-47.63213397, -23.19197851], [-47.63250515, -23.19216027], [-47.6328041, -23.19217271], [-47.63335793, -23.19221452], [-47.63400418, -23.19232277], [-47.63457065, -23.19253086], [-47.63493013, -23.19270894], [-47.63546949, -23.19303342], [-47.63601503, -23.19346363], [-47.63680176, -23.19408212], [-47.63769545, -23.19478699], [-47.63798179, -23.19494299], [-47.63823816, -23.19504734], [-47.63839321, -23.19509966], [-47.63872607, -23.19516105], [-47.63882372, -23.19517331], [-47.6393754, -23.19524761], [-47.63971567, -23.19521871], [-47.64006114, -23.19513833], [-47.64033393, -23.19495821], [-47.6405157, -23.19480108], [-47.6408588, -23.19447227], [-47.64125893, -23.19424403], [-47.64158871, -23.1941708], [-47.64177833, -23.19416638], [-47.6420728, -23.19411374], [-47.64279751, -23.19402182], [-47.64326395, -23.1939737], [-47.64386043, -23.19375734], [-47.64409157, -23.19367455], [-47.64430581, -23.19363683], [-47.64474964, -23.19361117], [-47.64495571, -23.19363214], [-47.64530423, -23.19368818], [-47.64564173, -23.19378933], [-47.64590794, -23.19388288], [-47.64605871, -23.19399659], [-47.64619452, -23.19415901], [-47.64636209, -23.194402], [-47.64646149, -23.19476387], [-47.64676177, -23.19535536], [-47.64712816, -23.1958433], [-47.64753696, -23.19626823], [-47.64890655, -23.1969891], [-47.64945869, -23.19715099], [-47.65010895, -23.19740735], [-47.65096331, -23.19784635], [-47.65190941, -23.19846831], [-47.65328562, -23.19939153], [-47.65427754, -23.20003358], [-47.65504306, -23.20062296], [-47.65520762, -23.20072229], [-47.65548828, -23.20085293], [-47.65588714, -23.20099233], [-47.65620608, -23.20109607], [-47.65667468, -23.20117801], [-47.65736557, -23.20118702], [-47.65771281, -23.20113734], [-47.65786435, -23.20112729], [-47.6580697, -23.20110758], [-47.65838211, -23.20116069], [-47.65849516, -23.20121367], [-47.65869677, -23.20132674], [-47.65908621, -23.20156996], [-47.65934273, -23.2018143], [-47.65950959, -23.20201752], [-47.65975502, -23.20247861], [-47.66005032, -23.20309714], [-47.660293, -23.20385181], [-47.66038194, -23.20417296], [-47.66039609, -23.20425705], [-47.66043146, -23.20438642], [-47.66050947, -23.20489993], [-47.66054736, -23.20509797], [-47.66063225, -23.20528179], [-47.66071577, -23.20536895], [-47.6608103, -23.2054137], [-47.6610102, -23.20548791], [-47.6613856, -23.20563078], [-47.66296352, -23.2065134], [-47.66373013, -23.20709732], [-47.66459315, -23.20789945], [-47.6651967, -23.20862164], [-47.6654879, -23.20911548], [-47.6656275, -23.2094658], [-47.66574441, -23.20985214], [-47.66577487, -23.2099878], [-47.6658439, -23.21037118], [-47.66592264, -23.21060465], [-47.66598644, -23.21072242], [-47.66613807, -23.21086051], [-47.66712894, -23.21137601], [-47.66799095, -23.21202996], [-47.66857859, -23.21264004], [-47.66950646, -23.21356081], [-47.66973344, -23.21368574], [-47.66990985, -23.21376704], [-47.67009331, -23.21381586], [-47.67091926, -23.21396734], [-47.67164095, -23.21406769], [-47.67186276, -23.21407605], [-47.6723889, -23.21402454], [-47.67283378, -23.2139961], [-47.67301472, -23.21397534], [-47.67325815, -23.21396484], [-47.67360846, -23.21405968], [-47.67388931, -23.21433031], [-47.67411466, -23.21456453], [-47.67497629, -23.21578304], [-47.67590689, -23.21674715], [-47.67775924, -23.21819743], [-47.67871576, -23.21908216], [-47.67910943, -23.21945001], [-47.6797281, -23.2199509], [-47.68035439, -23.22015642], [-47.68089044, -23.22025037], [-47.68147093, -23.22026686], [-47.68202437, -23.22023081], [-47.68273392, -23.2200754], [-47.68347668, -23.21992377], [-47.68430414, -23.21982767], [-47.68491146, -23.21993551], [-47.68536015, -23.22009224], [-47.68562891, -23.22026343], [-47.68659897, -23.22134963], [-47.68811534, -23.22261923], [-47.68900931, -23.2231865], [-47.68911362, -23.22323219]]]]}}]}