{"type": "FeatureCollection", "features": [{"type": "Feature", "properties": {"name": "Área de Proteção Ambiental Marinha Litoral Sul"}, "geometry": {"type": "MultiPolygon", "coordinates": [[[[-47.89846747, -25.48731288], [-48.09492334, -25.30688842], [-48.09329418, -25.30104459], [-48.09266984, -25.30131297], [-48.09154451, -25.30100988], [-48.09001622, -25.30032538], [-48.08727281, -25.29877369], [-48.08596364, -25.29753116], [-48.08405277, -25.29562222], [-48.07201262, -25.28247346], [-48.06497629, -25.27540936], [-48.05721726, -25.26842495], [-48.04967232, -25.26116366], [-48.04705539, -25.25867819], [-48.0436166, -25.25617679], [-48.04191757, -25.25408441], [-48.03778553, -25.25044578], [-48.03123267, -25.2447945], [-48.02325914, -25.23836512], [-48.00934064, -25.22676227], [-48.00226659, -25.22090996], [-47.99888258, -25.21795665], [-47.99337898, -25.21349168], [-47.9886474, -25.20961468], [-47.98420035, -25.20573199], [-47.97965645, -25.20176524], [-47.97890416, -25.2019533], [-47.97720821, -25.20224615], [-47.97528047, -25.20081684], [-47.97366068, -25.20033191], [-47.97287885, -25.19931072], [-47.97275469, -25.19810481], [-47.97254659, -25.19733174], [-47.97251956, -25.19620983], [-47.97001922, -25.19453236], [-47.95753798, -25.18312473], [-47.95078349, -25.1776462], [-47.94692595, -25.17461429], [-47.94285999, -25.17072288], [-47.93718612, -25.16686298], [-47.93622392, -25.16644698], [-47.93349871, -25.16693558], [-47.93187848, -25.16645027], [-47.93147582, -25.16542193], [-47.93116156, -25.16413274], [-47.92952079, -25.16278308], [-47.92793827, -25.16204021], [-47.92500199, -25.16060793], [-47.92383249, -25.16104493], [-47.92264085, -25.16048891], [-47.92199375, -25.16000462], [-47.91991417, -25.16029376], [-47.91827487, -25.15999467], [-47.91583435, -25.16037421], [-47.91382399, -25.15975134], [-47.91288992, -25.15861036], [-47.91276897, -25.15737045], [-47.91311241, -25.15653539], [-47.91400676, -25.15602063], [-47.91528055, -25.15616185], [-47.91710532, -25.15662237], [-47.91854611, -25.15618031], [-47.91986327, -25.15433179], [-47.92060802, -25.1513355], [-47.9215327, -25.14825304], [-47.92085884, -25.14661004], [-47.9208154, -25.1447886], [-47.9199967, -25.14472185], [-47.9189981, -25.14465944], [-47.91744481, -25.14419298], [-47.91624689, -25.14338842], [-47.91535437, -25.14017591], [-47.91583699, -25.13759886], [-47.91488916, -25.13587811], [-47.91438427, -25.1337347], [-47.91322059, -25.13052816], [-47.91196738, -25.12740521], [-47.90960507, -25.1233932], [-47.9090477, -25.11901518], [-47.9073518, -25.11631487], [-47.90459109, -25.11462959], [-47.90243578, -25.11169096], [-47.9006016, -25.1108153], [-47.8988413, -25.10919343], [-47.89674322, -25.10865499], [-47.89499951, -25.10777762], [-47.89513994, -25.10603577], [-47.89629239, -25.10493707], [-47.89846328, -25.10472838], [-47.90179955, -25.10391789], [-47.90311334, -25.10198747], [-47.90401846, -25.09807683], [-47.90384966, -25.09476713], [-47.90330445, -25.09088524], [-47.90225559, -25.08867014], [-47.90119561, -25.08604082], [-47.90109421, -25.08173549], [-47.90175468, -25.07898951], [-47.90184413, -25.07509493], [-47.90158487, -25.07178783], [-47.90108492, -25.06980926], [-47.90141882, -25.068561], [-47.90165672, -25.06714781], [-47.90180888, -25.06590286], [-47.88866, -25.05347398], [-47.88736537, -25.05343339], [-47.88618478, -25.05110401], [-47.88495429, -25.04637024], [-47.88513907, -25.04610615], [-47.88540213, -25.04514555], [-47.88604319, -25.04400435], [-47.88526884, -25.04349864], [-47.88496852, -25.04289629], [-47.88483017, -25.04109263], [-47.88498023, -25.03935299], [-47.88483256, -25.03709836], [-47.88469081, -25.03510388], [-47.88383036, -25.03503354], [-47.88401086, -25.03459573], [-47.88347938, -25.0322615], [-47.88314402, -25.0301314], [-47.88281748, -25.02840099], [-47.88192075, -25.02676864], [-47.88036545, -25.02549605], [-47.87994957, -25.0240282], [-47.87944697, -25.02290851], [-47.87874677, -25.02153338], [-47.87775328, -25.01981516], [-47.87724315, -25.01834887], [-47.87686189, -25.01835662], [-47.87627311, -25.01767318], [-47.87597545, -25.01715821], [-47.87558838, -25.0169049], [-47.87501988, -25.01708934], [-47.87491281, -25.01657046], [-47.87497774, -25.01526624], [-47.87401889, -25.01502455], [-47.87390761, -25.01433193], [-47.87399048, -25.01404464], [-47.87408385, -25.01372127], [-47.87319581, -25.01243552], [-47.8728019, -25.01192198], [-47.87181858, -25.01063861], [-47.8712266, -25.00978148], [-47.87036568, -25.0096247], [-47.86977961, -25.00902773], [-47.86947089, -25.00807876], [-47.86887894, -25.0072216], [-47.86790159, -25.00619841], [-47.86788824, -25.00559075], [-47.86749014, -25.00490344], [-47.86659638, -25.00335753], [-47.86532568, -25.00199309], [-47.86387032, -25.00089268], [-47.8636654, -25.00028796], [-47.8631763, -24.99977681], [-47.86199673, -24.99823621], [-47.86156778, -24.99616073], [-47.86050692, -24.99566024], [-47.85981982, -24.99480455], [-47.85893631, -24.99369257], [-47.85836455, -24.99370411], [-47.85787974, -24.99336579], [-47.8568951, -24.99199511], [-47.85600737, -24.99070932], [-47.8547502, -24.98995248], [-47.85521911, -24.98959582], [-47.85453791, -24.98900116], [-47.85383915, -24.98762513], [-47.85306689, -24.98720575], [-47.85239148, -24.98687122], [-47.85218341, -24.98609372], [-47.85159909, -24.985584], [-47.85103002, -24.98568201], [-47.85034042, -24.98473982], [-47.84945863, -24.98371422], [-47.84839312, -24.98295356], [-47.84770029, -24.98183766], [-47.84729326, -24.98071643], [-47.84619962, -24.97982509], [-47.84521092, -24.97828149], [-47.84386294, -24.97769896], [-47.84347024, -24.9771854], [-47.84297536, -24.97641406], [-47.84170522, -24.97504862], [-47.84064143, -24.9743743], [-47.84033114, -24.97330296], [-47.83994329, -24.97304955], [-47.83954053, -24.97210208], [-47.83758773, -24.97005555], [-47.83672038, -24.96963755], [-47.83565246, -24.96878948], [-47.83341296, -24.96674814], [-47.83301449, -24.96597448], [-47.83251979, -24.9652022], [-47.83124721, -24.96375026], [-47.82988361, -24.96247354], [-47.82891788, -24.96188419], [-47.82785587, -24.96129626], [-47.82725279, -24.96035219], [-47.82628025, -24.95950263], [-47.82560771, -24.95925451], [-47.82521246, -24.9586545], [-47.82480151, -24.95735953], [-47.82082478, -24.95430835], [-47.81888726, -24.95295569], [-47.81616154, -24.95040216], [-47.81595525, -24.94971103], [-47.81565281, -24.94902221], [-47.81546647, -24.94919978], [-47.81469877, -24.94895309], [-47.8137222, -24.94792975], [-47.8126504, -24.94690781], [-47.81129129, -24.94580475], [-47.81003328, -24.94495947], [-47.80916296, -24.94436856], [-47.80828907, -24.94369028], [-47.80778982, -24.94265784], [-47.80691277, -24.94180584], [-47.80458312, -24.93993859], [-47.80351405, -24.93900399], [-47.80303529, -24.93892571], [-47.80254022, -24.93806702], [-47.79963672, -24.93612377], [-47.79828043, -24.93510709], [-47.79816695, -24.93432808], [-47.79719319, -24.93339105], [-47.79583018, -24.93211417], [-47.79448294, -24.9315313], [-47.79380062, -24.93084921], [-47.79312668, -24.93051461], [-47.79264377, -24.93026346], [-47.79166854, -24.92923915], [-47.79031293, -24.92830965], [-47.78923991, -24.92720033], [-47.78999861, -24.92701236], [-47.7889386, -24.92651152], [-47.78768505, -24.92583989], [-47.78584034, -24.92431183], [-47.78467789, -24.92346499], [-47.78332657, -24.9227083], [-47.7823374, -24.92107723], [-47.78060207, -24.92015439], [-47.77943143, -24.91896005], [-47.77778566, -24.91777473], [-47.77623252, -24.91650152], [-47.77342352, -24.9144692], [-47.77107771, -24.91182033], [-47.76982432, -24.91114948], [-47.76778548, -24.90945042], [-47.76594128, -24.90792129], [-47.76488667, -24.9075932], [-47.76322468, -24.90571376], [-47.76050246, -24.9032451], [-47.75595338, -24.90002948], [-47.75188312, -24.89689126], [-47.75100104, -24.89577891], [-47.750119, -24.89466573], [-47.74935071, -24.89441963], [-47.74713172, -24.89315798], [-47.74489429, -24.89102779], [-47.74285198, -24.88915473], [-47.74237594, -24.88916366], [-47.74217425, -24.88864626], [-47.74206775, -24.88812738], [-47.74101077, -24.88771276], [-47.74033776, -24.88746435], [-47.73945588, -24.8863511], [-47.73820136, -24.88559276], [-47.73723401, -24.88491566], [-47.73637316, -24.88475829], [-47.7358859, -24.88424601], [-47.73518883, -24.88286891], [-47.73384535, -24.88245935], [-47.73275877, -24.88065585], [-47.72996087, -24.87905688], [-47.72802228, -24.87752888], [-47.72637498, -24.87625588], [-47.72385814, -24.87439163], [-47.72326763, -24.87353416], [-47.72219718, -24.872511], [-47.72045316, -24.87115384], [-47.71833564, -24.87014972], [-47.71658212, -24.86835778], [-47.7137775, -24.86641119], [-47.71096584, -24.8641181], [-47.70931323, -24.86258481], [-47.70592816, -24.86021453], [-47.70340947, -24.85826184], [-47.70136917, -24.85638853], [-47.6964368, -24.85291719], [-47.69053233, -24.84850747], [-47.68734386, -24.84639328], [-47.68502552, -24.84487231], [-47.68404766, -24.84367391], [-47.68269065, -24.84256919], [-47.68132663, -24.84111712], [-47.67978643, -24.84036259], [-47.67727653, -24.83875791], [-47.67563563, -24.83774463], [-47.67437793, -24.83681222], [-47.67407336, -24.83594878], [-47.67300448, -24.83492631], [-47.6704922, -24.83323425], [-47.66923459, -24.83230091], [-47.66807767, -24.83162719], [-47.66806564, -24.83110606], [-47.66758135, -24.83068009], [-47.66701038, -24.83069106], [-47.66614997, -24.83053247], [-47.66478926, -24.829254], [-47.66322174, -24.82719706], [-47.66245802, -24.82712434], [-47.661195, -24.8259309], [-47.66013483, -24.82534125], [-47.65858791, -24.82424009], [-47.65675952, -24.82331766], [-47.65627685, -24.82297803], [-47.65511206, -24.82195684], [-47.65469118, -24.8213375], [-47.65337198, -24.82018028], [-47.64964868, -24.81758887], [-47.64658409, -24.81557553], [-47.64472585, -24.81442785], [-47.64349965, -24.8125794], [-47.64152684, -24.81113731], [-47.63726864, -24.80875234], [-47.63419498, -24.80624747], [-47.63385301, -24.80536709], [-47.63319735, -24.80498506], [-47.63242987, -24.80440859], [-47.6300225, -24.80277709], [-47.62751744, -24.80164047], [-47.62499266, -24.79961734], [-47.62421778, -24.79864669], [-47.62366164, -24.79786959], [-47.62257123, -24.79729822], [-47.61982967, -24.7951804], [-47.61884631, -24.79460728], [-47.61754189, -24.79413741], [-47.61567753, -24.79269425], [-47.61480039, -24.79202041], [-47.61295125, -24.79126485], [-47.61271084, -24.79008844], [-47.61118001, -24.78913056], [-47.60385706, -24.78453406], [-47.60232641, -24.7835761], [-47.60198941, -24.78289285], [-47.60165506, -24.78240659], [-47.60045217, -24.78163972], [-47.59576281, -24.77916266], [-47.59357129, -24.77752735], [-47.58853401, -24.77387369], [-47.58602708, -24.77263754], [-47.58275048, -24.77062679], [-47.5823111, -24.77024123], [-47.58187363, -24.76995282], [-47.58003421, -24.76969001], [-47.5798062, -24.76910308], [-47.58000636, -24.76831235], [-47.57924123, -24.76783285], [-47.57772581, -24.76756404], [-47.57575435, -24.76612139], [-47.5699631, -24.76248089], [-47.56809611, -24.76083939], [-47.56100969, -24.75712171], [-47.55772453, -24.7547173], [-47.55597407, -24.7534673], [-47.55117762, -24.75098999], [-47.54626238, -24.74792393], [-47.53765035, -24.74334522], [-47.53099115, -24.73932382], [-47.52607588, -24.73625639], [-47.51878068, -24.73273764], [-47.50820861, -24.72710681], [-47.5019937, -24.72366722], [-47.49556316, -24.72023066], [-47.4847818, -24.71479895], [-47.47596528, -24.71061406], [-47.46715566, -24.70672301], [-47.46250667, -24.70468311], [-47.45989177, -24.70324914], [-47.4549955, -24.70096733], [-47.45063983, -24.69877449], [-47.44564397, -24.69688719], [-47.44456496, -24.69680613], [-47.442182, -24.69625485], [-47.43511409, -24.69312114], [-47.43434299, -24.69224708], [-47.42998444, -24.68985677], [-47.42915812, -24.68871236], [-47.41299075, -24.67660702], [-47.41215271, -24.67597355], [-47.40326157, -24.66647553], [-47.40246019, -24.66636682], [-47.40118467, -24.66577891], [-47.39950106, -24.66477229], [-47.39861711, -24.66381319], [-47.39659915, -24.66275148], [-47.39530736, -24.66131247], [-47.39361149, -24.65969763], [-47.3923336, -24.65898822], [-47.39091959, -24.6581596], [-47.39005274, -24.65811266], [-47.3884391, -24.65722585], [-47.38533685, -24.65514667], [-47.38385417, -24.65419723], [-47.38209959, -24.65294823], [-47.38027626, -24.65157848], [-47.37866418, -24.65081389], [-47.37718723, -24.65016845], [-47.3761765, -24.64951561], [-47.3753009, -24.64898198], [-47.37421823, -24.64802573], [-47.37328022, -24.64773648], [-47.37200324, -24.64708814], [-47.37132688, -24.64649039], [-47.37051684, -24.64589577], [-47.36944133, -24.64536499], [-47.36849698, -24.64471139], [-47.36776144, -24.6445398], [-47.36701943, -24.64400477], [-47.36613898, -24.64322817], [-47.36494066, -24.64318633], [-47.3637309, -24.64259658], [-47.36218145, -24.64158743], [-47.3602968, -24.64052221], [-47.35922163, -24.63993115], [-47.35766812, -24.63873934], [-47.35666148, -24.63832921], [-47.35558534, -24.63773812], [-47.35484274, -24.6371419], [-47.35376661, -24.63655081], [-47.35249063, -24.63596256], [-47.35033916, -24.63484053], [-47.34872115, -24.63371053], [-47.34731085, -24.63306425], [-47.34643791, -24.63265188], [-47.34609106, -24.63186722], [-47.34448332, -24.63134435], [-47.34347456, -24.63075253], [-47.34252561, -24.62985506], [-47.34165514, -24.62956413], [-47.3404455, -24.62897516], [-47.33913902, -24.62847898], [-47.33691599, -24.62705348], [-47.33338724, -24.62519286], [-47.33155678, -24.62339717], [-47.33065199, -24.62304629], [-47.32964204, -24.62242379], [-47.32863415, -24.6218922], [-47.32682051, -24.62100773], [-47.32439152, -24.61922067], [-47.32257478, -24.61815448], [-47.32196261, -24.61743445], [-47.32074457, -24.61635873], [-47.31893621, -24.61574767], [-47.31561302, -24.61415736], [-47.31107206, -24.61149033], [-47.30793462, -24.60916662], [-47.3064262, -24.60855165], [-47.30613865, -24.60836567], [-47.30339501, -24.60659115], [-47.30178712, -24.60559852], [-47.30161751, -24.60577315], [-47.30163328, -24.60574928], [-47.30154763, -24.60570786], [-47.30113812, -24.60550844], [-47.3009509, -24.60538448], [-47.30092252, -24.60540345], [-47.30009807, -24.60500196], [-47.30003439, -24.60497094], [-47.29883561, -24.60420574], [-47.2976536, -24.60333105], [-47.29756815, -24.60327312], [-47.2969778, -24.60287287], [-47.29620831, -24.60241974], [-47.29612762, -24.60238035], [-47.29567568, -24.60215879], [-47.29555977, -24.60210196], [-47.29555475, -24.60209753], [-47.29441881, -24.60152721], [-47.29329812, -24.60098012], [-47.29183282, -24.60010518], [-47.29110261, -24.59969294], [-47.29071442, -24.5994118], [-47.29030526, -24.59911743], [-47.28966347, -24.59857205], [-47.28907161, -24.59805749], [-47.28872776, -24.59782532], [-47.2883201, -24.59755891], [-47.28784236, -24.59729266], [-47.28721928, -24.59701508], [-47.28583165, -24.59628061], [-47.283589, -24.59510777], [-47.28244718, -24.59447877], [-47.28164901, -24.59412618], [-47.28064556, -24.59372255], [-47.28015829, -24.59347447], [-47.27941121, -24.59294417], [-47.27826309, -24.5922376], [-47.27733178, -24.59167307], [-47.27629373, -24.59104696], [-47.27564077, -24.59069756], [-47.27486591, -24.59026696], [-47.27384294, -24.58959998], [-47.27259701, -24.58877659], [-47.2720165, -24.58844684], [-47.27141909, -24.58816519], [-47.2706051, -24.5877532], [-47.26935001, -24.58702199], [-47.26824647, -24.58631828], [-47.26758653, -24.58574327], [-47.2671061, -24.5853777], [-47.26669859, -24.58511483], [-47.26627165, -24.58486941], [-47.26558177, -24.58449434], [-47.26539704, -24.58437835], [-47.26533291, -24.58433809], [-47.26490082, -24.58406678], [-47.26449903, -24.58384715], [-47.26417797, -24.58366963], [-47.2636425, -24.58342674], [-47.26336465, -24.5832919], [-47.26310216, -24.58318752], [-47.26205599, -24.58276092], [-47.26155431, -24.58253015], [-47.2611757, -24.58233634], [-47.26072586, -24.5820786], [-47.26041444, -24.5818883], [-47.25988135, -24.58150182], [-47.25938645, -24.58115359], [-47.25900211, -24.58085966], [-47.25864713, -24.58066188], [-47.2583121, -24.58047553], [-47.25749819, -24.58006256], [-47.25713803, -24.57979535], [-47.25683201, -24.57963023], [-47.25645226, -24.57937143], [-47.25596765, -24.57904559], [-47.255858, -24.57898585], [-47.25573355, -24.57892724], [-47.25495582, -24.57838373], [-47.25426985, -24.57794806], [-47.2535595, -24.57747304], [-47.25269993, -24.57687839], [-47.2523306, -24.57665011], [-47.25209197, -24.57655348], [-47.25165253, -24.57637861], [-47.2511819, -24.57618432], [-47.25113679, -24.5761657], [-47.25035475, -24.57584285], [-47.25007571, -24.5756562], [-47.24971855, -24.57542809], [-47.24930615, -24.5752194], [-47.24873253, -24.5749373], [-47.24824478, -24.57476495], [-47.2476275, -24.57458008], [-47.24694952, -24.57436813], [-47.24656946, -24.57425645], [-47.24624736, -24.57407349], [-47.24595019, -24.57384954], [-47.24572506, -24.57367958], [-47.2454643, -24.57350383], [-47.24519008, -24.57340411], [-47.24493929, -24.57334556], [-47.24478719, -24.57334061], [-47.24455392, -24.57337839], [-47.24429809, -24.57347969], [-47.24393789, -24.57370622], [-47.2435413, -24.57399649], [-47.24330224, -24.5741526], [-47.24301, -24.57431583], [-47.24279894, -24.57438127], [-47.24264746, -24.57441151], [-47.24263859, -24.5744127], [-47.24247415, -24.57443485], [-47.24228504, -24.57445843], [-47.242173, -24.57444678], [-47.24204967, -24.57443395], [-47.24165346, -24.57430173], [-47.24118829, -24.5741218], [-47.2407516, -24.57387824], [-47.24027719, -24.57362261], [-47.23935819, -24.57306758], [-47.23872071, -24.57257876], [-47.23818253, -24.57212277], [-47.23764521, -24.5717146], [-47.23734572, -24.57146991], [-47.23706795, -24.57122489], [-47.23677065, -24.57110382], [-47.23650459, -24.57107347], [-47.23633893, -24.57108316], [-47.2361571, -24.57112738], [-47.23590125, -24.57122777], [-47.23560175, -24.57137123], [-47.23541351, -24.57144354], [-47.23517186, -24.57150941], [-47.2347253, -24.57154312], [-47.23422548, -24.57152345], [-47.23371726, -24.57147502], [-47.23348239, -24.57147851], [-47.23322519, -24.57150309], [-47.23298342, -24.57156264], [-47.2327351, -24.57164215], [-47.23244755, -24.57168071], [-47.23210746, -24.57170652], [-47.23166721, -24.57165076], [-47.23134675, -24.57155891], [-47.23106551, -24.57150801], [-47.23036091, -24.57146249], [-47.22983702, -24.5714215], [-47.22941862, -24.57131756], [-47.22896272, -24.57121327], [-47.22857428, -24.57112875], [-47.22823877, -24.57102268], [-47.2278263, -24.57080762], [-47.22743482, -24.57049475], [-47.22674832, -24.56979808], [-47.22642112, -24.56932448], [-47.22627251, -24.56907031], [-47.22600083, -24.56866629], [-47.22561864, -24.56804095], [-47.22533624, -24.56753238], [-47.22524032, -24.56724312], [-47.2251302, -24.56698838], [-47.22487492, -24.56667349], [-47.22469389, -24.56631598], [-47.22465902, -24.56607366], [-47.22470888, -24.56587884], [-47.22481045, -24.56559389], [-47.22484342, -24.56533703], [-47.22493621, -24.56500256], [-47.22507528, -24.56471705], [-47.22534115, -24.56434572], [-47.22556755, -24.56386393], [-47.22557952, -24.56383457], [-47.22559943, -24.56378573], [-47.2257123, -24.56350884], [-47.22585986, -24.56325751], [-47.22597052, -24.56309609], [-47.22607293, -24.56291494], [-47.22619987, -24.56278126], [-47.22631139, -24.56266858], [-47.2266109, -24.56247007], [-47.22691769, -24.56223715], [-47.22712543, -24.56203999], [-47.2272879, -24.56179476], [-47.22745656, -24.56145285], [-47.22760857, -24.56106243], [-47.22777853, -24.56057065], [-47.22789571, -24.5601645], [-47.22808578, -24.55975282], [-47.22811435, -24.55969095], [-47.22814384, -24.55963384], [-47.22818071, -24.55956246], [-47.22733372, -24.55806776], [-47.22732861, -24.55806685], [-47.22713005, -24.55800118], [-47.22674997, -24.55771703], [-47.22670797, -24.55768605], [-47.22659295, -24.55760019], [-47.2257711, -24.55694703], [-47.22535658, -24.5566688], [-47.22495751, -24.55637048], [-47.22472811, -24.55623485], [-47.22397657, -24.55570612], [-47.22320233, -24.55517682], [-47.22238064, -24.55453086], [-47.22202818, -24.55430045], [-47.22150518, -24.5538577], [-47.22085159, -24.55334105], [-47.21992893, -24.55256477], [-47.21922244, -24.55201369], [-47.21846305, -24.55142907], [-47.21751749, -24.55063957], [-47.21693978, -24.55011457], [-47.21651634, -24.54971908], [-47.2160611, -24.54925456], [-47.21561448, -24.54883143], [-47.21518414, -24.54849202], [-47.21474651, -24.54813104], [-47.21445877, -24.54793328], [-47.21440376, -24.54789546], [-47.214263, -24.54779872], [-47.21351907, -24.54724816], [-47.21271386, -24.54669217], [-47.21194686, -24.54617624], [-47.21114375, -24.5456825], [-47.21042289, -24.54520831], [-47.20974099, -24.54476063], [-47.20936638, -24.5445585], [-47.20876921, -24.54415831], [-47.20817009, -24.54370309], [-47.20732622, -24.54307813], [-47.20642798, -24.54239167], [-47.205613, -24.54172475], [-47.20494596, -24.54122176], [-47.20435487, -24.54077272], [-47.20391681, -24.54043971], [-47.20344065, -24.54007294], [-47.20291257, -24.53972769], [-47.20246044, -24.5394364], [-47.20195586, -24.53919371], [-47.20122686, -24.53881438], [-47.20115956, -24.53878575], [-47.20068103, -24.53858223], [-47.200109, -24.53837573], [-47.19937183, -24.53820594], [-47.19845166, -24.53801173], [-47.19797309, -24.53790136], [-47.19774374, -24.53782165], [-47.19721675, -24.53753775], [-47.19670386, -24.53721302], [-47.19613563, -24.53677084], [-47.19609556, -24.53673621], [-47.19535109, -24.53608987], [-47.19468409, -24.5356419], [-47.19423211, -24.5353578], [-47.19398045, -24.5352432], [-47.19374433, -24.53517081], [-47.19355467, -24.53516003], [-47.19335092, -24.53519007], [-47.19305786, -24.53530537], [-47.19256965, -24.53554809], [-47.19226045, -24.53564286], [-47.19192127, -24.53571639], [-47.19166462, -24.53576888], [-47.19080352, -24.53590597], [-47.19050076, -24.53591759], [-47.19017387, -24.53584651], [-47.18992209, -24.53572469], [-47.18965237, -24.53547945], [-47.18942052, -24.53519846], [-47.18923551, -24.53500074], [-47.1889516, -24.53479001], [-47.18836252, -24.53445191], [-47.18800264, -24.53424228], [-47.18768949, -24.53405274], [-47.18731194, -24.53367727], [-47.18697845, -24.53322532], [-47.18678849, -24.53279837], [-47.18667574, -24.53238475], [-47.18660664, -24.53192807], [-47.18660865, -24.53158861], [-47.18667169, -24.53129702], [-47.18676506, -24.53099054], [-47.18698452, -24.53055765], [-47.18741765, -24.53021194], [-47.18794884, -24.5298305], [-47.18833004, -24.52950631], [-47.18851429, -24.52920573], [-47.18857707, -24.5288997], [-47.1885701, -24.52849808], [-47.18855505, -24.52842698], [-47.18850316, -24.52816594], [-47.18839389, -24.52795358], [-47.18817517, -24.5275749], [-47.18778807, -24.52710297], [-47.18735414, -24.52654776], [-47.18701472, -24.52615097], [-47.18665187, -24.52576806], [-47.1865592, -24.52565927], [-47.18652645, -24.52553426], [-47.18650949, -24.52540993], [-47.186552, -24.52524321], [-47.18664789, -24.52508294], [-47.18666554, -24.52501949], [-47.18666863, -24.5249698], [-47.18666792, -24.52492918], [-47.18665944, -24.524895], [-47.1864894, -24.52493358], [-47.18646286, -24.52493938], [-47.18609935, -24.52491756], [-47.18590725, -24.52487882], [-47.18581022, -24.52485947], [-47.18561478, -24.52474224], [-47.1855537, -24.52469076], [-47.18528139, -24.52446451], [-47.18478217, -24.52407003], [-47.18419053, -24.52358029], [-47.18354645, -24.52313915], [-47.18294085, -24.52269745], [-47.18215039, -24.52206433], [-47.18155062, -24.52156026], [-47.18082072, -24.52094792], [-47.18022825, -24.52040853], [-47.17981292, -24.52001281], [-47.17955043, -24.51972592], [-47.17921772, -24.51931457], [-47.17871437, -24.51867819], [-47.17821328, -24.51817267], [-47.17712767, -24.51712853], [-47.17658216, -24.51667871], [-47.17598209, -24.51615385], [-47.17556032, -24.51584126], [-47.17454687, -24.51503167], [-47.17382653, -24.51449847], [-47.17378079, -24.51446461], [-47.17375733, -24.51444724], [-47.17288228, -24.51376655], [-47.17233013, -24.51338722], [-47.17194513, -24.51303167], [-47.17119346, -24.51246744], [-47.17071765, -24.51205181], [-47.1698037, -24.51134456], [-47.16900405, -24.51062845], [-47.16822819, -24.50997518], [-47.16730688, -24.50924005], [-47.16690068, -24.508886], [-47.16642246, -24.50846917], [-47.165694, -24.50793256], [-47.16497238, -24.50733356], [-47.16407212, -24.5065006], [-47.1633719, -24.50582546], [-47.16285634, -24.5053896], [-47.16219763, -24.50494857], [-47.16180014, -24.50472497], [-47.16147888, -24.50451562], [-47.16103603, -24.50429267], [-47.16079054, -24.50413008], [-47.16027668, -24.50373571], [-47.15977656, -24.50327886], [-47.1593211, -24.50277893], [-47.15896724, -24.50245178], [-47.15865386, -24.50224141], [-47.15823908, -24.50192868], [-47.15785493, -24.50156043], [-47.15724641, -24.50099408], [-47.15692395, -24.50071432], [-47.15667754, -24.5004389], [-47.15618906, -24.50025658], [-47.15572405, -24.49989101], [-47.15497029, -24.49931137], [-47.1541189, -24.49867535], [-47.1531182, -24.49778779], [-47.15268547, -24.49740397], [-47.15222315, -24.49701821], [-47.1521996, -24.49699856], [-47.15207701, -24.49689627], [-47.15175592, -24.49663725], [-47.15128383, -24.49631718], [-47.15081748, -24.4959862], [-47.15030586, -24.49571905], [-47.14989833, -24.49548201], [-47.14932782, -24.4951164], [-47.14845155, -24.49440667], [-47.14757062, -24.49377013], [-47.14667823, -24.49309763], [-47.14558098, -24.49227006], [-47.14491346, -24.49176146], [-47.14487095, -24.49172907], [-47.14462953, -24.49154513], [-47.14350433, -24.49075495], [-47.14280994, -24.49023759], [-47.14101774, -24.48885472], [-47.14038676, -24.48835271], [-47.13938884, -24.48761847], [-47.13894542, -24.48729795], [-47.13817064, -24.48674922], [-47.13691749, -24.48591295], [-47.13655029, -24.48566537], [-47.13549459, -24.48489491], [-47.13417649, -24.48394849], [-47.13352404, -24.48351536], [-47.13265545, -24.48290021], [-47.13187992, -24.48236228], [-47.13099988, -24.48176895], [-47.13015023, -24.48122213], [-47.1289438, -24.48040048], [-47.12788164, -24.47959303], [-47.12663879, -24.47865632], [-47.12603829, -24.47820075], [-47.12524383, -24.47758993], [-47.12412506, -24.47681485], [-47.12355389, -24.47640129], [-47.12306888, -24.47600728], [-47.1225497, -24.47563452], [-47.1220301, -24.47523647], [-47.12158191, -24.47492048], [-47.12123197, -24.47469881], [-47.12079023, -24.474473], [-47.11974832, -24.47380784], [-47.11883987, -24.47321934], [-47.11795429, -24.47264135], [-47.11697719, -24.47207548], [-47.11648268, -24.47176012], [-47.11579487, -24.47126962], [-47.11455898, -24.47038506], [-47.11377627, -24.46976317], [-47.11286118, -24.46912779], [-47.11101539, -24.46792492], [-47.11065924, -24.46768344], [-47.11065658, -24.4676816], [-47.11059038, -24.46763565], [-47.11017658, -24.46736699], [-47.10890226, -24.46659937], [-47.10740757, -24.46574545], [-47.10590026, -24.46484383], [-47.10408459, -24.46372441], [-47.10296667, -24.46298616], [-47.10188894, -24.46223199], [-47.10083451, -24.4615136], [-47.09986074, -24.46084193], [-47.09866088, -24.46003617], [-47.09715868, -24.45901793], [-47.09645361, -24.45854834], [-47.09571315, -24.45802597], [-47.09475417, -24.45746962], [-47.09392809, -24.45701704], [-47.09293868, -24.45640873], [-47.09232214, -24.45604261], [-47.09149037, -24.45554315], [-47.09072631, -24.45496331], [-47.09008006, -24.45452898], [-47.08920013, -24.45391913], [-47.08844323, -24.4534132], [-47.0879433, -24.45311948], [-47.08767499, -24.45293631], [-47.08701288, -24.45261594], [-47.08614481, -24.45200591], [-47.08543392, -24.45147766], [-47.08478075, -24.45098021], [-47.08416615, -24.45042987], [-47.08406572, -24.45033124], [-47.08124236, -24.44816429], [-47.07748067, -24.44562253], [-47.0774399, -24.44559498], [-47.07720732, -24.44543782], [-47.05696818, -24.47071338], [-47.05493187, -24.47321124], [-47.05495714, -24.47322426], [-46.97342327, -24.57678028], [-46.9586496, -24.59304966], [-46.96388469, -24.59627573], [-46.96487631, -24.59687165], [-46.9737256, -24.60070978], [-46.97402674, -24.6008386], [-46.98371768, -24.60504725], [-46.98401884, -24.60517606], [-46.99400874, -24.60951549], [-46.99430993, -24.60964427], [-47.0043005, -24.61398297], [-47.0046017, -24.61411173], [-47.01429457, -24.61831827], [-47.01944033, -24.6205158], [-47.02248655, -24.62192518], [-47.02406354, -24.62685121], [-47.02733574, -24.63709489], [-47.02767891, -24.63741188], [-47.03302994, -24.64081362], [-47.03407494, -24.64147921], [-47.03782052, -24.64386333], [-47.03886556, -24.64452888], [-47.04469777, -24.64823561], [-47.0485663, -24.65153262], [-47.05402888, -24.65650716], [-47.05417639, -24.6566432], [-47.06476125, -24.66615897], [-47.06745663, -24.66868365], [-47.0912193, -24.69452016], [-47.095029, -24.69818981], [-47.10172867, -24.7046562], [-47.10351073, -24.7062994], [-47.10885551, -24.70964416], [-47.11266725, -24.71202607], [-47.1394312, -24.72911372], [-47.14212647, -24.73083819], [-47.15077616, -24.73636076], [-47.15218602, -24.73800351], [-47.1550579, -24.7413501], [-47.15551479, -24.74188251], [-47.15838684, -24.74522902], [-47.15884376, -24.74576142], [-47.16171599, -24.74910786], [-47.16217294, -24.74964025], [-47.16504536, -24.7529866], [-47.16550233, -24.75351898], [-47.16837493, -24.75686525], [-47.16883194, -24.75739762], [-47.17170472, -24.76074382], [-47.17216175, -24.76127618], [-47.17503472, -24.76462229], [-47.17836777, -24.76849799], [-47.18169546, -24.77237315], [-47.18260667, -24.77338877], [-47.18696822, -24.7769032], [-47.19208036, -24.78102864], [-47.19554362, -24.78381874], [-47.20065632, -24.78794384], [-47.20411996, -24.79073372], [-47.20923323, -24.79485849], [-47.21269724, -24.79764814], [-47.21781107, -24.80177257], [-47.22127547, -24.80456199], [-47.22638986, -24.80868609], [-47.23057159, -24.81205234], [-47.23392421, -24.81475715], [-47.2422034, -24.82506368], [-47.2451094, -24.82920455], [-47.25027216, -24.8332425], [-47.2516296, -24.83430262], [-47.25689456, -24.83842326], [-47.25825212, -24.83948331], [-47.26322925, -24.84337494], [-47.26569155, -24.84528624], [-47.28021444, -24.85594188], [-47.28111985, -24.8566024], [-47.30533889, -24.87437637], [-47.30951545, -24.87742104], [-47.32042413, -24.8854495], [-47.32766162, -24.89325345], [-47.32902229, -24.8947242], [-47.33644958, -24.9027291], [-47.33781046, -24.90419976], [-47.34523891, -24.91220413], [-47.34990303, -24.91724365], [-47.35096763, -24.91821971], [-47.36452771, -24.92733687], [-47.36708755, -24.92905369], [-47.38558716, -24.94148807], [-47.38814757, -24.94320448], [-47.40665131, -24.95563592], [-47.41113799, -24.95864197], [-47.42244004, -24.96623752], [-47.42969026, -24.97177905], [-47.43316141, -24.97442745], [-47.44929552, -24.98675634], [-47.4527675, -24.98940421], [-47.46890547, -25.00173065], [-47.47237828, -25.00437799], [-47.49057159, -25.01826802], [-47.49500255, -25.02133169], [-47.49997827, -25.02476536], [-47.50208512, -25.02622174], [-47.5049514, -25.02820153], [-47.50705836, -25.02965784], [-47.5099248, -25.03163752], [-47.51203188, -25.03309374], [-47.51551527, -25.03549915], [-47.5187421, -25.04137109], [-47.52198074, -25.04727553], [-47.52352741, -25.0500896], [-47.52676653, -25.05599389], [-47.52831343, -25.05880789], [-47.53155301, -25.06471204], [-47.53310021, -25.06752597], [-47.53832228, -25.07704391], [-47.54514051, -25.08194086], [-47.5467974, -25.08313347], [-47.55102568, -25.08617186], [-47.55268268, -25.08736439], [-47.55691125, -25.09040259], [-47.55856836, -25.09159505], [-47.56279722, -25.09463305], [-47.56445444, -25.09582544], [-47.56868358, -25.09886325], [-47.57034092, -25.10005556], [-47.57457034, -25.10309318], [-47.57622779, -25.10428541], [-47.5804575, -25.10732284], [-47.58211506, -25.10851499], [-47.58634506, -25.11155223], [-47.58800273, -25.11274431], [-47.59223301, -25.11578135], [-47.59389079, -25.11697336], [-47.59783279, -25.11980745], [-47.60023956, -25.12173291], [-47.60371564, -25.12451736], [-47.60747591, -25.12752529], [-47.60795816, -25.12823319], [-47.60931471, -25.12896734], [-47.61186699, -25.13222037], [-47.61344361, -25.13354681], [-47.61636456, -25.13891479], [-47.61892641, -25.1436135], [-47.62107982, -25.14759295], [-47.62285368, -25.1614788], [-47.62539645, -25.1847866], [-47.62624407, -25.19961884], [-47.62963436, -25.21445107], [-47.64140262, -25.26693978], [-47.64948207, -25.29202816], [-47.66947009, -25.3170053], [-47.70337263, -25.34921235], [-47.7375049, -25.39918515], [-47.76913752, -25.40120567], [-47.787485, -25.39473629], [-47.80137818, -25.39060012], [-47.81277042, -25.39238128], [-47.83533798, -25.40180913], [-47.84412581, -25.40495943], [-47.8500949, -25.40877298], [-47.85457173, -25.41092846], [-47.85838532, -25.41474201], [-47.86232921, -25.41806219], [-47.86610271, -25.42454878], [-47.87278388, -25.44182742], [-47.88614617, -25.4595668], [-47.8946283, -25.4807654], [-47.89674389, -25.48375689], [-47.89846747, -25.48731288]]]]}}]}