{"type": "FeatureCollection", "features": [{"type": "Feature", "properties": {"name": "Área de Proteção Ambiental Planalto do Turvo"}, "geometry": {"type": "MultiPolygon", "coordinates": [[[[-48.41284534, -24.96440709], [-48.41351293, -24.96437252], [-48.41400918, -24.96365014], [-48.4131568, -24.96283504], [-48.41345889, -24.96251711], [-48.41277115, -24.96230509], [-48.41207075, -24.96205566], [-48.41061276, -24.96404964], [-48.41176975, -24.96498089], [-48.41247842, -24.96419295], [-48.41284534, -24.96440709]]], [[[-48.3444842, -24.96767363], [-48.34479141, -24.96710542], [-48.34495496, -24.96691156], [-48.34519896, -24.96671327], [-48.34594356, -24.9664252], [-48.34579607, -24.96638446], [-48.34561559, -24.96621284], [-48.34561626, -24.96618126], [-48.34543194, -24.96586525], [-48.34533583, -24.9654997], [-48.34533681, -24.9646289], [-48.34527449, -24.96448446], [-48.34508295, -24.96426769], [-48.34475955, -24.96410948], [-48.34470613, -24.96402822], [-48.34476902, -24.96367635], [-48.34470148, -24.96350031], [-48.34411875, -24.96316138], [-48.34356444, -24.96260589], [-48.34347213, -24.96243886], [-48.3434741, -24.96234411], [-48.34351691, -24.96223587], [-48.34373813, -24.96193376], [-48.34369505, -24.96173521], [-48.34361723, -24.96161783], [-48.34307769, -24.96111648], [-48.34266176, -24.96047539], [-48.34168596, -24.95981572], [-48.34138962, -24.95955826], [-48.34127959, -24.95947694], [-48.34106597, -24.95936394], [-48.34093048, -24.95936381], [-48.34076922, -24.95945388], [-48.34048229, -24.95986419], [-48.34040632, -24.96003558], [-48.34032112, -24.96067167], [-48.3403098, -24.96083409], [-48.34020932, -24.96104154], [-48.34004872, -24.96109102], [-48.33977248, -24.96109524], [-48.33960985, -24.96102742], [-48.33941707, -24.96082419], [-48.33940458, -24.96066626], [-48.33946164, -24.96053547], [-48.3394977, -24.9603821], [-48.33958219, -24.9598182], [-48.33950431, -24.95897439], [-48.33944547, -24.95876679], [-48.33888078, -24.95759314], [-48.33880722, -24.95728624], [-48.3387868, -24.95676285], [-48.33872737, -24.95653267], [-48.33855179, -24.95618058], [-48.33850133, -24.9559459], [-48.33850329, -24.95586018], [-48.33864433, -24.95560765], [-48.33909887, -24.95522007], [-48.33922216, -24.95507129], [-48.33918754, -24.95477796], [-48.33910939, -24.95469669], [-48.33897739, -24.95462438], [-48.33867433, -24.95457443], [-48.33838695, -24.95458318], [-48.33752382, -24.9546861], [-48.3368036, -24.95479368], [-48.33593426, -24.95517182], [-48.33550205, -24.95524357], [-48.33521566, -24.95522072], [-48.33502645, -24.95513482], [-48.33485631, -24.95489099], [-48.33486672, -24.95394802], [-48.33471881, -24.95374481], [-48.3344053, -24.95362719], [-48.3342441, -24.95366764], [-48.33394018, -24.95381172], [-48.33381796, -24.95383414], [-48.33353562, -24.9540324], [-48.3330548, -24.95415373], [-48.33203844, -24.95359322], [-48.33170364, -24.95318678], [-48.33113383, -24.95297866], [-48.33102538, -24.95287477], [-48.33096461, -24.95275289], [-48.33085245, -24.95240084], [-48.33077299, -24.95236917], [-48.3306211, -24.95238255], [-48.32961977, -24.95295003], [-48.32929886, -24.95306249], [-48.32915501, -24.95307587], [-48.32932424, -24.95441386], [-48.32949705, -24.95522098], [-48.33047655, -24.95550655], [-48.33095887, -24.95559403], [-48.33189403, -24.95582647], [-48.33195363, -24.95640858], [-48.33191458, -24.95671534], [-48.33184625, -24.95694538], [-48.33295171, -24.95780531], [-48.33344351, -24.95825554], [-48.33418445, -24.95837918], [-48.33488708, -24.95867553], [-48.33546396, -24.95919032], [-48.33581238, -24.95987446], [-48.33629943, -24.9605453], [-48.33710241, -24.9610011], [-48.33813452, -24.96125603], [-48.33863585, -24.961265], [-48.3390232, -24.96169008], [-48.3384852, -24.96226709], [-48.3376471, -24.96338973], [-48.33707951, -24.96411393], [-48.33754808, -24.96439855], [-48.33856811, -24.96437114], [-48.33914633, -24.96412039], [-48.33968255, -24.96405836], [-48.34040997, -24.96400829], [-48.34094317, -24.96414395], [-48.34170721, -24.96480396], [-48.34204135, -24.96532073], [-48.34273702, -24.96597321], [-48.34303821, -24.96690477], [-48.34286089, -24.96716269], [-48.34331941, -24.96784388], [-48.34448288, -24.96774129], [-48.3444842, -24.96767363]]], [[[-48.29322228, -24.93892713], [-48.29352803, -24.93856403], [-48.29387264, -24.93837638], [-48.29423594, -24.93830535], [-48.29514458, -24.9385934], [-48.2954207, -24.93861782], [-48.29584817, -24.93852866], [-48.29611018, -24.93822299], [-48.29630577, -24.93803251], [-48.29687241, -24.93742197], [-48.29465264, -24.93676076], [-48.29465306, -24.93674148], [-48.29501203, -24.93589425], [-48.29404891, -24.93517834], [-48.29388129, -24.93505897], [-48.29343545, -24.93501198], [-48.29260723, -24.93493871], [-48.2914826, -24.93480193], [-48.29088957, -24.93467474], [-48.28971861, -24.93762172], [-48.29199624, -24.93855559], [-48.29091413, -24.94035961], [-48.29279274, -24.94105348], [-48.2939382, -24.93927001], [-48.29322228, -24.93892713]]], [[[-48.31491748, -24.94713624], [-48.31512507, -24.94710038], [-48.31579997, -24.94687554], [-48.31600755, -24.9468487], [-48.31652282, -24.9468583], [-48.31643658, -24.946592], [-48.31645836, -24.94626717], [-48.3164792, -24.94572124], [-48.31638893, -24.94545945], [-48.31629663, -24.9453285], [-48.31617922, -24.94522458], [-48.31541948, -24.94484472], [-48.31570018, -24.9444886], [-48.31595323, -24.9442317], [-48.31634114, -24.94397044], [-48.31708106, -24.94366444], [-48.31741836, -24.94354301], [-48.31809224, -24.94336779], [-48.31827732, -24.94327775], [-48.31866073, -24.94289916], [-48.31922726, -24.94250724], [-48.31953697, -24.94219625], [-48.31988084, -24.94176348], [-48.32341939, -24.94258647], [-48.3225679, -24.94417577], [-48.32474964, -24.94501729], [-48.32657106, -24.94424778], [-48.3271208, -24.94464089], [-48.32803451, -24.94509756], [-48.32807776, -24.94465092], [-48.32828368, -24.9439608], [-48.32832656, -24.94307198], [-48.32842127, -24.94276978], [-48.32848698, -24.94265254], [-48.32874065, -24.94236855], [-48.3292589, -24.94197654], [-48.32980419, -24.94147628], [-48.3299858, -24.94118318], [-48.33031947, -24.94047515], [-48.33050732, -24.9398933], [-48.33222724, -24.94012815], [-48.3323359, -24.94149418], [-48.33363588, -24.9416341], [-48.33453817, -24.94091145], [-48.33553994, -24.94053908], [-48.33651713, -24.93988746], [-48.33567477, -24.93869348], [-48.33564323, -24.9365946], [-48.33431597, -24.9340526], [-48.33227387, -24.93191335], [-48.33061466, -24.92716047], [-48.33337938, -24.9246591], [-48.33656038, -24.92385916], [-48.33672445, -24.9247482], [-48.33679227, -24.92495131], [-48.33695334, -24.92524475], [-48.3372576, -24.92554735], [-48.33762689, -24.92577333], [-48.33802995, -24.92594519], [-48.33835705, -24.92601319], [-48.33866699, -24.92595935], [-48.33892506, -24.92583326], [-48.33970352, -24.92524294], [-48.33995326, -24.92510332], [-48.34107857, -24.92462613], [-48.34150393, -24.92451375], [-48.34175971, -24.92448691], [-48.34226871, -24.92451898], [-48.34277796, -24.92458715], [-48.34303341, -24.92457838], [-48.34343123, -24.92448401], [-48.34342962, -24.92452009], [-48.34293449, -24.92508815], [-48.34268016, -24.92544886], [-48.34220639, -24.92599437], [-48.34211857, -24.9279673], [-48.34033565, -24.9324119], [-48.34266523, -24.93358407], [-48.35003595, -24.93403314], [-48.35072907, -24.93370439], [-48.35093984, -24.93356922], [-48.35173704, -24.93279838], [-48.35264707, -24.93236605], [-48.35316456, -24.93201006], [-48.35344677, -24.93185691], [-48.35378336, -24.93175795], [-48.35407998, -24.93173113], [-48.35418069, -24.931835], [-48.35430219, -24.93188926], [-48.35503812, -24.9319982], [-48.35546635, -24.93211138], [-48.35587655, -24.93228318], [-48.35613552, -24.93247743], [-48.35632203, -24.9327438], [-48.35642848, -24.93299205], [-48.3566474, -24.9339127], [-48.35679822, -24.93430538], [-48.35689855, -24.93448143], [-48.35752013, -24.93485196], [-48.35773363, -24.93504616], [-48.3578034, -24.93516804], [-48.36112256, -24.93152066], [-48.36137135, -24.92988709], [-48.35844193, -24.92902773], [-48.35649057, -24.92888362], [-48.35462664, -24.92787629], [-48.35415458, -24.92559482], [-48.35315641, -24.92315088], [-48.35421031, -24.9218882], [-48.35486487, -24.92069985], [-48.35522131, -24.9196669], [-48.3556716, -24.91874684], [-48.35591135, -24.918359], [-48.35705508, -24.91702442], [-48.3572784, -24.91668171], [-48.35740849, -24.91619], [-48.35745913, -24.91566664], [-48.35762016, -24.9148546], [-48.35773925, -24.91450727], [-48.35607165, -24.91122101], [-48.35528636, -24.91138275], [-48.35461296, -24.91158971], [-48.35448738, -24.91163473], [-48.35428142, -24.91164356], [-48.35396053, -24.91155754], [-48.35345523, -24.91130894], [-48.35324324, -24.9111779], [-48.35255366, -24.91060874], [-48.35228931, -24.91029717], [-48.35152041, -24.90904211], [-48.35069473, -24.90910904], [-48.35032222, -24.909032], [-48.34930176, -24.90876936], [-48.34849116, -24.90863325], [-48.34798091, -24.90867339], [-48.34733943, -24.90882169], [-48.34642312, -24.9091818], [-48.34551896, -24.90972692], [-48.34483067, -24.91025871], [-48.34470806, -24.91039396], [-48.34417185, -24.91122367], [-48.34246635, -24.91172819], [-48.34070072, -24.91106693], [-48.34025668, -24.91132821], [-48.33977502, -24.91149919], [-48.33848239, -24.91156561], [-48.33759228, -24.91144741], [-48.33683021, -24.91130227], [-48.33603404, -24.91124283], [-48.33573033, -24.91128313], [-48.33526508, -24.91143157], [-48.33521352, -24.91162103], [-48.33518102, -24.91165258], [-48.33508208, -24.91215783], [-48.33497961, -24.91250516], [-48.33494346, -24.91299694], [-48.33452143, -24.91269871], [-48.33411364, -24.91237344], [-48.33409939, -24.91238695], [-48.33387753, -24.91226038], [-48.33365711, -24.91221053], [-48.33276325, -24.91212389], [-48.33211245, -24.91202397], [-48.33148302, -24.91165783], [-48.33110316, -24.91151306], [-48.33084743, -24.91152182], [-48.33033586, -24.91161605], [-48.32982871, -24.91163358], [-48.32950717, -24.91159263], [-48.32907905, -24.91147488], [-48.32879561, -24.9113708], [-48.32851163, -24.91121709], [-48.32830294, -24.91094615], [-48.32782624, -24.9101064], [-48.32739347, -24.909754], [-48.32710672, -24.90983491], [-48.32673608, -24.90999696], [-48.32633548, -24.91012738], [-48.32543815, -24.91035203], [-48.32399735, -24.91093707], [-48.32383275, -24.91036325], [-48.32152878, -24.90648225], [-48.31781445, -24.90723941], [-48.31716879, -24.9076073], [-48.31496418, -24.90785414], [-48.31231368, -24.90837944], [-48.31222069, -24.90632513], [-48.31124815, -24.90623503], [-48.30907929, -24.90628659], [-48.31000541, -24.90851615], [-48.30884843, -24.91050858], [-48.30627561, -24.90901107], [-48.30582303, -24.90930576], [-48.30500513, -24.91026159], [-48.30478831, -24.90997803], [-48.30445047, -24.90951028], [-48.30420752, -24.90904424], [-48.30371158, -24.90857363], [-48.30346548, -24.90825182], [-48.30130381, -24.906751], [-48.29867317, -24.90750143], [-48.29667671, -24.9100395], [-48.2948222, -24.90943838], [-48.29277623, -24.9096959], [-48.29272494, -24.9098673], [-48.29271665, -24.91024631], [-48.29286492, -24.91075637], [-48.29270218, -24.91162699], [-48.29269653, -24.9118887], [-48.29273244, -24.9120602], [-48.29281693, -24.91221823], [-48.29295181, -24.91238084], [-48.29247578, -24.91288559], [-48.29231054, -24.91316062], [-48.29216745, -24.91350787], [-48.29212702, -24.91386878], [-48.29219414, -24.91446447], [-48.29211392, -24.91596239], [-48.292323, -24.91741595], [-48.29520409, -24.91678747], [-48.29733073, -24.91830915], [-48.29955051, -24.91737518], [-48.30158727, -24.91907397], [-48.30192673, -24.92079933], [-48.29918128, -24.92259491], [-48.29741173, -24.92323901], [-48.29533371, -24.92343052], [-48.2954584, -24.92635543], [-48.29796245, -24.9266227], [-48.29835797, -24.92600504], [-48.29853942, -24.92585625], [-48.30024577, -24.92634172], [-48.30014734, -24.927047], [-48.30263046, -24.92747077], [-48.30440033, -24.92843588], [-48.30427239, -24.92964695], [-48.30382364, -24.93117923], [-48.30339466, -24.93298675], [-48.30348886, -24.93308162], [-48.30346946, -24.93323501], [-48.30320172, -24.93381223], [-48.30313169, -24.93411445], [-48.30314513, -24.93423177], [-48.30309653, -24.93427233], [-48.30296888, -24.93464216], [-48.30276546, -24.93479983], [-48.30221763, -24.93508795], [-48.30215834, -24.93523226], [-48.30217147, -24.93534959], [-48.30231864, -24.93558439], [-48.30239287, -24.93581459], [-48.30240001, -24.93637982], [-48.30236832, -24.93695159], [-48.30239766, -24.93741637], [-48.30248052, -24.93765109], [-48.30253488, -24.9377008], [-48.30271729, -24.93774162], [-48.30307571, -24.93776913], [-48.30322591, -24.93783698], [-48.30355526, -24.93807651], [-48.30363505, -24.93809015], [-48.30388993, -24.93805887], [-48.30397102, -24.93801835], [-48.3041487, -24.93791479], [-48.30434384, -24.93771198], [-48.3044816, -24.93762191], [-48.30454841, -24.93762198], [-48.30474355, -24.93763124], [-48.30508427, -24.93771287], [-48.30533062, -24.93781693], [-48.30574779, -24.93806558], [-48.30597449, -24.93828694], [-48.30641593, -24.93888305], [-48.30462957, -24.93995643], [-48.30435724, -24.94031239], [-48.30084675, -24.93922832], [-48.30057873, -24.93953667], [-48.3003851, -24.93979176], [-48.30008074, -24.94022454], [-48.29991251, -24.9406259], [-48.29975573, -24.94123483], [-48.29950641, -24.94168122], [-48.29923855, -24.94190197], [-48.29902899, -24.94201452], [-48.29865016, -24.94219002], [-48.29781592, -24.94245069], [-48.29739145, -24.9425359], [-48.2967252, -24.94276518], [-48.29629707, -24.94302635], [-48.29569399, -24.94361667], [-48.29761893, -24.94440859], [-48.29893445, -24.94506395], [-48.29958257, -24.94583348], [-48.301392, -24.94626317], [-48.30317179, -24.94640373], [-48.30469147, -24.94531982], [-48.30557088, -24.94437588], [-48.30645355, -24.94328043], [-48.30723085, -24.94263798], [-48.30744377, -24.94254348], [-48.30767228, -24.94236326], [-48.30793998, -24.94202969], [-48.30813587, -24.94173213], [-48.30844553, -24.94190847], [-48.30907365, -24.94237845], [-48.31106556, -24.9441359], [-48.31168095, -24.94489011], [-48.31245352, -24.94604606], [-48.31315782, -24.94717035], [-48.31348365, -24.94706694], [-48.31402651, -24.947045], [-48.31491748, -24.94713624]]], [[[-48.27026729, -24.91575714], [-48.27452525, -24.91636176], [-48.27612835, -24.91494563], [-48.28083793, -24.91487177], [-48.28325306, -24.91309896], [-48.28414628, -24.91117488], [-48.28341964, -24.90980741], [-48.28286735, -24.90804699], [-48.28297082, -24.90656127], [-48.2841946, -24.90544586], [-48.28463963, -24.90352456], [-48.28611569, -24.90051953], [-48.29054623, -24.90060011], [-48.29246142, -24.90054303], [-48.29581629, -24.90039556], [-48.29795864, -24.90166823], [-48.30108552, -24.90043964], [-48.30446405, -24.89984174], [-48.30537829, -24.89949076], [-48.30492271, -24.89727749], [-48.30595956, -24.89591807], [-48.30653625, -24.89430486], [-48.30864966, -24.89280428], [-48.30679595, -24.89129889], [-48.30661061, -24.89139794], [-48.30638675, -24.8914067], [-48.30582967, -24.89136993], [-48.30513884, -24.89126735], [-48.3048877, -24.89117993], [-48.30374403, -24.89293489], [-48.30288005, -24.89393298], [-48.30164782, -24.89501321], [-48.2997347, -24.89497858], [-48.29751752, -24.89503029], [-48.29610986, -24.8949129], [-48.29390269, -24.89450535], [-48.29341728, -24.89366965], [-48.29260776, -24.89383871], [-48.29160087, -24.89382042], [-48.28955901, -24.8950696], [-48.28764591, -24.89503481], [-48.28540663, -24.89609658], [-48.28297397, -24.89678728], [-48.28025735, -24.89664587], [-48.27870066, -24.8987306], [-48.27766149, -24.90018164], [-48.27585104, -24.9000567], [-48.27443529, -24.90030645], [-48.27342836, -24.90028804], [-48.27192404, -24.89998489], [-48.27152329, -24.89988568], [-48.26952363, -24.89920595], [-48.26850471, -24.89802933], [-48.26836564, -24.89627666], [-48.2672078, -24.89560725], [-48.2651229, -24.89508287], [-48.26297731, -24.89458404], [-48.26116293, -24.8946426], [-48.25903227, -24.89533845], [-48.25748745, -24.89687192], [-48.25713461, -24.8991623], [-48.25640617, -24.90090144], [-48.25609504, -24.90128902], [-48.25597904, -24.9014919], [-48.25578391, -24.90202404], [-48.25554979, -24.90291709], [-48.25527021, -24.9032957], [-48.25490211, -24.90372381], [-48.25455612, -24.90457608], [-48.2543986, -24.90482401], [-48.25488989, -24.90536169], [-48.25511421, -24.90614714], [-48.25499308, -24.90678768], [-48.2542524, -24.90805128], [-48.253451, -24.90937985], [-48.25331933, -24.91026834], [-48.25338239, -24.91141019], [-48.25467118, -24.91197362], [-48.25587005, -24.91343809], [-48.25755175, -24.91524343], [-48.25828315, -24.91649902], [-48.2595669, -24.91701134], [-48.26222126, -24.91769813], [-48.26363574, -24.91668523], [-48.26460757, -24.91657211], [-48.27026729, -24.91575714]]]]}}]}