{"type": "FeatureCollection", "features": [{"type": "Feature", "properties": {"name": "Área de Proteção Ambiental Mata do Iguatemi"}, "geometry": {"type": "MultiPolygon", "coordinates": [[[[-46.41752347, -23.57653927], [-46.417679, -23.57653785], [-46.41785377, -23.57651833], [-46.418022, -23.57649291], [-46.41831297, -23.57643051], [-46.41857141, -23.57635647], [-46.41885552, -23.5762583], [-46.41913911, -23.57611235], [-46.4193511, -23.57593718], [-46.41952497, -23.57583404], [-46.41963475, -23.57579719], [-46.41980914, -23.57574184], [-46.41997076, -23.57570452], [-46.4201583, -23.57566696], [-46.42033904, -23.5755996], [-46.42054506, -23.57547227], [-46.420719, -23.57537511], [-46.4210986, -23.57511776], [-46.42143248, -23.57482797], [-46.42168963, -23.57463447], [-46.42206239, -23.57434433], [-46.42242168, -23.57400652], [-46.42267683, -23.57374812], [-46.4229117, -23.57341145], [-46.42298263, -23.57325787], [-46.42308383, -23.57302756], [-46.42313382, -23.57285506], [-46.42324571, -23.57265333], [-46.42331592, -23.57243286], [-46.42335543, -23.5722509], [-46.42312816, -23.57232944], [-46.42293157, -23.57236947], [-46.42276599, -23.57239966], [-46.4225072, -23.57244026], [-46.42226884, -23.572452], [-46.42206127, -23.57243479], [-46.42184292, -23.57237944], [-46.42160312, -23.57225738], [-46.42144585, -23.57209634], [-46.42126846, -23.57199283], [-46.42108152, -23.57196586], [-46.42090506, -23.57194836], [-46.42076945, -23.57187314], [-46.42066495, -23.57179763], [-46.42043685, -23.57179972], [-46.4203538, -23.57179092], [-46.42034056, -23.57152343], [-46.42007068, -23.57149722], [-46.4198317, -23.57145161], [-46.41958245, -23.57141566], [-46.41932294, -23.57138936], [-46.4189694, -23.57129701], [-46.41866801, -23.57123286], [-46.41841846, -23.57116823], [-46.41821962, -23.57099801], [-46.41795837, -23.57080923], [-46.41774926, -23.57064866], [-46.4175611, -23.57050701], [-46.41738402, -23.57043217], [-46.41703151, -23.57043538], [-46.41698316, -23.57076078], [-46.41692351, -23.57100027], [-46.4168845, -23.57123001], [-46.4168457, -23.57147887], [-46.41677486, -23.57164199], [-46.41671553, -23.57191015], [-46.4166759, -23.57208255], [-46.41641834, -23.57223782], [-46.41622319, -23.57241164], [-46.4161734, -23.57260325], [-46.41613397, -23.57279476], [-46.41603101, -23.5728626], [-46.41589107, -23.57295133], [-46.41595779, -23.57312993], [-46.41602795, -23.57332642], [-46.41605261, -23.57351137], [-46.41606775, -23.57371434], [-46.41607863, -23.57382176], [-46.41614494, -23.57384022], [-46.41618549, -23.57387622], [-46.41621951, -23.57395429], [-46.41626029, -23.57408199], [-46.41630722, -23.5742039], [-46.41634194, -23.57434695], [-46.41638877, -23.5744593], [-46.41644274, -23.57465761], [-46.41648781, -23.57479866], [-46.4165077, -23.57491317], [-46.41651579, -23.57508704], [-46.41657126, -23.57523182], [-46.41668291, -23.57539328], [-46.41677119, -23.57550334], [-46.4168759, -23.57559797], [-46.41693893, -23.57567385], [-46.41698776, -23.57577854], [-46.41703274, -23.57591194], [-46.41709823, -23.57602412], [-46.41717609, -23.57612855], [-46.41725193, -23.57623873], [-46.41733389, -23.57633929], [-46.41752347, -23.57653927]]]]}}]}