{"type": "FeatureCollection", "features": [{"type": "Feature", "properties": {"name": "Área de Proteção Ambiental Silveiras"}, "geometry": {"type": "MultiPolygon", "coordinates": [[[[-44.74893641, -22.78453759], [-44.74910724, -22.7848163], [-44.74937927, -22.78502868], [-44.74968063, -22.78523812], [-44.7498869, -22.78535949], [-44.75024996, -22.78555771], [-44.75049288, -22.78565735], [-44.75078309, -22.78577434], [-44.75107372, -22.78591214], [-44.75159482, -22.78614114], [-44.75208342, -22.78638294], [-44.75299742, -22.7868967], [-44.75381086, -22.78741715], [-44.75453457, -22.78783159], [-44.75498784, -22.78819095], [-44.75530182, -22.78861938], [-44.7558858, -22.78868625], [-44.75659019, -22.78884176], [-44.7571738, -22.78906677], [-44.75792954, -22.78945121], [-44.75812834, -22.78948836], [-44.75874345, -22.78952159], [-44.75927127, -22.7893576], [-44.76034043, -22.78888983], [-44.76102388, -22.78877372], [-44.76158139, -22.78877398], [-44.76208795, -22.78889235], [-44.76281472, -22.78926706], [-44.763808, -22.7897347], [-44.76460273, -22.78993836], [-44.7660861, -22.7900504], [-44.76689209, -22.79016213], [-44.76752836, -22.79027806], [-44.76784848, -22.79040747], [-44.76907755, -22.79113266], [-44.77014941, -22.79172407], [-44.77188007, -22.7924283], [-44.77243563, -22.79282793], [-44.77278942, -22.79322832], [-44.77319329, -22.79405011], [-44.77354754, -22.79461499], [-44.77417869, -22.79524952], [-44.7756154, -22.79597674], [-44.77582316, -22.79608004], [-44.77647936, -22.79650819], [-44.77687167, -22.79710828], [-44.77695943, -22.79757934], [-44.7769583, -22.79838454], [-44.77703598, -22.79894032], [-44.77720403, -22.79932558], [-44.77798231, -22.80010899], [-44.77840632, -22.80072697], [-44.77867601, -22.80121127], [-44.77905283, -22.80184443], [-44.77924007, -22.80235032], [-44.77947151, -22.80364348], [-44.77963056, -22.80469186], [-44.77958131, -22.80594691], [-44.77970563, -22.80669084], [-44.78043629, -22.80830728], [-44.78083497, -22.80910813], [-44.78107744, -22.81009969], [-44.78116489, -22.81200135], [-44.78101338, -22.81263499], [-44.78037772, -22.81401932], [-44.77975314, -22.81535329], [-44.77949905, -22.81563121], [-44.77902304, -22.81589588], [-44.77832696, -22.8160425], [-44.7773077, -22.81609853], [-44.77586828, -22.8161539], [-44.77509057, -22.81589105], [-44.77411878, -22.8155225], [-44.77357202, -22.81540866], [-44.77320121, -22.81534949], [-44.77232526, -22.81536903], [-44.77101201, -22.81555469], [-44.77058596, -22.81573735], [-44.77046908, -22.81576989], [-44.77044586, -22.81605313], [-44.77051873, -22.81627984], [-44.77082446, -22.81662038], [-44.77116765, -22.81690937], [-44.77182583, -22.81712158], [-44.77235873, -22.81728029], [-44.77247292, -22.81738415], [-44.77257713, -22.81746066], [-44.77269163, -22.81777057], [-44.77250675, -22.81833836], [-44.77249369, -22.81896977], [-44.77253628, -22.81909005], [-44.77261956, -22.8193649], [-44.77307106, -22.81979555], [-44.7735179, -22.82007337], [-44.77414005, -22.82050254], [-44.77479439, -22.82078605], [-44.775267, -22.82083039], [-44.77634315, -22.82076304], [-44.77671308, -22.82089176], [-44.7778834, -22.82160197], [-44.77927623, -22.82204979], [-44.77967973, -22.82230852], [-44.77998377, -22.82256766], [-44.78021146, -22.82280246], [-44.78057324, -22.82312619], [-44.78163966, -22.82364058], [-44.78210583, -22.82385284], [-44.78280815, -22.82405699], [-44.78384669, -22.82426616], [-44.78470828, -22.82442065], [-44.78497708, -22.82457685], [-44.78520444, -22.82475108], [-44.78557291, -22.82537228], [-44.78596355, -22.82618469], [-44.78635874, -22.82715534], [-44.78674308, -22.82889572], [-44.78682191, -22.829156], [-44.78732721, -22.82983819], [-44.78801265, -22.83056518], [-44.78862709, -22.83106732], [-44.78923214, -22.83126468], [-44.79104004, -22.8313261], [-44.79344658, -22.83178894], [-44.79417756, -22.83183464], [-44.79434232, -22.83179866], [-44.79494604, -22.83164442], [-44.79568901, -22.83149699], [-44.79635409, -22.83149146], [-44.7968328, -22.83160095], [-44.79713025, -22.83178038], [-44.79737155, -22.83212752], [-44.79789661, -22.83320415], [-44.79822435, -22.83433138], [-44.79832445, -22.83529343], [-44.79845007, -22.83613948], [-44.79856945, -22.83678115], [-44.79875756, -22.83736836], [-44.7987509, -22.83758149], [-44.79877128, -22.83813323], [-44.79868318, -22.83843847], [-44.79845623, -22.83883181], [-44.79820195, -22.83955529], [-44.79814514, -22.83989379], [-44.7981541, -22.84006931], [-44.79820134, -22.84016258], [-44.79830201, -22.84026339], [-44.79877124, -22.84051002], [-44.79926595, -22.84071566], [-44.79962336, -22.84095068], [-44.79997378, -22.84130213], [-44.80023203, -22.84156289], [-44.80053108, -22.84179297], [-44.80073181, -22.84190782], [-44.80090773, -22.84203837], [-44.80116845, -22.84228021], [-44.80166103, -22.84293133], [-44.80200076, -22.84328162], [-44.80234998, -22.84356887], [-44.80279959, -22.84389366], [-44.80315538, -22.84415394], [-44.80351257, -22.84439799], [-44.80386934, -22.84462124], [-44.804261, -22.84481637], [-44.80465952, -22.84500985], [-44.80493142, -22.84516158], [-44.80516689, -22.84536307], [-44.80542957, -22.84553175], [-44.80596963, -22.84579263], [-44.80607867, -22.84583579], [-44.80664392, -22.84588306], [-44.8068555, -22.84588338], [-44.80710379, -22.84586014], [-44.80738918, -22.84590824], [-44.80757503, -22.84595948], [-44.80800548, -22.84616272], [-44.80829345, -22.84622353], [-44.80882217, -22.84621483], [-44.80963059, -22.84613841], [-44.80992825, -22.8461651], [-44.81003031, -22.84625057], [-44.81002956, -22.84638883], [-44.80988566, -22.84666659], [-44.80928949, -22.84748801], [-44.80880749, -22.8483789], [-44.80845024, -22.84883254], [-44.80823289, -22.84901193], [-44.80799212, -22.84915554], [-44.80768193, -22.84926954], [-44.80700631, -22.84944839], [-44.80673434, -22.84962834], [-44.80657909, -22.84992934], [-44.80655535, -22.85045476], [-44.80690356, -22.85067058], [-44.80718944, -22.85103047], [-44.80758427, -22.85202275], [-44.80774687, -22.85232469], [-44.80796347, -22.85261341], [-44.80804878, -22.85281509], [-44.80804846, -22.85293708], [-44.80798616, -22.8531164], [-44.80772929, -22.85342502], [-44.80761276, -22.8536266], [-44.80751189, -22.85430208], [-44.80699826, -22.8547684], [-44.80688982, -22.85514187], [-44.80678031, -22.85533638], [-44.80663295, -22.85545049], [-44.80634572, -22.85558038], [-44.80606582, -22.85587492], [-44.80605796, -22.8561332], [-44.80608921, -22.85624146], [-44.80623618, -22.85647165], [-44.80636004, -22.85654407], [-44.80652309, -22.85657311], [-44.80663861, -22.85666612], [-44.80682478, -22.85688908], [-44.80689449, -22.85705425], [-44.80689405, -22.85732716], [-44.80685548, -22.85745732], [-44.8066996, -22.85774475], [-44.80648192, -22.85804613], [-44.80636584, -22.85837695], [-44.806381, -22.85868637], [-44.80648856, -22.85885872], [-44.80665948, -22.85903163], [-44.806892, -22.85912551], [-44.80710947, -22.85912506], [-44.80731148, -22.85908269], [-44.8076212, -22.859097], [-44.80784569, -22.85916268], [-44.80838821, -22.85944349], [-44.80859807, -22.85947268], [-44.8087535, -22.85945816], [-44.80921856, -22.85931516], [-44.80961411, -22.85936577], [-44.80982325, -22.85949526], [-44.81022655, -22.85984066], [-44.81111786, -22.86028034], [-44.81158333, -22.86056209], [-44.81165975, -22.86065873], [-44.81168529, -22.86068823], [-44.81176875, -22.86077689], [-44.81193261, -22.86092252], [-44.81230415, -22.86125272], [-44.8130948, -22.86162774], [-44.81351293, -22.86196624], [-44.81387654, -22.86208118], [-44.81432689, -22.8621249], [-44.81463665, -22.86221149], [-44.81488539, -22.86235544], [-44.81526568, -22.86265059], [-44.8155512, -22.86298877], [-44.81569945, -22.86339159], [-44.81566749, -22.86375054], [-44.81552704, -22.86408171], [-44.8156037, -22.86446302], [-44.81555697, -22.86493731], [-44.81562647, -22.86507445], [-44.81575869, -22.86505307], [-44.8158599, -22.8649876], [-44.81599886, -22.86482268], [-44.81617032, -22.86453559], [-44.81624071, -22.86449201], [-44.81644258, -22.8644921], [-44.81709341, -22.86488198], [-44.81757417, -22.86521286], [-44.81780615, -22.8653275], [-44.81800801, -22.86536464], [-44.81817863, -22.86529261], [-44.81827201, -22.86519172], [-44.81841942, -22.86481823], [-44.81889318, -22.86420095], [-44.81960138, -22.86356822], [-44.81994224, -22.86318106], [-44.82006684, -22.86311612], [-44.82024548, -22.86277859], [-44.8204015, -22.86215406], [-44.82052602, -22.86198158], [-44.82058726, -22.86195225], [-44.82073606, -22.86196739], [-44.82117714, -22.8621401], [-44.82130955, -22.86211149], [-44.82139469, -22.86198962], [-44.82136416, -22.86181722], [-44.82125548, -22.86168642], [-44.82081343, -22.86151368], [-44.82064329, -22.86138418], [-44.82058873, -22.86116153], [-44.82074521, -22.86096086], [-44.82127282, -22.86070176], [-44.82173065, -22.86027931], [-44.8224613, -22.8590931], [-44.82263296, -22.85887108], [-44.82281136, -22.85872603], [-44.82308259, -22.85868431], [-44.82332257, -22.85882804], [-44.823478, -22.85881351], [-44.8237728, -22.85869189], [-44.82388221, -22.85872149], [-44.82397396, -22.85882841], [-44.82398194, -22.85911598], [-44.82407463, -22.85922472], [-44.82415245, -22.85923192], [-44.82452469, -22.85909489], [-44.82508321, -22.85873617], [-44.82525458, -22.8586723], [-44.8254637, -22.85872947], [-44.8254868, -22.85888815], [-44.82542566, -22.85906117], [-44.82549459, -22.85918293], [-44.82557262, -22.85921905], [-44.82568047, -22.8591971], [-44.8258828, -22.85906886], [-44.82602926, -22.8590252], [-44.82614687, -22.85903962], [-44.82627778, -22.85910405], [-44.82654218, -22.85935678], [-44.82668912, -22.85944236], [-44.82681315, -22.85943524], [-44.82716195, -22.85929949], [-44.82727936, -22.85928498], [-44.82740295, -22.85922092], [-44.8275734, -22.85922841], [-44.82783752, -22.85930762], [-44.82834926, -22.8595741], [-44.82861202, -22.85966773], [-44.82872125, -22.85966751], [-44.83011721, -22.85994324], [-44.83040381, -22.86009434], [-44.83057477, -22.86026722], [-44.83069799, -22.86047517], [-44.83072117, -22.86074138], [-44.83068173, -22.86097907], [-44.8307755, -22.86115742], [-44.83085235, -22.86120164], [-44.83101558, -22.86118728], [-44.83155175, -22.86097263], [-44.83190006, -22.86096608], [-44.83227249, -22.86082181], [-44.83249797, -22.86085043], [-44.83276845, -22.8611322], [-44.83332685, -22.8614413], [-44.83337393, -22.86154177], [-44.83335742, -22.86164985], [-44.83321833, -22.86189431], [-44.83324123, -22.86202406], [-44.83328692, -22.86206666], [-44.83343515, -22.86206641], [-44.83371433, -22.86194533], [-44.83380796, -22.86194474], [-44.83389224, -22.86200269], [-44.83393173, -22.86213191], [-44.83380712, -22.86241917], [-44.83383055, -22.862492], [-44.83389943, -22.86254237], [-44.83407046, -22.86252818], [-44.83447444, -22.86233401], [-44.8347145, -22.86232771], [-44.83509483, -22.86258577], [-44.8353814, -22.86270162], [-44.83573056, -22.8627737], [-44.83593151, -22.86288219], [-44.83614939, -22.8629034], [-44.83647501, -22.86279601], [-44.83675451, -22.86281049], [-44.8369719, -22.86299797], [-44.83729705, -22.86305595], [-44.8375064, -22.86314203], [-44.83780032, -22.86342252], [-44.83797142, -22.86351677], [-44.83822731, -22.86353884], [-44.83854575, -22.86344485], [-44.83883287, -22.86350287], [-44.83898024, -22.86368334], [-44.83903419, -22.86381921], [-44.83903398, -22.8640858], [-44.83898711, -22.86427271], [-44.83901776, -22.86455265], [-44.83907187, -22.86468221], [-44.83924988, -22.86488415], [-44.83935856, -22.86494174], [-44.83946717, -22.86492794], [-44.83955296, -22.86485488], [-44.83956849, -22.86478383], [-44.83946771, -22.86461165], [-44.83946746, -22.86451043], [-44.83955321, -22.86443917], [-44.83966146, -22.86443892], [-44.83973172, -22.86447395], [-44.83987873, -22.86470501], [-44.83997942, -22.86476965], [-44.84011922, -22.8647195], [-44.84026652, -22.86453306], [-44.8404295, -22.86445451], [-44.84058461, -22.86448966], [-44.84094899, -22.864835], [-44.84154633, -22.86503741], [-44.84170836, -22.86525345], [-44.84171596, -22.86548316], [-44.84175484, -22.86556176], [-44.84191814, -22.86565583], [-44.84222108, -22.86570607], [-44.84230539, -22.86580016], [-44.84226667, -22.8659005], [-44.84194075, -22.86616694], [-44.84191706, -22.86628841], [-44.84197936, -22.86640369], [-44.84226525, -22.86661982], [-44.84242082, -22.86678511], [-44.84249039, -22.86695749], [-44.84249032, -22.8671084], [-44.842537, -22.86722423], [-44.84275465, -22.86721741], [-44.84311168, -22.86706554], [-44.84324278, -22.86712364], [-44.84335057, -22.86728874], [-44.843297, -22.86765624], [-44.84347504, -22.86785728], [-44.84348233, -22.86795053], [-44.84340476, -22.86804457], [-44.84310181, -22.86821664], [-44.84307903, -22.86826674], [-44.84313351, -22.86834569], [-44.84321819, -22.86838918], [-44.84350585, -22.86835322], [-44.84382357, -22.86810195], [-44.84397821, -22.86808105], [-44.84407265, -22.86812385], [-44.84414175, -22.86820314], [-44.84424201, -22.86846929], [-44.84438161, -22.86864867], [-44.84455261, -22.86859922], [-44.84472313, -22.86841963], [-44.84482432, -22.86839119], [-44.8449482, -22.86842743], [-44.84518847, -22.8686353], [-44.84548265, -22.86872239], [-44.84558475, -22.86880784], [-44.84567633, -22.86895902], [-44.84575413, -22.86918942], [-44.8458703, -22.86933303], [-44.84604122, -22.8694345], [-44.84626558, -22.86950645], [-44.84652226, -22.86975806], [-44.8468713, -22.86990965], [-44.84700972, -22.87009714], [-44.84708008, -22.87027676], [-44.84710968, -22.87044913], [-44.84709407, -22.87093046], [-44.84714865, -22.871154], [-44.84724965, -22.8713551], [-44.84734978, -22.87144141], [-44.84752841, -22.87139846], [-44.84763015, -22.8713122], [-44.84772988, -22.8711545], [-44.84773074, -22.87101083], [-44.84763851, -22.87077287], [-44.84767585, -22.87065081], [-44.84773062, -22.87060777], [-44.84784649, -22.87061491], [-44.84807967, -22.87075935], [-44.84873221, -22.87068102], [-44.84887875, -22.87070874], [-44.84899482, -22.87078185], [-44.84953046, -22.87084728], [-44.84993418, -22.87081121], [-44.85084978, -22.87040897], [-44.85157909, -22.87023024], [-44.85200629, -22.87007994], [-44.8524019, -22.86990723], [-44.85273584, -22.86970601], [-44.85311643, -22.86954832], [-44.8532709, -22.86957079], [-44.85341943, -22.86967084], [-44.85345673, -22.86973584], [-44.8534569, -22.86995183], [-44.85355839, -22.87002371], [-44.85368243, -22.87001657], [-44.85382164, -22.86995194], [-44.85400815, -22.86979438], [-44.85411685, -22.86962875], [-44.85427225, -22.86957893], [-44.85448933, -22.86959378], [-44.85464442, -22.86962981], [-44.85475301, -22.86954279], [-44.854824, -22.86910519], [-44.85491713, -22.86897535], [-44.85508013, -22.86893294], [-44.85518844, -22.86896792], [-44.85529734, -22.86905442], [-44.85554477, -22.86943595], [-44.85597106, -22.86958022], [-44.85613424, -22.86971675], [-44.85618851, -22.86980382], [-44.85618027, -22.86996902], [-44.85588463, -22.87023436], [-44.85593941, -22.87041363], [-44.85618032, -22.87048684], [-44.85630387, -22.87057277], [-44.85635803, -22.87070142], [-44.85627999, -22.87092468], [-44.85627976, -22.87111897], [-44.85631882, -22.87119124], [-44.85646619, -22.8712985], [-44.85666764, -22.87127774], [-44.85679959, -22.8711551], [-44.85689341, -22.87092496], [-44.85687761, -22.87070952], [-44.85693318, -22.87048756], [-44.85703316, -22.87035697], [-44.8571809, -22.87026451], [-44.85728956, -22.87028594], [-44.85742153, -22.87042266], [-44.85742809, -22.87080417], [-44.85755247, -22.87096965], [-44.85761414, -22.87099815], [-44.85806469, -22.87099837], [-44.85818919, -22.87104817], [-44.85829679, -22.8712214], [-44.85832743, -22.87146609], [-44.85824298, -22.8717109], [-44.85771411, -22.87246441], [-44.85764385, -22.8726517], [-44.85764406, -22.87290384], [-44.85767456, -22.87296779], [-44.85775965, -22.87303297], [-44.85794552, -22.87301095], [-44.85813993, -22.87296111], [-44.85859048, -22.87273902], [-44.85876136, -22.87276817], [-44.8588541, -22.872876], [-44.85885349, -22.87304769], [-44.85862071, -22.87340754], [-44.8586448, -22.87349303], [-44.8587447, -22.87355131], [-44.85886815, -22.87352969], [-44.85900947, -22.87345878], [-44.85926472, -22.87313468], [-44.85952137, -22.8729055], [-44.85975462, -22.87286195], [-44.85983912, -22.87291266], [-44.85986242, -22.8729909], [-44.85984631, -22.87312158], [-44.85972233, -22.87338628], [-44.85975363, -22.87349453], [-44.85980712, -22.8735373], [-44.85989294, -22.87353743], [-44.86024973, -22.87339455], [-44.86044443, -22.87344503], [-44.86055182, -22.87358933], [-44.86055975, -22.87369615], [-44.86069244, -22.87399103], [-44.86093955, -22.87419994], [-44.8613737, -22.87460283], [-44.86154398, -22.87484072], [-44.8615831, -22.87494824], [-44.86155139, -22.87548794], [-44.86162177, -22.87566756], [-44.86191512, -22.87608445], [-44.86227147, -22.87651632], [-44.8628768, -22.87704867], [-44.86334167, -22.87754534], [-44.86356601, -22.87799049], [-44.8635345, -22.87852297], [-44.86358862, -22.87865342], [-44.86368174, -22.87870973], [-44.86390621, -22.87866689], [-44.8641705, -22.87866742], [-44.8642554, -22.87873982], [-44.86427857, -22.87889758], [-44.86415431, -22.87909903], [-44.86415417, -22.87917855], [-44.86430196, -22.87930749], [-44.86453436, -22.87940851], [-44.86506232, -22.87954511], [-44.86527931, -22.8796756], [-44.86534916, -22.87968983], [-44.86548117, -22.87963948], [-44.86567556, -22.87933027], [-44.86583085, -22.8791729], [-44.86601687, -22.87907136], [-44.86631156, -22.87902828], [-44.86653629, -22.87886344], [-44.86655222, -22.87881409], [-44.86649092, -22.87873409], [-44.86627374, -22.87864787], [-44.86619566, -22.87857563], [-44.86615691, -22.87845366], [-44.86617218, -22.87831754], [-44.86622749, -22.87821667], [-44.86629783, -22.87813782], [-44.86646785, -22.87805128], [-44.86656831, -22.87805083], [-44.8666928, -22.87810152], [-44.86681701, -22.87827421], [-44.86704167, -22.87844736], [-44.86721236, -22.87848373], [-44.8675537, -22.87848418], [-44.86783259, -22.87863504], [-44.8679027, -22.87871343], [-44.86794126, -22.87884262], [-44.86794094, -22.87915259], [-44.86797264, -22.87924548], [-44.86824323, -22.87952719], [-44.86835174, -22.87977815], [-44.86842847, -22.87986482], [-44.86864614, -22.87985797], [-44.86870854, -22.87982142], [-44.86874706, -22.8797283], [-44.86874695, -22.87962076], [-44.86868557, -22.87946936], [-44.86843765, -22.87903001], [-44.86842189, -22.87888687], [-44.86848503, -22.87882232], [-44.86870979, -22.87887979], [-44.86891101, -22.87920332], [-44.8690111, -22.87944053], [-44.86905037, -22.87991495], [-44.86895554, -22.88029599], [-44.86871617, -22.88068463], [-44.86870808, -22.8807703], [-44.86880021, -22.88086455], [-44.86887865, -22.88088619], [-44.8692194, -22.88087216], [-44.86942104, -22.88080711], [-44.86947635, -22.88074328], [-44.86949091, -22.88063426], [-44.86941444, -22.8804256], [-44.86941452, -22.88031083], [-44.86950692, -22.88024603], [-44.86961635, -22.88023855], [-44.87009604, -22.8807292], [-44.87033727, -22.88086566], [-44.87067062, -22.88087315], [-44.87091888, -22.88081546], [-44.87109736, -22.88081586], [-44.87161655, -22.88095223], [-44.87171822, -22.88101778], [-44.87182609, -22.88121902], [-44.87189616, -22.88126216], [-44.87228372, -22.88124827], [-44.87239269, -22.88137001], [-44.8724548, -22.88186663], [-44.87260858, -22.88232646], [-44.87263954, -22.88267146], [-44.87260812, -22.88286596], [-44.87255395, -22.88292348], [-44.87245388, -22.88290858], [-44.87226002, -22.8827506], [-44.87210413, -22.88270733], [-44.87193326, -22.88271434], [-44.87174724, -22.88277884], [-44.87143685, -22.88293725], [-44.87129731, -22.8830516], [-44.8711499, -22.88331759], [-44.87111815, -22.88356178], [-44.87120272, -22.88387094], [-44.87138112, -22.88402315], [-44.87174525, -22.88415966], [-44.87225782, -22.88428865], [-44.87235091, -22.88434677], [-44.87272272, -22.88437591], [-44.87307998, -22.88447701], [-44.8733054, -22.88458419], [-44.87349845, -22.88473583], [-44.87377746, -22.88480806], [-44.87408059, -22.88500193], [-44.87437567, -22.88494439], [-44.87458439, -22.88494456], [-44.87470144, -22.88498153], [-44.87491831, -22.88511743], [-44.87521342, -22.88509604], [-44.87533717, -22.88498856], [-44.87543155, -22.88495996], [-44.87571811, -22.88496729], [-44.87583345, -22.88503223], [-44.87617551, -22.88534174], [-44.87678785, -22.88557237], [-44.87701268, -22.88570212], [-44.87714447, -22.88580991], [-44.87726059, -22.88606916], [-44.87726034, -22.88641437], [-44.87719845, -22.88673018], [-44.87722925, -22.88689535], [-44.87728354, -22.88698242], [-44.87736028, -22.88703203], [-44.87748549, -22.88701767], [-44.87764103, -22.88688832], [-44.87775689, -22.88670927], [-44.87785809, -22.88664376], [-44.87806822, -22.88670179], [-44.8781522, -22.88681031], [-44.8782228, -22.88698269], [-44.8783224, -22.88750094], [-44.87839998, -22.8876301], [-44.87849272, -22.88770177], [-44.87861036, -22.88771615], [-44.87874194, -22.887645], [-44.87872629, -22.88738528], [-44.87880442, -22.88730661], [-44.87893571, -22.8873213], [-44.87907545, -22.88738588], [-44.87922255, -22.88739279], [-44.87961837, -22.88724984], [-44.8798125, -22.88728583], [-44.87989769, -22.88742239], [-44.87986688, -22.88763135], [-44.87958632, -22.88814108], [-44.87954839, -22.88843574], [-44.87971873, -22.88848655], [-44.8798973, -22.88837126], [-44.88005271, -22.88832143], [-44.88019129, -22.88839321], [-44.88040125, -22.8888317], [-44.88070311, -22.88911228], [-44.88085068, -22.88940025], [-44.88095864, -22.88948672], [-44.88123904, -22.88958066], [-44.88126101, -22.88986039], [-44.88135475, -22.88996822], [-44.88149403, -22.88997586], [-44.88187414, -22.88991208], [-44.88219173, -22.88992642], [-44.88230088, -22.89000478], [-44.88240954, -22.89021416], [-44.88258789, -22.89025701], [-44.8830774, -22.88996252], [-44.88331693, -22.88994078], [-44.88367424, -22.890078], [-44.88403931, -22.89036632], [-44.88424756, -22.89045955], [-44.88449697, -22.89039555], [-44.88457456, -22.89033764], [-44.88458255, -22.89014352], [-44.88451218, -22.88999916], [-44.88423266, -22.88964679], [-44.88384645, -22.8893092], [-44.88377586, -22.88913591], [-44.88380788, -22.88880588], [-44.883994, -22.88828861], [-44.88398614, -22.88821614], [-44.88393182, -22.88812997], [-44.8838397, -22.88807188], [-44.88360674, -22.88802871], [-44.88335772, -22.88792825], [-44.88325793, -22.88782751], [-44.88315683, -22.88759028], [-44.88309552, -22.88661291], [-44.88335105, -22.88623908], [-44.88345281, -22.88596483], [-44.88356109, -22.88581453], [-44.88372454, -22.88579288], [-44.88379443, -22.88584325], [-44.88404942, -22.88646257], [-44.8842211, -22.88664896], [-44.88432119, -22.88666295], [-44.88443693, -22.88656342], [-44.88446878, -22.88642677], [-44.88436864, -22.88615251], [-44.88445299, -22.88605951], [-44.88455464, -22.8860889], [-44.88467086, -22.88623248], [-44.88475672, -22.88645581], [-44.88478758, -22.88665621], [-44.88488731, -22.8867217], [-44.88511297, -22.88667073], [-44.88524429, -22.88653449], [-44.88525316, -22.88608194], [-44.88540812, -22.88578719], [-44.88552545, -22.88570125], [-44.88567195, -22.88569368], [-44.8857492, -22.88572343], [-44.88578045, -22.88575937], [-44.88578057, -22.88586691], [-44.88571898, -22.88609688], [-44.88581128, -22.88629776], [-44.88589677, -22.88634847], [-44.88633087, -22.88642054], [-44.88645561, -22.88649924], [-44.88653276, -22.8866076], [-44.88658681, -22.88681666], [-44.88647732, -22.88712599], [-44.88653968, -22.88724035], [-44.88666355, -22.88724041], [-44.88688932, -22.88714786], [-44.88718436, -22.88686708], [-44.88737095, -22.88678088], [-44.88750984, -22.88680297], [-44.88758092, -22.88684523], [-44.88771941, -22.88703268], [-44.88782772, -22.88706854], [-44.88792952, -22.88705455], [-44.88802208, -22.88698342], [-44.88805323, -22.88691091], [-44.88795274, -22.88668726], [-44.88799122, -22.88655799], [-44.88810779, -22.88650095], [-44.88826348, -22.88651527], [-44.88844947, -22.88660167], [-44.88862739, -22.88681079], [-44.8890314, -22.88717678], [-44.88937181, -22.88773836], [-44.88941881, -22.88791834], [-44.88955755, -22.88813381], [-44.88958915, -22.88830622], [-44.88956499, -22.88852257], [-44.88959614, -22.88863713], [-44.88968873, -22.88875216], [-44.889759, -22.88878807], [-44.88996895, -22.88885331], [-44.89018548, -22.88885363], [-44.89030931, -22.88881754], [-44.89051127, -22.88870277], [-44.89079072, -22.88845869], [-44.89096169, -22.88837304], [-44.89110963, -22.88842243], [-44.89113944, -22.88855143], [-44.89093821, -22.88882527], [-44.89096138, -22.88894688], [-44.89111652, -22.88901993], [-44.89167574, -22.88896917], [-44.89184649, -22.88904166], [-44.89195474, -22.88919229], [-44.89192317, -22.88958108], [-44.89200841, -22.88975378], [-44.89270636, -22.89044443], [-44.89286896, -22.8905303], [-44.89309373, -22.89058863], [-44.89326463, -22.8905807], [-44.89341157, -22.89063097], [-44.89367586, -22.89078237], [-44.89390881, -22.89097644], [-44.89424173, -22.89111401], [-44.89476176, -22.89140847], [-44.89490827, -22.89143795], [-44.89522775, -22.89138001], [-44.89548309, -22.89120045], [-44.89564592, -22.89097726], [-44.89573982, -22.89070463], [-44.8962918, -22.88995693], [-44.89646209, -22.88978451], [-44.89678085, -22.88930363], [-44.89698236, -22.889131], [-44.89719253, -22.88903808], [-44.89744105, -22.88904543], [-44.89761925, -22.88913165], [-44.89788231, -22.88955592], [-44.89813834, -22.88980021], [-44.8983165, -22.89003824], [-44.89839457, -22.8904123], [-44.89868059, -22.89062834], [-44.89870409, -22.89085027], [-44.89864898, -22.89094393], [-44.89845524, -22.89108058], [-44.89797423, -22.89127409], [-44.89750032, -22.89138191], [-44.89733734, -22.89146051], [-44.89725221, -22.89154627], [-44.89708951, -22.89187701], [-44.89700299, -22.89231609], [-44.89673145, -22.89281881], [-44.89674006, -22.8930133], [-44.89687913, -22.89317907], [-44.89721981, -22.8932436], [-44.89807318, -22.89317226], [-44.89830628, -22.89317294], [-44.89840758, -22.89321586], [-44.89862381, -22.89345293], [-44.8988494, -22.89351761], [-44.89898878, -22.89359662], [-44.89926819, -22.89399235], [-44.89936816, -22.89408675], [-44.89987345, -22.89427333], [-44.90004408, -22.89438829], [-44.900067, -22.8946328], [-44.89997376, -22.89480513], [-44.89997346, -22.89489188], [-44.90003518, -22.89495651], [-44.90017513, -22.89501385], [-44.90037685, -22.89502106], [-44.90051647, -22.89497808], [-44.90085803, -22.89463325], [-44.90100579, -22.89453985], [-44.90116161, -22.89451169], [-44.90127693, -22.89454047], [-44.90138658, -22.8947128], [-44.90136255, -22.89484963], [-44.90128502, -22.89494279], [-44.90091198, -22.89522276], [-44.90078056, -22.89543853], [-44.90081185, -22.89551062], [-44.90093561, -22.89559019], [-44.90115254, -22.89557514], [-44.90138588, -22.89545382], [-44.90162615, -22.89521608], [-44.90177392, -22.89497176], [-44.9019601, -22.89486384], [-44.9020842, -22.89489282], [-44.9022313, -22.89508768], [-44.90242499, -22.8952167], [-44.90253349, -22.89524532], [-44.90293706, -22.89521726], [-44.90313923, -22.89528231], [-44.90323984, -22.89538938], [-44.90326375, -22.89548299], [-44.90307676, -22.89588549], [-44.90307725, -22.89597948], [-44.90313065, -22.89610177], [-44.90325554, -22.89613799], [-44.90344905, -22.89612332], [-44.90358924, -22.89605866], [-44.90372036, -22.89592964], [-44.90375962, -22.89580761], [-44.90360498, -22.89552673], [-44.90361229, -22.89543291], [-44.90370506, -22.89535365], [-44.90384468, -22.89531066], [-44.90400098, -22.89533945], [-44.90424025, -22.89544057], [-44.90445075, -22.89544796], [-44.90496201, -22.8952542], [-44.90525831, -22.89507463], [-44.90548264, -22.89507511], [-44.90556033, -22.89512564], [-44.90562193, -22.89523274], [-44.9056529, -22.89565636], [-44.90578532, -22.89581564], [-44.90593228, -22.8958659], [-44.90620387, -22.89588731], [-44.90650585, -22.89605308], [-44.90660786, -22.89603095], [-44.90680181, -22.89592411], [-44.90699555, -22.89593836], [-44.90751473, -22.89634211], [-44.90760766, -22.89636948], [-44.90789516, -22.89634153], [-44.90802694, -22.89626222], [-44.90862496, -22.89603243], [-44.90884225, -22.8958529], [-44.90888057, -22.895767], [-44.9088808, -22.89564501], [-44.90881941, -22.89552978], [-44.90880404, -22.89540744], [-44.90891186, -22.89504835], [-44.90891285, -22.89474654], [-44.90876532, -22.89437907], [-44.90837806, -22.89404152], [-44.90832276, -22.89395444], [-44.90829279, -22.89386882], [-44.90829311, -22.89332933], [-44.90825421, -22.89324984], [-44.90812243, -22.89317823], [-44.90784324, -22.89314943], [-44.90773508, -22.89307021], [-44.90770359, -22.89300535], [-44.90773517, -22.89284067], [-44.90801389, -22.89232273], [-44.9080379, -22.8921868], [-44.90801386, -22.89213566], [-44.90792212, -22.89210018], [-44.90765, -22.89209955], [-44.90740905, -22.89191255], [-44.90726133, -22.89185414], [-44.90682654, -22.89188333], [-44.906727, -22.89184768], [-44.906618, -22.89172506], [-44.90662585, -22.89161047], [-44.90670296, -22.89149561], [-44.90690482, -22.89145943], [-44.90749491, -22.8914599], [-44.90771237, -22.89142407], [-44.90798395, -22.89129456], [-44.90825577, -22.89104305], [-44.90827978, -22.89075621], [-44.90844222, -22.89054745], [-44.90932703, -22.89005201], [-44.91019637, -22.88966377], [-44.91044468, -22.88949126], [-44.91049948, -22.88933343], [-44.91048385, -22.88914601], [-44.91044552, -22.8890819], [-44.9102351, -22.88895884], [-44.91004959, -22.88896647], [-44.90973089, -22.88914555], [-44.90927307, -22.88931069], [-44.90908639, -22.88932552], [-44.90888495, -22.88923247], [-44.90865355, -22.88901587], [-44.9086217, -22.88881454], [-44.90872243, -22.88872912], [-44.90895569, -22.8886855], [-44.90904961, -22.88859903], [-44.9090256, -22.88843402], [-44.90869257, -22.88807418], [-44.90869254, -22.88788711], [-44.90893275, -22.88765026], [-44.90896413, -22.88745576], [-44.90893288, -22.88711799], [-44.909267, -22.88664465], [-44.90939956, -22.88638462], [-44.90943094, -22.88622717], [-44.90939958, -22.88611984], [-44.90940774, -22.88561666], [-44.90950048, -22.88550034], [-44.90962569, -22.88548595], [-44.9097028, -22.88555905], [-44.9098036, -22.88580981], [-44.90990379, -22.88593313], [-44.91002027, -22.8859547], [-44.91014507, -22.88591861], [-44.91020604, -22.88582418], [-44.91020604, -22.88567326], [-44.91014511, -22.88546496], [-44.91014553, -22.88533574], [-44.9103236, -22.88516348], [-44.90988896, -22.88481041], [-44.90967217, -22.88444411], [-44.90951691, -22.88430059], [-44.90893533, -22.88389726], [-44.90867981, -22.88374609], [-44.90851646, -22.88368914], [-44.90822983, -22.88345865], [-44.90822965, -22.88331496], [-44.90850156, -22.88313484], [-44.90862603, -22.88299844], [-44.90863416, -22.88294801], [-44.90854784, -22.88285392], [-44.90815974, -22.8827757], [-44.90809861, -22.88268849], [-44.90813729, -22.88258814], [-44.9083163, -22.88237975], [-44.90833138, -22.882287], [-44.90830058, -22.88215799], [-44.90794408, -22.88202716], [-44.90785834, -22.88194844], [-44.90785084, -22.88186152], [-44.90795895, -22.88160366], [-44.9078816, -22.88150253], [-44.90774274, -22.88151661], [-44.90757158, -22.88161041], [-44.90743154, -22.8816326], [-44.90726892, -22.88150969], [-44.90729962, -22.88141639], [-44.90737855, -22.88134404], [-44.90782008, -22.88112884], [-44.90794478, -22.88102136], [-44.90795215, -22.88096279], [-44.9079054, -22.88088493], [-44.90761056, -22.88078349], [-44.90745593, -22.88065353], [-44.90727687, -22.88067575], [-44.90717669, -22.8807404], [-44.90701359, -22.88071147], [-44.9070064, -22.88057485], [-44.9070756, -22.88038842], [-44.90706769, -22.8802798], [-44.90696771, -22.8801863], [-44.9067186, -22.88016449], [-44.90663427, -22.88010659], [-44.90661079, -22.88007173], [-44.90662605, -22.87978379], [-44.90638554, -22.87961848], [-44.90600598, -22.87947448], [-44.90553156, -22.87941603], [-44.90469417, -22.879401], [-44.90439977, -22.8793583], [-44.90414353, -22.87923512], [-44.90344636, -22.87870268], [-44.9031743, -22.87858818], [-44.90300348, -22.87863137], [-44.90291745, -22.87878941], [-44.90273145, -22.87885394], [-44.90227435, -22.87876695], [-44.90215019, -22.87885365], [-44.90197141, -22.87909096], [-44.90172356, -22.87913333], [-44.90141972, -22.87904071], [-44.9009165, -22.87870145], [-44.90043556, -22.87844312], [-44.89948208, -22.87805407], [-44.89917966, -22.87764427], [-44.89908656, -22.87724819], [-44.89894756, -22.87696765], [-44.89872957, -22.87687423], [-44.89855181, -22.8766588], [-44.89843471, -22.8765866], [-44.89806977, -22.87659383], [-44.89795367, -22.8765578], [-44.8979072, -22.87650706], [-44.89790707, -22.87639952], [-44.89802446, -22.8761979], [-44.89802452, -22.87608313], [-44.8979236, -22.87602575], [-44.89760587, -22.87601776], [-44.89756654, -22.87591748], [-44.8976978, -22.87574509], [-44.89759044, -22.87567311], [-44.89739636, -22.8756733], [-44.89725706, -22.87562953], [-44.89715495, -22.8755432], [-44.89696974, -22.875277], [-44.89687669, -22.87525504], [-44.89673687, -22.87530615], [-44.89642656, -22.87565076], [-44.89628673, -22.87566481], [-44.89630305, -22.87526213], [-44.89635715, -22.87516935], [-44.89638736, -22.87479499], [-44.89632662, -22.87439239], [-44.89619385, -22.87409753], [-44.89606319, -22.87394641], [-44.89586137, -22.87383165], [-44.89565949, -22.87383167], [-44.89541131, -22.87392463], [-44.89521022, -22.87393189], [-44.89503182, -22.87381675], [-44.89496956, -22.87362288], [-44.89487719, -22.87349972], [-44.89472097, -22.87316909], [-44.89457352, -22.87298867], [-44.89440349, -22.87288909], [-44.89378222, -22.87266556], [-44.89360451, -22.87263629], [-44.89309976, -22.87265755], [-44.8929844, -22.87259352], [-44.8929449, -22.87249956], [-44.89295298, -22.87241389], [-44.89329444, -22.87214679], [-44.89331777, -22.87211206], [-44.89328727, -22.87204722], [-44.89317916, -22.87196709], [-44.89286799, -22.87193212], [-44.89268204, -22.87184483], [-44.89223303, -22.871298], [-44.89206183, -22.87116856], [-44.89173543, -22.87108174], [-44.89110793, -22.87106049], [-44.89070452, -22.87082284], [-44.89023869, -22.87021057], [-44.89006116, -22.87002495], [-44.88979753, -22.86988712], [-44.88914577, -22.8697867], [-44.88900569, -22.86973567], [-44.88885905, -22.86959955], [-44.88882806, -22.86944161], [-44.88927896, -22.86886609], [-44.88963599, -22.86826317], [-44.88975178, -22.86819798], [-44.88991464, -22.86819801], [-44.89039607, -22.86828558], [-44.89059696, -22.86828555], [-44.89103989, -22.86809121], [-44.89122611, -22.86805561], [-44.89178428, -22.86819189], [-44.89191593, -22.86819212], [-44.89206468, -22.86813489], [-44.89221178, -22.86799088], [-44.89228857, -22.8677757], [-44.89217321, -22.86733664], [-44.89217441, -22.86650345], [-44.89211212, -22.86623637], [-44.8919181, -22.86593472], [-44.89141263, -22.86549687], [-44.89118921, -22.86520089], [-44.89097243, -22.86476227], [-44.8907411, -22.86439562], [-44.89040009, -22.86359725], [-44.89030629, -22.86345418], [-44.89012808, -22.86329476], [-44.88980297, -22.86312211], [-44.88959533, -22.86311928], [-44.88954926, -22.86279111], [-44.88953044, -22.86265242], [-44.88982506, -22.86118687], [-44.88975073, -22.86085807], [-44.88941001, -22.86031094], [-44.88932361, -22.86014634], [-44.88914027, -22.85958466], [-44.88913835, -22.85909661], [-44.88918923, -22.85852842], [-44.88912421, -22.85750487], [-44.88904334, -22.856903], [-44.88901848, -22.85609724], [-44.88907824, -22.85567474], [-44.88913796, -22.85555317], [-44.8898177, -22.85416401], [-44.89014416, -22.85364716], [-44.8903615, -22.85338904], [-44.89064795, -22.85317313], [-44.89099739, -22.85297218], [-44.89189866, -22.85269952], [-44.89229601, -22.85241831], [-44.89226322, -22.85236697], [-44.89214615, -22.8521818], [-44.89178205, -22.85200919], [-44.89158792, -22.85175001], [-44.89147983, -22.85170693], [-44.89132805, -22.85173155], [-44.89121588, -22.8516206], [-44.89127054, -22.85128112], [-44.89121639, -22.85118864], [-44.89087565, -22.8509804], [-44.89079708, -22.85085213], [-44.89120861, -22.8505134], [-44.89151231, -22.85038372], [-44.89235762, -22.85031224], [-44.89251279, -22.85026962], [-44.89273031, -22.85015428], [-44.89295528, -22.84993971], [-44.89310261, -22.84967369], [-44.89331256, -22.84943709], [-44.89352987, -22.84929193], [-44.89429001, -22.84893296], [-44.89456137, -22.84869683], [-44.89473239, -22.84834459], [-44.89484197, -22.84799278], [-44.89496594, -22.84776239], [-44.89524538, -22.84740263], [-44.89542464, -22.8471084], [-44.89568797, -22.84684317], [-44.8959992, -22.84664859], [-44.8970299, -22.84638331], [-44.89720077, -22.8462615], [-44.89726317, -22.84607402], [-44.89717754, -22.84587962], [-44.89706153, -22.84572882], [-44.89687586, -22.84555659], [-44.89655816, -22.84536244], [-44.89583128, -22.84474254], [-44.89547272, -22.8445077], [-44.89534914, -22.84442271], [-44.89513937, -22.84427795], [-44.8949827, -22.84407835], [-44.89487528, -22.84389702], [-44.89473011, -22.84351783], [-44.8947248, -22.8431969], [-44.89482399, -22.84256923], [-44.89516453, -22.84135863], [-44.89529544, -22.84048586], [-44.89520895, -22.84017486], [-44.89508261, -22.83997142], [-44.89497331, -22.83986234], [-44.89488506, -22.83969409], [-44.89469638, -22.83963836], [-44.89397238, -22.83950923], [-44.89353096, -22.83927435], [-44.89343301, -22.83910407], [-44.89341365, -22.83898616], [-44.89344444, -22.83888924], [-44.89351485, -22.83854379], [-44.89365446, -22.83819898], [-44.89401191, -22.83701317], [-44.89422226, -22.83646027], [-44.89497518, -22.83547578], [-44.89522387, -22.83502315], [-44.89549471, -22.83469301], [-44.89548698, -22.83465308], [-44.89574391, -22.83452055], [-44.89642661, -22.83436227], [-44.89678439, -22.83417596], [-44.89672216, -22.83379411], [-44.89674547, -22.83338434], [-44.89711831, -22.83239316], [-44.89713405, -22.83216216], [-44.89708789, -22.83172464], [-44.89711946, -22.83152291], [-44.89742148, -22.8310055], [-44.89752389, -22.83055322], [-44.89749232, -22.83022989], [-44.89721304, -22.82964619], [-44.89726795, -22.82940883], [-44.89745462, -22.8293163], [-44.89792678, -22.82923014], [-44.89811343, -22.82910055], [-44.89823037, -22.82887723], [-44.89826157, -22.82872701], [-44.89820705, -22.82812302], [-44.89827823, -22.82797278], [-44.89837817, -22.82787831], [-44.89861125, -22.82780037], [-44.8993562, -22.82772119], [-44.89998406, -22.82757072], [-44.90069018, -22.82729727], [-44.90104686, -22.82703953], [-44.90120194, -22.82677368], [-44.90134956, -22.82611907], [-44.90182379, -22.82550156], [-44.9019559, -22.82525689], [-44.90199496, -22.82499117], [-44.90190991, -22.82462417], [-44.90197331, -22.82447286], [-44.90210401, -22.82435738], [-44.90223303, -22.82430694], [-44.90259995, -22.82399249], [-44.90318943, -22.82370469], [-44.90333662, -22.82351728], [-44.90337594, -22.82331663], [-44.90331468, -22.82312278], [-44.90299662, -22.82275602], [-44.90284925, -22.82261175], [-44.90272557, -22.82238126], [-44.90275715, -22.82206567], [-44.90292004, -22.82179909], [-44.90349447, -22.82133924], [-44.90380416, -22.82090061], [-44.90411444, -22.82066442], [-44.90439482, -22.82034081], [-44.90460409, -22.81990175], [-44.90483723, -22.81921922], [-44.90510881, -22.81889632], [-44.90549677, -22.81855883], [-44.90592389, -22.81832795], [-44.90626533, -22.8180554], [-44.90652854, -22.81790492], [-44.90671511, -22.81774008], [-44.90685463, -22.81766004], [-44.90718086, -22.81756066], [-44.90725131, -22.81743752], [-44.90708707, -22.81722963], [-44.90708739, -22.81684104], [-44.90701799, -22.81669761], [-44.90656107, -22.81627264], [-44.90643761, -22.81607107], [-44.90640552, -22.81599264], [-44.90640639, -22.81573329], [-44.90631384, -22.81546735], [-44.90632116, -22.81522261], [-44.90647679, -22.81497213], [-44.90661651, -22.81488487], [-44.90692589, -22.81487097], [-44.90715892, -22.81490688], [-44.90726745, -22.81485688], [-44.90724508, -22.81474161], [-44.90705893, -22.81462721], [-44.90705919, -22.81450431], [-44.90711269, -22.81443321], [-44.90720626, -22.81439643], [-44.90737647, -22.81441106], [-44.90791948, -22.81459847], [-44.90809786, -22.81459882], [-44.90826865, -22.81444085], [-44.90833832, -22.81415954], [-44.90815287, -22.8139801], [-44.90766383, -22.81377944], [-44.90754735, -22.81368467], [-44.90749321, -22.81359219], [-44.90752457, -22.81324676], [-44.90748528, -22.81314558], [-44.90681152, -22.81239857], [-44.9066263, -22.81206008], [-44.90659492, -22.81172862], [-44.90687522, -22.81121884], [-44.90696784, -22.81091725], [-44.90720919, -22.81059367], [-44.90752639, -22.81042812], [-44.90806969, -22.81022694], [-44.90859683, -22.80989706], [-44.90972144, -22.8093437], [-44.90995732, -22.8091185], [-44.90988495, -22.80897681], [-44.90975301, -22.80887718], [-44.90941207, -22.80875483], [-44.90910226, -22.80855996], [-44.90891658, -22.80850251], [-44.90879185, -22.8085386], [-44.90872214, -22.80859579], [-44.90855915, -22.80890485], [-44.90846599, -22.80892627], [-44.90838014, -22.80889093], [-44.9081875, -22.80868873], [-44.90802393, -22.80837963], [-44.90786925, -22.80799121], [-44.9078002, -22.80764626], [-44.90782277, -22.80730154], [-44.90794056, -22.80685592], [-44.90793226, -22.80627284], [-44.90797186, -22.80613636], [-44.90800986, -22.80598629], [-44.90816575, -22.80576292], [-44.90820401, -22.80548995], [-44.90804902, -22.80515122], [-44.90759272, -22.80459071], [-44.90743762, -22.8043315], [-44.90736801, -22.80400823], [-44.90744672, -22.80364127], [-44.90746157, -22.80336868], [-44.90738429, -22.80281479], [-44.90746951, -22.80268565], [-44.90759803, -22.80223936], [-44.90778069, -22.80192351], [-44.90808335, -22.80152809], [-44.90830796, -22.8010975], [-44.90840074, -22.80075163], [-44.90840138, -22.8000115], [-44.90837166, -22.79995481], [-44.90830975, -22.79937144], [-44.90784812, -22.79785016], [-44.90759019, -22.79727146], [-44.90749551, -22.79712567], [-44.90724153, -22.79673322], [-44.90691547, -22.7961503], [-44.90679238, -22.79574721], [-44.90676111, -22.7955242], [-44.90659903, -22.79512115], [-44.90652073, -22.7950209], [-44.90635819, -22.7948989], [-44.9058932, -22.79467527], [-44.90574658, -22.79450301], [-44.90568419, -22.79431546], [-44.90573888, -22.79408532], [-44.90633514, -22.79356812], [-44.90677865, -22.79281435], [-44.90680944, -22.79264152], [-44.90669376, -22.79240398], [-44.90610445, -22.79190014], [-44.9059726, -22.79168483], [-44.90584049, -22.79117852], [-44.90581843, -22.79075057], [-44.90589611, -22.79064928], [-44.90604356, -22.79056309], [-44.9063075, -22.79057078], [-44.90672554, -22.79064967], [-44.90688887, -22.790628], [-44.90699737, -22.790578], [-44.90716032, -22.79042077], [-44.90747032, -22.78996677], [-44.90783457, -22.78960074], [-44.9079908, -22.78936383], [-44.90799124, -22.7892337], [-44.90793647, -22.7890906], [-44.90782055, -22.78897505], [-44.90624702, -22.78797576], [-44.90600665, -22.7877734], [-44.90582862, -22.78757242], [-44.9056034, -22.78716164], [-44.90558092, -22.78697588], [-44.90563525, -22.78660927], [-44.90606154, -22.78644435], [-44.90650395, -22.78637196], [-44.9066823, -22.78637232], [-44.90723265, -22.78645958], [-44.90770536, -22.78645925], [-44.90848114, -22.78661117], [-44.90866689, -22.78658909], [-44.90874493, -22.78647335], [-44.90869845, -22.7862735], [-44.90856635, -22.78614313], [-44.90838085, -22.78604231], [-44.90821694, -22.78589858], [-44.90811715, -22.78576261], [-44.90811699, -22.78561801], [-44.90836595, -22.78533798], [-44.9085895, -22.78517305], [-44.90895416, -22.78528058], [-44.90927998, -22.78553273], [-44.90945099, -22.78559076], [-44.90955139, -22.78559028], [-44.90966847, -22.7855477], [-44.90975314, -22.78543933], [-44.90985475, -22.78516596], [-44.90988581, -22.78490728], [-44.91004091, -22.78471372], [-44.91043662, -22.78456256], [-44.91109539, -22.78452751], [-44.91124193, -22.78447654], [-44.91136714, -22.78438353], [-44.91140488, -22.7843184], [-44.91140485, -22.78413133], [-44.91127337, -22.78390157], [-44.91101739, -22.78369978], [-44.91050679, -22.78346972], [-44.91041411, -22.78339807], [-44.91041382, -22.7833339], [-44.91059207, -22.78307398], [-44.91066163, -22.78290925], [-44.91066193, -22.78267157], [-44.91044608, -22.7818227], [-44.91050753, -22.78140655], [-44.91057046, -22.78123444], [-44.91068603, -22.78106168], [-44.91104301, -22.78082471], [-44.91180961, -22.78053901], [-44.91219894, -22.78040759], [-44.91298233, -22.78026414], [-44.91326811, -22.78014216], [-44.91340187, -22.78001952], [-44.91343182, -22.77999217], [-44.9134087, -22.77956691], [-44.91349413, -22.77946669], [-44.91367257, -22.77938751], [-44.91384331, -22.77922954], [-44.91392049, -22.77922222], [-44.91402154, -22.77930941], [-44.91403692, -22.77943085], [-44.91408318, -22.77948881], [-44.91418359, -22.77952539], [-44.91426115, -22.77950361], [-44.91442401, -22.77927317], [-44.91460254, -22.77911537], [-44.91496714, -22.77903581], [-44.91505825, -22.77890408], [-44.9150529, -22.77873406], [-44.91496021, -22.7785115], [-44.91495961, -22.7783461], [-44.9150226, -22.77820923], [-44.91503054, -22.77801511], [-44.91502237, -22.77787847], [-44.9149289, -22.77764865], [-44.91492909, -22.77733959], [-44.91517004, -22.77706659], [-44.91531455, -22.77682941], [-44.91529484, -22.77664913], [-44.91511723, -22.77631895], [-44.91511715, -22.77609573], [-44.91530294, -22.77569408], [-44.91532199, -22.7755228], [-44.91514828, -22.77500382], [-44.91496226, -22.77462194], [-44.91481373, -22.77441078], [-44.91466715, -22.77419967], [-44.91444359, -22.77353589], [-44.91430432, -22.77300412], [-44.91426545, -22.77262279], [-44.91425932, -22.77206777], [-44.91433611, -22.77177396], [-44.91470628, -22.77106283], [-44.914738, -22.7696465], [-44.91491224, -22.7690503], [-44.91506705, -22.76879166], [-44.91523788, -22.76870508], [-44.91544574, -22.76876935], [-44.91576405, -22.76912254], [-44.91593496, -22.76925918], [-44.91619275, -22.76931461], [-44.91644596, -22.76924522], [-44.9166711, -22.76913093], [-44.91695867, -22.76886349], [-44.91702091, -22.76833981], [-44.91708296, -22.76823907], [-44.91736177, -22.76800848], [-44.91746095, -22.76782813], [-44.91742468, -22.76753452], [-44.91748698, -22.76742384], [-44.91774971, -22.76747667], [-44.91811378, -22.76749198], [-44.91816877, -22.76740012], [-44.91776566, -22.76716072], [-44.91773503, -22.76698834], [-44.91785095, -22.76680113], [-44.91806852, -22.76671558], [-44.91831604, -22.76671566], [-44.91861898, -22.76675853], [-44.91894068, -22.76671596], [-44.91899368, -22.76666382], [-44.91922451, -22.76644211], [-44.91944083, -22.76614054], [-44.91981305, -22.76583973], [-44.91990638, -22.76565925], [-44.91984479, -22.76506233], [-44.91968979, -22.76472452], [-44.91950346, -22.76443029], [-44.91903985, -22.76385427], [-44.91889927, -22.76363788], [-44.91885344, -22.76348775], [-44.91888392, -22.76340166], [-44.9189694, -22.76333669], [-44.91956056, -22.76342572], [-44.91976831, -22.76338062], [-44.9198961, -22.76318644], [-44.91987745, -22.76285165], [-44.91995498, -22.76260395], [-44.92009464, -22.7624028], [-44.92020266, -22.76214402], [-44.92020269, -22.76187833], [-44.9201107, -22.76155366], [-44.91998637, -22.76127346], [-44.9199406, -22.76085674], [-44.9200286, -22.7606183], [-44.91992533, -22.7602021], [-44.91989755, -22.75961678], [-44.91988279, -22.75932003], [-44.91967767, -22.75877235], [-44.91964512, -22.7585231], [-44.91988056, -22.75744205], [-44.92017598, -22.75652862], [-44.92018859, -22.75634183], [-44.92022608, -22.755795], [-44.92019103, -22.75537851], [-44.92022225, -22.75526353], [-44.92036849, -22.75503361], [-44.92085031, -22.75494037], [-44.92116801, -22.75482542], [-44.92135476, -22.7545738], [-44.9216956, -22.75427952], [-44.92194973, -22.75398421], [-44.92193681, -22.75380499], [-44.92192902, -22.7536539], [-44.9218205, -22.75340297], [-44.92165233, -22.75319861], [-44.92152989, -22.75311004], [-44.9211769, -22.7528555], [-44.92092108, -22.75261124], [-44.9207299, -22.75227895], [-44.92070572, -22.75185638], [-44.92058105, -22.7514388], [-44.9205809, -22.75133126], [-44.92073567, -22.75107261], [-44.9207521, -22.75096453], [-44.92070578, -22.75087132], [-44.92056552, -22.75075615], [-44.92052874, -22.75063333], [-44.92052135, -22.75054189], [-44.92052813, -22.75042998], [-44.92052329, -22.75039101], [-44.92051509, -22.75036914], [-44.92047893, -22.75025989], [-44.92039018, -22.75014948], [-44.92029659, -22.75011396], [-44.91988526, -22.75015725], [-44.91979224, -22.75009916], [-44.91964392, -22.74991874], [-44.9195043, -22.74985419], [-44.91920975, -22.74978981], [-44.91899267, -22.74963046], [-44.91889936, -22.74950819], [-44.91899227, -22.74915509], [-44.9189534, -22.74907561], [-44.91887575, -22.74902598], [-44.9187288, -22.74901911], [-44.91859681, -22.74911197], [-44.91844895, -22.74914032], [-44.91837096, -22.74910425], [-44.91816996, -22.74888832], [-44.91803797, -22.74883026], [-44.91785872, -22.74886695], [-44.91765702, -22.74901791], [-44.91748663, -22.74897527], [-44.91734685, -22.74876612], [-44.91734701, -22.74841999], [-44.91740196, -22.7481031], [-44.91733936, -22.74792368], [-44.91716945, -22.74778706], [-44.91665687, -22.7475633], [-44.91642457, -22.74739005], [-44.91632366, -22.74726039], [-44.91626141, -22.74687854], [-44.91591267, -22.7464605], [-44.91563299, -22.74627354], [-44.91544623, -22.7462233], [-44.91512136, -22.74605071], [-44.91487233, -22.74573339], [-44.91472491, -22.74517884], [-44.91470989, -22.74485497], [-44.91463967, -22.74448018], [-44.91459471, -22.74437254], [-44.91444584, -22.74421379], [-44.91415122, -22.74407711], [-44.91354647, -22.74398956], [-44.9127472, -22.74373773], [-44.91238188, -22.74343409], [-44.91214916, -22.74308911], [-44.91205643, -22.74264332], [-44.91216503, -22.74236197], [-44.9123984, -22.74215388], [-44.91251389, -22.7420959], [-44.91276249, -22.74205262], [-44.91328362, -22.74179399], [-44.91343131, -22.74162105], [-44.91357043, -22.74128976], [-44.91367216, -22.74116098], [-44.91382715, -22.74104514], [-44.91402131, -22.74095908], [-44.9141529, -22.74084362], [-44.91425443, -22.74053409], [-44.91422335, -22.74030385], [-44.91408404, -22.74015254], [-44.91389002, -22.7400443], [-44.91328541, -22.73991428], [-44.91307447, -22.73982013], [-44.91281855, -22.73961923], [-44.91264835, -22.73938138], [-44.91264852, -22.73903526], [-44.91268731, -22.73889153], [-44.9128274, -22.73856026], [-44.91302192, -22.73827178], [-44.91315416, -22.7379051], [-44.91315377, -22.73758065], [-44.91308421, -22.73695463], [-44.913131, -22.73665202], [-44.91325589, -22.73634301], [-44.91348163, -22.73593954], [-44.91356125, -22.7356485], [-44.91356661, -22.73562965], [-44.91350503, -22.73480769], [-44.91351494, -22.73415994], [-44.91378624, -22.73372767], [-44.91382067, -22.73371487], [-44.91529135, -22.73320442], [-44.91578034, -22.73298121], [-44.91613836, -22.73273703], [-44.91639423, -22.732449], [-44.91642545, -22.73233402], [-44.91653424, -22.73223341], [-44.91661164, -22.73195226], [-44.91656537, -22.73125356], [-44.91634079, -22.73085816], [-44.91611641, -22.73060555], [-44.91572803, -22.73025261], [-44.91551118, -22.7299351], [-44.91540276, -22.72956849], [-44.91537175, -22.72907165], [-44.91529421, -22.72875453], [-44.91530997, -22.72859673], [-44.91543366, -22.72840969], [-44.91562138, -22.72830813], [-44.91592394, -22.72828683], [-44.91624882, -22.72834466], [-44.9164278, -22.72827995], [-44.91671618, -22.72797728], [-44.91707252, -22.72749538], [-44.91720463, -22.72735914], [-44.91737578, -22.7272581], [-44.91760815, -22.72720091], [-44.91809735, -22.72730847], [-44.91836825, -22.72738136], [-44.91853192, -22.72738137], [-44.91886498, -22.72727309], [-44.91905203, -22.7271218], [-44.91929321, -22.7267982], [-44.91942464, -22.72657518], [-44.91953408, -22.72622245], [-44.91950296, -22.72595606], [-44.91927019, -22.72553789], [-44.91908454, -22.72540815], [-44.9187589, -22.72488942], [-44.91861917, -22.72441457], [-44.91861951, -22.7239103], [-44.91846215, -22.7235905], [-44.91818045, -22.7233321], [-44.9176416, -22.72311048], [-44.9171216, -22.72298867], [-44.91700464, -22.72291559], [-44.91662595, -22.72252761], [-44.91626042, -22.72204503], [-44.91604387, -22.72164077], [-44.91590472, -22.72129517], [-44.91577261, -22.72112956], [-44.91569432, -22.72069042], [-44.91550071, -22.72041681], [-44.91539307, -22.72017131], [-44.91539298, -22.71994809], [-44.91542354, -22.71978339], [-44.91559513, -22.71958928], [-44.91590588, -22.71940098], [-44.91626226, -22.71929413], [-44.91665871, -22.71925774], [-44.91704633, -22.71918592], [-44.91738065, -22.71902796], [-44.91752061, -22.71892714], [-44.91763686, -22.71872548], [-44.91769132, -22.71850257], [-44.91766028, -22.71815756], [-44.91729514, -22.71766053], [-44.91724219, -22.71752289], [-44.91721084, -22.71722758], [-44.91722679, -22.71706255], [-44.91731164, -22.71683218], [-44.9174673, -22.71650035], [-44.91756748, -22.71639323], [-44.91811219, -22.71525397], [-44.91861249, -22.7139854], [-44.91911326, -22.71247192], [-44.91887779, -22.71159279], [-44.91787782, -22.71051865], [-44.91561554, -22.70951587], [-44.9133795, -22.70885615], [-44.91309066, -22.70819723], [-44.91332776, -22.70746506], [-44.91409207, -22.70702567], [-44.91622246, -22.70675851], [-44.91769665, -22.70651562], [-44.91816952, -22.70627217], [-44.91934036, -22.70457204], [-44.91967114, -22.703832], [-44.92056603, -22.70312435], [-44.92190812, -22.70256309], [-44.92398846, -22.70007516], [-44.92469918, -22.69819579], [-44.92456439, -22.696811], [-44.92423041, -22.69642855], [-44.92396662, -22.69596812], [-44.92377376, -22.69581744], [-44.92352545, -22.69570168], [-44.92335537, -22.69553614], [-44.9231602, -22.69524804], [-44.92301375, -22.69511014], [-44.92286577, -22.69503185], [-44.92240027, -22.69491579], [-44.92208159, -22.69492318], [-44.9213133, -22.695067], [-44.92106512, -22.69505968], [-44.92065476, -22.6949584], [-44.91959169, -22.69459771], [-44.91927284, -22.6944605], [-44.91890013, -22.69425882], [-44.9186755, -22.69409388], [-44.91852842, -22.69390535], [-44.91843504, -22.69371168], [-44.91840407, -22.69340192], [-44.91842033, -22.69314923], [-44.91834191, -22.69290439], [-44.91794706, -22.69261727], [-44.91746666, -22.69239965], [-44.91683719, -22.69218413], [-44.91647365, -22.69196729], [-44.9163728, -22.69187468], [-44.91575158, -22.69167922], [-44.91506911, -22.69159266], [-44.9147743, -22.69150568], [-44.91450214, -22.69133334], [-44.91382805, -22.6907716], [-44.91317619, -22.69036759], [-44.91289729, -22.69007943], [-44.91271884, -22.68974831], [-44.91258681, -22.68961885], [-44.9123153, -22.68945917], [-44.91204383, -22.68937361], [-44.91179506, -22.6893518], [-44.91152339, -22.68938733], [-44.91114353, -22.68938792], [-44.91094965, -22.68931492], [-44.91041364, -22.68902645], [-44.90991776, -22.68891871], [-44.90935231, -22.68894047], [-44.90907231, -22.68899659], [-44.90869182, -22.68913453], [-44.90810153, -22.68921266], [-44.90796227, -22.68921227], [-44.90751213, -22.68906849], [-44.9072482, -22.68906804], [-44.90688342, -22.68912588], [-44.906472, -22.68910406], [-44.90578945, -22.68924701], [-44.90545281, -22.68919613], [-44.90447503, -22.68930628], [-44.90373549, -22.68954374], [-44.90119829, -22.69052283], [-44.9004883, -22.69063442], [-44.89952213, -22.69052158], [-44.89820933, -22.69025459], [-44.8977411, -22.69017002], [-44.89688071, -22.69007218], [-44.89459832, -22.69012511], [-44.89339326, -22.6899852], [-44.89318201, -22.68983136], [-44.89319662, -22.68960666], [-44.89440543, -22.68896401], [-44.89565948, -22.68770331], [-44.89602175, -22.68736708], [-44.8967922, -22.68698937], [-44.8984981, -22.68655571], [-44.90033282, -22.68551038], [-44.90207772, -22.68424703], [-44.90215398, -22.68389718], [-44.9014607, -22.68231282], [-44.90161192, -22.68173871], [-44.90208005, -22.68126204], [-44.90438977, -22.67995975], [-44.90500924, -22.67980637], [-44.90539429, -22.67979236], [-44.90608082, -22.68017096], [-44.90660819, -22.68022699], [-44.90711787, -22.68010098], [-44.90893398, -22.67928017], [-44.90941642, -22.6792656], [-44.90995952, -22.67950453], [-44.91040062, -22.67988398], [-44.91130209, -22.6805005], [-44.91175462, -22.68062625], [-44.91234379, -22.68051464], [-44.91261631, -22.68033272], [-44.91611946, -22.6767071], [-44.91643635, -22.67631469], [-44.91690838, -22.6751937], [-44.91728577, -22.67396577], [-44.91959332, -22.67092353], [-44.91986704, -22.67001412], [-44.91994238, -22.66939583], [-44.91962598, -22.66761658], [-44.91977702, -22.66719699], [-44.92033609, -22.66677741], [-44.92263012, -22.66497114], [-44.92308312, -22.66439647], [-44.92321474, -22.66412555], [-44.92331101, -22.66371468], [-44.92349292, -22.66270111], [-44.92362074, -22.66231263], [-44.92397659, -22.66180448], [-44.92419286, -22.66146044], [-44.92421047, -22.66115446], [-44.92422989, -22.66066507], [-44.92428533, -22.66047832], [-44.92445317, -22.66004825], [-44.92496268, -22.65924437], [-44.92575006, -22.6577074], [-44.92604471, -22.65704155], [-44.92633748, -22.65625907], [-44.92646681, -22.65569801], [-44.92644244, -22.65509377], [-44.926407, -22.65484355], [-44.92636813, -22.6543863], [-44.92622239, -22.65437404], [-44.92561075, -22.65430445], [-44.92437058, -22.65432937], [-44.92414605, -22.65420058], [-44.9240693, -22.65400457], [-44.92472662, -22.65241321], [-44.92480836, -22.65180952], [-44.92466126, -22.65128299], [-44.92441185, -22.65109942], [-44.9236373, -22.65092861], [-44.9224672, -22.65072914], [-44.9220783, -22.65029123], [-44.92146469, -22.64931604], [-44.92120357, -22.64932289], [-44.91951943, -22.6504441], [-44.91861999, -22.65050998], [-44.9180749, -22.65020145], [-44.91748295, -22.64978433], [-44.91717519, -22.64940967], [-44.91689151, -22.64870568], [-44.91667833, -22.64776014], [-44.9164901, -22.64758335], [-44.91596812, -22.64747414], [-44.91397815, -22.64742899], [-44.91359923, -22.64720909], [-44.91336411, -22.64681254], [-44.91320054, -22.645794], [-44.91284183, -22.64520673], [-44.91241548, -22.64478785], [-44.91210817, -22.64462285], [-44.90975876, -22.64375719], [-44.9087215, -22.64294151], [-44.90853821, -22.64253707], [-44.90872285, -22.6408557], [-44.90867017, -22.64014419], [-44.90845068, -22.63967116], [-44.90792974, -22.63914623], [-44.90748398, -22.63898989], [-44.90692169, -22.6390099], [-44.90478979, -22.63926242], [-44.90358837, -22.63926183], [-44.90308996, -22.63910883], [-44.90271934, -22.63883305], [-44.90254981, -22.6384994], [-44.90247961, -22.6381273], [-44.90259044, -22.63764446], [-44.90329619, -22.6365956], [-44.90346266, -22.63618269], [-44.90341897, -22.63565121], [-44.90347764, -22.63492682], [-44.90357902, -22.63443292], [-44.90425866, -22.63300028], [-44.90458412, -22.63170976], [-44.90458381, -22.63123258], [-44.9043743, -22.6305257], [-44.90397534, -22.62976579], [-44.90380376, -22.62932365], [-44.90365252, -22.62850961], [-44.9036739, -22.62693125], [-44.90386105, -22.62665888], [-44.90404097, -22.62651558], [-44.90415678, -22.6264793], [-44.90437387, -22.62647963], [-44.90451392, -22.62652251], [-44.90469966, -22.62653027], [-44.90496319, -22.6264286], [-44.90514988, -22.6262493], [-44.90532849, -22.62581768], [-44.90555351, -22.62562387], [-44.90579427, -22.62553706], [-44.90594944, -22.62552244], [-44.90624306, -22.62553712], [-44.9063683, -22.62558781], [-44.90688002, -22.62563898], [-44.90715915, -22.62557381], [-44.9074545, -22.62540868], [-44.90757794, -22.62522797], [-44.90763242, -22.62504121], [-44.90759383, -22.62468879], [-44.90760202, -22.62437176], [-44.9077419, -22.62412002], [-44.90795117, -22.62393309], [-44.90824601, -22.62382488], [-44.90846366, -22.62380352], [-44.90876605, -22.62381749], [-44.90927734, -22.62399788], [-44.91025719, -22.62326236], [-44.91134412, -22.62207373], [-44.91212479, -22.62083219], [-44.91232036, -22.62008192], [-44.91215781, -22.61944026], [-44.91084743, -22.61827598], [-44.91017682, -22.61744316], [-44.9100203, -22.6167944], [-44.91007384, -22.61641783], [-44.91012121, -22.61582783], [-44.91026563, -22.61547497], [-44.91121667, -22.61445775], [-44.91144037, -22.61412563], [-44.91154272, -22.61378087], [-44.91155802, -22.6134902], [-44.91120259, -22.61326901], [-44.91077622, -22.61315649], [-44.908827, -22.61321068], [-44.90841313, -22.61317977], [-44.90806603, -22.61301298], [-44.90706126, -22.61230555], [-44.90571299, -22.61136813], [-44.90539746, -22.61178766], [-44.905085, -22.6119759], [-44.90467713, -22.6120138], [-44.90426979, -22.61206888], [-44.90399987, -22.61196706], [-44.90249884, -22.61102802], [-44.90171074, -22.61067604], [-44.90015221, -22.60989113], [-44.89932149, -22.60949391], [-44.89873164, -22.60926745], [-44.89820216, -22.60919055], [-44.895462, -22.60904254], [-44.89471946, -22.60907383], [-44.89289492, -22.60946411], [-44.89164053, -22.61001443], [-44.89084111, -22.61043666], [-44.89001224, -22.61086817], [-44.88950313, -22.61086852], [-44.88878539, -22.61058222], [-44.88828067, -22.61048867], [-44.88756762, -22.61062091], [-44.88705997, -22.61105237], [-44.8862424, -22.61228393], [-44.88572198, -22.61395414], [-44.88572133, -22.6151769], [-44.88571996, -22.61668884], [-44.88546958, -22.61744508], [-44.88501539, -22.61761655], [-44.88426242, -22.61752285], [-44.88392099, -22.6172513], [-44.88389276, -22.61725157], [-44.88369218, -22.61695425], [-44.88355348, -22.61667279], [-44.88352525, -22.61667306], [-44.88324279, -22.61630522], [-44.88304406, -22.61619864], [-44.88298827, -22.61617298], [-44.8826139, -22.61597028], [-44.8821447, -22.61600765], [-44.88148743, -22.61627667], [-44.88092075, -22.61661822], [-44.87967473, -22.61758979], [-44.87888083, -22.61824525], [-44.87803175, -22.61911276], [-44.87678451, -22.62024153], [-44.87553827, -22.62084614], [-44.87457566, -22.62121311], [-44.87395216, -22.62134278], [-44.87361296, -22.62139661], [-44.87296191, -22.62150035], [-44.87253759, -22.62142122], [-44.87220353, -22.62112902], [-44.87209866, -22.62063412], [-44.87211369, -22.62013287], [-44.87211396, -22.61971264], [-44.8720859, -22.61937039], [-44.87189536, -22.61895037], [-44.87169075, -22.61884545], [-44.87141885, -22.61874534], [-44.871196, -22.61866803], [-44.86951044, -22.6182026], [-44.86814397, -22.61737291], [-44.86723854, -22.61599959], [-44.86646179, -22.61525275], [-44.86552941, -22.61465062], [-44.86457001, -22.61433708], [-44.86354955, -22.61405107], [-44.86289323, -22.61379948], [-44.86156094, -22.61330308], [-44.86076952, -22.61311802], [-44.85928133, -22.61281419], [-44.85889606, -22.61250906], [-44.85840834, -22.61147048], [-44.85789653, -22.61105403], [-44.85715588, -22.61078967], [-44.85641427, -22.60996766], [-44.85602977, -22.60889164], [-44.85609493, -22.60811407], [-44.85685379, -22.60660659], [-44.85685451, -22.606171], [-44.85632532, -22.60549026], [-44.8539371, -22.60469427], [-44.85210485, -22.60418919], [-44.85124125, -22.60397534], [-44.85002247, -22.60379501], [-44.84970764, -22.60344084], [-44.84945028, -22.60186248], [-44.84794367, -22.60230192], [-44.84663549, -22.60256057], [-44.84576284, -22.60261761], [-44.84416978, -22.60267909], [-44.84276372, -22.60262551], [-44.84023393, -22.60288531], [-44.8383987, -22.6031979], [-44.83753677, -22.60321718], [-44.83637484, -22.60298562], [-44.83607303, -22.60284049], [-44.83560576, -22.60269521], [-44.83495204, -22.60260714], [-44.83440145, -22.6023732], [-44.83399222, -22.60213072], [-44.83367568, -22.60162194], [-44.83358266, -22.60127368], [-44.83339638, -22.60055005], [-44.83305916, -22.60034536], [-44.83237392, -22.60049335], [-44.83065364, -22.60069189], [-44.82978176, -22.60071994], [-44.82833686, -22.60051622], [-44.82710155, -22.60004252], [-44.82625088, -22.59978364], [-44.82533479, -22.59960641], [-44.82389962, -22.59947698], [-44.82248318, -22.59889699], [-44.82156681, -22.59876763], [-44.82053872, -22.59892401], [-44.82014922, -22.599151], [-44.81981984, -22.59968032], [-44.81962866, -22.60021008], [-44.81940342, -22.60099663], [-44.8193509, -22.60150967], [-44.81945337, -22.6020877], [-44.81969387, -22.60300328], [-44.81980675, -22.60429101], [-44.81969417, -22.60593238], [-44.81944776, -22.60659915], [-44.81890983, -22.60732072], [-44.8186883, -22.6077097], [-44.81798948, -22.61013118], [-44.81771715, -22.61060034], [-44.81738479, -22.61094702], [-44.81648357, -22.61149128], [-44.81615609, -22.61176396], [-44.81598184, -22.61202116], [-44.81589539, -22.6124548], [-44.81602857, -22.61286544], [-44.81654184, -22.61340587], [-44.81647166, -22.61359315], [-44.81630082, -22.6137953], [-44.81613739, -22.61393798], [-44.81589704, -22.61408161], [-44.81556417, -22.61418968], [-44.81482611, -22.61416016], [-44.81428398, -22.61430411], [-44.81411294, -22.61444029], [-44.81380909, -22.61492227], [-44.81360802, -22.61501618], [-44.81318113, -22.6150724], [-44.81305715, -22.61515903], [-44.812941, -22.61531725], [-44.81284706, -22.61551935], [-44.81291727, -22.61577129], [-44.81304856, -22.61588636], [-44.81349754, -22.61598791], [-44.81357568, -22.61608821], [-44.81357552, -22.61616773], [-44.81349732, -22.61628976], [-44.81338092, -22.61634765], [-44.81322578, -22.61636127], [-44.81303983, -22.61632539], [-44.81285412, -22.61635368], [-44.81278404, -22.61639003], [-44.81264454, -22.61654771], [-44.81265978, -22.61670712], [-44.81276016, -22.61688655], [-44.81337266, -22.61728285], [-44.81352651, -22.61746441], [-44.81352699, -22.61755661], [-44.81347327, -22.61763672], [-44.81339462, -22.61766565], [-44.81314737, -22.61766541], [-44.81306115, -22.61772309], [-44.81302211, -22.61783698], [-44.81306036, -22.61800956], [-44.81335567, -22.61836336], [-44.8133858, -22.61865868], [-44.81332395, -22.61878831], [-44.81324532, -22.61885339], [-44.81295177, -22.61894699], [-44.81285818, -22.61902528], [-44.81281152, -22.61916972], [-44.81281083, -22.61934233], [-44.81307357, -22.61993307], [-44.81307365, -22.62007677], [-44.81301884, -22.62023457], [-44.81285589, -22.62024892], [-44.81249194, -22.62013395], [-44.81232106, -22.62022675], [-44.81214306, -22.62051459], [-44.81206521, -22.62058692], [-44.8119009, -22.62061569], [-44.81174666, -22.62052179], [-44.81162283, -22.62049275], [-44.81141345, -22.62034878], [-44.81132837, -22.62032695], [-44.81084011, -22.62042061], [-44.81045165, -22.62027525], [-44.81019623, -22.62028929], [-44.80995542, -22.62037596], [-44.80982331, -22.62051212], [-44.80957426, -22.62087244], [-44.80935668, -22.62103737], [-44.80901503, -22.62110907], [-44.80869824, -22.62105121], [-44.8083881, -22.62103598], [-44.80807758, -22.6211084], [-44.80768913, -22.62099918], [-44.80748756, -22.62089154], [-44.80720145, -22.62066808], [-44.80688315, -22.62026404], [-44.8065745, -22.6201196], [-44.8063796, -22.62009073], [-44.80602362, -22.62029857], [-44.80577559, -22.62032723], [-44.80544944, -22.62021854], [-44.80512364, -22.62006014], [-44.8047208, -22.61998041], [-44.80449665, -22.61984333], [-44.80433306, -22.61969859], [-44.80414702, -22.61948284], [-44.80393115, -22.61914441], [-44.80344984, -22.618611], [-44.80279976, -22.61812794], [-44.80265951, -22.61794759], [-44.80245122, -22.6175072], [-44.80217193, -22.61724774], [-44.80189324, -22.61707505], [-44.80159162, -22.61695968], [-44.80057569, -22.6167999], [-44.80022714, -22.61665544], [-44.79988613, -22.61641083], [-44.79970829, -22.6161799], [-44.79964632, -22.61602122], [-44.79960088, -22.61531524], [-44.79949977, -22.61512765], [-44.79942285, -22.61509154], [-44.79929825, -22.61509139], [-44.79913532, -22.61514188], [-44.79889517, -22.61538671], [-44.79863095, -22.61576745], [-44.79816489, -22.61579561], [-44.79788625, -22.61573137], [-44.79738173, -22.61548571], [-44.79638198, -22.61479215], [-44.79585546, -22.61456858], [-44.795592, -22.61451914], [-44.79533619, -22.61451146], [-44.79491689, -22.61457502], [-44.79452111, -22.6145596], [-44.79418859, -22.61458088], [-44.79381629, -22.61441506], [-44.79339763, -22.61412617], [-44.79270782, -22.61349214], [-44.79238227, -22.61332559], [-44.79169262, -22.6130874], [-44.79053832, -22.61242369], [-44.79001933, -22.61199149], [-44.78984858, -22.61189719], [-44.78962444, -22.61168778], [-44.78910544, -22.61111098], [-44.78883416, -22.6108806], [-44.78863362, -22.61077205], [-44.78798137, -22.61055549], [-44.78724576, -22.61014361], [-44.78688101, -22.60980533], [-44.7864876, -22.60933716], [-44.78576615, -22.60865085], [-44.78551051, -22.60856452], [-44.78540225, -22.60849967], [-44.78487597, -22.60830498], [-44.78455728, -22.60828317], [-44.7837505, -22.60813082], [-44.78344077, -22.60802878], [-44.78325463, -22.60792779], [-44.78282994, -22.60757456], [-44.78227939, -22.60690483], [-44.78191565, -22.60652951], [-44.78145865, -22.60614752], [-44.78100226, -22.6058514], [-44.78090842, -22.60575705], [-44.77996278, -22.60526618], [-44.77961465, -22.60514427], [-44.77938207, -22.60525097], [-44.7790946, -22.60544497], [-44.77899339, -22.60555289], [-44.77892258, -22.60572568], [-44.77889223, -22.60591387], [-44.77889143, -22.60645249], [-44.77893652, -22.6069497], [-44.77868748, -22.60756213], [-44.77851577, -22.60830377], [-44.77851562, -22.60849085], [-44.77884016, -22.60923943], [-44.77885579, -22.60949194], [-44.77879336, -22.60967848], [-44.77859856, -22.61001019], [-44.77827998, -22.61034717], [-44.77786791, -22.6106133], [-44.77721716, -22.61092273], [-44.77694506, -22.61108725], [-44.77673562, -22.61131107], [-44.77649411, -22.61164169], [-44.77634603, -22.61193651], [-44.77593483, -22.61256959], [-44.77588758, -22.61280709], [-44.77588686, -22.61308815], [-44.77604854, -22.61341182], [-44.77606412, -22.61352063], [-44.77618101, -22.61377187], [-44.77619563, -22.61398911], [-44.77610947, -22.61426186], [-44.77604758, -22.61431918], [-44.77576783, -22.61444195], [-44.77561346, -22.61442664], [-44.77444233, -22.61399378], [-44.77362017, -22.61390609], [-44.77329531, -22.61407753], [-44.77309288, -22.61425722], [-44.77285933, -22.61461694], [-44.77268012, -22.615165], [-44.7725476, -22.61542403], [-44.7722611, -22.61572559], [-44.77197359, -22.61595572], [-44.77148399, -22.6161351], [-44.77108884, -22.61635009], [-44.77085544, -22.61652273], [-44.77054479, -22.61685355], [-44.77024891, -22.61710519], [-44.7698915, -22.61729213], [-44.76972897, -22.61743568], [-44.76967428, -22.61751485], [-44.76959744, -22.61780228], [-44.76958038, -22.61829263], [-44.76953351, -22.61855183], [-44.76943194, -22.61878175], [-44.769285, -22.61899706], [-44.76920678, -22.61926367], [-44.76913611, -22.61935783], [-44.76897377, -22.61949416], [-44.76843046, -22.61975181], [-44.76836737, -22.61981723], [-44.76831291, -22.62006902], [-44.76822046, -22.62014009], [-44.76811143, -22.62017642], [-44.76767708, -22.62014648], [-44.76738214, -22.62029059], [-44.76717235, -22.62085239], [-44.76718681, -22.62114735], [-44.76724135, -22.62129141], [-44.76733347, -22.62144989], [-44.76758116, -22.6216879], [-44.76796124, -22.62192625], [-44.76832517, -22.62222207], [-44.76847241, -22.62246679], [-44.76849541, -22.62258933], [-44.76845631, -22.62274026], [-44.76837009, -22.62286931], [-44.76808246, -22.62357482], [-44.76808211, -22.62384142], [-44.76798929, -22.62414384], [-44.76786392, -22.62428102], [-44.76760053, -22.62440958], [-44.7674294, -22.62443816], [-44.76718174, -22.62445231], [-44.76682427, -22.62442324], [-44.76670745, -22.6244594], [-44.76663893, -22.62450933], [-44.76645091, -22.62484027], [-44.76646616, -22.62517863], [-44.76672858, -22.62602792], [-44.76675934, -22.62622385], [-44.76675792, -22.62700105], [-44.76659541, -22.62725215], [-44.76637814, -22.62736732], [-44.76625333, -22.62737437], [-44.76608297, -22.62733789], [-44.76595816, -22.62727264], [-44.76547095, -22.62689081], [-44.76514479, -22.62671063], [-44.76471879, -22.62662304], [-44.7644316, -22.62662271], [-44.76378814, -22.62680211], [-44.76348503, -22.62703187], [-44.76332874, -22.6273048], [-44.76329761, -22.62766559], [-44.76350698, -22.62806177], [-44.76359893, -22.62833503], [-44.76352186, -22.62859443], [-44.76325656, -22.6290474], [-44.76321044, -22.62920539], [-44.76319428, -22.62940837], [-44.76327881, -22.6295956], [-44.76349595, -22.62981121], [-44.76362777, -22.62986939], [-44.76408435, -22.62990618], [-44.76442569, -22.62999272], [-44.76452695, -22.63006465], [-44.7646352, -22.63016658], [-44.7647435, -22.63037514], [-44.76471983, -22.6307849], [-44.76489704, -22.63110985], [-44.76489649, -22.63123907], [-44.76493563, -22.63130415], [-44.76513718, -22.631448], [-44.76522266, -22.6314554], [-44.7655252, -22.63139191], [-44.76568002, -22.63142713], [-44.76581184, -22.63152146], [-44.76586697, -22.63160769], [-44.76587458, -22.6316865], [-44.76578853, -22.63188153], [-44.76507348, -22.63244156], [-44.76498801, -22.63257876], [-44.76494132, -22.63286689], [-44.76477005, -22.63326238], [-44.76454481, -22.63349214], [-44.76407072, -22.63374415], [-44.76380612, -22.63380852], [-44.76344259, -22.63382269], [-44.76327847, -22.63391559], [-44.76327111, -22.63411695], [-44.76334783, -22.63430491], [-44.76333989, -22.63445565], [-44.76334008, -22.63455688], [-44.76317717, -22.63485858], [-44.76314584, -22.63500968], [-44.76322337, -22.63516783], [-44.76322262, -22.63534043], [-44.7631607, -22.63547095], [-44.76294285, -22.63567919], [-44.76293529, -22.63585163], [-44.76313549, -22.63611836], [-44.76329828, -22.63621974], [-44.76356934, -22.63631369], [-44.76411281, -22.63641485], [-44.76439905, -22.63655976], [-44.76449273, -22.63666044], [-44.76454705, -22.63677648], [-44.76455411, -22.63687605], [-44.7645545, -22.63697005], [-44.76440522, -22.63745282], [-44.76414125, -22.63781905], [-44.76372188, -22.6382802], [-44.76351243, -22.63868294], [-44.76347274, -22.63892785], [-44.76348778, -22.63916498], [-44.76355637, -22.63947475], [-44.76357141, -22.63982034], [-44.76354011, -22.64000669], [-44.76357868, -22.64023805], [-44.76373369, -22.64041155], [-44.76383398, -22.64044731], [-44.76409782, -22.640448], [-44.76419928, -22.64047656], [-44.7642844, -22.64056981], [-44.7643146, -22.64067806], [-44.76429961, -22.64076448], [-44.76417465, -22.6411755], [-44.76422085, -22.64141246], [-44.76442184, -22.64161413], [-44.76454627, -22.64169384], [-44.76517369, -22.64189635], [-44.76534469, -22.64201871], [-44.76547593, -22.64220702], [-44.76552211, -22.64230027], [-44.7655381, -22.64242988], [-44.76542756, -22.64284757], [-44.76552088, -22.6430341], [-44.76572169, -22.6433153], [-44.76589156, -22.64387776], [-44.76587622, -22.64405002], [-44.76572009, -22.64435278], [-44.76556511, -22.64450374], [-44.76518485, -22.64474075], [-44.76466398, -22.64488414], [-44.76410594, -22.64499773], [-44.76304217, -22.64516197], [-44.76267823, -22.64537134], [-44.76259238, -22.64548594], [-44.76250596, -22.64573066], [-44.76247427, -22.64600377], [-44.76237422, -22.64624817], [-44.76227239, -22.64637776], [-44.76211018, -22.64650776], [-44.7614421, -22.64676611], [-44.76104646, -22.64699553], [-44.76088272, -22.64714628], [-44.76082025, -22.64740511], [-44.76096709, -22.64773749], [-44.76103607, -22.64803281], [-44.76119055, -22.64837078], [-44.76136172, -22.64855912], [-44.76158537, -22.64911289], [-44.76181011, -22.64940911], [-44.76208083, -22.64962506], [-44.76245241, -22.649856], [-44.7632047, -22.65023223], [-44.76347659, -22.65047712], [-44.76359172, -22.6506497], [-44.76367646, -22.65093815], [-44.76365275, -22.65124037], [-44.76388454, -22.65163707], [-44.76427253, -22.6520184], [-44.76434129, -22.65217725], [-44.76437188, -22.65241565], [-44.7644582, -22.65253695], [-44.76470532, -22.65265293], [-44.7651242, -22.65271867], [-44.76540347, -22.65279834], [-44.7657762, -22.65298682], [-44.76599203, -22.6531807], [-44.76627136, -22.65362007], [-44.76636444, -22.65370718], [-44.76666534, -22.65388767], [-44.76674348, -22.65416874], [-44.76668043, -22.65437696], [-44.76631633, -22.65477251], [-44.76619872, -22.65494602], [-44.76613606, -22.65513978], [-44.76612037, -22.65561479], [-44.76601915, -22.65583026], [-44.76577849, -22.65616179], [-44.76573104, -22.65644176], [-44.76579205, -22.65688872], [-44.76574535, -22.65710454], [-44.76559075, -22.6572772], [-44.76503073, -22.65760766], [-44.76482803, -22.65783071], [-44.76485124, -22.65794512], [-44.76484366, -22.65815462], [-44.76488988, -22.65842772], [-44.76523075, -22.65896883], [-44.76529253, -22.65913385], [-44.76521373, -22.65971043], [-44.76531446, -22.65987544], [-44.76564635, -22.66017142], [-44.76572407, -22.6603594], [-44.76569254, -22.66051773], [-44.76529765, -22.66079056], [-44.76500965, -22.66107128], [-44.76496236, -22.66120033], [-44.7649624, -22.66148863], [-44.76505493, -22.66170496], [-44.76540303, -22.66208628], [-44.76570493, -22.66248369], [-44.76574411, -22.66258402], [-44.76589058, -22.66271393], [-44.76647179, -22.66319012], [-44.76671193, -22.66327701], [-44.76688312, -22.66328459], [-44.76744905, -22.66327871], [-44.76798388, -22.66352426], [-44.76809256, -22.66353852], [-44.7682172, -22.6635387], [-44.76865206, -22.66340958], [-44.76874556, -22.66340903], [-44.76893952, -22.66343883], [-44.76926458, -22.6635548], [-44.76942703, -22.66363357], [-44.76955811, -22.6637568], [-44.76981392, -22.6641667], [-44.76993037, -22.6642905], [-44.77072102, -22.66483748], [-44.7708219, -22.66492477], [-44.77094561, -22.66514091], [-44.77091354, -22.66539232], [-44.77083684, -22.66552882], [-44.77047835, -22.6659688], [-44.77036896, -22.66616238], [-44.77033063, -22.66632056], [-44.77031529, -22.66652897], [-44.77035275, -22.66698352], [-44.77025916, -22.66735009], [-44.77025939, -22.66752272], [-44.77041311, -22.66781819], [-44.77073098, -22.6679846], [-44.77166161, -22.66832424], [-44.77210396, -22.66853329], [-44.77231259, -22.66874236], [-44.7724293, -22.66900173], [-44.77243672, -22.66916096], [-44.77237423, -22.66938455], [-44.77225705, -22.66957796], [-44.77180701, -22.66990918], [-44.77162769, -22.67013187], [-44.77157321, -22.67034752], [-44.77157286, -22.67054182], [-44.77166465, -22.67085935], [-44.77200545, -22.67155047], [-44.77219835, -22.67212791], [-44.7724236, -22.67251631], [-44.77268641, -22.67281159], [-44.77290307, -22.67315731], [-44.77313491, -22.673554], [-44.77319707, -22.67370546], [-44.77321268, -22.67384951], [-44.77327372, -22.67422418], [-44.77338947, -22.67441122], [-44.77356811, -22.67461327], [-44.77383089, -22.67483714], [-44.77386989, -22.67505314], [-44.77382898, -22.67585202], [-44.77421676, -22.67671684], [-44.77426296, -22.67688239], [-44.77427779, -22.6770192], [-44.77421573, -22.67729973], [-44.77403564, -22.67765979], [-44.77385728, -22.67781021], [-44.77334457, -22.6784075], [-44.77304914, -22.67856515], [-44.77255229, -22.6787525], [-44.77241269, -22.67891014], [-44.77232646, -22.67918379], [-44.77234916, -22.67968048], [-44.77203732, -22.6805219], [-44.77206813, -22.68082537], [-44.77236194, -22.68116384], [-44.77310593, -22.68174769], [-44.77341626, -22.68212359], [-44.77353886, -22.68245449], [-44.77355409, -22.68268529], [-44.77352336, -22.68288703], [-44.77336803, -22.68319523], [-44.77320501, -22.68331799], [-44.77261507, -22.68348963], [-44.77251339, -22.68357675], [-44.77235043, -22.6838423], [-44.77234156, -22.68417287], [-44.77231059, -22.68423813], [-44.77215539, -22.68446862], [-44.77203074, -22.6845769], [-44.77161123, -22.68478501], [-44.7708658, -22.6847985], [-44.7706796, -22.68487734], [-44.77057035, -22.68495615], [-44.77050142, -22.68505668], [-44.77035377, -22.68511472], [-44.77012064, -22.68512831], [-44.76990401, -22.68507088], [-44.76967828, -22.6850991], [-44.76941497, -22.68525659], [-44.76928199, -22.68549392], [-44.76928106, -22.68578219], [-44.76944437, -22.68615651], [-44.76945181, -22.68638714], [-44.76937355, -22.68665374], [-44.76918642, -22.68694856], [-44.76916349, -22.68714957], [-44.76918647, -22.68727301], [-44.76927905, -22.68741614], [-44.76971268, -22.68780665], [-44.770069, -22.68802998], [-44.7704261, -22.68833286], [-44.7705878, -22.68851374], [-44.77074329, -22.68878033], [-44.77088947, -22.68913978], [-44.7709205, -22.68947128], [-44.77081131, -22.68994684], [-44.7704139, -22.69067331], [-44.77036719, -22.69085298], [-44.77031216, -22.69134244], [-44.77035838, -22.6916526], [-44.77035693, -22.69210534], [-44.77032619, -22.69227092], [-44.77009235, -22.69281771], [-44.76964154, -22.69360982], [-44.76957887, -22.69383973], [-44.76951525, -22.69435882], [-44.76952976, -22.69476133], [-44.76957691, -22.69489166], [-44.76970844, -22.69514413], [-44.76991752, -22.69533785], [-44.77004106, -22.69552508], [-44.77015735, -22.6956561], [-44.77021194, -22.69579925], [-44.77022736, -22.69598668], [-44.77022721, -22.69620991], [-44.77011688, -22.69683637], [-44.77011618, -22.69722497], [-44.77022474, -22.69746245], [-44.77034027, -22.69762147], [-44.7707434, -22.69795253], [-44.77087454, -22.69814716], [-44.77090576, -22.69839912], [-44.77087407, -22.69885388], [-44.77095165, -22.69908432], [-44.77123015, -22.69963121], [-44.77130754, -22.69994118], [-44.77129178, -22.70002034], [-44.77133798, -22.70014974], [-44.77135159, -22.70098513], [-44.77149831, -22.70125241], [-44.77166841, -22.70137474], [-44.77200309, -22.701462], [-44.77265453, -22.70150598], [-44.77301886, -22.70164996], [-44.77313557, -22.70172947], [-44.77324312, -22.70185939], [-44.773438, -22.70221997], [-44.77384014, -22.70251575], [-44.77397207, -22.70271762], [-44.77402589, -22.70285352], [-44.77403276, -22.70306968], [-44.77399365, -22.70332905], [-44.77373702, -22.70392683], [-44.77348717, -22.70438017], [-44.77337874, -22.70468223], [-44.77334761, -22.70486226], [-44.7732695, -22.70497794], [-44.77145103, -22.70624184], [-44.77014641, -22.70730522], [-44.76978763, -22.70771536], [-44.76942301, -22.70801692], [-44.76921207, -22.70825424], [-44.76911972, -22.70842834], [-44.76905666, -22.70863655], [-44.76907989, -22.70889556], [-44.76897808, -22.7093496], [-44.76879892, -22.70967262], [-44.76834118, -22.71003166], [-44.76775072, -22.71032709], [-44.76747066, -22.71070741], [-44.7673538, -22.71092342], [-44.76729947, -22.71109658], [-44.76728357, -22.71139807], [-44.76742103, -22.71219113], [-44.76734359, -22.71264392], [-44.76722593, -22.71285358], [-44.7670933, -22.71300415], [-44.76625525, -22.71344929], [-44.76589761, -22.71370762], [-44.76533, -22.71445634], [-44.76508092, -22.714916], [-44.76482379, -22.71520377], [-44.76441275, -22.71552774], [-44.76381358, -22.71621788], [-44.76338539, -22.71641854], [-44.76288099, -22.71648277], [-44.76266413, -22.71646871], [-44.76240777, -22.71658297], [-44.76190265, -22.7170358], [-44.76138212, -22.71740964], [-44.76125726, -22.71759653], [-44.76110905, -22.71792748], [-44.76101515, -22.71801387], [-44.76090684, -22.7180927], [-44.76042582, -22.71830116], [-44.76007614, -22.71858859], [-44.75974813, -22.71915667], [-44.75952331, -22.7194018], [-44.75933728, -22.7195448], [-44.75887887, -22.71974564], [-44.75875418, -22.71985391], [-44.75852862, -22.72027073], [-44.75844954, -22.72063854], [-44.75831828, -22.72099067], [-44.75790453, -22.72163087], [-44.75785762, -22.72196145], [-44.75791959, -22.72226475], [-44.75830662, -22.72290544], [-44.7583988, -22.72335313], [-44.75837392, -22.72373394], [-44.75824204, -22.7240725], [-44.75815578, -22.72441754], [-44.75816379, -22.72462649], [-44.75810087, -22.72479222], [-44.75808471, -22.72499429], [-44.75809994, -22.72518804], [-44.75820831, -22.72546891], [-44.7585961, -22.72611776], [-44.75861813, -22.72627643], [-44.75852561, -22.72656439], [-44.75816734, -22.72688052], [-44.75802728, -22.72716105], [-44.75801854, -22.7275576], [-44.75807959, -22.72782291], [-44.75804902, -22.72819816], [-44.75787644, -22.72863699], [-44.75760466, -22.72896056], [-44.75730911, -22.72919049], [-44.75665757, -22.7294709], [-44.75538393, -22.72980646], [-44.75407945, -22.72987649], [-44.7527054, -22.72985272], [-44.75175787, -22.72987318], [-44.75082691, -22.72992928], [-44.7504038, -22.73001163], [-44.75024877, -22.73001616], [-44.75022927, -22.73001661], [-44.74986313, -22.73000991], [-44.74922414, -22.73000499], [-44.74853592, -22.73027187], [-44.74805795, -22.73036559], [-44.74781597, -22.73037894], [-44.74738628, -22.73048824], [-44.74677663, -22.73051563], [-44.74599591, -22.73041975], [-44.74565162, -22.73043342], [-44.74532909, -22.73050726], [-44.74506103, -22.73062031], [-44.74494364, -22.73074591], [-44.74485177, -22.73086488], [-44.74482919, -22.73094298], [-44.74479908, -22.73126401], [-44.74482646, -22.73201657], [-44.7447957, -22.73214509], [-44.74470789, -22.73233013], [-44.74453681, -22.73256745], [-44.74448763, -22.73272898], [-44.74446747, -22.73293366], [-44.74447606, -22.73348063], [-44.74448877, -22.73394726], [-44.74464954, -22.73401878], [-44.74495779, -22.73400517], [-44.74537341, -22.73391182], [-44.745634, -22.73385914], [-44.74582105, -22.73382372], [-44.7460685, -22.73386021], [-44.74644317, -22.73423675], [-44.74679008, -22.73466687], [-44.74693792, -22.73482034], [-44.74713625, -22.73501654], [-44.7476548, -22.73540456], [-44.74774279, -22.73550151], [-44.74780731, -22.73567381], [-44.74780062, -22.73595744], [-44.7477682, -22.73618352], [-44.74762584, -22.73654804], [-44.74700762, -22.73772029], [-44.74710751, -22.73780937], [-44.74727569, -22.73793167], [-44.74799844, -22.73833528], [-44.74858749, -22.73867523], [-44.74869245, -22.73879336], [-44.74883779, -22.73900369], [-44.74898068, -22.73930435], [-44.74932628, -22.74043303], [-44.74953873, -22.74144113], [-44.74954058, -22.74144479], [-44.74956727, -22.74179155], [-44.74970715, -22.7419873], [-44.74986131, -22.74215988], [-44.75010405, -22.74237158], [-44.75020984, -22.74245899], [-44.75024984, -22.74249336], [-44.7510744, -22.74302494], [-44.75164229, -22.7435361], [-44.7526631, -22.7445946], [-44.75338054, -22.74577439], [-44.75407211, -22.74650531], [-44.75508109, -22.74735385], [-44.75587529, -22.74778439], [-44.75781861, -22.74863742], [-44.76011341, -22.75036978], [-44.76032908, -22.75046605], [-44.76074801, -22.75068543], [-44.76123816, -22.75101039], [-44.76169167, -22.75139324], [-44.76240373, -22.7521255], [-44.76269535, -22.75251363], [-44.76286144, -22.7526422], [-44.76316014, -22.75273136], [-44.76350443, -22.75279175], [-44.76383283, -22.75289967], [-44.76393881, -22.75298075], [-44.76412302, -22.75319649], [-44.76440298, -22.75358344], [-44.7647902, -22.75414911], [-44.7648907, -22.75428881], [-44.76502739, -22.75456852], [-44.76517335, -22.75475717], [-44.76560446, -22.75510424], [-44.76574118, -22.75534689], [-44.76585046, -22.75570369], [-44.76590274, -22.75687525], [-44.76581969, -22.75724567], [-44.76569498, -22.75746239], [-44.76536584, -22.75778013], [-44.76484318, -22.75804638], [-44.76417584, -22.75840237], [-44.7638204, -22.75864719], [-44.76338266, -22.75898048], [-44.76280226, -22.75976234], [-44.76254717, -22.76015227], [-44.7621804, -22.76049171], [-44.76164779, -22.76058421], [-44.76084929, -22.7602738], [-44.7602816, -22.76018564], [-44.76001123, -22.76027426], [-44.75979836, -22.76039857], [-44.75956698, -22.76059564], [-44.75916348, -22.76128488], [-44.75868049, -22.76185028], [-44.75845599, -22.76208095], [-44.75806794, -22.76219667], [-44.75765738, -22.76220793], [-44.75655887, -22.7619285], [-44.75558649, -22.76145317], [-44.7547022, -22.76071056], [-44.75374167, -22.76004931], [-44.75263555, -22.75954736], [-44.75214583, -22.75938687], [-44.7515538, -22.75926196], [-44.75058197, -22.75912822], [-44.75030707, -22.75920407], [-44.75024971, -22.75923527], [-44.74920375, -22.75968091], [-44.74816955, -22.76012411], [-44.74739435, -22.76043053], [-44.74699943, -22.76069247], [-44.74655717, -22.76101115], [-44.74575056, -22.76172171], [-44.74473209, -22.76269936], [-44.74411648, -22.76351739], [-44.74375038, -22.76440629], [-44.74369302, -22.76483333], [-44.74382477, -22.76547444], [-44.7439537, -22.76603957], [-44.74398892, -22.76682665], [-44.74395094, -22.76754605], [-44.74374384, -22.76839256], [-44.74368508, -22.76897953], [-44.74368374, -22.76942504], [-44.7437404, -22.76985202], [-44.74398204, -22.77024987], [-44.74446112, -22.77076893], [-44.74494097, -22.77111538], [-44.74508013, -22.77126683], [-44.74556097, -22.77233359], [-44.74564379, -22.77301875], [-44.74562898, -22.77327778], [-44.74532416, -22.77409852], [-44.74560914, -22.77534418], [-44.74576334, -22.77573276], [-44.74613522, -22.77636048], [-44.74621202, -22.77661983], [-44.7462276, -22.77690849], [-44.74628882, -22.77713133], [-44.74642877, -22.77729003], [-44.74669249, -22.77744889], [-44.74707178, -22.77776679], [-44.74735851, -22.77819189], [-44.74753687, -22.77891271], [-44.74757451, -22.77953897], [-44.7476828, -22.78011175], [-44.74793649, -22.78060567], [-44.74834835, -22.78094511], [-44.74843721, -22.78097519], [-44.74846535, -22.78101561], [-44.7485194, -22.78114339], [-44.74854006, -22.78135263], [-44.7485357, -22.7817303], [-44.74838729, -22.78224469], [-44.74827588, -22.78268855], [-44.74826259, -22.78292773], [-44.74831064, -22.78316925], [-44.74847445, -22.78356347], [-44.74867923, -22.78395593], [-44.74893641, -22.78453759]]]]}}]}