{"type": "FeatureCollection", "features": [{"type": "Feature", "properties": {"name": "Área de Proteção Ambiental Banhado"}, "geometry": {"type": "MultiPolygon", "coordinates": [[[[-45.95484464, -23.25407443], [-45.95504056, -23.25360341], [-45.95522331, -23.253215], [-45.95563263, -23.25279982], [-45.95653372, -23.25196896], [-45.95950305, -23.24922075], [-45.95954538, -23.24918182], [-45.96141436, -23.24746307], [-45.96174215, -23.2471817], [-45.96209019, -23.24684942], [-45.96245137, -23.24643452], [-45.96277788, -23.24597538], [-45.96294032, -23.24563154], [-45.96324448, -23.24493128], [-45.96344017, -23.24443485], [-45.9636703, -23.24395091], [-45.96386567, -23.24341004], [-45.96391566, -23.24271769], [-45.96393698, -23.24186043], [-45.96390526, -23.24127016], [-45.96394343, -23.24084454], [-45.96387667, -23.24015925], [-45.96377756, -23.23975352], [-45.9635547, -23.23933585], [-45.96333253, -23.23901341], [-45.96326577, -23.23890292], [-45.96320386, -23.23880045], [-45.96312423, -23.23873589], [-45.96298732, -23.23857745], [-45.96293262, -23.23841487], [-45.96293635, -23.23821164], [-45.96297253, -23.23794478], [-45.9630627, -23.23761281], [-45.96319107, -23.23733023], [-45.9632874, -23.23719532], [-45.96414521, -23.23621402], [-45.96585682, -23.23542859], [-45.96670679, -23.23518237], [-45.96725348, -23.235024], [-45.96852556, -23.23480175], [-45.96993449, -23.23490146], [-45.97015606, -23.23486788], [-45.97044819, -23.23477126], [-45.97080591, -23.23461603], [-45.97100027, -23.23446637], [-45.97115659, -23.23431161], [-45.97132331, -23.23412268], [-45.97142532, -23.23394357], [-45.97145078, -23.23383465], [-45.97144934, -23.2336458], [-45.97139867, -23.23336945], [-45.97129481, -23.23322147], [-45.97111452, -23.23302983], [-45.97096141, -23.23290185], [-45.97080352, -23.23282169], [-45.96915241, -23.23233422], [-45.96736434, -23.23195934], [-45.96603384, -23.23174248], [-45.96576502, -23.23163437], [-45.96523223, -23.23142004], [-45.96490511, -23.23118544], [-45.96454543, -23.23086088], [-45.96422746, -23.23044753], [-45.96403936, -23.23004254], [-45.96399373, -23.22959822], [-45.9639905, -23.2292413], [-45.96404193, -23.22883554], [-45.96411589, -23.22858734], [-45.96422694, -23.22839573], [-45.96465554, -23.22794709], [-45.96543904, -23.22738926], [-45.96555925, -23.22728453], [-45.96585058, -23.22696384], [-45.96604435, -23.22668589], [-45.96614042, -23.22645791], [-45.96615999, -23.22618988], [-45.96609332, -23.22593406], [-45.96584061, -23.22548018], [-45.96551217, -23.22510552], [-45.96526221, -23.22492904], [-45.96503211, -23.22484232], [-45.96471723, -23.22479402], [-45.96440357, -23.2247864], [-45.96395979, -23.22499719], [-45.96354951, -23.22524735], [-45.96313881, -23.22546679], [-45.96269515, -23.22561795], [-45.96231433, -23.22564722], [-45.96226639, -23.22564918], [-45.96165564, -23.22542277], [-45.96135765, -23.22520036], [-45.96108339, -23.22485636], [-45.96090792, -23.22451028], [-45.96089287, -23.22410529], [-45.96093392, -23.22367949], [-45.96110344, -23.22312471], [-45.96134907, -23.22257834], [-45.96151928, -23.22209222], [-45.96158129, -23.22169657], [-45.96153558, -23.22131097], [-45.96138072, -23.2209065], [-45.96095333, -23.22038481], [-45.96056038, -23.22001094], [-45.96005252, -23.21966598], [-45.95947764, -23.21945729], [-45.95919957, -23.21937523], [-45.95887454, -23.21934845], [-45.95832103, -23.21936054], [-45.95802823, -23.21944177], [-45.9577473, -23.21962167], [-45.95742403, -23.21987138], [-45.95680957, -23.22038033], [-45.95634494, -23.22076876], [-45.95608607, -23.22091828], [-45.95583775, -23.22107881], [-45.95566497, -23.22111856], [-45.95542578, -23.22110125], [-45.95506637, -23.22092394], [-45.95477179, -23.22057057], [-45.95459423, -23.22012598], [-45.95465501, -23.21953245], [-45.95474905, -23.21909664], [-45.95492793, -23.21835318], [-45.95498823, -23.21767923], [-45.9549311, -23.21722478], [-45.95463406, -23.21663285], [-45.95418558, -23.21609094], [-45.95389086, -23.21590471], [-45.95359786, -23.21583776], [-45.95332644, -23.21581994], [-45.95290382, -23.21589099], [-45.95233056, -23.21607352], [-45.95185412, -23.21625394], [-45.95148642, -23.21631502], [-45.95089612, -23.21625513], [-45.95073834, -23.21622373], [-45.94995023, -23.21602431], [-45.94984219, -23.21594581], [-45.94964888, -23.21577381], [-45.949364, -23.21547841], [-45.94926427, -23.21516152], [-45.94918578, -23.21480612], [-45.94897739, -23.21439175], [-45.94863652, -23.21389941], [-45.94824281, -23.21335744], [-45.94815443, -23.21306151], [-45.94815177, -23.21267568], [-45.94822408, -23.21219978], [-45.94835144, -23.21181329], [-45.94858714, -23.21143574], [-45.94893166, -23.21114663], [-45.94929006, -23.21100591], [-45.94953805, -23.21091585], [-45.94965658, -23.21079575], [-45.94969976, -23.21062748], [-45.94963283, -23.21044031], [-45.94938145, -23.21018428], [-45.94911896, -23.20994795], [-45.94905155, -23.20982716], [-45.948514, -23.20973479], [-45.94731676, -23.20987323], [-45.94627295, -23.21002648], [-45.9449347, -23.21030222], [-45.94400437, -23.21044428], [-45.9432548, -23.21044878], [-45.94275391, -23.21028381], [-45.94220465, -23.20969923], [-45.94195038, -23.20907089], [-45.94182074, -23.20839981], [-45.94198646, -23.20773745], [-45.94206279, -23.20728559], [-45.94202659, -23.20698137], [-45.94171687, -23.20654232], [-45.94100929, -23.20605316], [-45.9400403, -23.20553407], [-45.93918707, -23.20532921], [-45.93865221, -23.20517493], [-45.93828689, -23.20490417], [-45.93803375, -23.20443328], [-45.93803016, -23.20391891], [-45.93806115, -23.20347782], [-45.93801162, -23.20289024], [-45.93775782, -23.20232487], [-45.93701651, -23.20187788], [-45.93637901, -23.20166122], [-45.93562832, -23.20149772], [-45.93494621, -23.2013968], [-45.93453599, -23.20119978], [-45.93421415, -23.20064531], [-45.93386777, -23.19982854], [-45.9337946, -23.19910462], [-45.93366575, -23.19853851], [-45.93327592, -23.19800543], [-45.93298984, -23.19769219], [-45.93265891, -23.1974632], [-45.93243142, -23.19741206], [-45.93212415, -23.1973194], [-45.93171592, -23.1974058], [-45.93142102, -23.19746004], [-45.93118218, -23.19740896], [-45.93083925, -23.19708556], [-45.93055063, -23.19640491], [-45.93036494, -23.19582863], [-45.93003063, -23.19593033], [-45.93010798, -23.19635063], [-45.93017846, -23.19661053], [-45.9302349, -23.19682606], [-45.93024991, -23.1970101], [-45.93026404, -23.19706716], [-45.93019576, -23.1971247], [-45.93007909, -23.19713809], [-45.93001054, -23.19715754], [-45.92992112, -23.19713903], [-45.92963851, -23.19699467], [-45.92934221, -23.19685673], [-45.92912785, -23.19664848], [-45.92893361, -23.19637026], [-45.92880915, -23.19625036], [-45.92873264, -23.19611113], [-45.92871067, -23.19591444], [-45.92875805, -23.19581257], [-45.92861202, -23.19555312], [-45.9283694, -23.19523075], [-45.92794038, -23.19476979], [-45.92756753, -23.19448628], [-45.9273744, -23.19436678], [-45.9270984, -23.19418428], [-45.92700864, -23.19411497], [-45.92672617, -23.19398965], [-45.92643666, -23.19383898], [-45.9261951, -23.19366897], [-45.92599475, -23.19349872], [-45.92578075, -23.19334125], [-45.92555966, -23.19315208], [-45.92538022, -23.19302615], [-45.92518052, -23.19295113], [-45.92483629, -23.19283252], [-45.92465746, -23.19279548], [-45.92437513, -23.1926892], [-45.92405886, -23.19264027], [-45.92382487, -23.1925718], [-45.92362552, -23.19254757], [-45.92346769, -23.19256755], [-45.9232354, -23.19274669], [-45.92299667, -23.19298936], [-45.92290139, -23.1931169], [-45.92273787, -23.19330833], [-45.92264224, -23.19338508], [-45.92251983, -23.19356358], [-45.92241755, -23.19367211], [-45.92230845, -23.19378704], [-45.92224694, -23.19383184], [-45.9221514, -23.19392129], [-45.92200843, -23.19410625], [-45.9219541, -23.19419546], [-45.92190689, -23.19432272], [-45.92186633, -23.19441819], [-45.92177088, -23.19452034], [-45.92166825, -23.19457808], [-45.92156531, -23.19459138], [-45.921421, -23.19457953], [-45.92137966, -23.19456072], [-45.92132506, -23.19461184], [-45.92138753, -23.19470671], [-45.92139474, -23.19475746], [-45.92129263, -23.19489139], [-45.92108094, -23.19507041], [-45.92093115, -23.19526176], [-45.92086416, -23.19550977], [-45.92081, -23.19562437], [-45.92078357, -23.1957769], [-45.92077075, -23.19591031], [-45.92071663, -23.19603126], [-45.92066251, -23.19615221], [-45.92059461, -23.19626689], [-45.92048611, -23.1964707], [-45.92036344, -23.1966111], [-45.92015209, -23.19684091], [-45.91991992, -23.19703909], [-45.91983806, -23.19712211], [-45.91970174, -23.19727528], [-45.91962693, -23.19738365], [-45.91951112, -23.19752401], [-45.91932024, -23.19773465], [-45.91923869, -23.19786211], [-45.91908185, -23.1980281], [-45.91897278, -23.19814938], [-45.91887076, -23.198296], [-45.91875539, -23.19849985], [-45.91866049, -23.19868453], [-45.91847643, -23.19888878], [-45.91838106, -23.19900362], [-45.91808058, -23.19925934], [-45.91794461, -23.1994633], [-45.91780824, -23.19961013], [-45.91771951, -23.19969319], [-45.91759722, -23.19989072], [-45.91748215, -23.20013901], [-45.91740125, -23.20036171], [-45.91734116, -23.20061602], [-45.91730147, -23.20083847], [-45.91729655, -23.20112421], [-45.91732498, -23.20126373], [-45.91732598, -23.20140976], [-45.91734732, -23.20151757], [-45.91745225, -23.20179632], [-45.91748024, -23.20187234], [-45.91749532, -23.20206908], [-45.91755809, -23.2022084], [-45.91769059, -23.20249968], [-45.91775988, -23.20258817], [-45.91787756, -23.20272081], [-45.9180297, -23.20287231], [-45.91823723, -23.20308697], [-45.91831361, -23.20320715], [-45.91835534, -23.2032831], [-45.91835604, -23.20338468], [-45.91829474, -23.20346123], [-45.91827435, -23.20349309], [-45.91826774, -23.20353123], [-45.91837116, -23.20358777], [-45.91840581, -23.20363201], [-45.91842824, -23.20389854], [-45.9184511, -23.20422856], [-45.91846618, -23.2044253], [-45.91845396, -23.20464759], [-45.91845483, -23.20477457], [-45.91851121, -23.20498376], [-45.91861602, -23.20524347], [-45.91867197, -23.20538917], [-45.91874939, -23.20566173], [-45.91878499, -23.20584565], [-45.91875843, -23.20597914], [-45.91873173, -23.20609358], [-45.91865726, -23.20625274], [-45.91859618, -23.20636103], [-45.91845989, -23.20652056], [-45.91833752, -23.2067054], [-45.91824913, -23.20683925], [-45.91820166, -23.20692841], [-45.9181684, -23.20708733], [-45.91814166, -23.20719543], [-45.91811497, -23.20730987], [-45.91805376, -23.20739911], [-45.91782891, -23.20766709], [-45.91768558, -23.20780126], [-45.91761071, -23.20790328], [-45.91759145, -23.20810022], [-45.91754432, -23.20824017], [-45.91749698, -23.20834838], [-45.91741507, -23.20842505], [-45.91729861, -23.20847017], [-45.91720296, -23.20854692], [-45.91717592, -23.20861057], [-45.91724491, -23.20865461], [-45.91730686, -23.2086733], [-45.91730704, -23.20869869], [-45.91722517, -23.20878171], [-45.91718405, -23.20879465], [-45.91711618, -23.20891568], [-45.91708949, -23.20903012], [-45.91709087, -23.20923328], [-45.91703709, -23.20940502], [-45.91702439, -23.20955748], [-45.91695627, -23.20964041], [-45.9169434, -23.20976747], [-45.91699956, -23.20994492], [-45.91705529, -23.21005888], [-45.91708307, -23.21010316], [-45.9170562, -23.21019221], [-45.91699469, -23.21023701], [-45.91680732, -23.21026399], [-45.91715389, -23.21242654], [-45.91748356, -23.21443095], [-45.91754081, -23.21476712], [-45.91763237, -23.21509674], [-45.91775131, -23.2154135], [-45.91788382, -23.21570479], [-45.91807824, -23.21600841], [-45.91825192, -23.21629311], [-45.91839074, -23.21650182], [-45.91848069, -23.21659653], [-45.91875698, -23.21681714], [-45.91906753, -23.21702485], [-45.91962707, -23.21747871], [-45.91997953, -23.21778776], [-45.92009726, -23.21792675], [-45.92034638, -23.21819196], [-45.92057485, -23.21845093], [-45.92104541, -23.21894976], [-45.92128071, -23.21920235], [-45.92142618, -23.21937927], [-45.92150249, -23.21948676], [-45.92156562, -23.21967686], [-45.92169232, -23.22012056], [-45.92177023, -23.22046296], [-45.92184124, -23.22079905], [-45.92188472, -23.22112895], [-45.92197629, -23.22145856], [-45.92206073, -23.22175013], [-45.92222812, -23.2221174], [-45.9223743, -23.2223959], [-45.92258239, -23.22268674], [-45.92280401, -23.22294575], [-45.92303932, -23.22319834], [-45.92331576, -23.22343798], [-45.92361941, -23.22363937], [-45.92394399, -23.22388508], [-45.92424095, -23.2241119], [-45.9244757, -23.22428195], [-45.92475849, -23.22444536], [-45.92505537, -23.22465949], [-45.92521438, -23.22480458], [-45.92533195, -23.22491817], [-45.92558105, -23.22517702], [-45.9258095, -23.22542964], [-45.92598295, -23.22567623], [-45.92625984, -23.22597936], [-45.92642589, -23.22614981], [-45.92660538, -23.22627573], [-45.92679852, -23.22638888], [-45.92706736, -23.22652063], [-45.92713632, -23.22655831], [-45.92732911, -23.22662067], [-45.92747351, -23.22663886], [-45.92768699, -23.22671379], [-45.92786609, -23.22678258], [-45.92803858, -23.22688949], [-45.92812854, -23.2269842], [-45.92829438, -23.2271229], [-45.92837065, -23.22722404], [-45.92848853, -23.22738207], [-45.92857189, -23.22751491], [-45.92864186, -23.22769862], [-45.92869123, -23.22788245], [-45.92874019, -23.22800914], [-45.9287689, -23.22818675], [-45.92879752, -23.22835166], [-45.92879219, -23.22857391], [-45.9286983, -23.22890462], [-45.92861119, -23.22922259], [-45.92854372, -23.22940076], [-45.9284556, -23.22957271], [-45.92837526, -23.22987794], [-45.92832862, -23.23008774], [-45.92828137, -23.23020865], [-45.92824807, -23.23036123], [-45.92822204, -23.2305709], [-45.92823041, -23.23078672], [-45.92821142, -23.23102175], [-45.92820587, -23.23121226], [-45.9282351, -23.23146605], [-45.92826381, -23.23164366], [-45.92834101, -23.23187812], [-45.92837628, -23.23201124], [-45.92848831, -23.23231534], [-45.92860685, -23.2325686], [-45.9287391, -23.23281543], [-45.92885038, -23.2330116], [-45.92902402, -23.23328358], [-45.92915596, -23.23348598], [-45.92933612, -23.23370713], [-45.9295095, -23.23394102], [-45.92966892, -23.23414325], [-45.92978337, -23.2343013], [-45.92994979, -23.23452254], [-45.93016475, -23.23480697], [-45.93037975, -23.23509776], [-45.93062192, -23.23534394], [-45.93093328, -23.23565955], [-45.93109939, -23.23583634], [-45.93136892, -23.23606332], [-45.93163166, -23.23630302], [-45.93190136, -23.23655539], [-45.93215041, -23.23680153], [-45.93236493, -23.23702247], [-45.93251722, -23.23718665], [-45.93264868, -23.2373192], [-45.93277159, -23.23740659], [-45.93304853, -23.23751365], [-45.93319963, -23.2375064], [-45.93338482, -23.23746086], [-45.93355538, -23.23728842], [-45.93374646, -23.23710316], [-45.93401942, -23.23683487], [-45.93418338, -23.23670057], [-45.93418262, -23.23659264], [-45.93422362, -23.23656065], [-45.93444245, -23.23641332], [-45.93468907, -23.23631026], [-45.93495493, -23.23601027], [-45.93539272, -23.23573466], [-45.93587873, -23.2354778], [-45.93619374, -23.23532989], [-45.93670754, -23.23511731], [-45.93733152, -23.23494217], [-45.93751662, -23.23488392], [-45.93778388, -23.23478709], [-45.93798245, -23.23469067], [-45.93822246, -23.23462574], [-45.9384494, -23.23465613], [-45.93868369, -23.23475632], [-45.93889051, -23.23485667], [-45.93898039, -23.23493867], [-45.93902233, -23.23504001], [-45.93907171, -23.23522383], [-45.93914161, -23.23539484], [-45.93918314, -23.23543904], [-45.93925942, -23.23554017], [-45.93947333, -23.23567222], [-45.93966627, -23.2357536], [-45.93987278, -23.23580951], [-45.94007219, -23.23583372], [-45.94042948, -23.23583793], [-45.94071133, -23.23586164], [-45.94093876, -23.23596186], [-45.94115307, -23.23615105], [-45.94131925, -23.23633418], [-45.9413888, -23.23645439], [-45.94144416, -23.2365112], [-45.94154801, -23.23662487], [-45.94158268, -23.2366691], [-45.94161765, -23.23675778], [-45.94163224, -23.23687833], [-45.94168149, -23.23704311], [-45.94169643, -23.23721444], [-45.94165623, -23.23736071], [-45.94151981, -23.23750121], [-45.94141055, -23.2375971], [-45.94132235, -23.23775636], [-45.94118615, -23.2379286], [-45.94094065, -23.23819038], [-45.94079079, -23.2383754], [-45.94058633, -23.23861154], [-45.94047752, -23.23877092], [-45.94034872, -23.23901931], [-45.94027492, -23.23927371], [-45.94011324, -23.23973182], [-45.94007353, -23.23994792], [-45.9400977, -23.24045571], [-45.94012781, -23.24083012], [-45.94018504, -23.24115359], [-45.94022028, -23.24128036], [-45.94020765, -23.24143916], [-45.94027849, -23.24174349], [-45.94037668, -23.24202861], [-45.94043954, -23.24217427], [-45.94049499, -23.24224378], [-45.94064712, -23.24238254], [-45.94088843, -23.24250173], [-45.9411165, -23.24269084], [-45.94130958, -23.24279127], [-45.9414196, -23.24280331], [-45.94163223, -23.24275124], [-45.94215261, -23.24249416], [-45.94255623, -23.24224412], [-45.94284336, -23.24203923], [-45.94303488, -23.24191744], [-45.94324028, -23.24181463], [-45.94346705, -23.24181961], [-45.94359795, -23.24186962], [-45.9436534, -23.24193913], [-45.94370904, -23.24203403], [-45.9436829, -23.24222466], [-45.94365666, -23.24240259], [-45.94357587, -23.24263799], [-45.94355682, -23.24286033], [-45.94357163, -23.24301262], [-45.94362713, -23.24308847], [-45.94371003, -23.24315146], [-45.94379961, -23.24318902], [-45.94399293, -23.24332119], [-45.94419967, -23.24340883], [-45.9444131, -23.24347104], [-45.9445779, -23.24345735], [-45.94477617, -23.24331648], [-45.94487855, -23.24322063], [-45.94498063, -23.24308034], [-45.94502827, -23.24301656], [-45.94510367, -23.24299071], [-45.94511786, -23.24305411], [-45.94507053, -23.24316233], [-45.94492777, -23.24337906], [-45.94474391, -23.24361508], [-45.94466263, -23.24378065], [-45.94458817, -23.24393982], [-45.94440423, -23.24416315], [-45.9442065, -23.2443802], [-45.94408377, -23.24451427], [-45.94392624, -23.24458506], [-45.94378892, -23.24459858], [-45.94350745, -23.24463202], [-45.9433562, -23.24462023], [-45.9430667, -23.24448864], [-45.94274954, -23.24433181], [-45.94231513, -23.2441122], [-45.94212895, -23.24401808], [-45.94199141, -23.24399986], [-45.94185435, -23.24405147], [-45.94179332, -23.24416612], [-45.94179421, -23.2442931], [-45.94185069, -23.24450863], [-45.94194122, -23.24467951], [-45.94204659, -23.24500903], [-45.94209611, -23.24521191], [-45.94222831, -23.24544603], [-45.94232561, -23.24560417], [-45.94240899, -23.24573701], [-45.94263711, -23.24593246], [-45.94292666, -23.2460704], [-45.94307117, -23.24610128], [-45.94314032, -23.24616435], [-45.94334024, -23.24625839], [-45.9435676, -23.24634591], [-45.94382976, -23.24649672], [-45.94411208, -23.24658391], [-45.94438718, -23.24662035], [-45.94475199, -23.24671339], [-45.94500661, -23.246769], [-45.94521323, -23.2468376], [-45.94540628, -23.24693167], [-45.94553705, -23.24696263], [-45.94574397, -23.24707567], [-45.94596469, -23.24719497], [-45.94615756, -23.24726365], [-45.94641209, -23.24730656], [-45.94657025, -23.24732465], [-45.94669384, -23.24731121], [-45.94679667, -23.24727885], [-45.94689946, -23.24724013], [-45.94694006, -23.247151], [-45.94693934, -23.24704942], [-45.94686184, -23.24677687], [-45.94683319, -23.24661197], [-45.94687316, -23.24643396], [-45.94695422, -23.24623665], [-45.94702136, -23.24601402], [-45.94709514, -23.24575961], [-45.94718334, -23.24560036], [-45.94727118, -23.24539031], [-45.94729116, -23.2453013], [-45.94736611, -23.24521196], [-45.94743392, -23.24508457], [-45.94752939, -23.24498241], [-45.94762545, -23.24496278], [-45.94776286, -23.24496195], [-45.94783843, -23.2449615], [-45.94805834, -23.24496652], [-45.94817541, -23.24500391], [-45.94827214, -23.24507951], [-45.94832777, -23.24517441], [-45.94831489, -23.24529512], [-45.94826091, -23.24543513], [-45.94824142, -23.24559397], [-45.94821506, -23.24575286], [-45.94815439, -23.2459183], [-45.94808052, -23.24616001], [-45.9479519, -23.2464338], [-45.94787722, -23.24656123], [-45.94780928, -23.24666958], [-45.94774129, -23.24677157], [-45.94762525, -23.24688021], [-45.94751631, -23.24702054], [-45.94748936, -23.24709689], [-45.94750364, -23.247173], [-45.94752461, -23.24722366], [-45.94762094, -23.24724213], [-45.94775808, -23.24720321], [-45.94799056, -23.24704308], [-45.94805204, -23.24699191], [-45.94812003, -23.24688992], [-45.94822933, -23.24680037], [-45.9484143, -23.24672307], [-45.94855818, -23.24666506], [-45.94878465, -23.24662559], [-45.94896374, -23.246688], [-45.94914983, -23.24676942], [-45.9492263, -23.24689594], [-45.94925473, -23.24702909], [-45.94933893, -23.2472762], [-45.949423, -23.24750426], [-45.9495694, -23.24780178], [-45.94977103, -23.24813706], [-45.94994496, -23.24844077], [-45.95003509, -23.24855451], [-45.95023781, -23.24904216], [-45.95032861, -23.24925113], [-45.95037096, -23.2494096], [-45.95033832, -23.24965106], [-45.95026409, -23.24984198], [-45.9501762, -23.25004568], [-45.95006039, -23.25018607], [-45.94996487, -23.25028188], [-45.94986262, -23.25039678], [-45.94984227, -23.250435], [-45.94985624, -23.25046666], [-45.94990461, -23.25050446], [-45.95004899, -23.25051629], [-45.95016593, -23.25053463], [-45.95026225, -23.25055309], [-45.95033783, -23.25055263], [-45.95038579, -23.2505333], [-45.95049483, -23.25040565], [-45.95056291, -23.25031636], [-45.95065146, -23.25020789], [-45.9507058, -23.25011867], [-45.95074685, -23.25009302], [-45.95081556, -23.25009261], [-45.95086383, -23.25011771], [-45.95089181, -23.25018738], [-45.95101652, -23.25033266], [-45.95109255, -23.25039569], [-45.95116872, -23.25047776], [-45.95124493, -23.25056619], [-45.9512593, -23.25065499], [-45.95128108, -23.25081993], [-45.95130996, -23.25101658], [-45.95135927, -23.25118771], [-45.9514565, -23.25133315], [-45.95150546, -23.25145348], [-45.95154103, -23.25162469], [-45.95161068, -23.2517576], [-45.9516666, -23.25189059], [-45.95175017, -23.25204881], [-45.95184071, -23.25221969], [-45.95194495, -23.25238413], [-45.95213308, -23.25275124], [-45.95225829, -23.25296635], [-45.95243892, -23.25324461], [-45.9526469, -23.25350366], [-45.95281981, -23.25366134], [-45.952965, -23.25378744], [-45.95310301, -23.25386914], [-45.95322714, -23.25393188], [-45.95333739, -23.25397565], [-45.95351645, -23.25403171], [-45.95372986, -23.25408755], [-45.95384675, -23.25409954], [-45.95400479, -23.25409858], [-45.95410098, -23.254098], [-45.95415609, -23.25411671], [-45.95421811, -23.25414173], [-45.95429428, -23.2542238], [-45.95430874, -23.2543253], [-45.95434382, -23.25442667], [-45.95432551, -23.25475059], [-45.95432755, -23.25503628], [-45.95434012, -23.25522552], [-45.95484464, -23.25407443]]], [[[-45.89533067, -23.19164641], [-45.89594988, -23.191673], [-45.89681334, -23.19168314], [-45.89761174, -23.19170871], [-45.8983122, -23.19170471], [-45.89888264, -23.19174663], [-45.89974609, -23.19175676], [-45.90057697, -23.19176706], [-45.90186386, -23.1917597], [-45.90233626, -23.19175699], [-45.90269463, -23.19175493], [-45.90292299, -23.1917988], [-45.90333074, -23.19187176], [-45.90367343, -23.19196014], [-45.90398344, -23.19203366], [-45.90424519, -23.19219781], [-45.90450715, -23.19239207], [-45.90498168, -23.19270559], [-45.90520291, -23.19290008], [-45.90548935, -23.19310173], [-45.90577599, -23.1933335], [-45.90605434, -23.19354273], [-45.90636558, -23.19379694], [-45.90661939, -23.19399125], [-45.90691393, -23.19418532], [-45.90722486, -23.19439436], [-45.90750332, -23.19461864], [-45.90782234, -23.1948201], [-45.90812519, -23.19503671], [-45.90841158, -23.19523083], [-45.9086519, -23.19539038], [-45.90902129, -23.19505413], [-45.90939271, -23.19457009], [-45.9097887, -23.19410849], [-45.91019264, -23.19361673], [-45.9104266, -23.19328408], [-45.91048173, -23.19300516], [-45.91051084, -23.19249298], [-45.91045143, -23.19213943], [-45.91040826, -23.19177826], [-45.91019262, -23.19120726], [-45.91005869, -23.19067343], [-45.90981027, -23.1900725], [-45.90956837, -23.18923059], [-45.90934398, -23.18856928], [-45.90920985, -23.18800533], [-45.90920629, -23.18747828], [-45.90917106, -23.18708695], [-45.90919942, -23.18646183], [-45.90916119, -23.18562626], [-45.90919046, -23.18513667], [-45.90918135, -23.18499366], [-45.90923745, -23.1848578], [-45.90936643, -23.18466129], [-45.90943098, -23.18457056], [-45.90944317, -23.18441947], [-45.90964976, -23.18440364], [-45.9098526, -23.18428953], [-45.91016891, -23.18409193], [-45.91025819, -23.18404623], [-45.9105099, -23.18393183], [-45.91066419, -23.18386317], [-45.91104302, -23.1837858], [-45.91134546, -23.18343757], [-45.91207539, -23.18298157], [-45.91286339, -23.18268335], [-45.91354587, -23.18243844], [-45.91402541, -23.1822926], [-45.91458486, -23.1819204], [-45.91514384, -23.18148043], [-45.91558921, -23.18110136], [-45.91584695, -23.1806782], [-45.91587651, -23.18023379], [-45.91581637, -23.17977483], [-45.91564222, -23.17931654], [-45.91525474, -23.17862607], [-45.91488457, -23.17808609], [-45.91461224, -23.1775606], [-45.91433268, -23.17717068], [-45.91416587, -23.17697194], [-45.9140371, -23.17681851], [-45.91392806, -23.17635231], [-45.91392989, -23.17633263], [-45.91396443, -23.17596247], [-45.91396601, -23.17594549], [-45.91390645, -23.17556935], [-45.91374855, -23.17510343], [-45.91363575, -23.17483055], [-45.91354983, -23.17462269], [-45.91319556, -23.17402238], [-45.91272015, -23.17357336], [-45.91199184, -23.17305803], [-45.91158272, -23.17277428], [-45.91114118, -23.1725133], [-45.91085482, -23.17231918], [-45.9105845, -23.17208733], [-45.91024028, -23.17176554], [-45.90982256, -23.17141407], [-45.90959276, -23.17115186], [-45.90937095, -23.17086701], [-45.90923938, -23.17067953], [-45.90914091, -23.17047053], [-45.90883104, -23.17050871], [-45.90832619, -23.17051915], [-45.90782908, -23.17046931], [-45.9074134, -23.170419], [-45.90707107, -23.17037579], [-45.9068345, -23.17031692], [-45.90666247, -23.17016732], [-45.90651452, -23.16996487], [-45.90642458, -23.16991268], [-45.90629408, -23.16988331], [-45.9061393, -23.16987667], [-45.90600152, -23.16997535], [-45.90594543, -23.17011121], [-45.90570977, -23.17018786], [-45.90553102, -23.17024912], [-45.90536046, -23.17031787], [-45.90517377, -23.1704093], [-45.90511732, -23.17049245], [-45.90501186, -23.17055329], [-45.90490599, -23.1705539], [-45.90465314, -23.17049512], [-45.90440812, -23.17039111], [-45.90417135, -23.17030211], [-45.90400003, -23.17025792], [-45.90384571, -23.17031904], [-45.90365259, -23.17066651], [-45.90349169, -23.17096109], [-45.90344338, -23.17104419], [-45.90284759, -23.17085184], [-45.90231715, -23.17068923], [-45.90139566, -23.17050626], [-45.90065339, -23.1703298], [-45.899487, -23.17005787], [-45.89845131, -23.16984542], [-45.89764404, -23.1696919], [-45.89692636, -23.16953787], [-45.89600045, -23.16746496], [-45.89575094, -23.1666833], [-45.89565906, -23.16633746], [-45.89549324, -23.16589415], [-45.89541031, -23.16551226], [-45.89510905, -23.16567797], [-45.8948172, -23.1658754], [-45.89455012, -23.1661254], [-45.89434029, -23.16641272], [-45.89422789, -23.1666543], [-45.89413191, -23.16691839], [-45.89407621, -23.16711447], [-45.89402076, -23.16734821], [-45.89391674, -23.16762739], [-45.89386958, -23.16788367], [-45.8938475, -23.16823769], [-45.89383326, -23.16854648], [-45.89386764, -23.16881736], [-45.89387918, -23.16932931], [-45.89393049, -23.16969797], [-45.89400643, -23.17009661], [-45.89410711, -23.17054028], [-45.89426483, -23.17099117], [-45.89436446, -23.17127673], [-45.89445684, -23.17169786], [-45.89454892, -23.17207382], [-45.89459189, -23.17241241], [-45.89453774, -23.17274415], [-45.89465964, -23.17280357], [-45.89473384, -23.17293868], [-45.89473474, -23.17307421], [-45.89468693, -23.1732326], [-45.89458201, -23.17337626], [-45.89451736, -23.17345192], [-45.8945346, -23.17359489], [-45.89456787, -23.17370011], [-45.89453645, -23.17387348], [-45.89452891, -23.17396387], [-45.89452966, -23.17407681], [-45.89461969, -23.17414407], [-45.89462863, -23.17426449], [-45.89458062, -23.17439277], [-45.89442629, -23.17445388], [-45.89429634, -23.17450733], [-45.89414221, -23.17459856], [-45.8940208, -23.17471219], [-45.89384253, -23.17484874], [-45.89375345, -23.17492454], [-45.89358318, -23.17503845], [-45.8934216, -23.17523514], [-45.89328416, -23.17538651], [-45.89318743, -23.17553765], [-45.89308256, -23.17568884], [-45.89305113, -23.1758622], [-45.89307661, -23.17602018], [-45.8930207, -23.17618615], [-45.89293222, -23.1763523], [-45.89283753, -23.17646127], [-45.89270584, -23.17660206], [-45.89251952, -23.17675371], [-45.89233266, -23.17682254], [-45.89210493, -23.17686901], [-45.89190113, -23.17684004], [-45.89172176, -23.17681094], [-45.8916076, -23.176789], [-45.89146228, -23.17679011], [-45.89143053, -23.17710624], [-45.89134349, -23.17749075], [-45.89123117, -23.17774739], [-45.8911184, -23.17793627], [-45.8909735, -23.1781931], [-45.89079607, -23.17845764], [-45.89061035, -23.17869964], [-45.89034354, -23.1789948], [-45.89009317, -23.17931246], [-45.88988296, -23.17954707], [-45.8896161, -23.17983471], [-45.88943872, -23.18010677], [-45.88922901, -23.18041667], [-45.88907606, -23.18068861], [-45.88896423, -23.18102054], [-45.88884455, -23.1813977], [-45.88871643, -23.18172973], [-45.88866966, -23.18204623], [-45.88859015, -23.18234034], [-45.88853543, -23.18268701], [-45.88855381, -23.18300315], [-45.88850728, -23.18335731], [-45.88850941, -23.18368107], [-45.88852809, -23.18404239], [-45.88854997, -23.18422932], [-45.88857125, -23.1844111], [-45.88861421, -23.18474969], [-45.88861645, -23.18508851], [-45.8886755, -23.18539689], [-45.88868588, -23.18573566], [-45.88876971, -23.18609661], [-45.88889412, -23.18643474], [-45.88906015, -23.18690817], [-45.88927489, -23.18735874], [-45.88965293, -23.18786862], [-45.89016109, -23.18834764], [-45.89057111, -23.18876698], [-45.89101332, -23.1891259], [-45.89140716, -23.18956039], [-45.89173515, -23.18988983], [-45.89214469, -23.19023387], [-45.89260309, -23.19057764], [-45.89307759, -23.19089119], [-45.89382942, -23.1912634], [-45.89418879, -23.19141195], [-45.89482499, -23.19154387], [-45.89533067, -23.19164641]]], [[[-45.98101488, -23.19959411], [-45.98131827, -23.19933568], [-45.98181573, -23.19905039], [-45.98227278, -23.1989321], [-45.98282593, -23.1986721], [-45.9831851, -23.1984518], [-45.98355655, -23.19801337], [-45.98384512, -23.19762676], [-45.98418919, -23.1972398], [-45.98485108, -23.19667128], [-45.98538827, -23.19612919], [-45.98569024, -23.19567835], [-45.98592235, -23.19516383], [-45.98614135, -23.19475199], [-45.9864989, -23.19431364], [-45.98735398, -23.1936028], [-45.98760279, -23.19347297], [-45.98794749, -23.19317579], [-45.98822301, -23.1929047], [-45.98845795, -23.19277495], [-45.9888455, -23.19264425], [-45.98923192, -23.19235963], [-45.98949385, -23.1921271], [-45.98982571, -23.19197109], [-45.98994992, -23.19188052], [-45.99036702, -23.19199334], [-45.99075684, -23.19217046], [-45.99109125, -23.19236076], [-45.99134251, -23.1925644], [-45.99144144, -23.19280749], [-45.99165155, -23.19307553], [-45.9919164, -23.19324061], [-45.99227762, -23.19330247], [-45.99259618, -23.1932235], [-45.99265045, -23.19305641], [-45.99255077, -23.19271071], [-45.99224183, -23.19221241], [-45.99191826, -23.19161159], [-45.9918048, -23.19127881], [-45.99195421, -23.19084175], [-45.99206189, -23.19039213], [-45.99218125, -23.19017637], [-45.9922399, -23.19007034], [-45.99277855, -23.18973344], [-45.99333353, -23.18972994], [-45.99404152, -23.18977678], [-45.99455516, -23.18981201], [-45.99462444, -23.18979875], [-45.99469448, -23.1898881], [-45.99446107, -23.19022307], [-45.99419964, -23.19051974], [-45.9939936, -23.19080323], [-45.99385713, -23.19111194], [-45.99385912, -23.19138129], [-45.99401553, -23.19189337], [-45.99405763, -23.19195724], [-45.99425359, -23.19218689], [-45.99458753, -23.19231304], [-45.99500454, -23.19241302], [-45.99535132, -23.192398], [-45.99551535, -23.19206347], [-45.99559394, -23.19143446], [-45.99553569, -23.19106285], [-45.99585091, -23.19053495], [-45.99594547, -23.19018803], [-45.99594272, -23.18981607], [-45.99611872, -23.18922492], [-45.99628246, -23.1888519], [-45.99648877, -23.18860689], [-45.9967673, -23.18874622], [-45.99723999, -23.18887149], [-45.99755806, -23.18872838], [-45.99767931, -23.18824019], [-45.99764776, -23.18772732], [-45.99750483, -23.18716385], [-45.99750311, -23.18693297], [-45.99765354, -23.186637], [-45.99779124, -23.18649503], [-45.99805457, -23.18645488], [-45.99820718, -23.18645392], [-45.99821154, -23.18645567], [-45.99832468, -23.18650131], [-45.99833692, -23.18649004], [-45.99856663, -23.18627847], [-45.99845373, -23.18602265], [-45.99839647, -23.18578572], [-45.99824248, -23.18560071], [-45.99797792, -23.18547412], [-45.99774125, -23.18536659], [-45.99758711, -23.18516234], [-45.99752876, -23.1847779], [-45.99754757, -23.18450842], [-45.99766403, -23.18430886], [-45.99791884, -23.18405713], [-45.99805644, -23.18390233], [-45.9981804, -23.18377969], [-45.99826935, -23.18361238], [-45.99792178, -23.18351838], [-45.99756068, -23.18346936], [-45.99719981, -23.18345241], [-45.99700553, -23.18344722], [-45.99672078, -23.18340413], [-45.99645837, -23.18356613], [-45.9962027, -23.18370243], [-45.99588445, -23.18381989], [-45.99557951, -23.1838603], [-45.99535747, -23.18385529], [-45.99512917, -23.18394011], [-45.99495142, -23.18396245], [-45.99491431, -23.18396712], [-45.9944818, -23.18364277], [-45.99421003, -23.18347773], [-45.99393221, -23.18343459], [-45.99352355, -23.18352055], [-45.99303895, -23.18365829], [-45.99260249, -23.183738], [-45.99224941, -23.18383643], [-45.991986, -23.18386374], [-45.99175717, -23.18387801], [-45.99159012, -23.1838021], [-45.99147129, -23.183681], [-45.99139347, -23.18347626], [-45.9912317, -23.18317584], [-45.99113967, -23.1829263], [-45.99102071, -23.18278595], [-45.99084681, -23.18272291], [-45.99066617, -23.18268557], [-45.99052049, -23.18268649], [-45.99038218, -23.18274508], [-45.99030016, -23.18291234], [-45.99019082, -23.1831375], [-45.99008068, -23.18325364], [-45.98990046, -23.18327401], [-45.98965729, -23.18322423], [-45.98939958, -23.18308476], [-45.98924565, -23.18290615], [-45.98909799, -23.18263771], [-45.98891584, -23.18239514], [-45.98869929, -23.18219127], [-45.98851822, -23.18209621], [-45.98823994, -23.18198893], [-45.98799607, -23.18184295], [-45.98780028, -23.18163254], [-45.98760355, -23.18129386], [-45.98740654, -23.1809167], [-45.98728003, -23.18069302], [-45.98713346, -23.18057209], [-45.98698723, -23.18049604], [-45.98667483, -23.18046593], [-45.98641751, -23.18037776], [-45.98612555, -23.18029621], [-45.98584672, -23.18011197], [-45.98563069, -23.17997864], [-45.98546407, -23.17996044], [-45.98509702, -23.18004612], [-45.98472366, -23.1802152], [-45.98447454, -23.18030013], [-45.98420489, -23.18042367], [-45.9839921, -23.18073285], [-45.98377922, -23.1810292], [-45.98362159, -23.18129313], [-45.98343636, -23.18157648], [-45.98329935, -23.18181464], [-45.98316141, -23.18192453], [-45.98297487, -23.18202831], [-45.98263528, -23.18207532], [-45.98213545, -23.18202713], [-45.9819752, -23.18193193], [-45.98170972, -23.18167705], [-45.98159035, -23.18147898], [-45.98159546, -23.18122882], [-45.98176635, -23.18088143], [-45.9819927, -23.18052728], [-45.98206094, -23.18037293], [-45.98209436, -23.18019956], [-45.98200976, -23.1800141], [-45.98187051, -23.17994442], [-45.98153722, -23.1799016], [-45.98102333, -23.17982784], [-45.98041983, -23.1798316], [-45.97995548, -23.17989221], [-45.97956683, -23.17986898], [-45.97928135, -23.17972325], [-45.97893986, -23.17950731], [-45.97878482, -23.17917478], [-45.97858798, -23.17881685], [-45.97831497, -23.17847863], [-45.97815394, -23.1782744], [-45.9780612, -23.17792224], [-45.97803131, -23.1776274], [-45.97784997, -23.17749385], [-45.97756603, -23.17755975], [-45.97729583, -23.17760632], [-45.9767942, -23.177308], [-45.97636813, -23.17690659], [-45.97605421, -23.17666483], [-45.97562917, -23.17640451], [-45.97530156, -23.17618848], [-45.9749254, -23.17597275], [-45.97456983, -23.17572483], [-45.97438045, -23.1754374], [-45.97431546, -23.17508506], [-45.97414056, -23.17488091], [-45.97388941, -23.17468365], [-45.9735675, -23.17429442], [-45.97328581, -23.17371253], [-45.97316585, -23.17343108], [-45.97299124, -23.17326541], [-45.97265726, -23.17312638], [-45.97241291, -23.17290983], [-45.97230655, -23.17258981], [-45.97221401, -23.1722633], [-45.9720319, -23.17202071], [-45.97160517, -23.17152309], [-45.9712836, -23.17117875], [-45.97087921, -23.17089264], [-45.97064859, -23.17065676], [-45.9705009, -23.17037548], [-45.97046469, -23.17016406], [-45.9703107, -23.1699726], [-45.97008074, -23.16982651], [-45.96964163, -23.16953419], [-45.96910421, -23.16907573], [-45.96867828, -23.16868713], [-45.96843339, -23.16839362], [-45.96832089, -23.16818266], [-45.96806337, -23.16806239], [-45.96772197, -23.16785284], [-45.96751865, -23.16755266], [-45.96734396, -23.16737416], [-45.96696857, -23.16726102], [-45.96656669, -23.16732121], [-45.96628143, -23.1672011], [-45.96600311, -23.16708095], [-45.9656619, -23.16689705], [-45.96545804, -23.16651991], [-45.96535275, -23.16634739], [-45.96501812, -23.16611214], [-45.9647387, -23.16583807], [-45.96444471, -23.16546789], [-45.96413755, -23.16519399], [-45.96381018, -23.16500359], [-45.96317546, -23.16451364], [-45.96279173, -23.16420172], [-45.9624132, -23.16364606], [-45.96219525, -23.16323693], [-45.96203292, -23.1628467], [-45.96185879, -23.16274515], [-45.96166408, -23.16267579], [-45.96128242, -23.16265246], [-45.96068464, -23.16247653], [-45.96021934, -23.16239599], [-45.95971995, -23.16239904], [-45.95939369, -23.16236254], [-45.9591491, -23.16210749], [-45.95893208, -23.16182662], [-45.95871651, -23.16175097], [-45.95851524, -23.16173296], [-45.9582038, -23.16183105], [-45.95794809, -23.16196088], [-45.95776802, -23.16200045], [-45.95754557, -23.16193126], [-45.95728078, -23.1617597], [-45.95701666, -23.16168435], [-45.95609473, -23.16176691], [-45.955637, -23.1617761], [-45.95518603, -23.16175959], [-45.954637, -23.161609], [-45.95419237, -23.16150907], [-45.95375546, -23.16151813], [-45.95360309, -23.16155112], [-45.95310579, -23.16184915], [-45.9528507, -23.16206876], [-45.95249117, -23.16223127], [-45.9519721, -23.16239474], [-45.9515773, -23.16247409], [-45.9512237, -23.16249547], [-45.95083487, -23.16244009], [-45.9504174, -23.16225662], [-45.9497356, -23.16196571], [-45.94929741, -23.16179519], [-45.948638, -23.16172861], [-45.94799953, -23.16168115], [-45.94741682, -23.16167183], [-45.94691743, -23.16167483], [-45.94638985, -23.16161386], [-45.94575156, -23.16159204], [-45.94547457, -23.16165784], [-45.94500221, -23.16155806], [-45.94455786, -23.16149659], [-45.94396217, -23.1616156], [-45.94350458, -23.161644], [-45.94256138, -23.16166247], [-45.94189571, -23.16169211], [-45.94128543, -23.16170858], [-45.94059121, -23.16162294], [-45.94017505, -23.16162542], [-45.93956388, -23.16151363], [-45.93903469, -23.16122176], [-45.9378938, -23.16074113], [-45.93721229, -23.16048865], [-45.9367258, -23.16035044], [-45.93621263, -23.16036632], [-45.93575557, -23.16047165], [-45.93552144, -23.16071676], [-45.93520408, -23.16096235], [-45.93488601, -23.16110534], [-45.93462325, -23.16122234], [-45.93435977, -23.16123673], [-45.93399821, -23.16111061], [-45.93377652, -23.1611504], [-45.93336135, -23.16129396], [-45.93302922, -23.16141137], [-45.93269629, -23.16141334], [-45.93197824, -23.16189219], [-45.93156483, -23.16229228], [-45.93089959, -23.162386], [-45.93010862, -23.16235219], [-45.9294978, -23.16229166], [-45.92887082, -23.16189772], [-45.92842471, -23.16157967], [-45.92796525, -23.16133867], [-45.9273525, -23.16099594], [-45.92676723, -23.16061458], [-45.92629391, -23.16037364], [-45.92586327, -23.16028639], [-45.92557178, -23.16026245], [-45.92591522, -23.16054535], [-45.92660792, -23.16102126], [-45.92702435, -23.1614238], [-45.92738447, -23.16189416], [-45.92760702, -23.16241033], [-45.92785443, -23.16300135], [-45.92796271, -23.1634132], [-45.92798859, -23.16363803], [-45.9279734, -23.16378812], [-45.92782818, -23.16390147], [-45.92773096, -23.16391704], [-45.92765094, -23.16407501], [-45.927555, -23.16427806], [-45.92752343, -23.16440574], [-45.92749171, -23.16451093], [-45.92719063, -23.16437021], [-45.92661564, -23.16450108], [-45.92598382, -23.1646248], [-45.92536838, -23.16477091], [-45.92517511, -23.16497453], [-45.92510365, -23.16519995], [-45.92499919, -23.16534305], [-45.92468338, -23.16541991], [-45.92424493, -23.16535498], [-45.92380561, -23.16516257], [-45.92358605, -23.16508136], [-45.92344005, -23.16508221], [-45.92328738, -23.1652931], [-45.92324883, -23.16558581], [-45.92333246, -23.16595281], [-45.92345665, -23.16631957], [-45.92346635, -23.166552], [-45.92328083, -23.16670309], [-45.9230221, -23.1668246], [-45.92265798, -23.16695423], [-45.92241496, -23.16700065], [-45.9222284, -23.16700174], [-45.92203323, -23.16692789], [-45.92230654, -23.16775125], [-45.92252149, -23.16834247], [-45.92272946, -23.16909873], [-45.92287228, -23.16981786], [-45.92293583, -23.1696225], [-45.92291735, -23.16929262], [-45.92295641, -23.1690749], [-45.92311771, -23.16893896], [-45.9233365, -23.16890768], [-45.92349108, -23.16897427], [-45.92367004, -23.16904821], [-45.92377636, -23.16917509], [-45.92397991, -23.16928639], [-45.92421575, -23.169375], [-45.92445251, -23.1695986], [-45.92463173, -23.16971005], [-45.92474575, -23.16977687], [-45.92481141, -23.16988898], [-45.92495039, -23.17004566], [-45.92502375, -23.17009773], [-45.92507996, -23.1700149], [-45.92507056, -23.16982746], [-45.92522318, -23.16960908], [-45.92536835, -23.16948823], [-45.92551373, -23.16939738], [-45.92574048, -23.16934355], [-45.92595127, -23.16932731], [-45.92623521, -23.16933314], [-45.92636499, -23.16933237], [-45.92643753, -23.16926445], [-45.92644512, -23.16918941], [-45.92627422, -23.16910792], [-45.92603838, -23.16901931], [-45.92587523, -23.16888527], [-45.92574473, -23.16878104], [-45.92545242, -23.16873776], [-45.92492535, -23.16876336], [-45.92453592, -23.16875064], [-45.92427569, -23.16865468], [-45.92413739, -23.16859549], [-45.92403107, -23.16846862], [-45.92395725, -23.16834906], [-45.92379431, -23.16824502], [-45.92359086, -23.16814871], [-45.92334599, -23.16792516], [-45.92310147, -23.1677541], [-45.92286533, -23.16762049], [-45.92274315, -23.1675462], [-45.92270983, -23.1674189], [-45.92283057, -23.1672832], [-45.92297513, -23.16707236], [-45.923193, -23.16690609], [-45.92362133, -23.16667859], [-45.92384736, -23.16651977], [-45.92418735, -23.16642028], [-45.9245274, -23.16632829], [-45.92465676, -23.16626753], [-45.92505296, -23.16608521], [-45.92539269, -23.16594822], [-45.92589448, -23.16578778], [-45.92637323, -23.16581496], [-45.9266659, -23.16591073], [-45.92717699, -23.16592273], [-45.92766395, -23.16596486], [-45.92802223, -23.16616524], [-45.92821793, -23.16631408], [-45.92854443, -23.16661214], [-45.92871538, -23.16670113], [-45.92893443, -23.16670734], [-45.92933931, -23.16660746], [-45.92975276, -23.16657502], [-45.9300447, -23.16656579], [-45.93022325, -23.16657974], [-45.93047401, -23.16648076], [-45.93074027, -23.1662767], [-45.93082944, -23.16626867], [-45.93104937, -23.16640236], [-45.93117243, -23.16660413], [-45.93130371, -23.16682084], [-45.93145085, -23.16698497], [-45.93154049, -23.16704444], [-45.93148506, -23.16723976], [-45.93151937, -23.16750954], [-45.93161878, -23.16780894], [-45.93162793, -23.16795888], [-45.9316781, -23.16817608], [-45.93180912, -23.16835529], [-45.93199692, -23.16853418], [-45.93221727, -23.16872786], [-45.93244589, -23.168944], [-45.93263379, -23.16913788], [-45.93275624, -23.16924965], [-45.9328295, -23.16928672], [-45.93288487, -23.1690839], [-45.93290749, -23.16883627], [-45.93286455, -23.16849154], [-45.93277314, -23.16817709], [-45.93273118, -23.16797485], [-45.93279514, -23.16783948], [-45.93289148, -23.16769641], [-45.93309447, -23.16772521], [-45.93307133, -23.16789784], [-45.93324296, -23.16808432], [-45.93347137, -23.16827045], [-45.93371574, -23.168419], [-45.93384604, -23.16849322], [-45.93392683, -23.16844775], [-45.9340158, -23.16840972], [-45.93408781, -23.1682668], [-45.93423329, -23.16819094], [-45.93439525, -23.16815248], [-45.93452523, -23.16818171], [-45.93468844, -23.16832323], [-45.93477049, -23.16845774], [-45.93484437, -23.1685848], [-45.93491082, -23.16880939], [-45.93484718, -23.16898976], [-45.93475906, -23.16914778], [-45.93475162, -23.16924532], [-45.93488935, -23.169222], [-45.93508444, -23.16928084], [-45.93522285, -23.16935502], [-45.93534477, -23.16939179], [-45.93538434, -23.16924906], [-45.93543181, -23.16907629], [-45.93554495, -23.16901562], [-45.93569037, -23.16893226], [-45.93574694, -23.16890192], [-45.93573009, -23.16881203], [-45.93564004, -23.16869257], [-45.93560582, -23.16843778], [-45.93570237, -23.16832471], [-45.93570201, -23.16827222], [-45.93586366, -23.16818876], [-45.93609035, -23.16812741], [-45.93612211, -23.16802973], [-45.93625854, -23.16781893], [-45.93641176, -23.16769052], [-45.93662218, -23.16762177], [-45.9369136, -23.16753754], [-45.93704296, -23.16747678], [-45.9372371, -23.16740062], [-45.93751314, -23.16743648], [-45.93768425, -23.16754796], [-45.9377988, -23.16768977], [-45.93786463, -23.16782437], [-45.9378978, -23.16792917], [-45.93795526, -23.16802632], [-45.93802041, -23.16806343], [-45.9380764, -23.1679506], [-45.93817284, -23.16782254], [-45.93818849, -23.16773995], [-45.93840639, -23.16758115], [-45.93864098, -23.16748976], [-45.93902183, -23.16743499], [-45.93945182, -23.16744743], [-45.93978463, -23.16748294], [-45.94005303, -23.16758633], [-45.94025622, -23.16764512], [-45.94035429, -23.16774953], [-45.94035507, -23.16786202], [-45.94037203, -23.16796691], [-45.94038846, -23.16799681], [-45.94044513, -23.16798148], [-45.94056659, -23.16795075], [-45.94066387, -23.16794267], [-45.9409398, -23.16796352], [-45.94127319, -23.16808152], [-45.94178387, -23.16803347], [-45.94201903, -23.16802457], [-45.94235917, -23.16794754], [-45.94265043, -23.1678408], [-45.94281998, -23.16772729], [-45.94295755, -23.16768147], [-45.94306294, -23.16767333], [-45.94314431, -23.16771035], [-45.94325059, -23.1678297], [-45.94358614, -23.16825518], [-45.94389625, -23.16852331], [-45.94414885, -23.16868679], [-45.94433625, -23.16880566], [-45.94460449, -23.16888655], [-45.94496232, -23.16901939], [-45.94512576, -23.16919091], [-45.94529788, -23.16944486], [-45.94554437, -23.16989336], [-45.94579018, -23.17024437], [-45.94598632, -23.17045318], [-45.94637803, -23.17078832], [-45.94672876, -23.1710637], [-45.94695762, -23.17130981], [-45.94711321, -23.17151887], [-45.94724425, -23.17169807], [-45.94729329, -23.17175027], [-45.94729392, -23.17184026], [-45.94724568, -23.17190055], [-45.94722977, -23.17194565], [-45.94729477, -23.17196025], [-45.94738383, -23.17193722], [-45.94757034, -23.1719286], [-45.94804391, -23.17236823], [-45.94852596, -23.1728603], [-45.94883651, -23.17318842], [-45.94917951, -23.17351634], [-45.94937556, -23.17371015], [-45.94953068, -23.17385171], [-45.9498572, -23.17414222], [-45.94997956, -23.17423898], [-45.95024045, -23.1744249], [-45.95036333, -23.17459665], [-45.95045357, -23.1747386], [-45.950543, -23.17476806], [-45.95068938, -23.17481967], [-45.95101521, -23.1750127], [-45.95123496, -23.17511636], [-45.95144644, -23.17519758], [-45.95163375, -23.17530145], [-45.95177223, -23.1753831], [-45.95187009, -23.17545751], [-45.95199208, -23.17550177], [-45.95208088, -23.17544124], [-45.95216958, -23.1753657], [-45.95228203, -23.17520753], [-45.95251593, -23.17501862], [-45.95274231, -23.17491226], [-45.95301014, -23.17493314], [-45.95322178, -23.17503685], [-45.95345023, -23.17522296], [-45.95366123, -23.17523668], [-45.95384785, -23.17524305], [-45.95410736, -23.17523398], [-45.95431068, -23.17530774], [-45.95432802, -23.17546513], [-45.95445134, -23.17569687], [-45.95457397, -23.17583112], [-45.95490723, -23.1759266], [-45.95506172, -23.17597816], [-45.95519203, -23.17605236], [-45.95528307, -23.1763068], [-45.95537357, -23.17648624], [-45.95558554, -23.17663495], [-45.95574872, -23.17676895], [-45.95583085, -23.17691095], [-45.95596181, -23.17707515], [-45.95616524, -23.17716391], [-45.95644951, -23.17721468], [-45.95674142, -23.17719791], [-45.95691171, -23.17718937], [-45.95725191, -23.17711981], [-45.95755215, -23.17713298], [-45.95787741, -23.1772435], [-45.95799118, -23.1772728], [-45.95826772, -23.17737611], [-45.95867399, -23.17747114], [-45.95900699, -23.17752911], [-45.95916901, -23.17749812], [-45.95941172, -23.17740665], [-45.95962939, -23.17721783], [-45.9597097, -23.17710484], [-45.9597652, -23.17692451], [-45.95966669, -23.17676012], [-45.9594219, -23.17655912], [-45.95924286, -23.17647772], [-45.9590469, -23.17629892], [-45.95866529, -23.17624875], [-45.95831708, -23.17633336], [-45.95796076, -23.17641803], [-45.9576609, -23.17645735], [-45.95743378, -23.17645873], [-45.95721408, -23.17636257], [-45.95704305, -23.17626611], [-45.95698488, -23.17607148], [-45.957024, -23.17586875], [-45.95713644, -23.17571057], [-45.9572659, -23.17566479], [-45.95750092, -23.17563336], [-45.9577607, -23.17566178], [-45.95802805, -23.17561515], [-45.95840086, -23.17556789], [-45.95869234, -23.17549112], [-45.95877302, -23.17543063], [-45.95882932, -23.17536279], [-45.95878818, -23.17528054], [-45.95868252, -23.17525119], [-45.95847962, -23.17523742], [-45.95821221, -23.17527655], [-45.9580256, -23.17527018], [-45.95789518, -23.17518098], [-45.95783765, -23.17507634], [-45.95786108, -23.1749487], [-45.95796546, -23.17479807], [-45.95815853, -23.17457191], [-45.95828697, -23.17438363], [-45.9583913, -23.17422551], [-45.95845406, -23.17392514], [-45.95852594, -23.17376721], [-45.95858239, -23.17372187], [-45.95893812, -23.17355471], [-45.9591639, -23.17336584], [-45.9593655, -23.17319962], [-45.95944571, -23.17307164], [-45.95960702, -23.17294316], [-45.9598256, -23.17288183], [-45.96008484, -23.17283525], [-45.96028757, -23.17282652], [-45.96047472, -23.17290787], [-45.96072782, -23.17313882], [-45.96086727, -23.17335546], [-45.96089278, -23.17352029], [-45.96083691, -23.17364813], [-45.96071599, -23.17375386], [-45.96054683, -23.17391989], [-45.96045024, -23.17402547], [-45.96030483, -23.17410885], [-45.96028167, -23.17427399], [-45.96031487, -23.17437878], [-45.96043718, -23.17446803], [-45.96058318, -23.17446714], [-45.96078559, -23.17441341], [-45.96109313, -23.17431403], [-45.96128726, -23.17423785], [-45.96149005, -23.17423661], [-45.96163648, -23.17429572], [-45.96174262, -23.17439256], [-45.96185752, -23.17457935], [-45.96192311, -23.17467645], [-45.96197258, -23.17478864], [-45.96203855, -23.17493823], [-45.96203161, -23.17510327], [-45.96207265, -23.17517051], [-45.96219518, -23.17528976], [-45.96226915, -23.1754243], [-45.96226238, -23.17561183], [-45.96220833, -23.17599464], [-45.96213774, -23.17633256], [-45.96217969, -23.17652729], [-45.96226183, -23.17666929], [-45.96234343, -23.17673628], [-45.96243287, -23.17676574], [-45.96251398, -23.17676524], [-45.96266751, -23.17668181], [-45.96277274, -23.17665116], [-45.96291069, -23.17665782], [-45.96301679, -23.17674717], [-45.96307437, -23.17685931], [-45.96319696, -23.17698605], [-45.9633594, -23.17701506], [-45.96353791, -23.17702147], [-45.96370771, -23.17694543], [-45.96392624, -23.17687659], [-45.96412876, -23.17683786], [-45.96428218, -23.17673942], [-45.96446745, -23.1765583], [-45.9647101, -23.17645931], [-45.9648886, -23.17646572], [-45.96501071, -23.17652497], [-45.96507603, -23.17658456], [-45.96508495, -23.17669701], [-45.96504536, -23.17683224], [-45.96504616, -23.17694473], [-45.9650879, -23.17710947], [-45.96506491, -23.1772971], [-45.96496092, -23.17750023], [-45.96490467, -23.17757557], [-45.96483258, -23.1777035], [-45.96481722, -23.17782359], [-45.96470425, -23.17790678], [-45.96446117, -23.17794577], [-45.96429873, -23.17791677], [-45.96417614, -23.17779002], [-45.96411877, -23.17770788], [-45.96403642, -23.17753589], [-45.96394638, -23.17742395], [-45.96381628, -23.17737974], [-45.96373597, -23.17749273], [-45.96373683, -23.17761272], [-45.96374655, -23.17783765], [-45.9637878, -23.17793489], [-45.96386129, -23.17800194], [-45.96404845, -23.17808329], [-45.9642926, -23.17819429], [-45.96445542, -23.17827579], [-45.96452907, -23.17836533], [-45.96457087, -23.17853757], [-45.96460482, -23.17874735], [-45.96463012, -23.17888219], [-45.96469577, -23.17898678], [-45.96476195, -23.17916637], [-45.96476308, -23.17932385], [-45.96471527, -23.17944414], [-45.96465908, -23.17952698], [-45.96461095, -23.17960227], [-45.96461938, -23.17964722], [-45.96468422, -23.17963932], [-45.96489443, -23.17954054], [-45.96514535, -23.179464], [-45.96538821, -23.17939502], [-45.96566433, -23.17943832], [-45.96603763, -23.17945853], [-45.96630558, -23.17949439], [-45.96658138, -23.17949269], [-45.96681581, -23.17937876], [-45.96694457, -23.17923547], [-45.96708983, -23.17912959], [-45.96723578, -23.17912119], [-45.96745652, -23.17935982], [-45.96766023, -23.17948606], [-45.9677825, -23.17956781], [-45.96785626, -23.17967235], [-45.96788232, -23.17991218], [-45.96779492, -23.1801677], [-45.96768255, -23.18033339], [-45.96765123, -23.18049107], [-45.96762749, -23.18057371], [-45.967629, -23.18078369], [-45.96764646, -23.18095608], [-45.96767983, -23.18108337], [-45.96779463, -23.18125515], [-45.96777224, -23.18152528], [-45.9677327, -23.18166801], [-45.96767662, -23.18176585], [-45.96765288, -23.1818485], [-45.96778283, -23.1818702], [-45.96801791, -23.18184625], [-45.96821259, -23.18184505], [-45.96850397, -23.18175327], [-45.96863371, -23.18174497], [-45.96877182, -23.18177412], [-45.96894325, -23.18192306], [-45.96905887, -23.18220733], [-45.96901977, -23.18241006], [-45.96902901, -23.1825675], [-45.96897282, -23.18265034], [-45.96904621, -23.18270238], [-45.96928129, -23.18267844], [-45.96949971, -23.1825946], [-45.96974291, -23.1825706], [-45.96999502, -23.18265904], [-45.97018235, -23.18276288], [-45.97019198, -23.18297281], [-45.97020993, -23.18321269], [-45.97024292, -23.18328748], [-45.97033356, -23.18348191], [-45.97040034, -23.18374399], [-45.97050731, -23.18395332], [-45.97068772, -23.18422219], [-45.97081833, -23.18433388], [-45.97098208, -23.18454286], [-45.97109754, -23.18480464], [-45.97114816, -23.18507431], [-45.97103676, -23.18537498], [-45.97100534, -23.18551767], [-45.97094931, -23.18562301], [-45.97104844, -23.18586989], [-45.97113876, -23.18601932], [-45.97118067, -23.18620656], [-45.97114936, -23.18636424], [-45.97106949, -23.18653723], [-45.97102114, -23.18658252], [-45.97102974, -23.18664997], [-45.97114331, -23.18664926], [-45.97147552, -23.18659472], [-45.97173473, -23.18654062], [-45.97191282, -23.18648702], [-45.97222854, -23.18639508], [-45.97244729, -23.18635623], [-45.97270644, -23.18629463], [-45.97302259, -23.18626268], [-45.9732984, -23.18626097], [-45.97352576, -23.18628956], [-45.97370514, -23.18641595], [-45.97378713, -23.18653543], [-45.97384462, -23.18663257], [-45.97386994, -23.18676741], [-45.97386286, -23.18690995], [-45.97380721, -23.18706778], [-45.97373491, -23.18716573], [-45.97365471, -23.18729372], [-45.97363892, -23.18735381], [-45.97363925, -23.18739881], [-45.97375271, -23.18738311], [-45.97393901, -23.18734445], [-45.97421521, -23.18739524], [-45.97451617, -23.18750587], [-45.9748419, -23.18767635], [-45.97496467, -23.18782558], [-45.97514472, -23.18804195], [-45.97520264, -23.18819909], [-45.97534169, -23.18835572], [-45.97550513, -23.1885197], [-45.97558739, -23.18867668], [-45.97565409, -23.18892375], [-45.97568044, -23.18920107], [-45.97572323, -23.18950829], [-45.97577337, -23.18971047], [-45.97589734, -23.19002469], [-45.9759305, -23.19012198], [-45.97603391, -23.19039882], [-45.97627265, -23.19087732], [-45.9765366, -23.19147565], [-45.97684144, -23.19211872], [-45.97697364, -23.19244788], [-45.97714585, -23.1927018], [-45.97734257, -23.19297807], [-45.977433, -23.1931425], [-45.97749175, -23.19341212], [-45.9775272, -23.19382438], [-45.9775792, -23.19428153], [-45.97760468, -23.19443886], [-45.97768864, -23.19482832], [-45.97768984, -23.1949933], [-45.97769121, -23.19518079], [-45.97763529, -23.19530113], [-45.97755537, -23.19546662], [-45.97753146, -23.19552676], [-45.97750751, -23.19557941], [-45.97752401, -23.1956168], [-45.97762108, -23.1955787], [-45.9777749, -23.19553275], [-45.97809041, -23.19541079], [-45.9783737, -23.19531904], [-45.97851973, -23.19531813], [-45.97864136, -23.19530987], [-45.97877933, -23.19531651], [-45.97898307, -23.19544274], [-45.97917908, -23.19562151], [-45.97936676, -23.19577034], [-45.97953044, -23.19596431], [-45.97966215, -23.19622597], [-45.97973751, -23.19654799], [-45.97976475, -23.1969453], [-45.9797285, -23.19753799], [-45.97971572, -23.19801054], [-45.97975052, -23.19833281], [-45.97974339, -23.19846785], [-45.9797122, -23.19864053], [-45.97964872, -23.19883592], [-45.97963446, -23.19910599], [-45.97966866, -23.19934577], [-45.97976776, -23.19958514], [-45.97992354, -23.19980916], [-45.98007944, -23.20004817], [-45.98025912, -23.20021204], [-45.98043781, -23.20038015], [-45.98057385, -23.20000732], [-45.98101488, -23.19959411]]]]}}]}