{"type": "FeatureCollection", "features": [{"type": "Feature", "properties": {"name": "Área de Proteção Ambiental Parque e Fazenda do Carmo"}, "geometry": {"type": "MultiPolygon", "coordinates": [[[[-46.45955279, -23.59788302], [-46.45985666, -23.59793034], [-46.46044767, -23.59791761], [-46.46070258, -23.59775752], [-46.46096336, -23.59742533], [-46.46114732, -23.59717988], [-46.4611825, -23.59707919], [-46.46115853, -23.59678791], [-46.461198, -23.59660595], [-46.46122154, -23.59639068], [-46.46120868, -23.5961662], [-46.461269, -23.59599359], [-46.4613873, -23.59590646], [-46.46148665, -23.59551367], [-46.46153474, -23.59517392], [-46.46158559, -23.59508265], [-46.46164167, -23.5949961], [-46.46170796, -23.59489512], [-46.46174906, -23.59486128], [-46.46179536, -23.5948274], [-46.46183678, -23.59482223], [-46.4618835, -23.59482657], [-46.46193064, -23.59486913], [-46.46199302, -23.59488288], [-46.46213317, -23.5948959], [-46.46222649, -23.59489502], [-46.46230898, -23.59485123], [-46.46235479, -23.59477434], [-46.46240071, -23.59470701], [-46.46243627, -23.59463977], [-46.46242484, -23.5945443], [-46.4623723, -23.59448267], [-46.46231468, -23.59443065], [-46.46222622, -23.59440281], [-46.46207057, -23.59439472], [-46.46191524, -23.59441529], [-46.4618418, -23.59433952], [-46.4619036, -23.59430071], [-46.46191831, -23.59422411], [-46.46196915, -23.59413284], [-46.46200951, -23.5940321], [-46.46207147, -23.59400763], [-46.4621494, -23.59402123], [-46.46226357, -23.59402971], [-46.46233103, -23.59403385], [-46.46246028, -23.59399919], [-46.46254794, -23.59395535], [-46.46261534, -23.59395472], [-46.46272936, -23.59394886], [-46.46283305, -23.59394789], [-46.46291114, -23.59397582], [-46.46299987, -23.59402755], [-46.46313049, -23.59411712], [-46.46324467, -23.5941256], [-46.46333323, -23.594163], [-46.46342714, -23.59421468], [-46.46354216, -23.59429961], [-46.46364115, -23.59434169], [-46.46372982, -23.59438864], [-46.46383347, -23.59438289], [-46.46385357, -23.59432535], [-46.46391526, -23.59427698], [-46.46398335, -23.59433846], [-46.46421307, -23.59447966], [-46.46449422, -23.59458214], [-46.46484562, -23.5944737], [-46.46515025, -23.59435613], [-46.46536246, -23.59432068], [-46.46564543, -23.59425125], [-46.46584692, -23.59418484], [-46.46601658, -23.59405421], [-46.46612411, -23.59393134], [-46.46630853, -23.59372889], [-46.46653954, -23.59351883], [-46.4668168, -23.59327249], [-46.46707194, -23.59313389], [-46.46734302, -23.59303097], [-46.46755245, -23.59297882], [-46.46776989, -23.59294809], [-46.46811176, -23.59291618], [-46.46884257, -23.59288777], [-46.4698144, -23.5928499], [-46.47077066, -23.59281218], [-46.47281501, -23.59269962], [-46.47339765, -23.59263674], [-46.47380895, -23.59255399], [-46.47430509, -23.59240592], [-46.47467686, -23.59226619], [-46.47496285, -23.59210578], [-46.47526415, -23.59192371], [-46.47570408, -23.59161847], [-46.47612853, -23.59132054], [-46.4768764, -23.59073281], [-46.47711572, -23.59057284], [-46.47733211, -23.59044892], [-46.47768023, -23.59028074], [-46.4781373, -23.5901187], [-46.47883562, -23.58996869], [-46.47938585, -23.58979141], [-46.47972635, -23.58963764], [-46.48016666, -23.58936822], [-46.480344, -23.58923033], [-46.48052863, -23.58904937], [-46.4807204, -23.58881099], [-46.48125056, -23.58823249], [-46.48158567, -23.58783027], [-46.48189355, -23.58754299], [-46.48208606, -23.58737151], [-46.48232078, -23.58726414], [-46.48246789, -23.58720539], [-46.48274284, -23.58710241], [-46.48338027, -23.58695774], [-46.4836598, -23.58691684], [-46.48422, -23.58693538], [-46.48474903, -23.58694944], [-46.48547016, -23.58698556], [-46.48609197, -23.58695093], [-46.48663473, -23.58680238], [-46.48729522, -23.58651889], [-46.48757848, -23.58634892], [-46.48800507, -23.5860151], [-46.48819479, -23.58582691], [-46.48842032, -23.58559537], [-46.48872723, -23.58522447], [-46.48911499, -23.58466641], [-46.4893908, -23.58429581], [-46.48971272, -23.58387697], [-46.49044988, -23.5830384], [-46.49105304, -23.58227279], [-46.48987571, -23.58148867], [-46.48898859, -23.58098346], [-46.48824566, -23.58062022], [-46.48727011, -23.58031895], [-46.48652907, -23.58012294], [-46.48551492, -23.57984592], [-46.48482667, -23.57973303], [-46.48416528, -23.57970351], [-46.48340048, -23.57969886], [-46.48275259, -23.579717], [-46.4822852, -23.57964977], [-46.48182998, -23.57951075], [-46.48150368, -23.57931077], [-46.4812291, -23.57909834], [-46.48099286, -23.57883776], [-46.48067752, -23.57845847], [-46.4804139, -23.57806673], [-46.48025355, -23.57763817], [-46.48011885, -23.57718547], [-46.48003815, -23.57692341], [-46.47980109, -23.57658876], [-46.47951916, -23.57629875], [-46.47903602, -23.57598078], [-46.47867754, -23.57579901], [-46.47832628, -23.57568289], [-46.47794883, -23.57554312], [-46.47751914, -23.575368], [-46.47706366, -23.57520507], [-46.47669704, -23.57487404], [-46.47622593, -23.57447232], [-46.4757555, -23.57413033], [-46.47531085, -23.57377614], [-46.47478738, -23.57332713], [-46.4741072, -23.57277208], [-46.47359736, -23.57238266], [-46.47298478, -23.57207785], [-46.47251583, -23.57186725], [-46.47195536, -23.57158583], [-46.47139636, -23.57143582], [-46.47073355, -23.57127483], [-46.47029132, -23.57113565], [-46.46988758, -23.57096027], [-46.46945578, -23.570594], [-46.46907543, -23.57019139], [-46.4689031, -23.56984656], [-46.46871356, -23.56911959], [-46.4685744, -23.56826072], [-46.46823634, -23.56699754], [-46.4679154, -23.56587516], [-46.46763622, -23.5659447], [-46.46705719, -23.56608875], [-46.46672691, -23.56622568], [-46.46636522, -23.56633422], [-46.46575609, -23.56656935], [-46.46524957, -23.56670793], [-46.46449528, -23.56694442], [-46.46387535, -23.56714141], [-46.46360686, -23.56723952], [-46.46321501, -23.56743436], [-46.46298893, -23.56761808], [-46.46261919, -23.56793696], [-46.46203374, -23.56843947], [-46.4613865, -23.56898078], [-46.46063696, -23.5696473], [-46.46047277, -23.56980176], [-46.4602871, -23.56988953], [-46.46003912, -23.56996832], [-46.4598324, -23.5700276], [-46.45965667, -23.57007704], [-46.45956431, -23.57016393], [-46.45944106, -23.57027022], [-46.4593487, -23.57035711], [-46.45931918, -23.57050075], [-46.45930014, -23.57065385], [-46.4593232, -23.5708639], [-46.45927326, -23.5710364], [-46.45918174, -23.57119974], [-46.4589675, -23.57151715], [-46.45878341, -23.57174826], [-46.45865053, -23.57192155], [-46.45861064, -23.57206529], [-46.45859213, -23.57226617], [-46.45856429, -23.57256272], [-46.45854026, -23.5732033], [-46.45848576, -23.57390152], [-46.45842153, -23.57465717], [-46.45811149, -23.57662895], [-46.45810408, -23.57689663], [-46.45810587, -23.57705909], [-46.45815951, -23.57722107], [-46.45830783, -23.5775064], [-46.45861358, -23.5779623], [-46.45891823, -23.57831785], [-46.45909551, -23.57852525], [-46.45920712, -23.57865562], [-46.45920891, -23.57881689], [-46.45910641, -23.57892538], [-46.45881109, -23.57917903], [-46.45830409, -23.57963181], [-46.45808456, -23.57970555], [-46.45787097, -23.57973145], [-46.45768271, -23.57970335], [-46.45746793, -23.57962173], [-46.45734032, -23.5796075], [-46.45719788, -23.57962078], [-46.4570819, -23.5796816], [-46.45691525, -23.57985042], [-46.45662006, -23.58011603], [-46.45636335, -23.58034543], [-46.45574716, -23.58088882], [-46.45534867, -23.58119122], [-46.45506538, -23.58136114], [-46.45473037, -23.58154348], [-46.45422579, -23.58162944], [-46.45396186, -23.58167492], [-46.45371354, -23.58172503], [-46.45341845, -23.58176602], [-46.45323768, -23.58182984], [-46.45303618, -23.58189385], [-46.45287159, -23.58201486], [-46.45272796, -23.58215479], [-46.45261029, -23.58229925], [-46.45252903, -23.58245293], [-46.45247897, -23.58261588], [-46.45242384, -23.58278843], [-46.4523643, -23.58303271], [-46.45224261, -23.58328234], [-46.4520165, -23.58346605], [-46.45174288, -23.58357374], [-46.45141139, -23.58360551], [-46.450945, -23.58362898], [-46.45054035, -23.58360887], [-46.450369, -23.58358657], [-46.45018152, -23.58351186], [-46.44995194, -23.5833802], [-46.44970078, -23.58317228], [-46.44952115, -23.58286811], [-46.44936194, -23.58253508], [-46.44917142, -23.58218322], [-46.4490869, -23.58204065], [-46.44884548, -23.58177529], [-46.44840506, -23.58133019], [-46.44825696, -23.58106395], [-46.44814835, -23.58061576], [-46.44813645, -23.58000418], [-46.44805716, -23.57939323], [-46.44797756, -23.57875361], [-46.44793231, -23.57840996], [-46.44781522, -23.57813388], [-46.44768954, -23.57802036], [-46.44741828, -23.57786997], [-46.44697045, -23.57769254], [-46.44674014, -23.57749398], [-46.44655005, -23.57718034], [-46.44615752, -23.5763716], [-46.44587999, -23.5756478], [-46.44554958, -23.57482892], [-46.4454007, -23.57460663], [-46.4451049, -23.57493819], [-46.44467748, -23.5756781], [-46.44446815, -23.57612019], [-46.44413732, -23.57668478], [-46.44371746, -23.5774055], [-46.44336162, -23.57805395], [-46.44312229, -23.57868937], [-46.44268773, -23.58043767], [-46.44256465, -23.58103617], [-46.44243949, -23.58144353], [-46.44232728, -23.58185077], [-46.4422279, -23.58224595], [-46.44218062, -23.58266453], [-46.4421069, -23.58303557], [-46.44192291, -23.58360786], [-46.44192563, -23.58385633], [-46.44191964, -23.5842578], [-46.44200656, -23.58462019], [-46.44217633, -23.58497224], [-46.4423658, -23.58522854], [-46.44275279, -23.58553079], [-46.44290047, -23.5857588], [-46.44309868, -23.58601312], [-46.44317998, -23.58633494], [-46.44316989, -23.58659787], [-46.44314697, -23.58687286], [-46.44309826, -23.58716004], [-46.44298566, -23.58753145], [-46.44287306, -23.58790285], [-46.44279803, -23.58815443], [-46.44277511, -23.58842943], [-46.4427391, -23.5886926], [-46.44276894, -23.58905073], [-46.44283728, -23.58937267], [-46.44293258, -23.58978993], [-46.44309139, -23.59008713], [-46.44325033, -23.59039627], [-46.44346099, -23.59069299], [-46.44371131, -23.59106102], [-46.44390888, -23.59134592], [-46.44410684, -23.59166664], [-46.44426539, -23.59193995], [-46.4444115, -23.59226116], [-46.44447867, -23.59247558], [-46.4446633, -23.59261674], [-46.44481569, -23.59268222], [-46.44500763, -23.59268999], [-46.44515302, -23.59270776], [-46.44530924, -23.59276843], [-46.44545562, -23.59287698], [-46.44574765, -23.59302718], [-46.44590366, -23.59306874], [-46.44603344, -23.59308187], [-46.4462047, -23.59309461], [-46.44632431, -23.59312694], [-46.44648065, -23.59319717], [-46.44676612, -23.59322318], [-46.44694754, -23.59321672], [-46.4470814, -23.59312945], [-46.44727832, -23.59311806], [-46.44758931, -23.5931056], [-46.44783839, -23.59312239], [-46.44811816, -23.59310067], [-46.44828439, -23.59312779], [-46.44847188, -23.59320251], [-46.44884623, -23.59329459], [-46.4491169, -23.59338764], [-46.44947941, -23.59334603], [-46.44990362, -23.59325605], [-46.45022487, -23.59323393], [-46.45084757, -23.5932759], [-46.45127304, -23.5933006], [-46.45184024, -23.59331432], [-46.45215165, -23.59334127], [-46.45232717, -23.59338742], [-46.45288075, -23.59362715], [-46.45307584, -23.59368506], [-46.45329057, -23.59376071], [-46.45349869, -23.59382447], [-46.45371296, -23.59385831], [-46.45392048, -23.59386831], [-46.45404369, -23.59387313], [-46.45419936, -23.59388362], [-46.45437435, -23.59388198], [-46.45456918, -23.593916], [-46.45471877, -23.59396238], [-46.45482326, -23.59403309], [-46.45487636, -23.59414609], [-46.45498172, -23.59423729], [-46.45501204, -23.59434154], [-46.45510975, -23.59438543], [-46.4552595, -23.59444674], [-46.45536058, -23.59450255], [-46.45543197, -23.59451084], [-46.45548673, -23.59448046], [-46.45560905, -23.59440464], [-46.45582174, -23.59429512], [-46.45592742, -23.59418064], [-46.45602752, -23.59414684], [-46.45612778, -23.59412798], [-46.45621219, -23.59414213], [-46.45628732, -23.59419518], [-46.45645427, -23.59434594], [-46.45667197, -23.59451474], [-46.45678752, -23.59464746], [-46.4569656, -23.59480827], [-46.45708125, -23.59495055], [-46.45731181, -23.59516821], [-46.4574901, -23.59534813], [-46.45773104, -23.59556569], [-46.45800372, -23.5958403], [-46.4582455, -23.59613432], [-46.45839268, -23.59631453], [-46.45871764, -23.59662688], [-46.4589062, -23.59679714], [-46.45912289, -23.59699104], [-46.45931169, -23.5971828], [-46.45934375, -23.59726852], [-46.45932129, -23.59734758], [-46.45919209, -23.59762119], [-46.45923947, -23.59768525], [-46.45934938, -23.59777741], [-46.45955279, -23.59788302]]]]}}]}