{"type": "FeatureCollection", "features": [{"type": "Feature", "properties": {"name": "Área de Proteção Ambiental Itupararanga"}, "geometry": {"type": "MultiPolygon", "coordinates": [[[[-47.02480409, -23.79122016], [-47.02635113, -23.79138918], [-47.02768642, -23.7911823], [-47.02975553, -23.79181777], [-47.03181876, -23.79207462], [-47.03345845, -23.79157967], [-47.03528926, -23.79013552], [-47.03630832, -23.7894594], [-47.0373259, -23.78868863], [-47.03888031, -23.78933077], [-47.04114495, -23.78930083], [-47.042986, -23.78851912], [-47.04422569, -23.7887867], [-47.04526247, -23.7892463], [-47.04608598, -23.78923538], [-47.04681395, -23.78969906], [-47.04764784, -23.79035067], [-47.04920677, -23.79127664], [-47.05138632, -23.79238368], [-47.05274685, -23.79378559], [-47.05398958, -23.79424238], [-47.05656013, -23.7940188], [-47.05757463, -23.79305861], [-47.05828328, -23.79229182], [-47.06033461, -23.79179111], [-47.06165788, -23.79082677], [-47.06340035, -23.79033014], [-47.06493394, -23.78964696], [-47.06595582, -23.78915995], [-47.06726704, -23.78743839], [-47.06894618, -23.78727006], [-47.07026934, -23.78630565], [-47.07098238, -23.78582275], [-47.07252938, -23.78599131], [-47.07357073, -23.78673465], [-47.07358876, -23.7878704], [-47.07320705, -23.78976885], [-47.07546865, -23.78954912], [-47.07630266, -23.79020056], [-47.07652358, -23.79114424], [-47.0767445, -23.79208793], [-47.07780098, -23.79377769], [-47.08071494, -23.7957264], [-47.08226961, -23.79636808], [-47.0836477, -23.79754967], [-47.08418809, -23.79915168], [-47.08350071, -23.80124361], [-47.08373681, -23.80313373], [-47.08303128, -23.80408992], [-47.08222733, -23.80533143], [-47.08326738, -23.80598004], [-47.08379723, -23.80691954], [-47.08412875, -23.80833504], [-47.08536869, -23.80860227], [-47.08589403, -23.80925783], [-47.08774714, -23.80923275], [-47.08827704, -23.81017222], [-47.08798787, -23.81140679], [-47.08800301, -23.81235324], [-47.08904012, -23.81281251], [-47.09108922, -23.81342645], [-47.09213986, -23.81406432], [-47.09417507, -23.81416711], [-47.09595782, -23.81327339], [-47.09746733, -23.81303548], [-47.0987912, -23.81301747], [-47.09925353, -23.81235905], [-47.10044045, -23.81264721], [-47.10172963, -23.81341219], [-47.10292707, -23.8143523], [-47.10410421, -23.81403192], [-47.10574994, -23.81344428], [-47.10621574, -23.81300317], [-47.10797777, -23.81376163], [-47.10931007, -23.8142651], [-47.11075593, -23.81594082], [-47.1115759, -23.81692951], [-47.1131341, -23.81677773], [-47.1140713, -23.81624319], [-47.11553844, -23.81631001], [-47.11575371, -23.81500282], [-47.11701127, -23.81381175], [-47.11698941, -23.81246434], [-47.11687582, -23.81129209], [-47.11742061, -23.80989343], [-47.11797033, -23.80879901], [-47.11857085, -23.80792128], [-47.12033702, -23.80775419], [-47.12144421, -23.80895624], [-47.12203841, -23.8106001], [-47.12360571, -23.81101326], [-47.12475445, -23.80895414], [-47.12497811, -23.80816852], [-47.12566605, -23.80685481], [-47.12607952, -23.80611004], [-47.12716975, -23.80626891], [-47.128811, -23.80542025], [-47.1302603, -23.80440033], [-47.13206508, -23.80385369], [-47.13245536, -23.80458736], [-47.13349546, -23.80457297], [-47.13436066, -23.80543049], [-47.13508901, -23.8065942], [-47.13754817, -23.80660361], [-47.13942432, -23.80566464], [-47.14003037, -23.80513454], [-47.14129259, -23.80424754], [-47.14285273, -23.80422587], [-47.14373814, -23.80343103], [-47.1450146, -23.80341328], [-47.1460561, -23.80348574], [-47.14684051, -23.80230102], [-47.1477753, -23.8016359], [-47.1481342, -23.80045711], [-47.14845082, -23.79958322], [-47.14947415, -23.80029635], [-47.15005362, -23.80102733], [-47.15114095, -23.80101217], [-47.15187371, -23.80243658], [-47.15189664, -23.80382742], [-47.15323543, -23.80472169], [-47.15560571, -23.80507984], [-47.15711712, -23.80497176], [-47.15827748, -23.80365131], [-47.15896865, -23.80255479], [-47.15957029, -23.80176384], [-47.16099934, -23.80239593], [-47.1619686, -23.80381698], [-47.16316994, -23.80497392], [-47.16495936, -23.80644713], [-47.16601171, -23.8071714], [-47.16721672, -23.80854562], [-47.16901544, -23.80865075], [-47.17051964, -23.8081079], [-47.17232485, -23.80860416], [-47.17384279, -23.80888708], [-47.17424129, -23.81009872], [-47.17459034, -23.81118063], [-47.17485353, -23.81278543], [-47.17661734, -23.81363001], [-47.17827065, -23.81351971], [-47.17982214, -23.8129761], [-47.1812405, -23.81295604], [-47.18325093, -23.81440567], [-47.18350187, -23.81527158], [-47.1827272, -23.81702148], [-47.18132842, -23.81821505], [-47.18039952, -23.81922808], [-47.17876428, -23.82042498], [-47.1768897, -23.82145135], [-47.17632957, -23.821894], [-47.17582904, -23.82307484], [-47.17576566, -23.82494509], [-47.17631327, -23.8262151], [-47.17655911, -23.82677678], [-47.1770588, -23.82837823], [-47.17880687, -23.82826658], [-47.18068952, -23.82771827], [-47.18201347, -23.82769953], [-47.18400594, -23.82806256], [-47.18581585, -23.82881941], [-47.18743809, -23.82966585], [-47.18852345, -23.82952002], [-47.19019519, -23.83049615], [-47.19059318, -23.83166426], [-47.18999892, -23.83288995], [-47.19347505, -23.83338919], [-47.19538404, -23.83440535], [-47.19683192, -23.83612362], [-47.19709985, -23.83798913], [-47.19712329, -23.83937993], [-47.19772593, -23.84145802], [-47.19986638, -23.8421665], [-47.2018199, -23.84300804], [-47.2031011, -23.84325056], [-47.20465796, -23.84301092], [-47.2058652, -23.8444717], [-47.20786607, -23.84531248], [-47.21084015, -23.84496551], [-47.21284254, -23.84589315], [-47.21427082, -23.84643776], [-47.2154405, -23.84568191], [-47.21422873, -23.84396044], [-47.21315884, -23.84223692], [-47.21240304, -23.83950901], [-47.21224877, -23.83694459], [-47.21343241, -23.83701453], [-47.21534972, -23.83572627], [-47.21664564, -23.83405568], [-47.21676015, -23.83244555], [-47.21836413, -23.8322051], [-47.21918714, -23.8305413], [-47.21849394, -23.82871529], [-47.22005946, -23.82899705], [-47.22120166, -23.82941531], [-47.22240819, -23.8308325], [-47.22299412, -23.83191086], [-47.2240824, -23.83193863], [-47.22453892, -23.83097565], [-47.22521406, -23.82896617], [-47.22565203, -23.82691665], [-47.227127, -23.82447903], [-47.22805629, -23.82350921], [-47.23055028, -23.82277758], [-47.23385099, -23.82220811], [-47.23574459, -23.82117816], [-47.23487271, -23.81997358], [-47.23380651, -23.81846751], [-47.23378419, -23.81716367], [-47.23456559, -23.81584818], [-47.23631115, -23.81560551], [-47.23765729, -23.81689013], [-47.23847594, -23.81774769], [-47.24044197, -23.81932759], [-47.24235554, -23.82060393], [-47.24411236, -23.82101307], [-47.24744214, -23.8221383], [-47.24877197, -23.82246667], [-47.25019786, -23.82288058], [-47.25096824, -23.82299294], [-47.25125595, -23.82279771], [-47.25155472, -23.82254532], [-47.25229621, -23.82186281], [-47.25262741, -23.82149778], [-47.25295999, -23.82130525], [-47.25366901, -23.82106322], [-47.25411378, -23.82083903], [-47.25453754, -23.82055146], [-47.25470045, -23.82044795], [-47.25533835, -23.81981972], [-47.25554018, -23.81964606], [-47.25579456, -23.81952427], [-47.25600611, -23.8194708], [-47.25635245, -23.81949332], [-47.256884, -23.81955157], [-47.25744364, -23.81932554], [-47.25798921, -23.81891877], [-47.25852773, -23.81842164], [-47.25865652, -23.81840004], [-47.25876573, -23.81848216], [-47.25898233, -23.81895796], [-47.25939803, -23.81934406], [-47.25951441, -23.81939282], [-47.25967045, -23.81939852], [-47.25998509, -23.81923384], [-47.26021773, -23.81912724], [-47.26055523, -23.81915058], [-47.2608637, -23.81934349], [-47.26123396, -23.8195441], [-47.26198301, -23.81987042], [-47.26254565, -23.81996501], [-47.2627782, -23.81986834], [-47.26290139, -23.8197058], [-47.26292814, -23.81946035], [-47.26304509, -23.81911805], [-47.26320248, -23.81886456], [-47.26345708, -23.81849801], [-47.26397789, -23.81800343], [-47.26449739, -23.81765425], [-47.26523729, -23.81735731], [-47.26559559, -23.81713966], [-47.26594545, -23.8168777], [-47.26634058, -23.81671271], [-47.26681825, -23.81664859], [-47.26739914, -23.81667828], [-47.2678384, -23.8167376], [-47.26870879, -23.81699707], [-47.26929365, -23.81724083], [-47.26960899, -23.81721703], [-47.27024672, -23.81692742], [-47.27106367, -23.81646486], [-47.27128502, -23.81630216], [-47.27149677, -23.81622428], [-47.27172135, -23.81624946], [-47.27274754, -23.81687225], [-47.2732522, -23.81719396], [-47.27362014, -23.81743606], [-47.27398117, -23.81757155], [-47.27430286, -23.81760558], [-47.27438938, -23.81759088], [-47.27444211, -23.8175118], [-47.27445828, -23.81745954], [-47.27447339, -23.81730612], [-47.27449531, -23.81682942], [-47.27451904, -23.81669955], [-47.27473745, -23.81620447], [-47.27491383, -23.81579848], [-47.27483608, -23.81548992], [-47.27462758, -23.81520296], [-47.27408046, -23.81479874], [-47.27388324, -23.81456786], [-47.27377838, -23.81410737], [-47.27382734, -23.81378983], [-47.27399326, -23.81334673], [-47.27415873, -23.81306349], [-47.27446127, -23.81271173], [-47.27524053, -23.81184697], [-47.27586326, -23.81014923], [-47.27626485, -23.80980544], [-47.27672212, -23.80971405], [-47.27692616, -23.80973003], [-47.27752147, -23.81001177], [-47.27789967, -23.81009138], [-47.2781227, -23.81006867], [-47.27823446, -23.80997378], [-47.27823788, -23.80958906], [-47.27815364, -23.80934729], [-47.27811749, -23.80899569], [-47.27816878, -23.80874681], [-47.27850711, -23.80800967], [-47.27862182, -23.80769263], [-47.27876674, -23.80717982], [-47.27904399, -23.80668788], [-47.2796342, -23.80599327], [-47.28001176, -23.80570078], [-47.28022287, -23.80547115], [-47.2804168, -23.80518721], [-47.28066214, -23.80463903], [-47.28099776, -23.80431551], [-47.28142023, -23.80427171], [-47.28184513, -23.80439682], [-47.28203889, -23.8044642], [-47.28225632, -23.8046302], [-47.28239292, -23.80483353], [-47.28281118, -23.80548873], [-47.28327995, -23.80575957], [-47.28357038, -23.80577348], [-47.28446246, -23.80557333], [-47.28522108, -23.80525657], [-47.28563352, -23.80490381], [-47.28586513, -23.80457408], [-47.28593499, -23.80444455], [-47.28597086, -23.8043834], [-47.28622085, -23.80419651], [-47.28691101, -23.80385033], [-47.2874509, -23.80351297], [-47.28779587, -23.80335297], [-47.28820253, -23.80331987], [-47.28861406, -23.80340332], [-47.28930996, -23.80363158], [-47.28995995, -23.8038333], [-47.29150359, -23.8037662], [-47.29207937, -23.80381292], [-47.29267069, -23.8041018], [-47.29303446, -23.80437183], [-47.29335016, -23.8046379], [-47.29370445, -23.80486902], [-47.2942754, -23.80501956], [-47.29507891, -23.80506706], [-47.29570138, -23.80493891], [-47.29658501, -23.80491654], [-47.29694047, -23.8051269], [-47.29729067, -23.80537695], [-47.29759535, -23.80567092], [-47.29782817, -23.80598693], [-47.2980476, -23.80671378], [-47.29828405, -23.80717703], [-47.29855546, -23.80734612], [-47.29883684, -23.80749722], [-47.29935858, -23.80766454], [-47.2999619, -23.80781982], [-47.30025284, -23.80788789], [-47.30074968, -23.80787168], [-47.30109546, -23.80750394], [-47.30139695, -23.80692454], [-47.30157765, -23.80635147], [-47.30196389, -23.80573295], [-47.30224771, -23.80549119], [-47.30266944, -23.80519264], [-47.30360133, -23.80469915], [-47.30415768, -23.80427154], [-47.3043785, -23.80404918], [-47.30466289, -23.8035157], [-47.30499388, -23.80292657], [-47.30506075, -23.80279972], [-47.30523397, -23.80263301], [-47.30541929, -23.80254225], [-47.3057659, -23.80241564], [-47.30664388, -23.80213669], [-47.30742445, -23.80199791], [-47.30856108, -23.80166033], [-47.30896308, -23.80137156], [-47.30975577, -23.80073793], [-47.31030439, -23.80029127], [-47.31057912, -23.80007652], [-47.31111686, -23.79963881], [-47.31158876, -23.79875537], [-47.31172278, -23.79801125], [-47.31171897, -23.79765628], [-47.31180297, -23.79736247], [-47.31213231, -23.79673267], [-47.31233169, -23.79637557], [-47.31257464, -23.79608924], [-47.31285893, -23.79590256], [-47.3132543, -23.79569501], [-47.31366751, -23.79546952], [-47.31408966, -23.79511586], [-47.31423519, -23.79474301], [-47.31455952, -23.79400931], [-47.31477762, -23.79364241], [-47.31500026, -23.7933198], [-47.3152516, -23.7929685], [-47.31543972, -23.7928922], [-47.31581876, -23.79287147], [-47.31634372, -23.79288794], [-47.31658917, -23.79276599], [-47.31677513, -23.79259846], [-47.31707002, -23.79209032], [-47.31742875, -23.79146162], [-47.31742835, -23.79070839], [-47.31696873, -23.79005568], [-47.31637272, -23.78951397], [-47.31537473, -23.78869387], [-47.31463076, -23.78812578], [-47.31395066, -23.78789052], [-47.31332566, -23.7879817], [-47.31286317, -23.78823572], [-47.31248788, -23.78827814], [-47.31153984, -23.78815742], [-47.31126313, -23.78814998], [-47.31034435, -23.78839163], [-47.30971198, -23.78854054], [-47.30916605, -23.78856635], [-47.30871759, -23.78844475], [-47.30835473, -23.7881856], [-47.30752651, -23.78737482], [-47.30734661, -23.78729583], [-47.30706823, -23.78725405], [-47.30656149, -23.78728917], [-47.30632302, -23.7875132], [-47.30557973, -23.78811648], [-47.30534127, -23.78822491], [-47.30508954, -23.78827996], [-47.30489907, -23.78817379], [-47.30432247, -23.7875509], [-47.30381757, -23.78714709], [-47.3033602, -23.78703534], [-47.30324045, -23.78703717], [-47.30292879, -23.787099], [-47.30208254, -23.78723728], [-47.30193267, -23.78720366], [-47.30182172, -23.78709627], [-47.30181, -23.78697697], [-47.30189318, -23.78666599], [-47.30194751, -23.78639996], [-47.3020999, -23.78603169], [-47.3023332, -23.78572634], [-47.30307658, -23.78511315], [-47.30340355, -23.7846432], [-47.30361056, -23.78408748], [-47.30368582, -23.7829925], [-47.30359478, -23.78262695], [-47.30346647, -23.78180684], [-47.30342281, -23.78039308], [-47.30332228, -23.77998953], [-47.30309702, -23.77948481], [-47.30287514, -23.77915534], [-47.30235236, -23.77878119], [-47.3017624, -23.77857093], [-47.30140157, -23.77842105], [-47.3012947, -23.77829653], [-47.30124871, -23.77816704], [-47.30125006, -23.77801261], [-47.3013001, -23.7776752], [-47.30137719, -23.77750055], [-47.3017191, -23.77723032], [-47.30209444, -23.777066], [-47.30256688, -23.77668292], [-47.30287422, -23.77632482], [-47.30305973, -23.77609498], [-47.30338366, -23.77586074], [-47.30378109, -23.77586456], [-47.30405274, -23.77600023], [-47.30475571, -23.77653103], [-47.30505082, -23.7766768], [-47.30511156, -23.77668899], [-47.30517043, -23.77669123], [-47.3052333, -23.77668356], [-47.30527758, -23.77667034], [-47.30532452, -23.77657676], [-47.30535004, -23.77646224], [-47.30531619, -23.77617931], [-47.30524184, -23.77592497], [-47.30516544, -23.77556947], [-47.30521299, -23.77540454], [-47.30615749, -23.77445051], [-47.30616546, -23.77421123], [-47.3059212, -23.77385901], [-47.30576246, -23.77371786], [-47.30545854, -23.77345732], [-47.30514466, -23.77321206], [-47.30476394, -23.77298077], [-47.30440063, -23.7726656], [-47.30421609, -23.77233098], [-47.30415433, -23.77164502], [-47.3042451, -23.77102341], [-47.30420162, -23.77083252], [-47.30375507, -23.77027199], [-47.30353222, -23.7700554], [-47.30309364, -23.76936847], [-47.30296125, -23.76913177], [-47.30288493, -23.76876724], [-47.30289652, -23.76833742], [-47.30296688, -23.76780687], [-47.30265763, -23.76714438], [-47.30249407, -23.76688126], [-47.30187631, -23.76603767], [-47.30165365, -23.76568741], [-47.30150736, -23.76535848], [-47.30147639, -23.76496989], [-47.30152906, -23.76455573], [-47.30168633, -23.76418749], [-47.30198, -23.76393135], [-47.30228838, -23.76378911], [-47.30281982, -23.76372529], [-47.30308587, -23.76371189], [-47.30343462, -23.76377949], [-47.3038285, -23.76384831], [-47.30426991, -23.76375582], [-47.30444635, -23.7635521], [-47.3044939, -23.76327428], [-47.30447024, -23.76317385], [-47.3043415, -23.762743], [-47.30431664, -23.76244206], [-47.3042009, -23.7620971], [-47.30402745, -23.76184294], [-47.30379538, -23.76167324], [-47.30312648, -23.76140911], [-47.30231859, -23.76087843], [-47.30197211, -23.76043784], [-47.30141961, -23.75942673], [-47.30110361, -23.75909294], [-47.30038553, -23.7587309], [-47.30002846, -23.75815565], [-47.29967413, -23.7577159], [-47.29883638, -23.75701247], [-47.29855804, -23.75686229], [-47.29796138, -23.75619406], [-47.29767314, -23.75560396], [-47.29753337, -23.75509173], [-47.29736812, -23.7545757], [-47.29731967, -23.75405602], [-47.29738215, -23.75364283], [-47.29751191, -23.75316511], [-47.29772037, -23.75266539], [-47.29790992, -23.75219534], [-47.29801512, -23.75183304], [-47.29801189, -23.75164154], [-47.2978942, -23.75118547], [-47.29779103, -23.75097698], [-47.29767954, -23.75082262], [-47.29750767, -23.75061542], [-47.29736644, -23.75038317], [-47.29738716, -23.75025778], [-47.29739038, -23.7500013], [-47.29749769, -23.74973566], [-47.29749396, -23.74948816], [-47.29754202, -23.74904054], [-47.29765679, -23.74881921], [-47.2978052, -23.74867761], [-47.29802716, -23.74842816], [-47.29836462, -23.74821119], [-47.29871997, -23.74808104], [-47.29890987, -23.74802013], [-47.2991148, -23.74792229], [-47.29939671, -23.74766155], [-47.29959689, -23.74732163], [-47.29969567, -23.7470207], [-47.29978861, -23.7467143], [-47.30007855, -23.74631905], [-47.30050107, -23.74602321], [-47.3006816, -23.74591074], [-47.30077808, -23.74587352], [-47.3009897, -23.74579651], [-47.30123455, -23.74573419], [-47.30137389, -23.74573341], [-47.30171154, -23.74571873], [-47.30209785, -23.74574958], [-47.30230933, -23.74568882], [-47.30279113, -23.74534464], [-47.30306843, -23.74504864], [-47.30356867, -23.74438758], [-47.30364732, -23.7442563], [-47.30381528, -23.74400916], [-47.30401718, -23.74380833], [-47.3043566, -23.74347665], [-47.30468239, -23.74324512], [-47.3049564, -23.74309992], [-47.30522484, -23.74291945], [-47.30535487, -23.74274609], [-47.3054849, -23.74257364], [-47.30563097, -23.74236066], [-47.30575076, -23.7422378], [-47.30623594, -23.74161456], [-47.30635951, -23.74139329], [-47.30649547, -23.74098876], [-47.30659199, -23.74060652], [-47.30675068, -23.73995559], [-47.30671603, -23.73931137], [-47.30664694, -23.73902004], [-47.30659637, -23.7381752], [-47.30669101, -23.73766921], [-47.30669405, -23.73765839], [-47.30687501, -23.73704104], [-47.30709836, -23.73651342], [-47.30744085, -23.7358241], [-47.30784572, -23.73495369], [-47.30790848, -23.73473016], [-47.30790586, -23.73457931], [-47.30783054, -23.73432768], [-47.3078411, -23.73424105], [-47.30794021, -23.73389766], [-47.30799677, -23.73382402], [-47.30820069, -23.73350037], [-47.30828801, -23.73338721], [-47.30844404, -23.73326823], [-47.30876456, -23.73307549], [-47.30893708, -23.73297921], [-47.30933932, -23.73275275], [-47.3095188, -23.73264568], [-47.30963034, -23.73256701], [-47.30975346, -23.73251102], [-47.30981749, -23.73248078], [-47.30986754, -23.73247843], [-47.30994441, -23.73243835], [-47.3101515, -23.73231523], [-47.31027, -23.73222668], [-47.31039033, -23.73215169], [-47.31059455, -23.73202042], [-47.3107408, -23.73189775], [-47.3108614, -23.73179296], [-47.31092185, -23.73172296], [-47.31122064, -23.73154541], [-47.31134723, -23.73142802], [-47.31146489, -23.7313223], [-47.31173436, -23.7311328], [-47.31192001, -23.73099236], [-47.31202383, -23.73089828], [-47.31214416, -23.73082419], [-47.31225734, -23.73078257], [-47.31249812, -23.73073375], [-47.31267301, -23.73070342], [-47.31278988, -23.73068892], [-47.31318739, -23.73066743], [-47.31348578, -23.73065064], [-47.31357795, -23.73065674], [-47.31389817, -23.730725], [-47.31413578, -23.73081615], [-47.31431545, -23.7309141], [-47.31455111, -23.73100433], [-47.31470147, -23.73108852], [-47.31531729, -23.73135042], [-47.31594236, -23.7315636], [-47.31660846, -23.73168316], [-47.31737336, -23.73172214], [-47.31854686, -23.73170538], [-47.31918746, -23.73159533], [-47.31947393, -23.73148], [-47.31967941, -23.7313153], [-47.31970909, -23.73128571], [-47.32004606, -23.73100185], [-47.32009459, -23.73094892], [-47.32039031, -23.73067108], [-47.32072637, -23.73026347], [-47.32093197, -23.72996872], [-47.32120973, -23.72938095], [-47.32139566, -23.72863356], [-47.32149591, -23.72803819], [-47.3214912, -23.72778617], [-47.32143234, -23.72755633], [-47.32133979, -23.72736599], [-47.32086971, -23.72646753], [-47.32062192, -23.72561674], [-47.32031032, -23.72488652], [-47.32003573, -23.72441758], [-47.31953767, -23.72381063], [-47.31934538, -23.72358254], [-47.31933097, -23.72343251], [-47.31938644, -23.72337059], [-47.3195508, -23.72330766], [-47.31973837, -23.72328553], [-47.31999428, -23.72330094], [-47.32028175, -23.7232967], [-47.32057121, -23.72328887], [-47.32061446, -23.72327925], [-47.32072057, -23.72326015], [-47.32106099, -23.7231443], [-47.32125217, -23.72304272], [-47.32137139, -23.72298217], [-47.32145229, -23.72292856], [-47.32157948, -23.72285452], [-47.32172777, -23.72272102], [-47.32183079, -23.72260436], [-47.32191497, -23.72251103], [-47.32220472, -23.72224037], [-47.32232419, -23.72215092], [-47.32241889, -23.72208928], [-47.32260632, -23.72196691], [-47.32288721, -23.72181449], [-47.32303496, -23.72174421], [-47.32314529, -23.72168992], [-47.32335245, -23.72155594], [-47.32349579, -23.72142782], [-47.32361165, -23.72130041], [-47.32383452, -23.72104822], [-47.32390692, -23.72095662], [-47.32396543, -23.72088298], [-47.32401897, -23.72081654], [-47.32406029, -23.72068768], [-47.32408799, -23.72054518], [-47.32412599, -23.72046055], [-47.3242418, -23.72022385], [-47.32431531, -23.720116], [-47.32438665, -23.72003342], [-47.32455829, -23.71980706], [-47.32468577, -23.71969779], [-47.32478143, -23.71963888], [-47.3249427, -23.71947837], [-47.3250492, -23.7192976], [-47.32514893, -23.71910594], [-47.32526806, -23.7187103], [-47.32530819, -23.71849022], [-47.32531879, -23.71839817], [-47.32531652, -23.71797365], [-47.32525993, -23.71770771], [-47.32522279, -23.71757648], [-47.32507083, -23.71722133], [-47.32502443, -23.717025], [-47.32500511, -23.71687494], [-47.32500383, -23.71679454], [-47.32502666, -23.71641898], [-47.32513689, -23.71614611], [-47.32527766, -23.71597281], [-47.32548121, -23.71568526], [-47.32570251, -23.7153861], [-47.32577911, -23.71526021], [-47.32582894, -23.71516844], [-47.32590887, -23.71488271], [-47.32591675, -23.71464884], [-47.32586342, -23.71446059], [-47.32568887, -23.7141089], [-47.32550474, -23.71372913], [-47.32542132, -23.71338893], [-47.3253951, -23.71312681], [-47.32543235, -23.71278477], [-47.32556929, -23.7123703], [-47.32569861, -23.71204428], [-47.32574044, -23.71197052], [-47.32591623, -23.71171618], [-47.32614109, -23.7115742], [-47.32640136, -23.71142073], [-47.32673604, -23.71128315], [-47.32713519, -23.71117855], [-47.3275605, -23.71111117], [-47.32795008, -23.71109321], [-47.32845404, -23.71112032], [-47.32887019, -23.71120732], [-47.3293162, -23.71135956], [-47.32951379, -23.7114242], [-47.32978103, -23.71149025], [-47.33003929, -23.71157249], [-47.33024205, -23.71160647], [-47.33089246, -23.71171592], [-47.3313379, -23.71181937], [-47.33171518, -23.71186363], [-47.33199068, -23.71188097], [-47.33220119, -23.71192673], [-47.3323345, -23.71193763], [-47.33246381, -23.71195843], [-47.33256379, -23.71196637], [-47.33283034, -23.71199809], [-47.33304122, -23.7120005], [-47.33328838, -23.71200408], [-47.33370497, -23.71203959], [-47.33393148, -23.71205025], [-47.33419419, -23.7120711], [-47.33444135, -23.71207467], [-47.33458361, -23.71207208], [-47.33461598, -23.71207231], [-47.33467587, -23.71206552], [-47.3347397, -23.71205694], [-47.33480255, -23.71204836], [-47.3349086, -23.71203648], [-47.33526791, -23.71200202], [-47.33552003, -23.71199841], [-47.3356544, -23.71200118], [-47.33612238, -23.71199188], [-47.33627656, -23.71197131], [-47.33640036, -23.71194691], [-47.33679053, -23.71185938], [-47.33693831, -23.71178276], [-47.33713188, -23.71174441], [-47.33734238, -23.71167456], [-47.3375153, -23.71164238], [-47.3376577, -23.71162262], [-47.33781584, -23.71159756], [-47.33798197, -23.7115554], [-47.33820403, -23.71151092], [-47.33839757, -23.71147618], [-47.33859976, -23.71146227], [-47.33873524, -23.71144788], [-47.33887696, -23.7113929], [-47.33913147, -23.71133871], [-47.33939739, -23.71132887], [-47.33953858, -23.7113362], [-47.33988225, -23.71141091], [-47.34028436, -23.71153571], [-47.34052968, -23.71164223], [-47.34084371, -23.71185943], [-47.34113342, -23.71193555], [-47.34150861, -23.71187952], [-47.34227647, -23.7121453], [-47.34279846, -23.71375784], [-47.34479149, -23.71489435], [-47.34748196, -23.71563134], [-47.35155908, -23.71511567], [-47.35357843, -23.71378861], [-47.35550751, -23.71136099], [-47.35667226, -23.70952836], [-47.35769961, -23.70789227], [-47.3586061, -23.7055915], [-47.35806998, -23.70320143], [-47.36049183, -23.70076625], [-47.36273616, -23.70021346], [-47.36413301, -23.69954395], [-47.36445945, -23.69811298], [-47.36426255, -23.69500476], [-47.36541537, -23.69252409], [-47.3682971, -23.6882669], [-47.37295255, -23.68700399], [-47.37528107, -23.68722754], [-47.3771683, -23.68642076], [-47.37870691, -23.68192476], [-47.37990862, -23.67827655], [-47.38256612, -23.67638864], [-47.38217057, -23.6739965], [-47.37877673, -23.67327087], [-47.37613634, -23.6713669], [-47.37553205, -23.66910758], [-47.37550276, -23.6674876], [-47.37406181, -23.66569482], [-47.37146772, -23.66424293], [-47.36969353, -23.66349228], [-47.36848844, -23.66305699], [-47.3661592, -23.6627685], [-47.36529683, -23.66180941], [-47.36513579, -23.66042342], [-47.3656722, -23.65892442], [-47.36719192, -23.65728078], [-47.36806047, -23.65467481], [-47.36753032, -23.65260875], [-47.36749765, -23.65079436], [-47.36878622, -23.64805234], [-47.37074102, -23.64711501], [-47.37106497, -23.64555443], [-47.37224419, -23.64456413], [-47.37528175, -23.64510096], [-47.37718948, -23.64546061], [-47.37928614, -23.64458582], [-47.38123728, -23.64345396], [-47.38267101, -23.6448579], [-47.38425291, -23.64552476], [-47.38615713, -23.6456899], [-47.38931906, -23.64531711], [-47.39072698, -23.64529539], [-47.39211486, -23.64417209], [-47.39407648, -23.64362327], [-47.39597478, -23.64346431], [-47.39762881, -23.64149423], [-47.39879832, -23.63998536], [-47.3994727, -23.63835451], [-47.40028785, -23.63672148], [-47.40156079, -23.63702585], [-47.4027456, -23.63635932], [-47.4033028, -23.6360266], [-47.40377778, -23.63504699], [-47.40397474, -23.63426614], [-47.40323772, -23.63246271], [-47.40356008, -23.63083731], [-47.40494177, -23.62938992], [-47.4045567, -23.62758103], [-47.40440088, -23.62632334], [-47.40648873, -23.62499463], [-47.40979084, -23.62461927], [-47.4128114, -23.62424823], [-47.41375044, -23.62116897], [-47.41336365, -23.62124045], [-47.41316752, -23.62124908], [-47.41228162, -23.6210905], [-47.41181262, -23.62089678], [-47.41133966, -23.62045916], [-47.41080611, -23.61999855], [-47.41029257, -23.61973498], [-47.40966188, -23.61941101], [-47.40921623, -23.61928076], [-47.40856749, -23.61909114], [-47.40798856, -23.61904119], [-47.40724946, -23.61916267], [-47.40649901, -23.61938621], [-47.40589185, -23.61930005], [-47.40447003, -23.6185443], [-47.40339658, -23.61758869], [-47.40322981, -23.61616531], [-47.40121429, -23.61373349], [-47.39840506, -23.61410103], [-47.39709933, -23.61198226], [-47.39607397, -23.60979432], [-47.39342296, -23.60724257], [-47.39181691, -23.60462985], [-47.39184613, -23.60236081], [-47.39160561, -23.60074409], [-47.39038226, -23.59927214], [-47.38860302, -23.59819764], [-47.38717801, -23.59724731], [-47.3852116, -23.59480424], [-47.38392745, -23.58996266], [-47.38250608, -23.58920667], [-47.37910512, -23.58796247], [-47.37573223, -23.58827339], [-47.3736504, -23.58992567], [-47.37083339, -23.58983907], [-47.36742436, -23.58814101], [-47.36275695, -23.58691574], [-47.35954643, -23.58450148], [-47.35592888, -23.58293594], [-47.35327824, -23.58225575], [-47.35111206, -23.58147768], [-47.34836549, -23.58106874], [-47.34573275, -23.58155902], [-47.34348961, -23.58195328], [-47.34104125, -23.58181], [-47.33858012, -23.5809461], [-47.33787952, -23.58005567], [-47.33868793, -23.57598908], [-47.33845242, -23.57374017], [-47.33600421, -23.57359681], [-47.33219635, -23.57401441], [-47.32994373, -23.57386802], [-47.32920349, -23.57072567], [-47.32866365, -23.5678506], [-47.32766186, -23.56651413], [-47.32701127, -23.56439943], [-47.32796222, -23.56285351], [-47.32784681, -23.56013239], [-47.32746854, -23.56013779], [-47.32722855, -23.56012974], [-47.32700523, -23.56011999], [-47.32682502, -23.56011056], [-47.32617427, -23.56012573], [-47.32593405, -23.56014387], [-47.32538835, -23.5601354], [-47.32503586, -23.56010576], [-47.32472263, -23.56006736], [-47.32449882, -23.5599998], [-47.32422698, -23.55993461], [-47.3236847, -23.55975454], [-47.32352727, -23.55971727], [-47.32306913, -23.55955227], [-47.32290221, -23.5594779], [-47.32272333, -23.55942692], [-47.32225587, -23.55932146], [-47.3221443, -23.5593053], [-47.32192636, -23.5593543], [-47.32169588, -23.55949444], [-47.3214162, -23.55965861], [-47.32116114, -23.5598085], [-47.32080594, -23.55998116], [-47.32059803, -23.56011694], [-47.32043922, -23.56024134], [-47.32002677, -23.56046235], [-47.31980562, -23.56054204], [-47.31964362, -23.5605806], [-47.31922329, -23.56057664], [-47.31901671, -23.56055708], [-47.31882591, -23.56052588], [-47.31827649, -23.56049388], [-47.31797776, -23.56047906], [-47.31785429, -23.56047997], [-47.31754666, -23.56036121], [-47.3173839, -23.56025886], [-47.31724403, -23.56011513], [-47.31690633, -23.55984621], [-47.31669249, -23.55975974], [-47.3165557, -23.55971449], [-47.31616309, -23.5595644], [-47.315991, -23.55952159], [-47.3157718, -23.55948838], [-47.3154388, -23.5594715], [-47.31516459, -23.55945414], [-47.31494716, -23.55944352], [-47.31459819, -23.55945994], [-47.31433998, -23.55951948], [-47.31433702, -23.55952217], [-47.31428094, -23.55954886], [-47.31408859, -23.5596983], [-47.31399486, -23.55977348], [-47.31387943, -23.55986477], [-47.31374909, -23.55998124], [-47.31359793, -23.56012556], [-47.3133838, -23.56041394], [-47.31314553, -23.5606615], [-47.31264085, -23.56089627], [-47.31214273, -23.5610507], [-47.31164282, -23.56107233], [-47.31053943, -23.56108142], [-47.30932358, -23.56106347], [-47.30867057, -23.56099907], [-47.30839118, -23.56090127], [-47.30803605, -23.56083634], [-47.30799082, -23.56096879], [-47.3079928, -23.561079], [-47.30799806, -23.56137802], [-47.30807158, -23.56194128], [-47.3080268, -23.56215977], [-47.30770152, -23.5621646], [-47.30595066, -23.56273119], [-47.30498372, -23.56337623], [-47.30351679, -23.56339799], [-47.30123924, -23.56180993], [-47.29888904, -23.56166451], [-47.29771864, -23.56186202], [-47.2964473, -23.56188081], [-47.29428956, -23.56155228], [-47.29331787, -23.56192703], [-47.29255584, -23.56310957], [-47.29107796, -23.56250067], [-47.28910643, -23.56162871], [-47.2876905, -23.56094482], [-47.28526901, -23.56233196], [-47.28382077, -23.56343446], [-47.28217379, -23.56435966], [-47.2803115, -23.56395612], [-47.27888535, -23.56338689], [-47.27777975, -23.56185009], [-47.27658106, -23.56078055], [-47.27537971, -23.55955573], [-47.27458454, -23.55841814], [-47.27259574, -23.55659094], [-47.2715533, -23.55640773], [-47.27059097, -23.55747567], [-47.26939516, -23.55922451], [-47.26778949, -23.56090405], [-47.26594899, -23.56318922], [-47.26500078, -23.56508497], [-47.26300063, -23.56759827], [-47.26099267, -23.56965999], [-47.25911587, -23.56983785], [-47.25638723, -23.57004701], [-47.25571595, -23.56983321], [-47.25493815, -23.56937021], [-47.25419548, -23.56870784], [-47.25402282, -23.56786107], [-47.25400072, -23.56737857], [-47.25402542, -23.56713849], [-47.25417584, -23.56675847], [-47.25433354, -23.56643993], [-47.25440269, -23.56626974], [-47.25444533, -23.56610568], [-47.25446272, -23.56602361], [-47.25445356, -23.56595309], [-47.2544235, -23.56581015], [-47.25433009, -23.56562788], [-47.25416426, -23.56543692], [-47.25393748, -23.56526627], [-47.25367612, -23.56512787], [-47.2531996, -23.56505286], [-47.25279951, -23.56497662], [-47.25254535, -23.56490964], [-47.25224084, -23.56477542], [-47.25212408, -23.56468329], [-47.25153267, -23.563444], [-47.25091657, -23.56125248], [-47.25091607, -23.56065813], [-47.25096574, -23.56047515], [-47.25110781, -23.56025946], [-47.25131596, -23.55999641], [-47.25148123, -23.55981522], [-47.25154628, -23.55966487], [-47.25161382, -23.55934745], [-47.25164282, -23.55906676], [-47.25160355, -23.55875031], [-47.2514943, -23.5584794], [-47.25123422, -23.55809261], [-47.25059285, -23.55772096], [-47.25026798, -23.55767329], [-47.25018351, -23.55769613], [-47.25009616, -23.55771171], [-47.24994698, -23.55773947], [-47.24967298, -23.55770033], [-47.24937591, -23.55761133], [-47.24891669, -23.55757617], [-47.24883056, -23.55756557], [-47.24850632, -23.55755675], [-47.24839067, -23.55755947], [-47.24822988, -23.55756998], [-47.24792174, -23.5576227], [-47.24777048, -23.55766308], [-47.24760341, -23.5577178], [-47.24726919, -23.55794374], [-47.24679853, -23.55830503], [-47.2458902, -23.55916966], [-47.24540577, -23.55942786], [-47.24509256, -23.55949771], [-47.24480733, -23.55950905], [-47.24453433, -23.5594672], [-47.24428736, -23.55936502], [-47.24404589, -23.55919605], [-47.24390546, -23.55912361], [-47.24380789, -23.55907769], [-47.24371203, -23.55905979], [-47.24361999, -23.55905185], [-47.24353767, -23.55905392], [-47.24335106, -23.55910216], [-47.24317319, -23.55915949], [-47.2431279, -23.55918263], [-47.243071, -23.55919032], [-47.24295563, -23.55916233], [-47.24262675, -23.55901707], [-47.24223788, -23.55878824], [-47.24215596, -23.55874605], [-47.24208939, -23.55873922], [-47.24198472, -23.55872034], [-47.2417264, -23.55878789], [-47.24152377, -23.55887394], [-47.24140424, -23.5589805], [-47.24133667, -23.55908295], [-47.24106798, -23.55996606], [-47.24103956, -23.56007332], [-47.24100145, -23.56016968], [-47.24096261, -23.56023893], [-47.24087446, -23.56034212], [-47.24076358, -23.56046591], [-47.24069142, -23.5605358], [-47.24061661, -23.56057316], [-47.24016173, -23.56070512], [-47.23961263, -23.56074692], [-47.23916523, -23.56070371], [-47.23889713, -23.56066188], [-47.23861871, -23.5605703], [-47.23837703, -23.5604257], [-47.23780528, -23.55983685], [-47.23678119, -23.55867543], [-47.23611147, -23.55765857], [-47.23601896, -23.55759642], [-47.2359389, -23.55756509], [-47.23556574, -23.55744115], [-47.23504698, -23.55727362], [-47.234968, -23.55723145], [-47.23491259, -23.55718405], [-47.23439192, -23.55777443], [-47.23291231, -23.55726874], [-47.23071897, -23.55805302], [-47.22859206, -23.55793297], [-47.2265494, -23.55796225], [-47.22397354, -23.55816546], [-47.22333762, -23.55922846], [-47.22361315, -23.56103121], [-47.22527268, -23.56251303], [-47.22587636, -23.56438636], [-47.22590173, -23.56589157], [-47.22476792, -23.56651003], [-47.2214076, -23.56595588], [-47.21820314, -23.56494775], [-47.21712447, -23.56398451], [-47.21548773, -23.5638573], [-47.21411001, -23.56455445], [-47.21413903, -23.56628545], [-47.21393428, -23.5686973], [-47.21273759, -23.57044577], [-47.21069723, -23.57062537], [-47.20931186, -23.57087092], [-47.20867702, -23.57200913], [-47.20731302, -23.5735341], [-47.20650214, -23.57392202], [-47.20528266, -23.57431573], [-47.2025797, -23.57397768], [-47.20052797, -23.5734798], [-47.19952479, -23.57213897], [-47.19666094, -23.57195365], [-47.19623483, -23.57090576], [-47.19539514, -23.56956259], [-47.19513122, -23.56843712], [-47.19609302, -23.56729434], [-47.19631312, -23.56578563], [-47.19507241, -23.5648998], [-47.19286867, -23.56508148], [-47.19140659, -23.56562906], [-47.18935877, -23.56535681], [-47.18820855, -23.56499661], [-47.18751744, -23.56274793], [-47.18749874, -23.561619], [-47.18605385, -23.56126832], [-47.18425621, -23.5612936], [-47.18237686, -23.56132], [-47.18057922, -23.56134523], [-47.17909849, -23.56076375], [-47.17785793, -23.55987778], [-47.17725742, -23.55815474], [-47.17698501, -23.55650238], [-47.17654795, -23.55477705], [-47.17611214, -23.55312698], [-47.17406329, -23.55277924], [-47.17284017, -23.55294691], [-47.17029929, -23.55293191], [-47.1700834, -23.55316951], [-47.16993304, -23.55342028], [-47.16966427, -23.55406121], [-47.16934832, -23.55451386], [-47.16918143, -23.55475096], [-47.16914326, -23.5548482], [-47.16914212, -23.55496561], [-47.16921385, -23.55524983], [-47.16956774, -23.55634929], [-47.16970971, -23.55697009], [-47.16982659, -23.55744978], [-47.16983521, -23.55767386], [-47.16981195, -23.55795187], [-47.16969148, -23.55855607], [-47.16958759, -23.55886413], [-47.16942343, -23.55922319], [-47.16929984, -23.55984633], [-47.16928847, -23.56021296], [-47.16935442, -23.56058836], [-47.16969458, -23.56138602], [-47.1701501, -23.56261818], [-47.17050926, -23.56327508], [-47.1709327, -23.56387199], [-47.17242436, -23.56506475], [-47.17326158, -23.56583937], [-47.17386061, -23.56662287], [-47.17398673, -23.56716224], [-47.17381648, -23.56774797], [-47.17354067, -23.56881427], [-47.17351705, -23.56943642], [-47.1735511, -23.56997233], [-47.17361044, -23.57042445], [-47.17368599, -23.57072133], [-47.17372685, -23.57085354], [-47.17398531, -23.57128651], [-47.17402928, -23.5713399], [-47.17382899, -23.57166051], [-47.17212076, -23.57284727], [-47.17079703, -23.57317179], [-47.16931977, -23.57426349], [-47.16760844, -23.57526664], [-47.16662541, -23.5761066], [-47.16521101, -23.57698318], [-47.16315109, -23.57784516], [-47.16175433, -23.5777728], [-47.1604145, -23.57711819], [-47.15957498, -23.57657903], [-47.15906066, -23.57560692], [-47.15799672, -23.57520418], [-47.15672253, -23.57536021], [-47.15560529, -23.57592907], [-47.15464047, -23.57663413], [-47.15313875, -23.57665496], [-47.15186454, -23.57681095], [-47.15089406, -23.57717023], [-47.14962096, -23.57739536], [-47.14887235, -23.57754405], [-47.14752079, -23.57756274], [-47.14662537, -23.57792096], [-47.14437837, -23.57829784], [-47.14303241, -23.57866226], [-47.14115522, -23.57868814], [-47.13964785, -23.57836307], [-47.13739074, -23.57811747], [-47.13588899, -23.57813813], [-47.13325756, -23.57796678], [-47.13174463, -23.57729586], [-47.12888907, -23.57719668], [-47.12746241, -23.57721623], [-47.12596511, -23.5775134], [-47.12374862, -23.57775733], [-47.12186364, -23.57729891], [-47.12020837, -23.577114], [-47.11945749, -23.57712425], [-47.11871438, -23.57761857], [-47.11850355, -23.57852064], [-47.11761025, -23.57901701], [-47.11588985, -23.57945547], [-47.11476018, -23.57926335], [-47.1129525, -23.5789421], [-47.11143079, -23.57771774], [-47.11067991, -23.57772794], [-47.11008472, -23.57808188], [-47.10994008, -23.57842969], [-47.10957347, -23.57898802], [-47.10922234, -23.58051452], [-47.10953929, -23.58154776], [-47.10956693, -23.58327662], [-47.10890216, -23.58397735], [-47.10853554, -23.58453568], [-47.10884917, -23.58536146], [-47.10908551, -23.58604994], [-47.10895743, -23.58743507], [-47.10799336, -23.58820903], [-47.10724684, -23.58849584], [-47.1061182, -23.58837281], [-47.10521485, -23.58824672], [-47.1044639, -23.5882569], [-47.10371516, -23.58840538], [-47.10251915, -23.58876743], [-47.10063625, -23.58844706], [-47.09987209, -23.58762736], [-47.0981394, -23.58730493], [-47.0967126, -23.5873242], [-47.09573637, -23.58733738], [-47.09407549, -23.58680642], [-47.09258715, -23.58546063], [-47.09240954, -23.58373378], [-47.09088905, -23.58257836], [-47.08899202, -23.58135882], [-47.08784923, -23.58033664], [-47.08649759, -23.5803548], [-47.08538761, -23.58140726], [-47.0846498, -23.58224721], [-47.08413508, -23.58294582], [-47.08203247, -23.58297402], [-47.08038369, -23.58320362], [-47.08038914, -23.5835494], [-47.07888945, -23.58370782], [-47.07739084, -23.58393539], [-47.07663991, -23.58394543], [-47.07585959, -23.58208825], [-47.0743436, -23.58120929], [-47.07095357, -23.58056282], [-47.06959432, -23.58009674], [-47.06703685, -23.57985411], [-47.06554475, -23.5804965], [-47.06442161, -23.58071894], [-47.06306778, -23.58059859], [-47.06155728, -23.58006527], [-47.06071883, -23.57927859], [-47.0604489, -23.57818753], [-47.05942375, -23.57731609], [-47.0581188, -23.57796222], [-47.05739211, -23.57839107], [-47.0565079, -23.57844936], [-47.05465856, -23.57824093], [-47.05295015, -23.57714325], [-47.05179603, -23.57569936], [-47.05033031, -23.57459308], [-47.04818189, -23.57324566], [-47.04710385, -23.57190257], [-47.04508352, -23.57005313], [-47.04402006, -23.56860797], [-47.04219373, -23.56758973], [-47.03991361, -23.56649405], [-47.03922964, -23.56616951], [-47.03861946, -23.56476005], [-47.03805068, -23.56309991], [-47.03744824, -23.56219062], [-47.03653804, -23.56186903], [-47.03586245, -23.56208633], [-47.03496831, -23.56280677], [-47.0345222, -23.56322952], [-47.03430556, -23.5638577], [-47.03333437, -23.56545464], [-47.03306239, -23.56589264], [-47.03276018, -23.56637933], [-47.03240007, -23.56650912], [-47.03186663, -23.56714144], [-47.03138845, -23.56730793], [-47.03064608, -23.56766229], [-47.02992358, -23.56806094], [-47.03010426, -23.56839317], [-47.03020763, -23.56871657], [-47.03020811, -23.56876355], [-47.03018591, -23.56882387], [-47.03001335, -23.56892437], [-47.02969359, -23.56922859], [-47.02964856, -23.5693167], [-47.02964516, -23.56945126], [-47.02977422, -23.57003052], [-47.02978945, -23.5703486], [-47.02965184, -23.57084777], [-47.02953505, -23.5715079], [-47.02936122, -23.57181976], [-47.02914761, -23.57200119], [-47.028957, -23.57204824], [-47.0287786, -23.57214508], [-47.02819208, -23.57274405], [-47.02747328, -23.57315755], [-47.02724991, -23.57333527], [-47.02713927, -23.57360164], [-47.02708807, -23.57435901], [-47.02702496, -23.57448761], [-47.02693472, -23.57458705], [-47.02682818, -23.57465292], [-47.02667699, -23.57467865], [-47.02628274, -23.57452423], [-47.02617101, -23.57452502], [-47.02608337, -23.57456487], [-47.0259638, -23.57474986], [-47.02594549, -23.57499538], [-47.02596917, -23.5754391], [-47.02593055, -23.57556882], [-47.0258478, -23.57570085], [-47.02569083, -23.57580872], [-47.02491916, -23.57603204], [-47.02481662, -23.57609073], [-47.02473226, -23.57618932], [-47.02462355, -23.57664177], [-47.02463305, -23.57685322], [-47.02470679, -23.577105], [-47.02483116, -23.57748008], [-47.02484186, -23.5777629], [-47.02476521, -23.57805757], [-47.02451379, -23.57874899], [-47.02446107, -23.57909717], [-47.02452452, -23.57957918], [-47.02480024, -23.58000532], [-47.02509001, -23.58030964], [-47.02545129, -23.58061642], [-47.02580877, -23.58082109], [-47.02637377, -23.58095629], [-47.02764409, -23.58111956], [-47.02809897, -23.58128898], [-47.02253641, -23.58192856], [-47.02227846, -23.58203912], [-47.02213926, -23.58222573], [-47.02208082, -23.58246637], [-47.02208327, -23.58251246], [-47.02199243, -23.58312405], [-47.02186959, -23.58370463], [-47.02171504, -23.58440867], [-47.02142818, -23.58511331], [-47.02113935, -23.58563547], [-47.02091031, -23.58588269], [-47.02064763, -23.58597694], [-47.02038109, -23.58719871], [-47.02039386, -23.58803235], [-47.0214139, -23.58960331], [-47.02303503, -23.59156961], [-47.02456494, -23.59154967], [-47.02701279, -23.59151774], [-47.02954688, -23.59211874], [-47.02956097, -23.59303449], [-47.02864844, -23.5933987], [-47.02766157, -23.59390478], [-47.02675769, -23.59483251], [-47.02616411, -23.59603802], [-47.02602519, -23.59695577], [-47.02580868, -23.59780407], [-47.02596709, -23.59815428], [-47.02582275, -23.59871982], [-47.02506317, -23.59908201], [-47.02430358, -23.5994442], [-47.02262598, -23.59981835], [-47.02178988, -23.60018152], [-47.02071888, -23.60019546], [-47.02009824, -23.59963989], [-47.01991826, -23.59788082], [-47.01989452, -23.59633108], [-47.01987509, -23.59506312], [-47.01849059, -23.59458793], [-47.01681196, -23.59489157], [-47.01567526, -23.5956109], [-47.01453855, -23.59633022], [-47.01349231, -23.5979643], [-47.01174572, -23.59883242], [-47.0104463, -23.59891971], [-47.00928484, -23.59801881], [-47.00829034, -23.59803168], [-47.00753285, -23.59853467], [-47.00755967, -23.60029575], [-47.00707778, -23.60382482], [-47.0057168, -23.60489927], [-47.00492252, -23.60480242], [-47.00248724, -23.60567934], [-47.00097105, -23.60661484], [-46.9998363, -23.60747495], [-46.9988663, -23.60910795], [-46.99686264, -23.61190803], [-46.99706621, -23.61352157], [-46.99719365, -23.61483923], [-46.99721115, -23.6159934], [-46.99730628, -23.61754237], [-46.99731878, -23.61836677], [-46.99709306, -23.62001881], [-46.99687334, -23.62206657], [-46.99653415, -23.62332428], [-46.9965146, -23.62433887], [-46.99696793, -23.62588322], [-46.99794506, -23.62653029], [-46.99921276, -23.62743747], [-46.99940287, -23.62816063], [-46.99960802, -23.62987308], [-46.99991712, -23.63135332], [-47.00011978, -23.63290089], [-46.99994819, -23.63339784], [-46.99888607, -23.6342361], [-46.99774578, -23.63464658], [-46.99620945, -23.63493023], [-46.99521894, -23.63576755], [-46.99479158, -23.63593796], [-46.99402393, -23.63745424], [-46.99403842, -23.63841055], [-46.99351857, -23.63957163], [-46.99289123, -23.64073409], [-46.99236537, -23.64149945], [-46.99134505, -23.64298428], [-46.99161568, -23.64343028], [-46.99186661, -23.64397455], [-46.99201114, -23.64465423], [-46.99201348, -23.64515825], [-46.99182631, -23.64622505], [-46.99158364, -23.64734552], [-46.99141379, -23.64790394], [-46.99113786, -23.64838913], [-46.99055655, -23.64909458], [-46.98818647, -23.65170818], [-46.98747988, -23.65230045], [-46.98638803, -23.65306345], [-46.98596384, -23.65365383], [-46.98574601, -23.6542931], [-46.98583857, -23.65461461], [-46.98601041, -23.65477066], [-46.98667265, -23.65509386], [-46.98685462, -23.65548846], [-46.98683632, -23.65608443], [-46.98660424, -23.65677053], [-46.98622421, -23.65753564], [-46.98621792, -23.65793029], [-46.98636404, -23.6581963], [-46.98654658, -23.65836058], [-46.98702144, -23.65851584], [-46.98792426, -23.65854141], [-46.98827551, -23.65861151], [-46.98853447, -23.65878192], [-46.98875947, -23.65909924], [-46.98900408, -23.65995327], [-46.98916227, -23.66090855], [-46.98913941, -23.66138343], [-46.98897523, -23.66186965], [-46.9887268, -23.66261702], [-46.98836725, -23.66365962], [-46.98814684, -23.66435486], [-46.98805805, -23.66476139], [-46.98810411, -23.6651213], [-46.98822846, -23.66531756], [-46.98833485, -23.66536281], [-46.9888583, -23.66564948], [-46.99010675, -23.6660856], [-46.99077468, -23.6663429], [-46.99193367, -23.66662102], [-46.99215289, -23.66666189], [-46.99234376, -23.66678379], [-46.99251748, -23.66703921], [-46.99275864, -23.6676737], [-46.99359024, -23.66928645], [-46.99394932, -23.6700801], [-46.99407221, -23.67032059], [-46.99430361, -23.6705928], [-46.99449621, -23.67073729], [-46.99471195, -23.67082691], [-46.99514267, -23.67133469], [-46.99505378, -23.67239938], [-46.99444702, -23.67395418], [-46.99546547, -23.67529466], [-46.99574276, -23.67625795], [-46.99709032, -23.6785127], [-46.99700586, -23.6798674], [-46.99702423, -23.68107574], [-46.99713295, -23.68131605], [-46.99631157, -23.68275552], [-46.99633656, -23.68439886], [-46.99729156, -23.685015], [-46.99863042, -23.68668973], [-46.99785872, -23.68776323], [-46.99645523, -23.6887482], [-46.99511526, -23.69045748], [-46.99540361, -23.69214577], [-46.99612175, -23.69445698], [-46.99756209, -23.69588868], [-46.99877761, -23.69635642], [-46.99958322, -23.69750624], [-47.0000468, -23.69940882], [-47.00067753, -23.70025339], [-47.00014496, -23.70179518], [-46.99917564, -23.70305837], [-46.99846898, -23.70534143], [-46.99849929, -23.70733073], [-46.99851921, -23.70863798], [-46.99884282, -23.70960022], [-47.00035342, -23.710909], [-47.00215366, -23.71145419], [-47.00390516, -23.71285272], [-47.00578547, -23.71459063], [-47.00605171, -23.71583784], [-47.00607346, -23.71725876], [-47.00547043, -23.718233], [-47.0042435, -23.71881738], [-47.0032019, -23.71939936], [-47.00477513, -23.72125496], [-47.00479425, -23.72250537], [-47.00463933, -23.72449706], [-47.00359419, -23.72516467], [-47.00206086, -23.72592356], [-47.00179101, -23.72848522], [-47.00306323, -23.73085636], [-47.00383336, -23.73272236], [-47.00477931, -23.73396075], [-47.00541895, -23.73537366], [-47.00576097, -23.73752944], [-47.00640761, -23.73939703], [-47.0073519, -23.74052172], [-47.00907391, -23.74235075], [-47.00911022, -23.744717], [-47.00834651, -23.74860837], [-47.00869735, -23.75134921], [-47.00857376, -23.75566627], [-47.00758818, -23.75851915], [-47.00677211, -23.7590031], [-47.00813182, -23.76040546], [-47.00866821, -23.76181852], [-47.01043964, -23.76321551], [-47.0120009, -23.7643312], [-47.01224315, -23.76669476], [-47.01341609, -23.7693302], [-47.01311751, -23.76999677], [-47.01158238, -23.77058479], [-47.0123349, -23.7726577], [-47.01193775, -23.77360956], [-47.01009233, -23.77410695], [-47.00937911, -23.77458958], [-47.00887901, -23.77554277], [-47.00888919, -23.77620532], [-47.00881971, -23.77838361], [-47.00986649, -23.77950601], [-47.0101913, -23.78054313], [-47.01072635, -23.78186153], [-47.01177172, -23.78288926], [-47.01353619, -23.78381293], [-47.01498459, -23.78426737], [-47.01634028, -23.78538568], [-47.01791064, -23.78706919], [-47.0188911, -23.78880994], [-47.01896926, -23.78894871], [-47.02123686, -23.78910836], [-47.02330004, -23.78936532], [-47.0245806, -23.79008707], [-47.02480409, -23.79122016]]]]}}]}