{"type": "FeatureCollection", "features": [{"type": "Feature", "properties": {"name": "Área de Relevante Interesse Ecológico Leopoldo Magno Coutinho"}, "geometry": {"type": "MultiPolygon", "coordinates": [[[[-48.99239648, -22.37270121], [-48.99455771, -22.37462031], [-48.9961329, -22.37297691], [-48.9940325, -22.37111593], [-48.99239648, -22.37270121]]], [[[-49.0427595, -22.35461013], [-49.04291083, -22.35431647], [-49.04132259, -22.35382418], [-49.04161378, -22.35283853], [-49.04079916, -22.35212687], [-49.04035678, -22.35125355], [-49.03891855, -22.35038017], [-49.0382219, -22.34994685], [-49.03813436, -22.34867114], [-49.03794573, -22.34851584], [-49.03787219, -22.34853734], [-49.03645699, -22.34900414], [-49.03612942, -22.35384349], [-49.04030172, -22.35448235], [-49.04097484, -22.3545854], [-49.03966674, -22.35641162], [-49.0412407, -22.3568249], [-49.04177697, -22.35484589], [-49.04240684, -22.35498969], [-49.0427595, -22.35461013]]], [[[-49.03697765, -22.34700328], [-49.03713868, -22.34640098], [-49.03747835, -22.34646459], [-49.037552, -22.34615726], [-49.03760844, -22.34597875], [-49.03780837, -22.34545791], [-49.03798147, -22.34520197], [-49.03819249, -22.34498949], [-49.03836681, -22.3448173], [-49.03845971, -22.34463505], [-49.03862572, -22.3442985], [-49.03763583, -22.34402225], [-49.03771044, -22.34363035], [-49.03900377, -22.34389689], [-49.03989624, -22.34390172], [-49.03994687, -22.34303622], [-49.03914732, -22.34156405], [-49.03836846, -22.34157556], [-49.0380043, -22.34098577], [-49.03747222, -22.34046563], [-49.03760517, -22.3392248], [-49.03722521, -22.33899724], [-49.03698419, -22.33955178], [-49.03626288, -22.33930664], [-49.03322454, -22.3385808], [-49.03321627, -22.33901229], [-49.03303718, -22.33896233], [-49.03299649, -22.33911713], [-49.03229879, -22.33915991], [-49.03212957, -22.33912452], [-49.03217194, -22.33885027], [-49.03230381, -22.33863084], [-49.03230686, -22.33831081], [-49.03041691, -22.33779759], [-49.03015857, -22.34048038], [-49.03074671, -22.34208461], [-49.03111615, -22.34332603], [-49.03181915, -22.3453418], [-49.03184091, -22.34532951], [-49.03188899, -22.3454601], [-49.03224268, -22.34588014], [-49.03237357, -22.34596858], [-49.0339338, -22.3450081], [-49.03370821, -22.34467462], [-49.03430328, -22.34432515], [-49.03453572, -22.34464166], [-49.03513998, -22.34429281], [-49.0352934, -22.34419892], [-49.03536972, -22.34415222], [-49.03758557, -22.34475181], [-49.03725267, -22.34605591], [-49.03720056, -22.34610904], [-49.03575757, -22.34689793], [-49.03650441, -22.3481315], [-49.03690794, -22.34866204], [-49.03821744, -22.34823589], [-49.03708046, -22.34791485], [-49.03735375, -22.34710819], [-49.03697765, -22.34700328]]], [[[-49.02918007, -22.3462338], [-49.02948827, -22.34660073], [-49.02953445, -22.34696924], [-49.02980909, -22.34680055], [-49.03006932, -22.34656001], [-49.03021716, -22.34627509], [-49.0307215, -22.34620955], [-49.02969483, -22.34542771], [-49.02959318, -22.34535002], [-49.02940667, -22.34546243], [-49.0289872, -22.34533786], [-49.02868955, -22.34495195], [-49.02871902, -22.34477007], [-49.0284929, -22.34477688], [-49.02831056, -22.34459307], [-49.02842557, -22.34445111], [-49.02861033, -22.34446292], [-49.02886894, -22.34461486], [-49.0289859, -22.34433435], [-49.02844148, -22.34404991], [-49.02886002, -22.34351024], [-49.03117569, -22.34532626], [-49.03125786, -22.34532726], [-49.03128962, -22.34526074], [-49.03129529, -22.34505249], [-49.03110133, -22.34440309], [-49.03069716, -22.34318919], [-49.03041603, -22.34235908], [-49.03006461, -22.34141342], [-49.02997431, -22.34125941], [-49.02983091, -22.341229], [-49.02977001, -22.34117569], [-49.02970372, -22.34114143], [-49.02952816, -22.3412062], [-49.02897059, -22.34140489], [-49.02883931, -22.34207782], [-49.02845927, -22.34216279], [-49.0283625, -22.3419088], [-49.02816693, -22.34193509], [-49.02811266, -22.34177674], [-49.02794368, -22.34137328], [-49.02788606, -22.34067699], [-49.02736166, -22.34075453], [-49.02732412, -22.34123193], [-49.02701657, -22.34118518], [-49.02650667, -22.34098268], [-49.02647769, -22.34078677], [-49.02628759, -22.34078923], [-49.02629022, -22.3406029], [-49.02659931, -22.34053977], [-49.0265534, -22.34015214], [-49.02721328, -22.33998338], [-49.02757906, -22.33990659], [-49.02682754, -22.33892261], [-49.02665434, -22.33882015], [-49.02529402, -22.33985008], [-49.02540013, -22.33997562], [-49.0259822, -22.34058959], [-49.0259907, -22.34144506], [-49.02579879, -22.34157652], [-49.02546006, -22.34174994], [-49.02533413, -22.34174288], [-49.02504513, -22.34157763], [-49.02501921, -22.34149056], [-49.02465037, -22.34141916], [-49.02456903, -22.34118954], [-49.02462534, -22.3410079], [-49.02477489, -22.34096671], [-49.02478691, -22.34084262], [-49.02445849, -22.3408195], [-49.02415007, -22.34083485], [-49.02406222, -22.34087201], [-49.02410541, -22.34108757], [-49.02402048, -22.34138594], [-49.02387844, -22.34151965], [-49.02373788, -22.34165174], [-49.02365173, -22.34193262], [-49.0237206, -22.3421485], [-49.0238828, -22.34230339], [-49.02408, -22.34252561], [-49.02424484, -22.34285734], [-49.02442982, -22.34321799], [-49.02466176, -22.34352665], [-49.02476354, -22.34359479], [-49.02497541, -22.34386975], [-49.02510699, -22.34400993], [-49.02516687, -22.34413491], [-49.02529359, -22.34425592], [-49.02535428, -22.34432356], [-49.02549634, -22.34444953], [-49.02567273, -22.34469061], [-49.02576856, -22.34481602], [-49.02588035, -22.3449034], [-49.02601686, -22.34505798], [-49.02608188, -22.34518301], [-49.02621461, -22.34524197], [-49.02641669, -22.34548336], [-49.02670967, -22.34583577], [-49.02708375, -22.34626562], [-49.02726122, -22.34643025], [-49.02756421, -22.34680189], [-49.02772628, -22.34696634], [-49.02794796, -22.34727487], [-49.02819732, -22.34707721], [-49.02857172, -22.34711999], [-49.02855354, -22.3462214], [-49.02918007, -22.3462338]]], [[[-48.99619706, -22.31927189], [-48.99880127, -22.31807957], [-49.00053947, -22.31728867], [-48.99988388, -22.31689232], [-48.99869933, -22.31667462], [-48.99789683, -22.31667665], [-48.99771677, -22.31669832], [-48.99742066, -22.3167544], [-48.99614645, -22.3169716], [-48.99628723, -22.31736911], [-48.99628385, -22.3176056], [-48.99622676, -22.3178271], [-48.99607104, -22.31808407], [-48.99592425, -22.31814557], [-48.99565304, -22.3182557], [-48.99547846, -22.31834314], [-48.99518422, -22.31826782], [-48.99509419, -22.31827866], [-48.99489385, -22.31837175], [-48.99496942, -22.31847423], [-48.99460569, -22.31853265], [-48.9945303, -22.31865396], [-48.99431746, -22.31872301], [-48.9942537, -22.31869235], [-48.99402751, -22.31879707], [-48.99352925, -22.31862365], [-48.99313455, -22.31876896], [-48.99308902, -22.31888102], [-48.99321252, -22.31922302], [-48.99321723, -22.31934254], [-48.99330607, -22.31941532], [-48.99319576, -22.31949758], [-48.9926762, -22.3196006], [-48.99255928, -22.31956137], [-48.99188309, -22.3197083], [-48.99181719, -22.31982695], [-48.99166776, -22.31995053], [-48.99139005, -22.32006655], [-48.99138013, -22.32031133], [-48.99154008, -22.32034915], [-48.99151912, -22.32046835], [-48.99143449, -22.3205143], [-48.99156739, -22.32068398], [-48.99162987, -22.32080422], [-48.9915893, -22.32094707], [-48.99148762, -22.32095592], [-48.99127675, -22.32080582], [-48.99097703, -22.32066472], [-48.9907605, -22.32054257], [-48.99072354, -22.32088258], [-48.99071455, -22.32106167], [-48.99060569, -22.3210424], [-48.99056238, -22.32092837], [-48.9904863, -22.32086172], [-48.99036425, -22.32086618], [-48.99032814, -22.32069849], [-48.99022604, -22.32065541], [-48.99015551, -22.32064856], [-48.99006993, -22.32034884], [-48.98992726, -22.32000063], [-48.98977578, -22.31981956], [-48.98960684, -22.31996082], [-48.98937756, -22.31981327], [-48.98943719, -22.31817982], [-48.98654778, -22.31884171], [-48.98633451, -22.31894061], [-48.98637105, -22.31907844], [-48.9870907, -22.31992959], [-48.98837905, -22.32186296], [-48.98845556, -22.32189975], [-48.9885883, -22.32204475], [-48.98862422, -22.32224997], [-48.98887552, -22.32260979], [-48.99252062, -22.3209168], [-48.99508501, -22.31981961], [-48.99607348, -22.31938385], [-48.99619706, -22.31927189]]], [[[-49.00125609, -22.31689775], [-49.00123637, -22.31689291], [-49.00114719, -22.31693404], [-49.00125609, -22.31689775]]], [[[-49.00841184, -22.31353094], [-49.00874845, -22.31333437], [-49.01020183, -22.31261154], [-49.01113279, -22.31214989], [-49.01185599, -22.31185293], [-49.01214033, -22.30990677], [-49.01222716, -22.30921494], [-49.01234777, -22.30867644], [-49.01188499, -22.30853126], [-49.01105277, -22.30837385], [-49.01076104, -22.30830337], [-49.01048952, -22.30825703], [-49.00690304, -22.30730506], [-49.00645221, -22.30722784], [-49.00590869, -22.3071686], [-49.00560589, -22.30715532], [-49.0051687, -22.3072025], [-49.00453464, -22.30737151], [-49.00370472, -22.30770133], [-49.0030446, -22.3081464], [-49.00524376, -22.31198276], [-49.00136715, -22.31448263], [-49.0005928, -22.31370707], [-48.99982266, -22.31297124], [-48.99875374, -22.31194022], [-48.99605816, -22.31432998], [-48.99591123, -22.31463364], [-48.99581073, -22.31483788], [-48.99580685, -22.3151102], [-48.99627473, -22.31507298], [-48.996661, -22.31499652], [-48.99681634, -22.31490765], [-48.99778539, -22.31609992], [-48.99812861, -22.3161615], [-48.99839049, -22.31616473], [-48.99889884, -22.31617101], [-48.99956447, -22.31631302], [-49.00034157, -22.31656154], [-49.00080571, -22.31678707], [-49.00123637, -22.31689291], [-49.00455492, -22.31536225], [-49.00606523, -22.31466559], [-49.00791565, -22.31375421], [-49.00841184, -22.31353094]]], [[[-49.0092024, -22.295847], [-49.01014159, -22.29570322], [-49.01045343, -22.29543945], [-49.01057714, -22.294318], [-49.0106499, -22.29425677], [-49.01061518, -22.29417033], [-49.0106824, -22.29413771], [-49.01074319, -22.29419579], [-49.01087634, -22.29422132], [-49.01085311, -22.29404901], [-49.01061241, -22.29400305], [-49.01153678, -22.29218419], [-49.01336727, -22.29273703], [-49.01243177, -22.29461789], [-49.01242015, -22.29471332], [-49.01287837, -22.29499131], [-49.01411043, -22.29465278], [-49.01795547, -22.29363896], [-49.01833134, -22.2935671], [-49.01848915, -22.29366459], [-49.01881923, -22.29392667], [-49.01928098, -22.29431937], [-49.01962653, -22.29457686], [-49.01995235, -22.29477675], [-49.02044052, -22.29511721], [-49.02070487, -22.2953068], [-49.02104131, -22.29548294], [-49.02129985, -22.29572024], [-49.02175229, -22.29604592], [-49.02236694, -22.29652172], [-49.02304306, -22.29700782], [-49.02396336, -22.29765936], [-49.02458876, -22.29810183], [-49.02480792, -22.29821919], [-49.02497148, -22.29827374], [-49.02517085, -22.29833829], [-49.02531279, -22.29846904], [-49.0256077, -22.29867811], [-49.02589767, -22.29887279], [-49.02620838, -22.29905338], [-49.02690883, -22.29927216], [-49.02821876, -22.29961067], [-49.0293729, -22.29762411], [-49.02951733, -22.29757808], [-49.03014805, -22.29654401], [-49.03086497, -22.29668651], [-49.03107686, -22.29695668], [-49.03038863, -22.2984297], [-49.03037488, -22.29867802], [-49.03024246, -22.29859995], [-49.03006473, -22.29809126], [-49.03002845, -22.29814409], [-49.02987601, -22.29836613], [-49.02930104, -22.29908549], [-49.02912152, -22.29940896], [-49.02907977, -22.2994842], [-49.02917816, -22.29979123], [-49.02971932, -22.30001762], [-49.03032537, -22.30015994], [-49.03038501, -22.30015953], [-49.03083517, -22.29982848], [-49.03106836, -22.30014136], [-49.03146689, -22.29990504], [-49.03167417, -22.29922291], [-49.03190629, -22.29786513], [-49.03255483, -22.29699444], [-49.03310851, -22.29625108], [-49.0336367, -22.29554194], [-49.03474861, -22.29390457], [-49.03437772, -22.29372814], [-49.03388995, -22.2935375], [-49.03351973, -22.2933928], [-49.03339302, -22.29355158], [-49.03302812, -22.29339839], [-49.03305027, -22.29316442], [-49.03189853, -22.2925702], [-49.0321893, -22.29200584], [-49.03189201, -22.29188998], [-49.03222886, -22.29139474], [-49.03244217, -22.29148166], [-49.03266402, -22.29108441], [-49.03129618, -22.29025915], [-49.02781634, -22.29113478], [-49.02665615, -22.2914267], [-49.02686535, -22.29063392], [-49.02691285, -22.29053783], [-49.02675099, -22.29048831], [-49.02616663, -22.29049315], [-49.02604999, -22.29049412], [-49.02192344, -22.29011833], [-49.02172997, -22.29045877], [-49.02144676, -22.29042934], [-49.02073586, -22.29031285], [-49.02015792, -22.2912424], [-49.01978989, -22.29112322], [-49.02029259, -22.28996978], [-49.02019514, -22.2899609], [-49.0168509, -22.28965624], [-49.01534731, -22.28951924], [-49.01037788, -22.28906634], [-49.00956269, -22.28899203], [-49.00724212, -22.28878047], [-49.0059505, -22.29497649], [-49.00613049, -22.2950232], [-49.0062377, -22.29506752], [-49.00638571, -22.29513147], [-49.00653885, -22.29519547], [-49.00674272, -22.2953031], [-49.00696159, -22.29543959], [-49.00708393, -22.29550321], [-49.00720627, -22.29556684], [-49.00732327, -22.29564473], [-49.00746635, -22.29569428], [-49.00753242, -22.29574287], [-49.00768583, -22.29578776], [-49.00778304, -22.29581285], [-49.00791592, -22.29585749], [-49.00807413, -22.29592633], [-49.00816101, -22.29595607], [-49.00824281, -22.29598097], [-49.00830381, -22.29602472], [-49.00838549, -22.29605918], [-49.00846236, -22.29606968], [-49.00857511, -22.2960854], [-49.00878913, -22.29602112], [-49.0092024, -22.295847]]], [[[-48.98627347, -22.38003891], [-48.98677872, -22.37956258], [-48.98715043, -22.37979657], [-48.98788925, -22.37910488], [-48.98854073, -22.37887251], [-48.9893059, -22.37854275], [-48.98966707, -22.37879572], [-48.99125936, -22.37883119], [-48.99145789, -22.37788616], [-48.99005741, -22.3770182], [-48.98969266, -22.37737205], [-48.98937114, -22.37757831], [-48.98912148, -22.37743185], [-48.98864834, -22.37710581], [-48.98856216, -22.37691028], [-48.98856628, -22.37662362], [-48.98828631, -22.37619818], [-48.98827844, -22.37603083], [-48.98837948, -22.37579317], [-48.98821353, -22.37554262], [-48.98788395, -22.37523748], [-48.98755505, -22.37524294], [-48.98742265, -22.37516006], [-48.98737869, -22.37500183], [-48.98724198, -22.37486155], [-48.98695842, -22.3749297], [-48.98669773, -22.37233652], [-48.98844028, -22.37120658], [-48.98850453, -22.3710258], [-48.98750351, -22.36989519], [-48.98700443, -22.3700099], [-48.98650049, -22.37021866], [-48.98595545, -22.37036333], [-48.9855081, -22.36956121], [-48.98435742, -22.36823613], [-48.98436203, -22.36791603], [-48.98411056, -22.36754017], [-48.98396756, -22.36748105], [-48.98353263, -22.36760133], [-48.98326243, -22.3676338], [-48.98303231, -22.36755925], [-48.98288441, -22.36712735], [-48.98296182, -22.36703845], [-48.98289049, -22.36664095], [-48.98251623, -22.36623011], [-48.98241815, -22.36626234], [-48.98228173, -22.36610295], [-48.98228453, -22.36597304], [-48.98195767, -22.36577397], [-48.98153036, -22.36583554], [-48.98123813, -22.36579367], [-48.98090304, -22.36551712], [-48.98084881, -22.36535875], [-48.98063145, -22.36511234], [-48.98035552, -22.36500855], [-48.98022631, -22.36470589], [-48.9796995, -22.36400883], [-48.99221647, -22.3630489], [-48.99426896, -22.36719219], [-48.98906945, -22.36926074], [-48.99069433, -22.37292303], [-48.99139499, -22.37200586], [-48.99266454, -22.37015452], [-48.99282093, -22.36998766], [-48.99411406, -22.37109326], [-48.99563733, -22.36995607], [-48.99548403, -22.36854791], [-48.99936722, -22.36642662], [-48.99962749, -22.36630195], [-48.99996591, -22.36609641], [-49.00034562, -22.36608064], [-49.00063134, -22.36609951], [-49.00373236, -22.36693068], [-49.00554924, -22.36602209], [-49.00614486, -22.36590666], [-49.00760736, -22.36555125], [-49.00883846, -22.36522367], [-49.01028685, -22.36469926], [-49.01072147, -22.36468926], [-49.01360309, -22.36548173], [-49.01376248, -22.3654888], [-49.01393483, -22.36535792], [-49.01481199, -22.36245292], [-49.01499591, -22.36228125], [-49.01565279, -22.36211027], [-49.01616577, -22.36200402], [-49.01635417, -22.36190402], [-49.01646227, -22.36164958], [-49.01643716, -22.36148046], [-49.01423312, -22.36126252], [-49.0112328, -22.36054235], [-49.01103568, -22.35995217], [-49.00954882, -22.35865802], [-49.00936587, -22.35851719], [-49.00850668, -22.35815381], [-49.00826559, -22.35794776], [-49.00823586, -22.35778014], [-49.00830238, -22.35626378], [-49.00824199, -22.35599424], [-49.00750469, -22.35455759], [-49.00744697, -22.35364896], [-49.00759281, -22.3533282], [-49.00803243, -22.35221663], [-49.00811537, -22.35135154], [-49.0078446, -22.35052391], [-49.00754602, -22.34984527], [-49.00210652, -22.34628993], [-49.00211507, -22.3461407], [-48.9928798, -22.35298519], [-48.99340412, -22.35314101], [-48.99359887, -22.35344208], [-48.9935559, -22.35375215], [-48.99427009, -22.35365349], [-48.99471661, -22.35431009], [-48.99511694, -22.35485002], [-48.99526853, -22.35523081], [-48.99564856, -22.35584217], [-48.99608603, -22.35668383], [-48.99644677, -22.35725834], [-48.9965805, -22.35778563], [-48.99711807, -22.358608], [-48.9974253, -22.3588832], [-48.99809485, -22.35921403], [-48.99823185, -22.35930869], [-48.9992319, -22.35972482], [-48.99950062, -22.35925507], [-48.99960826, -22.35891235], [-49.00000145, -22.35907968], [-49.00012793, -22.35885665], [-49.0006755, -22.3590701], [-49.00105647, -22.35937346], [-49.00153892, -22.36042135], [-49.00191947, -22.36075457], [-49.0019491, -22.36092816], [-49.00239247, -22.36090974], [-49.00258946, -22.36105553], [-49.00276576, -22.36109691], [-49.00366635, -22.36098856], [-49.00575252, -22.36080782], [-49.00579066, -22.36128614], [-49.00688851, -22.36130564], [-49.0076683, -22.36111215], [-49.00781705, -22.36149029], [-49.00765551, -22.36155998], [-49.00677392, -22.36168651], [-49.00672421, -22.36202039], [-49.0063195, -22.36221013], [-49.00608485, -22.36209256], [-49.00535484, -22.36212657], [-49.00425514, -22.36214646], [-49.00222796, -22.36199721], [-49.00153901, -22.36155962], [-49.00144169, -22.36129462], [-49.00085078, -22.36130166], [-48.99999229, -22.36104474], [-48.99965268, -22.36099276], [-48.99924945, -22.36089818], [-48.99890351, -22.36084014], [-48.9982825, -22.36070703], [-48.99780326, -22.36053983], [-48.99623661, -22.36007245], [-48.99613104, -22.36011556], [-48.99449472, -22.36209271], [-48.98432341, -22.36239163], [-48.98410469, -22.36188239], [-48.9839569, -22.36179931], [-48.98337586, -22.36183508], [-48.98240238, -22.36200931], [-48.98236645, -22.36165047], [-48.98225799, -22.36133374], [-48.98206966, -22.36121193], [-48.98204708, -22.36099662], [-48.98173119, -22.36045749], [-48.98156123, -22.3604628], [-48.98091739, -22.35525793], [-48.97815947, -22.35627477], [-48.9782373, -22.35657678], [-48.97873996, -22.35947881], [-48.97776486, -22.36083327], [-48.97608426, -22.35981356], [-48.9768179, -22.35846088], [-48.97693041, -22.35849573], [-48.97712501, -22.35818278], [-48.97686753, -22.35680337], [-48.97658803, -22.35694801], [-48.97587994, -22.35724498], [-48.97443233, -22.35930072], [-48.97333201, -22.35889657], [-48.9722774, -22.35855484], [-48.97277488, -22.35810447], [-48.9732161, -22.35778984], [-48.9735487, -22.35752641], [-48.97280702, -22.35745646], [-48.97245779, -22.3571833], [-48.97223128, -22.35697472], [-48.97159234, -22.35708286], [-48.97069176, -22.35719103], [-48.97001979, -22.35703328], [-48.97028352, -22.35655874], [-48.9699048, -22.35610601], [-48.96953636, -22.35576544], [-48.96928086, -22.35567145], [-48.96908048, -22.35567371], [-48.96805417, -22.3553063], [-48.96752884, -22.35498048], [-48.9655739, -22.35482213], [-48.96389034, -22.3543709], [-48.96283459, -22.35404533], [-48.96270344, -22.35466684], [-48.96282646, -22.3547589], [-48.96322153, -22.35479255], [-48.96326893, -22.35506551], [-48.96361548, -22.35525623], [-48.96436318, -22.35533952], [-48.96612084, -22.35571779], [-48.96629228, -22.35593975], [-48.96641222, -22.35617062], [-48.96687719, -22.35634371], [-48.96684899, -22.35641123], [-48.96678391, -22.35675348], [-48.96610343, -22.35679866], [-48.96360394, -22.35640291], [-48.96340841, -22.35677795], [-48.96364419, -22.35752157], [-48.96379278, -22.35825454], [-48.96384442, -22.35894328], [-48.96712862, -22.35884121], [-48.96713845, -22.35710198], [-48.96848524, -22.35748195], [-48.96917806, -22.35821976], [-48.97018124, -22.35845764], [-48.97201752, -22.35896466], [-48.9745035, -22.36028429], [-48.97658346, -22.36153049], [-48.97725861, -22.36236395], [-48.97755207, -22.36276111], [-48.97786832, -22.36291797], [-48.97807871, -22.36293493], [-48.97900545, -22.36457596], [-48.97250731, -22.37338737], [-48.9681965, -22.37410739], [-48.96758709, -22.37467793], [-48.96781439, -22.37989883], [-48.97030929, -22.3765088], [-48.97228036, -22.37825958], [-48.97669359, -22.38234203], [-48.98107948, -22.38646473], [-48.98411487, -22.38220048], [-48.98439451, -22.38171186], [-48.98510363, -22.38099437], [-48.98627347, -22.38003891]], [[-48.99692539, -22.35329594], [-48.99683023, -22.35324569], [-48.99684202, -22.35318369], [-48.99713543, -22.35320259], [-48.9973527, -22.35327696], [-48.99757706, -22.35330362], [-48.99766644, -22.35334057], [-48.99774418, -22.35329551], [-48.99775297, -22.35312661], [-48.9977868, -22.35302918], [-48.99776255, -22.35290572], [-48.99782221, -22.35277505], [-48.99797649, -22.35272213], [-48.99809503, -22.35262522], [-48.99822087, -22.35248586], [-48.99825006, -22.35238211], [-48.99817988, -22.35224124], [-48.99802792, -22.3522382], [-48.99787754, -22.35237695], [-48.99763653, -22.35247424], [-48.99699084, -22.35253457], [-48.99676062, -22.35251568], [-48.99659985, -22.35265461], [-48.9964694, -22.35267552], [-48.99630852, -22.35266006], [-48.99626256, -22.35271001], [-48.99621688, -22.35283119], [-48.99536353, -22.35312914], [-48.99528245, -22.35300644], [-48.99534262, -22.35283993], [-48.99569366, -22.35209167], [-48.99581615, -22.35160936], [-48.99654914, -22.35123173], [-48.99657628, -22.35099159], [-48.99733367, -22.35127906], [-48.99768877, -22.35087991], [-48.99787349, -22.35082319], [-48.99804378, -22.35096416], [-48.99831195, -22.35085775], [-48.99823755, -22.35067167], [-48.99887106, -22.35042896], [-48.99920143, -22.35096518], [-48.99928956, -22.3511498], [-48.99944542, -22.35113419], [-48.99975637, -22.35099837], [-49.00005132, -22.35096216], [-49.00014315, -22.35077884], [-49.00026808, -22.35081164], [-49.00043126, -22.35104546], [-49.00050973, -22.35118954], [-49.00060526, -22.35124448], [-49.00063388, -22.35138307], [-49.00044135, -22.35148138], [-49.00042638, -22.35163052], [-49.00064415, -22.35166905], [-49.00077315, -22.35162883], [-49.0008541, -22.35167394], [-49.0008832, -22.35180478], [-49.00103972, -22.35180067], [-49.00114169, -22.3518576], [-49.00133481, -22.35186872], [-49.00175398, -22.35175595], [-49.00201149, -22.35173398], [-49.00233293, -22.35167198], [-49.00246886, -22.35159601], [-49.00290254, -22.35180444], [-49.00342834, -22.35211808], [-49.00358466, -22.35215332], [-49.00370477, -22.35228622], [-49.00395329, -22.35242069], [-49.00407493, -22.35244608], [-49.00420593, -22.35257922], [-49.00592589, -22.35368741], [-49.00571695, -22.35392974], [-49.0056343, -22.35432295], [-49.00561578, -22.35485973], [-49.00567764, -22.3549019], [-49.00572893, -22.35497508], [-49.00381695, -22.3547784], [-48.99986925, -22.35425653], [-48.99932349, -22.35421522], [-48.99927594, -22.35416155], [-48.99886319, -22.35395541], [-48.99873564, -22.35391278], [-48.99866052, -22.35380327], [-48.99863933, -22.35362003], [-48.99873989, -22.35348587], [-48.99840268, -22.35337352], [-48.99824709, -22.353471], [-48.99807997, -22.35369739], [-48.99804279, -22.35383162], [-48.998293, -22.35398147], [-48.99841936, -22.35412639], [-48.99801751, -22.35411056], [-48.99734585, -22.35411919], [-48.99728336, -22.35407671], [-48.99733501, -22.35391343], [-48.99722775, -22.35355137], [-48.99692539, -22.35329594]]], [[[-48.98526959, -22.35152629], [-48.98605849, -22.35167946], [-48.98638837, -22.35160233], [-48.98697321, -22.35165738], [-48.98745724, -22.35157739], [-48.9874719, -22.35127175], [-48.98964764, -22.35107897], [-48.99036075, -22.35042839], [-48.99296775, -22.34845854], [-48.99112959, -22.34647737], [-48.99198052, -22.34588583], [-48.99168484, -22.34514069], [-48.99121309, -22.3443655], [-48.98957257, -22.34234773], [-48.99691246, -22.34022623], [-48.99710949, -22.33851945], [-48.99747296, -22.33768951], [-48.99868043, -22.33631957], [-48.99927163, -22.33535483], [-48.99949633, -22.33485755], [-48.99942955, -22.33467753], [-48.99791606, -22.33383453], [-48.99681549, -22.33321167], [-48.99491242, -22.3310593], [-48.99454168, -22.32930994], [-48.99493773, -22.32963022], [-48.99529076, -22.329367], [-48.99419779, -22.32821618], [-48.99315086, -22.32896059], [-48.99210641, -22.32792268], [-48.99072192, -22.32704538], [-48.98909687, -22.32288703], [-48.98856529, -22.3227084], [-48.98818255, -22.32289479], [-48.98873532, -22.32402864], [-48.98643167, -22.3250264], [-48.98566104, -22.32392011], [-48.98190109, -22.3256008], [-48.98162747, -22.32587694], [-48.98177691, -22.32617922], [-48.98130423, -22.32638899], [-48.9814793, -22.32687317], [-48.98190005, -22.32746849], [-48.98223022, -22.33037083], [-48.98144119, -22.33029202], [-48.97943335, -22.33112674], [-48.97832514, -22.32854934], [-48.97575196, -22.3296179], [-48.97614355, -22.33145131], [-48.97425663, -22.33160514], [-48.97453213, -22.33263288], [-48.97457128, -22.33276717], [-48.97449483, -22.33308159], [-48.97452736, -22.33367453], [-48.97462731, -22.33386691], [-48.9748412, -22.33399383], [-48.97543987, -22.33396377], [-48.9754895, -22.3353399], [-48.97402199, -22.33558028], [-48.97144378, -22.33538316], [-48.97043393, -22.33542068], [-48.96962468, -22.33543921], [-48.96933903, -22.33547864], [-48.96893799, -22.33657026], [-48.96796579, -22.33932479], [-48.96865995, -22.33980657], [-48.96783778, -22.34090178], [-48.98046173, -22.35177868], [-48.98195739, -22.35080569], [-48.98179395, -22.35068356], [-48.98211037, -22.35011409], [-48.98183591, -22.34990997], [-48.98248272, -22.34836727], [-48.98246452, -22.34820458], [-48.98283332, -22.34699796], [-48.98317656, -22.34670597], [-48.98322945, -22.34573885], [-48.98316772, -22.34503087], [-48.98300874, -22.34465617], [-48.98272988, -22.34421256], [-48.98792822, -22.34274782], [-48.99023931, -22.34528522], [-48.98287797, -22.35101388], [-48.98288907, -22.35120038], [-48.98371472, -22.35141136], [-48.98388196, -22.35121275], [-48.98481371, -22.3514346], [-48.98526959, -22.35152629]]], [[[-48.9225136, -22.36115959], [-48.92260435, -22.36127544], [-48.92330895, -22.3610968], [-48.92368864, -22.36090708], [-48.92384093, -22.36067256], [-48.92393355, -22.36032727], [-48.92424342, -22.36011799], [-48.92446086, -22.3599149], [-48.92675017, -22.35818072], [-48.92823034, -22.35741019], [-48.92887946, -22.35719855], [-48.92908762, -22.35721013], [-48.92928681, -22.3572488], [-48.92973624, -22.35840424], [-48.93052348, -22.35827704], [-48.93043295, -22.35785536], [-48.93032373, -22.35775746], [-48.93035188, -22.35758844], [-48.93021964, -22.3573122], [-48.92999476, -22.35708414], [-48.92977063, -22.35680463], [-48.92982075, -22.35668946], [-48.92996626, -22.35667202], [-48.9301112, -22.35669317], [-48.93019305, -22.35677143], [-48.9305556, -22.35676555], [-48.93051553, -22.35460737], [-48.9313985, -22.35452254], [-48.93160324, -22.35448616], [-48.93171345, -22.35358041], [-48.93187222, -22.35360174], [-48.93202483, -22.35357152], [-48.93204814, -22.35339811], [-48.93184955, -22.35181117], [-48.93215562, -22.35173957], [-48.93267555, -22.351782], [-48.9327905, -22.3498491], [-48.93309278, -22.34887129], [-48.93347551, -22.34869459], [-48.93365146, -22.34812285], [-48.93426401, -22.3465763], [-48.93424773, -22.34635547], [-48.93397777, -22.34590166], [-48.93378276, -22.3458844], [-48.93344368, -22.34272299], [-48.93353575, -22.34257619], [-48.93368864, -22.34252667], [-48.93403296, -22.34262757], [-48.93460633, -22.3423729], [-48.93501353, -22.34192892], [-48.9349533, -22.34165494], [-48.93519257, -22.3413749], [-48.9360033, -22.3403301], [-48.9361649, -22.34015844], [-48.93641951, -22.33977566], [-48.93680512, -22.33942028], [-48.93807094, -22.33870902], [-48.93824484, -22.33875901], [-48.93829338, -22.33895077], [-48.93823823, -22.3392081], [-48.93858506, -22.33937498], [-48.9387359, -22.3395967], [-48.93878979, -22.34012301], [-48.93880162, -22.34076468], [-48.93882521, -22.34109599], [-48.93910943, -22.34112609], [-48.93942626, -22.34089748], [-48.93978434, -22.34048971], [-48.93995043, -22.34013778], [-48.94027347, -22.33982651], [-48.94105174, -22.34040421], [-48.95270532, -22.32706328], [-48.95862885, -22.3290304], [-48.96226863, -22.3300735], [-48.96630442, -22.33140134], [-48.96799923, -22.33206181], [-48.97021132, -22.3318804], [-48.97061019, -22.33129286], [-48.96996196, -22.32994677], [-48.97108878, -22.32945437], [-48.97092386, -22.32878332], [-48.97045077, -22.32772683], [-48.96999919, -22.32725422], [-48.96956402, -22.32763464], [-48.96900206, -22.32516485], [-48.96737575, -22.32467091], [-48.96576003, -22.32512969], [-48.96445229, -22.32356629], [-48.96179722, -22.32322355], [-48.95976504, -22.32357775], [-48.95556763, -22.32437303], [-48.9537464, -22.32467259], [-48.95065664, -22.32523085], [-48.94900176, -22.32556829], [-48.94840359, -22.32564434], [-48.94802963, -22.3257531], [-48.94749294, -22.32601509], [-48.9469513, -22.32617547], [-48.94604528, -22.32622969], [-48.94558963, -22.32621794], [-48.94526192, -22.32623768], [-48.94497246, -22.32627582], [-48.94035698, -22.32711317], [-48.93949306, -22.32725393], [-48.93952216, -22.32786938], [-48.9397468, -22.32962232], [-48.93988157, -22.33137412], [-48.93978537, -22.33136693], [-48.93785694, -22.33196358], [-48.93400496, -22.33325843], [-48.93378522, -22.33248511], [-48.93392714, -22.33243914], [-48.9338037, -22.33166705], [-48.9342234, -22.33150516], [-48.93479786, -22.33086143], [-48.93479137, -22.33071707], [-48.93423892, -22.33069684], [-48.93379216, -22.33107511], [-48.93318402, -22.33081579], [-48.93300441, -22.33105018], [-48.93211198, -22.33016657], [-48.93161447, -22.32982565], [-48.93168551, -22.32969788], [-48.93127894, -22.32875246], [-48.92989781, -22.32902368], [-48.93032929, -22.32945531], [-48.9306505, -22.32986987], [-48.93088136, -22.33029882], [-48.93100591, -22.33029398], [-48.9311083, -22.33038536], [-48.93115347, -22.33060469], [-48.93091652, -22.33082182], [-48.93128963, -22.33215697], [-48.93189371, -22.3329303], [-48.93193888, -22.33314962], [-48.93215654, -22.33339689], [-48.93243245, -22.33344544], [-48.93277228, -22.33384868], [-48.93287889, -22.33510177], [-48.93256307, -22.33602981], [-48.93259928, -22.33620123], [-48.93271597, -22.33626063], [-48.93277242, -22.33665381], [-48.93273755, -22.33714233], [-48.93412056, -22.3369958], [-48.9341017, -22.33757852], [-48.93394844, -22.33756954], [-48.9338093, -22.33762567], [-48.93383418, -22.33788119], [-48.93407003, -22.3383331], [-48.93461706, -22.33885615], [-48.93458217, -22.33913285], [-48.93399235, -22.33942158], [-48.93355522, -22.33984852], [-48.93395541, -22.34038119], [-48.93413253, -22.34080357], [-48.93385936, -22.34079816], [-48.93369264, -22.34084751], [-48.93360777, -22.3409751], [-48.93360021, -22.34120154], [-48.93382282, -22.34154863], [-48.93449183, -22.34154392], [-48.93463579, -22.34161229], [-48.93472784, -22.34178194], [-48.93442152, -22.34207279], [-48.93418461, -22.34219201], [-48.93393562, -22.34218329], [-48.93342106, -22.34176859], [-48.9326252, -22.34147726], [-48.93238119, -22.34150898], [-48.93176723, -22.34195932], [-48.93163278, -22.34227089], [-48.93134063, -22.34276048], [-48.93119417, -22.34389395], [-48.93018216, -22.34486882], [-48.92950202, -22.34586589], [-48.9292626, -22.34625319], [-48.9292929, -22.3465431], [-48.92917681, -22.34737801], [-48.92875307, -22.34797093], [-48.92840151, -22.34835889], [-48.92843901, -22.34862958], [-48.92936116, -22.35081599], [-48.92901261, -22.35146778], [-48.92912872, -22.35203543], [-48.92885993, -22.35235318], [-48.92865178, -22.35244555], [-48.92867594, -22.35273714], [-48.9288409, -22.35294546], [-48.92927846, -22.35392584], [-48.92962925, -22.35420358], [-48.92966522, -22.3545772], [-48.92970432, -22.354671], [-48.92962776, -22.35478833], [-48.92936201, -22.3554337], [-48.92906001, -22.35564168], [-48.92894009, -22.3560506], [-48.9286917, -22.35648435], [-48.92814369, -22.35690605], [-48.92645046, -22.35774649], [-48.92639333, -22.357868], [-48.92628154, -22.35794377], [-48.92603911, -22.3579664], [-48.92411434, -22.35922101], [-48.92404635, -22.35941418], [-48.92383104, -22.35961876], [-48.92334694, -22.35975858], [-48.92298303, -22.35999014], [-48.92239601, -22.36013642], [-48.92180292, -22.36050486], [-48.91933434, -22.36110285], [-48.91878927, -22.36165613], [-48.91915154, -22.36200517], [-48.92026269, -22.36190477], [-48.9206476, -22.36158479], [-48.92173886, -22.36136233], [-48.9225136, -22.36115959]], [[-48.96211957, -22.32777543], [-48.9623823, -22.32772139], [-48.96221145, -22.32604679], [-48.96236176, -22.32595311], [-48.96246856, -22.32602613], [-48.96271608, -22.32595757], [-48.96301434, -22.32593264], [-48.96347553, -22.32600534], [-48.96391014, -22.32613982], [-48.96482683, -22.32632336], [-48.96541509, -22.32648843], [-48.96555249, -22.32657617], [-48.96559087, -22.32676301], [-48.96563522, -22.32724619], [-48.96563072, -22.32755674], [-48.96564404, -22.32770026], [-48.96552677, -22.32799505], [-48.96550873, -22.3281764], [-48.96556162, -22.32842555], [-48.96569222, -22.32862788], [-48.96573781, -22.32867146], [-48.96559902, -22.32867927], [-48.96545968, -22.32872531], [-48.96533706, -22.32868076], [-48.96520007, -22.32856436], [-48.96495941, -22.32851355], [-48.96471458, -22.3283958], [-48.96460202, -22.32836571], [-48.96399163, -22.32831026], [-48.96368997, -22.32821568], [-48.96289956, -22.32782347], [-48.96264377, -22.32775335], [-48.96253559, -22.32777588], [-48.96260103, -22.3282211], [-48.96242685, -22.32819024], [-48.96222754, -22.32812084], [-48.96201846, -22.32801786], [-48.96198404, -22.3279123], [-48.96211957, -22.32777543]]], [[[-48.93634404, -22.32919077], [-48.93626261, -22.32905236], [-48.93608974, -22.32902029], [-48.93562046, -22.32797285], [-48.93374736, -22.32832055], [-48.93393486, -22.32911736], [-48.93428239, -22.32967789], [-48.93499084, -22.33024923], [-48.93525264, -22.33006087], [-48.93593463, -22.32952602], [-48.93610284, -22.32943857], [-48.93634404, -22.32919077]]], [[[-48.9396588, -22.32569846], [-48.9391031, -22.32576785], [-48.93896663, -22.32546319], [-48.93889077, -22.32483814], [-48.93933238, -22.32484376], [-48.93960067, -22.32476116], [-48.93960432, -22.32451273], [-48.93981572, -22.3244685], [-48.93989945, -22.32400041], [-48.94042575, -22.32383508], [-48.9401138, -22.32269385], [-48.94043063, -22.32280301], [-48.94030416, -22.3230212], [-48.94043416, -22.32326178], [-48.94069035, -22.32330326], [-48.94100872, -22.32330731], [-48.94586622, -22.32478336], [-48.94613371, -22.32483785], [-48.94716688, -22.32504832], [-48.9482113, -22.32507098], [-48.94822456, -22.32507127], [-48.94630746, -22.32200791], [-48.94774732, -22.32005062], [-48.94859211, -22.31890221], [-48.94945966, -22.31770793], [-48.94946014, -22.31767488], [-48.9489059, -22.3171864], [-48.94764495, -22.31607503], [-48.94644924, -22.31496085], [-48.94482532, -22.31363098], [-48.94340653, -22.31232282], [-48.94222498, -22.31164841], [-48.94172689, -22.31144701], [-48.94057357, -22.31098066], [-48.93934566, -22.31048413], [-48.93900692, -22.31035175], [-48.93500635, -22.30889576], [-48.93234627, -22.3130764], [-48.93221569, -22.31312323], [-48.93278923, -22.31529928], [-48.93311165, -22.31642154], [-48.93149274, -22.31685005], [-48.93123532, -22.31619691], [-48.93114937, -22.3157562], [-48.93113489, -22.31534507], [-48.93107468, -22.31524874], [-48.93104669, -22.31505724], [-48.93108988, -22.31491444], [-48.93105092, -22.3147706], [-48.93095034, -22.31462596], [-48.93092179, -22.31447269], [-48.93087495, -22.31416627], [-48.93069768, -22.31366766], [-48.93054784, -22.3137214], [-48.9275345, -22.31480207], [-48.92843871, -22.3159621], [-48.93105537, -22.31773319], [-48.93070436, -22.31855059], [-48.93062825, -22.31883632], [-48.93086992, -22.31916433], [-48.9300399, -22.31972714], [-48.93021168, -22.32120359], [-48.93047455, -22.32159626], [-48.93058907, -22.3214926], [-48.93067534, -22.32160757], [-48.93082076, -22.32180137], [-48.93090417, -22.32176253], [-48.93139995, -22.32153162], [-48.93156622, -22.32209759], [-48.93320461, -22.32248799], [-48.93368503, -22.32260246], [-48.93566791, -22.32157089], [-48.93596224, -22.32141777], [-48.93573447, -22.32084146], [-48.93865248, -22.32227326], [-48.93944514, -22.32276181], [-48.93730664, -22.32359471], [-48.93825869, -22.32521237], [-48.93810518, -22.32526554], [-48.93328221, -22.32693609], [-48.93356639, -22.32786672], [-48.93603799, -22.3274395], [-48.94023973, -22.32670931], [-48.94003217, -22.32545473], [-48.9396588, -22.32569846]]], [[[-48.92610795, -22.29439378], [-48.92585144, -22.29020464], [-48.92577961, -22.28608128], [-48.92578125, -22.28608069], [-48.92577917, -22.28605608], [-48.92505861, -22.28633904], [-48.92356126, -22.28690285], [-48.92221119, -22.28722961], [-48.92185942, -22.28740669], [-48.92025152, -22.28780658], [-48.91987964, -22.28795473], [-48.9195598, -22.28805575], [-48.91925407, -22.28797934], [-48.91889682, -22.28775099], [-48.91853017, -22.28754559], [-48.9179465, -22.28743298], [-48.91772148, -22.28737275], [-48.91729953, -22.28743424], [-48.91717477, -22.28753776], [-48.91723382, -22.28771054], [-48.91734435, -22.28787442], [-48.91768848, -22.28821332], [-48.91810491, -22.28852448], [-48.91852778, -22.28909375], [-48.91890059, -22.28957637], [-48.9190107, -22.28976892], [-48.91902445, -22.29022782], [-48.91903946, -22.29060073], [-48.91898133, -22.2910587], [-48.91890154, -22.29159286], [-48.9188444, -22.29198395], [-48.91922876, -22.29238071], [-48.91959499, -22.29261477], [-48.91987207, -22.29262788], [-48.92010375, -22.29274382], [-48.92009397, -22.29293687], [-48.92025347, -22.29322528], [-48.92008927, -22.29391126], [-48.92019684, -22.2942758], [-48.92012887, -22.29470498], [-48.92033281, -22.29480316], [-48.92099139, -22.29610177], [-48.9210778, -22.2972019], [-48.92100013, -22.29759273], [-48.92134842, -22.29904026], [-48.92178888, -22.29890768], [-48.92221319, -22.29889843], [-48.92271265, -22.29915331], [-48.92274006, -22.29938302], [-48.92261346, -22.29961076], [-48.92243593, -22.29980918], [-48.92249288, -22.30012528], [-48.92300428, -22.30030389], [-48.92490385, -22.30047217], [-48.92516492, -22.30027859], [-48.92630078, -22.29802782], [-48.92610795, -22.29439378]]]]}}]}