{"type": "FeatureCollection", "features": [{"type": "Feature", "properties": {"name": "Área de Proteção Ambiental Rio Pardinho e Rio Vermelho"}, "geometry": {"type": "MultiPolygon", "coordinates": [[[[-48.556726, -25.08388535], [-48.55662208, -25.08342071], [-48.55646498, -25.08310047], [-48.55640388, -25.08283432], [-48.5564171, -25.08262228], [-48.55652407, -25.08222072], [-48.55680296, -25.0820943], [-48.55743945, -25.08193618], [-48.55762455, -25.0818098], [-48.55786994, -25.08151646], [-48.55806169, -25.08104269], [-48.55809239, -25.08040206], [-48.55814731, -25.07997796], [-48.5583112, -25.07950873], [-48.55841669, -25.07929666], [-48.55879114, -25.07890401], [-48.5593021, -25.07846622], [-48.55991121, -25.07803741], [-48.56009405, -25.07776666], [-48.56019825, -25.07745985], [-48.56021937, -25.07690042], [-48.56039379, -25.07644922], [-48.56048258, -25.07561907], [-48.56045691, -25.07496492], [-48.56025459, -25.0746131], [-48.55961504, -25.07408551], [-48.55921525, -25.07381044], [-48.55888763, -25.07363913], [-48.5583426, -25.07328291], [-48.55801985, -25.07293114], [-48.55802379, -25.0727236], [-48.55810325, -25.07251154], [-48.55822082, -25.07232653], [-48.55840963, -25.07223623], [-48.55887086, -25.0720872], [-48.55915711, -25.07184347], [-48.55921029, -25.07165398], [-48.55907355, -25.07120288], [-48.55908741, -25.07100436], [-48.55916161, -25.07076523], [-48.55923417, -25.07035465], [-48.55925026, -25.07030052], [-48.55922106, -25.07008848], [-48.55909186, -25.06986748], [-48.55889119, -25.06970514], [-48.5582666, -25.06932638], [-48.55802257, -25.06913248], [-48.55774505, -25.06883483], [-48.55763972, -25.06865892], [-48.55760777, -25.06851907], [-48.55766521, -25.06816715], [-48.55786018, -25.06798211], [-48.55830768, -25.06765263], [-48.55849301, -25.0673999], [-48.55871937, -25.06682687], [-48.55883401, -25.0663441], [-48.55889542, -25.06590194], [-48.55905842, -25.06557255], [-48.55918249, -25.06541009], [-48.55929628, -25.0650717], [-48.55923925, -25.06494991], [-48.55915811, -25.06484166], [-48.5579817, -25.06405257], [-48.55779031, -25.06386315], [-48.5576726, -25.06370078], [-48.55760999, -25.06350681], [-48.55758357, -25.06324064], [-48.55764599, -25.062997], [-48.55784503, -25.0629473], [-48.55794506, -25.06304652], [-48.55800982, -25.06318636], [-48.5580801, -25.06319535], [-48.55828376, -25.06310504], [-48.55842917, -25.06292454], [-48.5585905, -25.06228835], [-48.55871793, -25.06135443], [-48.55882087, -25.06100701], [-48.55902043, -25.06074527], [-48.55922712, -25.06055571], [-48.55953226, -25.06036161], [-48.55971797, -25.06029387], [-48.56027174, -25.06019441], [-48.56124719, -25.06027525], [-48.56142611, -25.06025714], [-48.5617266, -25.06003146], [-48.56180454, -25.05989608], [-48.56181622, -25.05972464], [-48.5617112, -25.05954421], [-48.56153556, -25.05927359], [-48.56149899, -25.05917435], [-48.56151257, -25.05908411], [-48.56154596, -25.05902095], [-48.56170845, -25.05894419], [-48.56183039, -25.05889902], [-48.56260394, -25.0588085], [-48.56293727, -25.05869558], [-48.56330552, -25.05842023], [-48.56393489, -25.05785606], [-48.56406024, -25.05780187], [-48.56418837, -25.05775671], [-48.56448089, -25.05774757], [-48.56469791, -25.05779259], [-48.56550386, -25.05814418], [-48.56559455, -25.05815317], [-48.56570041, -25.05811703], [-48.56567149, -25.05787342], [-48.56544718, -25.05744942], [-48.5654462, -25.05733665], [-48.56554611, -25.05720577], [-48.56583147, -25.05710189], [-48.5661196, -25.05695289], [-48.56635013, -25.05677685], [-48.56652172, -25.05636624], [-48.56664648, -25.05571653], [-48.56678005, -25.05542322], [-48.56680072, -25.05527884], [-48.56697017, -25.05488626], [-48.56715821, -25.05459294], [-48.56740545, -25.05442139], [-48.56768464, -25.05433105], [-48.5678982, -25.0543039], [-48.56902341, -25.05432599], [-48.5692187, -25.05426273], [-48.56940035, -25.05414988], [-48.56947392, -25.05393781], [-48.56947783, -25.05373027], [-48.56931297, -25.05336039], [-48.56889286, -25.05264774], [-48.56880171, -25.05235454], [-48.56877414, -25.05169586], [-48.56879265, -25.051556], [-48.56889371, -25.05126271], [-48.56890434, -25.05085666], [-48.56907762, -25.05072574], [-48.56925994, -25.05071665], [-48.56967546, -25.05095108], [-48.57001166, -25.05104568], [-48.57046387, -25.0510184], [-48.57072014, -25.05092807], [-48.57176267, -25.0503727], [-48.57211426, -25.05027329], [-48.57232598, -25.05028674], [-48.57247459, -25.05034079], [-48.5726189, -25.05046255], [-48.57269414, -25.05052117], [-48.57283473, -25.05060231], [-48.57293347, -25.05059324], [-48.57313493, -25.05052097], [-48.57323021, -25.05041716], [-48.5733159, -25.05030434], [-48.57342759, -25.05020504], [-48.57356128, -25.05015536], [-48.57370335, -25.05015076], [-48.57385718, -25.05011912], [-48.57391811, -25.05002885], [-48.57401529, -25.04999273], [-48.57408528, -25.05006037], [-48.57415872, -25.05021373], [-48.57422709, -25.05070997], [-48.57428227, -25.05087686], [-48.57439994, -25.05094901], [-48.57454606, -25.05096698], [-48.57475864, -25.05084507], [-48.57494544, -25.05055174], [-48.5753516, -25.05006431], [-48.57576811, -25.04983853], [-48.57601078, -25.04983843], [-48.57643184, -25.05000516], [-48.57657645, -25.05009983], [-48.57681899, -25.0504065], [-48.57682031, -25.05054185], [-48.5767702, -25.0506276], [-48.57656413, -25.05077657], [-48.57584951, -25.05093932], [-48.57567497, -25.05101609], [-48.57558836, -25.05112442], [-48.57556799, -25.05124172], [-48.5755944, -25.05141765], [-48.57577805, -25.05159352], [-48.57596167, -25.05168367], [-48.57625045, -25.05165646], [-48.57653483, -25.05151197], [-48.57693523, -25.05125011], [-48.57708874, -25.05120492], [-48.57723144, -25.05120936], [-48.57738313, -25.05125891], [-48.57766366, -25.05139865], [-48.57782277, -25.0514121], [-48.57795805, -25.05143911], [-48.57805467, -25.05152027], [-48.57819037, -25.05172323], [-48.57830727, -25.05207958], [-48.57841138, -25.0522645], [-48.57938882, -25.05315282], [-48.57951452, -25.05320688], [-48.57967796, -25.05321583], [-48.57989117, -25.05309844], [-48.58006046, -25.05305323], [-48.58064554, -25.05309354], [-48.58081019, -25.05307994], [-48.58093149, -25.05301219], [-48.58100141, -25.05292194], [-48.5810693, -25.05259256], [-48.58103656, -25.05220007], [-48.58094511, -25.05196552], [-48.58093236, -25.05185274], [-48.58093441, -25.05166776], [-48.5810213, -25.0515008], [-48.58103639, -25.0513925], [-48.58097411, -25.05129327], [-48.58094402, -25.05118051], [-48.5810127, -25.05109024], [-48.58114049, -25.05099995], [-48.58119482, -25.05074728], [-48.5813278, -25.05058029], [-48.58145869, -25.05050353], [-48.58159178, -25.05045834], [-48.58180972, -25.05052139], [-48.58237886, -25.05085496], [-48.58263332, -25.05090446], [-48.58288343, -25.0508863], [-48.58309263, -25.05083205], [-48.58320831, -25.05068762], [-48.58321292, -25.05061091], [-48.58298751, -25.0500155], [-48.58292281, -25.04948318], [-48.58286295, -25.04930726], [-48.58267523, -25.04906824], [-48.58251487, -25.04901419], [-48.58235731, -25.04900976], [-48.58191661, -25.04911373], [-48.58162192, -25.04912741], [-48.58148294, -25.04909591], [-48.58124049, -25.0489697], [-48.58108687, -25.04882542], [-48.58106641, -25.04875774], [-48.58110625, -25.04859532], [-48.58131847, -25.04842827], [-48.58136855, -25.04830644], [-48.58136045, -25.04822072], [-48.58120743, -25.04803582], [-48.58055986, -25.04746318], [-48.58043193, -25.04730985], [-48.58041546, -25.04719706], [-48.58044294, -25.0470617], [-48.58088021, -25.04638927], [-48.58093564, -25.04593357], [-48.58079354, -25.04534262], [-48.58086029, -25.04518469], [-48.58136272, -25.04476485], [-48.58140811, -25.04457083], [-48.58143356, -25.04419185], [-48.58161822, -25.04396618], [-48.58201547, -25.04366822], [-48.58206776, -25.0436321], [-48.58212982, -25.04339295], [-48.58199198, -25.04269824], [-48.58199683, -25.04254484], [-48.58208623, -25.04243652], [-48.58277045, -25.04224218], [-48.58291026, -25.04208872], [-48.58295659, -25.04194433], [-48.58287608, -25.04186767], [-48.58246559, -25.04173703], [-48.58212469, -25.04153419], [-48.58203949, -25.04143047], [-48.58202233, -25.04119588], [-48.58216858, -25.04095668], [-48.58242108, -25.04082121], [-48.58260739, -25.04080759], [-48.582856, -25.04091574], [-48.58323938, -25.04122232], [-48.58346261, -25.04136208], [-48.58372755, -25.04134841], [-48.58416913, -25.04119028], [-48.58417439, -25.04118576], [-48.58415297, -25.04109103], [-48.5840808, -25.04100083], [-48.58397245, -25.04097382], [-48.58362353, -25.04078902], [-48.58337702, -25.04057709], [-48.58329606, -25.04031096], [-48.58332105, -25.04014402], [-48.58342274, -25.03990936], [-48.58413602, -25.03919617], [-48.58424147, -25.03903369], [-48.58428652, -25.03880358], [-48.5842939, -25.03871786], [-48.58427124, -25.03862312], [-48.58409038, -25.03845629], [-48.5838532, -25.03831204], [-48.58337818, -25.03793781], [-48.58259929, -25.03713063], [-48.58232082, -25.03677886], [-48.58226195, -25.03665708], [-48.58136289, -25.03572363], [-48.58108936, -25.03532674], [-48.58111863, -25.03509213], [-48.58138739, -25.03477166], [-48.58145235, -25.0347175], [-48.58065, -25.03504273], [-48.58041025, -25.03520075], [-48.58031717, -25.03534968], [-48.58024333, -25.03557529], [-48.58015498, -25.03638743], [-48.58003108, -25.03674391], [-48.57982912, -25.03699666], [-48.57945166, -25.03724948], [-48.57895103, -25.03750688], [-48.5784219, -25.03771467], [-48.57764641, -25.0379722], [-48.57725502, -25.03822053], [-48.57695716, -25.03855453], [-48.57663861, -25.03898328], [-48.57625495, -25.03924061], [-48.5758397, -25.03944834], [-48.57558139, -25.03969209], [-48.57543885, -25.03994029], [-48.57539407, -25.04013882], [-48.57551263, -25.04071174], [-48.57550861, -25.04072528], [-48.5757722, -25.04106803], [-48.57628445, -25.04163174], [-48.57634429, -25.04180316], [-48.57635647, -25.04199715], [-48.57624677, -25.04232204], [-48.57609588, -25.0425928], [-48.57496808, -25.04387461], [-48.57447967, -25.04448389], [-48.57437571, -25.04456515], [-48.57351401, -25.04499979], [-48.57279846, -25.04562867], [-48.57161293, -25.04632095], [-48.57042457, -25.04715562], [-48.56930732, -25.04834724], [-48.5682864, -25.04861519], [-48.5678205, -25.04846523], [-48.56783876, -25.04754029], [-48.56824943, -25.04604309], [-48.56688956, -25.04517292], [-48.56654058, -25.04488432], [-48.56649059, -25.04460019], [-48.56701326, -25.0435038], [-48.56711098, -25.04180819], [-48.56683608, -25.03946269], [-48.56660807, -25.03799585], [-48.56627359, -25.03541526], [-48.56471322, -25.03310724], [-48.56352204, -25.03162458], [-48.56183837, -25.03210929], [-48.56094186, -25.031663], [-48.56021979, -25.03160912], [-48.55998269, -25.03156409], [-48.55944871, -25.03131615], [-48.55886308, -25.03118101], [-48.55804189, -25.03091962], [-48.55782524, -25.03091519], [-48.55762039, -25.03099196], [-48.55738557, -25.03119506], [-48.55724413, -25.0311906], [-48.55703118, -25.03114105], [-48.55688015, -25.03115464], [-48.55670902, -25.03120884], [-48.55675561, -25.0315878], [-48.55722051, -25.03242229], [-48.5572519, -25.03274711], [-48.55715851, -25.03365849], [-48.55674661, -25.03450231], [-48.55652841, -25.03485443], [-48.55619412, -25.03518826], [-48.55543733, -25.03582466], [-48.55502096, -25.03638424], [-48.55490197, -25.03679935], [-48.55479983, -25.0375483], [-48.55466167, -25.03802207], [-48.55435723, -25.03792425], [-48.55416575, -25.03970032], [-48.55375698, -25.04061882], [-48.55278868, -25.04216866], [-48.55276882, -25.04229517], [-48.55249422, -25.04213735], [-48.55217753, -25.04201564], [-48.55174789, -25.04193457], [-48.55122261, -25.04188961], [-48.55079298, -25.04180854], [-48.55021041, -25.04165984], [-48.5498553, -25.04139827], [-48.54965776, -25.04121336], [-48.54951964, -25.04099234], [-48.54904439, -25.03976532], [-48.54835535, -25.03870981], [-48.54779025, -25.03799263], [-48.5473385, -25.03749649], [-48.54711401, -25.03720781], [-48.54685422, -25.03689207], [-48.54662972, -25.03659437], [-48.5463517, -25.03631473], [-48.54611919, -25.0361208], [-48.54591117, -25.03600355], [-48.54600177, -25.03579148], [-48.54619528, -25.03506957], [-48.54589948, -25.03440644], [-48.54587248, -25.03417636], [-48.54592462, -25.03368909], [-48.54551587, -25.03397343], [-48.54429818, -25.03457833], [-48.54369634, -25.03500709], [-48.54354903, -25.0350342], [-48.54343448, -25.03496204], [-48.54297288, -25.03452002], [-48.5425534, -25.0341953], [-48.5422937, -25.03409611], [-48.5417985, -25.0340827], [-48.54115974, -25.03423175], [-48.54072743, -25.03444391], [-48.54035547, -25.03466506], [-48.54021806, -25.0347057], [-48.53985379, -25.03474188], [-48.53949538, -25.03471941], [-48.53920566, -25.03460669], [-48.53880942, -25.03434963], [-48.53863454, -25.0343226], [-48.53831607, -25.03434974], [-48.53798495, -25.03451224], [-48.53759722, -25.034774], [-48.53739914, -25.03476953], [-48.53726479, -25.03470189], [-48.53709546, -25.03455304], [-48.53674745, -25.03407489], [-48.53654562, -25.03391251], [-48.53633112, -25.03389001], [-48.53609777, -25.0339081], [-48.53576045, -25.03403901], [-48.53563974, -25.03403002], [-48.5353788, -25.03395338], [-48.53510768, -25.03393539], [-48.53482174, -25.03406629], [-48.53469482, -25.03397157], [-48.53452454, -25.03376858], [-48.53434871, -25.03363778], [-48.53423388, -25.03359269], [-48.53388352, -25.03356569], [-48.53322181, -25.03357485], [-48.53299835, -25.03354783], [-48.53274453, -25.03345314], [-48.53261389, -25.03330427], [-48.53262563, -25.03321404], [-48.53235297, -25.03322763], [-48.53209611, -25.03333145], [-48.53190827, -25.03345781], [-48.53182235, -25.03395411], [-48.53185371, -25.03441429], [-48.53197773, -25.03533914], [-48.531916, -25.03604747], [-48.53177961, -25.03648513], [-48.53175707, -25.03671973], [-48.53126938, -25.03845228], [-48.53108531, -25.03883581], [-48.53099371, -25.03895764], [-48.53069106, -25.03919229], [-48.53025657, -25.03945856], [-48.5299852, -25.03975186], [-48.52998368, -25.03992331], [-48.53007937, -25.04014887], [-48.53079333, -25.04115031], [-48.53083425, -25.04138039], [-48.53077485, -25.04152928], [-48.5306093, -25.04172783], [-48.53043815, -25.04177297], [-48.53004414, -25.04180012], [-48.52943976, -25.04171423], [-48.52942983, -25.0417108], [-48.52907626, -25.04170104], [-48.52902427, -25.04173263], [-48.52887572, -25.04174214], [-48.52871323, -25.04186803], [-48.52855298, -25.04221545], [-48.52857625, -25.04248163], [-48.52863538, -25.04258989], [-48.52877841, -25.04272973], [-48.52897993, -25.04285151], [-48.52913474, -25.04307706], [-48.52911717, -25.04337482], [-48.52899435, -25.04370871], [-48.52880094, -25.04387566], [-48.5280235, -25.04425027], [-48.52785703, -25.04455257], [-48.52773365, -25.04507593], [-48.52762101, -25.04525641], [-48.5274539, -25.04543239], [-48.52717474, -25.0455723], [-48.52658943, -25.04560848], [-48.52639661, -25.04564912], [-48.52618954, -25.04573939], [-48.52609238, -25.04584768], [-48.52598564, -25.04612741], [-48.52613651, -25.0467951], [-48.52629941, -25.04721916], [-48.52628929, -25.04772897], [-48.52619871, -25.04829293], [-48.52622108, -25.04875762], [-48.52626753, -25.0488704], [-48.52632271, -25.04927192], [-48.52654046, -25.05002531], [-48.52666377, -25.05060277], [-48.52658268, -25.05225852], [-48.52664071, -25.05302999], [-48.52678726, -25.05371572], [-48.52739273, -25.05524953], [-48.52747546, -25.05566458], [-48.52741832, -25.05623305], [-48.52702879, -25.05723016], [-48.52671471, -25.05782573], [-48.52668296, -25.05852502], [-48.52656292, -25.05886791], [-48.52639489, -25.05919277], [-48.5259765, -25.05985152], [-48.52570454, -25.06061852], [-48.52548049, -25.06096594], [-48.5249005, -25.06166531], [-48.52303197, -25.0634747], [-48.52255097, -25.0638447], [-48.52195129, -25.06423615], [-48.52268415, -25.06478705], [-48.5240613, -25.06493566], [-48.52531814, -25.06420246], [-48.52668611, -25.0635373], [-48.52771868, -25.06280176], [-48.52814862, -25.06259867], [-48.52908355, -25.06225384], [-48.53007204, -25.06113894], [-48.53079702, -25.0593911], [-48.53149439, -25.05902561], [-48.53426873, -25.05831745], [-48.53524701, -25.05770527], [-48.53621777, -25.05746992], [-48.53706315, -25.05660394], [-48.53803382, -25.05636869], [-48.53916005, -25.055256], [-48.53957149, -25.05538856], [-48.53983981, -25.05577009], [-48.54271433, -25.05694907], [-48.54303465, -25.05795435], [-48.54292791, -25.05877422], [-48.54206706, -25.05986172], [-48.54201289, -25.05989331], [-48.54191321, -25.05986627], [-48.54172244, -25.05960014], [-48.5416339, -25.05957309], [-48.54142373, -25.05966789], [-48.54105945, -25.05990258], [-48.54093472, -25.05994773], [-48.540558, -25.06000646], [-48.54001966, -25.05993893], [-48.53970428, -25.06014202], [-48.53938676, -25.0604579], [-48.53899911, -25.06125653], [-48.53879277, -25.06177089], [-48.53859969, -25.06205066], [-48.53845392, -25.06216348], [-48.53808464, -25.0622989], [-48.53749898, -25.06238927], [-48.53688085, -25.06268266], [-48.53637262, -25.06298053], [-48.53651847, -25.06313172], [-48.53734882, -25.06301977], [-48.53941833, -25.0630541], [-48.54078537, -25.06370531], [-48.54131714, -25.06471975], [-48.54198943, -25.0656109], [-48.54252874, -25.06624838], [-48.54469867, -25.06816984], [-48.54510256, -25.06867945], [-48.54576738, -25.06994743], [-48.54588529, -25.07095513], [-48.54586775, -25.07183474], [-48.54461845, -25.07219116], [-48.5437906, -25.07217745], [-48.54241835, -25.07177764], [-48.5417436, -25.07101219], [-48.54106627, -25.07037241], [-48.54051439, -25.07036327], [-48.53981698, -25.0707289], [-48.53925002, -25.07147367], [-48.53882346, -25.07209514], [-48.53908681, -25.07272805], [-48.53976925, -25.07311656], [-48.5403085, -25.07375405], [-48.54016304, -25.07412873], [-48.53932764, -25.07449196], [-48.53918218, -25.07486674], [-48.54041393, -25.07538998], [-48.54037626, -25.07727488], [-48.54119154, -25.07791695], [-48.5421423, -25.07868698], [-48.54556937, -25.07987509], [-48.54639227, -25.08014006], [-48.54911689, -25.08194502], [-48.55073766, -25.08373171], [-48.55183416, -25.08412701], [-48.5534875, -25.08427991], [-48.55555739, -25.08431404], [-48.5566563, -25.08458362], [-48.55677872, -25.08481921], [-48.556726, -25.08388535]]], [[[-48.51124206, -25.04713091], [-48.51319981, -25.04676253], [-48.51617191, -25.04600991], [-48.51566824, -25.04290662], [-48.51461876, -25.04191474], [-48.51345402, -25.04040515], [-48.51500831, -25.03819596], [-48.5172336, -25.03702963], [-48.51702765, -25.03661365], [-48.5169307, -25.03601812], [-48.51695546, -25.03595947], [-48.51702872, -25.03527821], [-48.51733194, -25.03459242], [-48.51764015, -25.03409611], [-48.5180251, -25.03362685], [-48.51856232, -25.03311698], [-48.51962039, -25.03236793], [-48.52036065, -25.0319663], [-48.52063175, -25.03187603], [-48.52204769, -25.02994036], [-48.52253446, -25.02962899], [-48.52309673, -25.02920933], [-48.5235281, -25.02884383], [-48.52364661, -25.02870846], [-48.52427746, -25.02758497], [-48.52446342, -25.02735936], [-48.52431238, -25.02730073], [-48.52422323, -25.02722856], [-48.52417059, -25.02703457], [-48.52419932, -25.02679545], [-48.52431717, -25.02644352], [-48.52432551, -25.0263217], [-48.52427257, -25.02621343], [-48.52456745, -25.02587501], [-48.52488277, -25.02570804], [-48.52536183, -25.02555908], [-48.52491763, -25.02504481], [-48.52449359, -25.02474711], [-48.52409866, -25.0246028], [-48.52371831, -25.02453066], [-48.52306282, -25.0245082], [-48.52169649, -25.02453997], [-48.52079219, -25.02459422], [-48.51878216, -25.02482005], [-48.51839562, -25.024784], [-48.51804279, -25.02469381], [-48.51776115, -25.0245224], [-48.51743461, -25.02417955], [-48.51718693, -25.02373237], [-48.51695014, -25.02314192], [-48.51643288, -25.02212233], [-48.51613974, -25.02147268], [-48.51573488, -25.02091327], [-48.51593817, -25.02062451], [-48.51593878, -25.02053427], [-48.5157286, -25.02005154], [-48.51552555, -25.01976281], [-48.51500156, -25.01925756], [-48.51465277, -25.01902749], [-48.51426376, -25.01891022], [-48.51364328, -25.01883357], [-48.51305313, -25.01882911], [-48.51239055, -25.01877503], [-48.51183195, -25.01856753], [-48.51156023, -25.0183961], [-48.51141631, -25.01821565], [-48.51122565, -25.01789984], [-48.51087031, -25.0169479], [-48.5107892, -25.01665013], [-48.51076474, -25.01629371], [-48.51014918, -25.01572527], [-48.51000341, -25.01562603], [-48.50968709, -25.01486809], [-48.50960042, -25.01458837], [-48.50930579, -25.01402441], [-48.50935216, -25.0129984], [-48.51013337, -25.0129879], [-48.51102725, -25.01317507], [-48.51178816, -25.01318959], [-48.51193112, -25.0131174], [-48.51219818, -25.01303617], [-48.51256085, -25.0130226], [-48.51314233, -25.01322559], [-48.51358114, -25.01327067], [-48.51407936, -25.0132616], [-48.51480964, -25.01309911], [-48.51577664, -25.01270649], [-48.51636304, -25.01254854], [-48.51687033, -25.0115938], [-48.51751202, -25.01022685], [-48.5179518, -25.00950233], [-48.51854104, -25.0083928], [-48.51879447, -25.00753601], [-48.5187104, -25.00701799], [-48.51791271, -25.00674635], [-48.51659504, -25.00678704], [-48.51669214, -25.00628173], [-48.51669426, -25.00588469], [-48.51697488, -25.00561847], [-48.51717136, -25.00551017], [-48.51850337, -25.00518501], [-48.5197677, -25.00486223], [-48.520825, -25.00545299], [-48.52213264, -25.00610523], [-48.52289755, -25.00560219], [-48.52334684, -25.00515115], [-48.52361556, -25.00429595], [-48.52300056, -25.00359793], [-48.52246128, -25.00227078], [-48.52159479, -25.00156856], [-48.5211906, -25.00139214], [-48.52065698, -25.00105499], [-48.52058407, -25.00112436], [-48.52031674, -25.00117402], [-48.51953606, -25.00118315], [-48.51961723, -25.00125458], [-48.51939169, -25.0012801], [-48.51839813, -25.0014277], [-48.51731953, -25.00132754], [-48.51551737, -25.00137958], [-48.51389527, -25.0014345], [-48.51271512, -25.00190711], [-48.51206674, -25.002799], [-48.51045624, -25.00227969], [-48.51011764, -25.0012071], [-48.5099442, -25.00087595], [-48.50941405, -25.00037472], [-48.50970399, -24.99939469], [-48.51026226, -24.9985013], [-48.51027714, -24.99776299], [-48.51109067, -24.99761243], [-48.5114673, -24.99679814], [-48.51250049, -24.99468159], [-48.51223864, -24.99426693], [-48.51198345, -24.99352409], [-48.51083478, -24.99243795], [-48.50985783, -24.99176506], [-48.50906581, -24.99084906], [-48.5077141, -24.98939035], [-48.50762211, -24.98772098], [-48.50741459, -24.98677249], [-48.5071749, -24.98515379], [-48.50688829, -24.9828663], [-48.50667441, -24.9809939], [-48.50659922, -24.98060589], [-48.50625882, -24.97906759], [-48.50723549, -24.97891862], [-48.50813725, -24.9788517], [-48.50939397, -24.97903681], [-48.51092246, -24.97914454], [-48.5122742, -24.979085], [-48.5133691, -24.97836474], [-48.51525928, -24.97839632], [-48.51694476, -24.9796555], [-48.51783322, -24.98024478], [-48.5190686, -24.98190882], [-48.51914156, -24.98147568], [-48.51934815, -24.98095229], [-48.51940775, -24.98021234], [-48.51955591, -24.97993259], [-48.51983461, -24.9796077], [-48.51984325, -24.97943625], [-48.52004689, -24.97950627], [-48.52037822, -24.97905623], [-48.5209298, -24.97849093], [-48.52193633, -24.97768702], [-48.52383133, -24.97747232], [-48.52446615, -24.97713008], [-48.5241079, -24.97711208], [-48.52386348, -24.97705346], [-48.52361226, -24.97694972], [-48.52207514, -24.97597989], [-48.52161973, -24.97581753], [-48.52122929, -24.97573637], [-48.52108544, -24.97574992], [-48.52081227, -24.97537033], [-48.52048025, -24.97396974], [-48.52149661, -24.97267349], [-48.52213945, -24.9720697], [-48.5223031, -24.97191016], [-48.52227421, -24.97118375], [-48.52219497, -24.9709311], [-48.52198147, -24.97061981], [-48.52170672, -24.97034011], [-48.52138057, -24.96982129], [-48.5212429, -24.96972205], [-48.52096075, -24.96962282], [-48.52093508, -24.96967246], [-48.52085651, -24.96974014], [-48.5206706, -24.96982138], [-48.52050695, -24.96984847], [-48.52037517, -24.96984849], [-48.52029072, -24.96978984], [-48.52021985, -24.96968156], [-48.52019292, -24.96956877], [-48.52013506, -24.96946952], [-48.52001997, -24.96937929], [-48.51924934, -24.96925757], [-48.51907672, -24.96917637], [-48.51860831, -24.9688245], [-48.51824573, -24.96873881], [-48.51797568, -24.96877494], [-48.51771614, -24.96887874], [-48.51746807, -24.96905473], [-48.51712813, -24.9694112], [-48.51697657, -24.9695195], [-48.51679189, -24.96959623], [-48.51672383, -24.9695421], [-48.51625668, -24.96936618], [-48.51562063, -24.96923991], [-48.51506471, -24.96907301], [-48.51411897, -24.96863545], [-48.51357388, -24.96850916], [-48.51312254, -24.96850018], [-48.51258644, -24.96857241], [-48.51212582, -24.96873938], [-48.51194363, -24.96883414], [-48.51162842, -24.96910488], [-48.51114248, -24.96968243], [-48.51096801, -24.96983134], [-48.51026147, -24.97011112], [-48.51002915, -24.97023296], [-48.50973775, -24.97044503], [-48.50931951, -24.97047664], [-48.5090782, -24.97035934], [-48.50893187, -24.97025558], [-48.5088409, -24.96995329], [-48.50895967, -24.96966001], [-48.50897358, -24.96955623], [-48.50892902, -24.96936222], [-48.50878887, -24.96913213], [-48.50855096, -24.96886594], [-48.50834491, -24.96847342], [-48.50824899, -24.96812601], [-48.50816143, -24.96800419], [-48.50794952, -24.9678553], [-48.50766213, -24.96781021], [-48.50759253, -24.96777411], [-48.5075718, -24.96771546], [-48.50758572, -24.96767034], [-48.507681, -24.96761619], [-48.50793064, -24.96761167], [-48.50818741, -24.96769739], [-48.50824587, -24.96768836], [-48.50827618, -24.96765226], [-48.50828082, -24.9675936], [-48.50824554, -24.96734996], [-48.50817408, -24.96716949], [-48.50818736, -24.96700255], [-48.50825447, -24.96677244], [-48.50844625, -24.96647916], [-48.50847532, -24.96631672], [-48.50840293, -24.96613174], [-48.50804407, -24.96596031], [-48.50767687, -24.96585204], [-48.50726327, -24.96559037], [-48.50707332, -24.96538735], [-48.50675963, -24.96518432], [-48.50653288, -24.96508507], [-48.50644161, -24.96500386], [-48.50642769, -24.96495874], [-48.50644069, -24.96491813], [-48.50646852, -24.9648685], [-48.50653163, -24.96485948], [-48.5066959, -24.96491361], [-48.50680385, -24.9649091], [-48.50685056, -24.96487751], [-48.50687036, -24.96480081], [-48.50686386, -24.96472861], [-48.50667636, -24.964115], [-48.50670605, -24.96380819], [-48.5067014, -24.96374503], [-48.50693496, -24.96389843], [-48.50712242, -24.96394354], [-48.50733741, -24.96388487], [-48.50757746, -24.96375853], [-48.50779554, -24.96369084], [-48.50814416, -24.96364119], [-48.50855188, -24.96370434], [-48.50930978, -24.963975], [-48.51075832, -24.96464947], [-48.51230956, -24.96422801], [-48.5142788, -24.9639412], [-48.51629442, -24.96162827], [-48.51624956, -24.96160121], [-48.51576234, -24.96139821], [-48.51531875, -24.96130802], [-48.51501651, -24.9611772], [-48.51481326, -24.96104637], [-48.51442996, -24.96069899], [-48.51385206, -24.96009896], [-48.51358509, -24.95993655], [-48.5133237, -24.95987792], [-48.5131189, -24.95967038], [-48.51301247, -24.95941321], [-48.51298984, -24.95895751], [-48.51305572, -24.95882666], [-48.51307085, -24.95861459], [-48.51298516, -24.95845669], [-48.51263094, -24.95810027], [-48.51248428, -24.95765812], [-48.51250436, -24.95740094], [-48.51266394, -24.95714826], [-48.51277589, -24.95674669], [-48.51277615, -24.95633609], [-48.51290203, -24.95602927], [-48.51288251, -24.95582173], [-48.51272289, -24.95564126], [-48.51240056, -24.95546081], [-48.51223868, -24.9550051], [-48.51206954, -24.95494196], [-48.51134135, -24.95438704], [-48.51118326, -24.95422462], [-48.51038674, -24.95370581], [-48.5103824, -24.95361106], [-48.51035857, -24.95352983], [-48.5102902, -24.95345314], [-48.51019371, -24.95341705], [-48.51009844, -24.95342608], [-48.50993326, -24.95348926], [-48.50978171, -24.95357047], [-48.50961437, -24.95357499], [-48.50946527, -24.9534983], [-48.50940742, -24.95340356], [-48.50937523, -24.9533043], [-48.50938606, -24.95320052], [-48.50984412, -24.95272223], [-48.50985062, -24.95264101], [-48.50980296, -24.9525959], [-48.50972596, -24.95257785], [-48.5096477, -24.95259591], [-48.50935078, -24.95283505], [-48.50927561, -24.95283958], [-48.50920942, -24.95282603], [-48.50914661, -24.9527764], [-48.50910733, -24.95269519], [-48.50909494, -24.95236583], [-48.50896066, -24.95186049], [-48.50896467, -24.95165294], [-48.50902651, -24.95135065], [-48.50901784, -24.95103932], [-48.50894698, -24.95071898], [-48.50877898, -24.95025877], [-48.5086998, -24.95018657], [-48.50862526, -24.95014597], [-48.50852906, -24.95014146], [-48.50846132, -24.95015951], [-48.50841833, -24.95022268], [-48.50839793, -24.95044829], [-48.50834164, -24.95051596], [-48.50826925, -24.95053852], [-48.50773725, -24.95052502], [-48.50767198, -24.95053856], [-48.50755445, -24.95059271], [-48.50747651, -24.95059272], [-48.50720832, -24.95052505], [-48.50713996, -24.95052054], [-48.50707811, -24.95053858], [-48.5067818, -24.95067396], [-48.50669365, -24.95067396], [-48.50657734, -24.95066946], [-48.50649259, -24.95064238], [-48.50619192, -24.95051607], [-48.50567536, -24.95017318], [-48.50549164, -24.94994759], [-48.50538955, -24.94970845], [-48.50529488, -24.94910837], [-48.505246, -24.94890984], [-48.50519619, -24.94884217], [-48.50512969, -24.94881508], [-48.50502236, -24.9488151], [-48.50468367, -24.94892791], [-48.50457635, -24.94893243], [-48.50449159, -24.94891888], [-48.50442974, -24.94886023], [-48.50439787, -24.94878352], [-48.50438858, -24.94848124], [-48.50436446, -24.94843159], [-48.50414113, -24.9482421], [-48.50408731, -24.94817894], [-48.50407278, -24.94814284], [-48.50410957, -24.94804358], [-48.50421411, -24.94795785], [-48.50436939, -24.94792174], [-48.50474643, -24.94797588], [-48.5051507, -24.94809768], [-48.50539907, -24.94811122], [-48.50557878, -24.94808864], [-48.50567744, -24.94800292], [-48.50569012, -24.94785853], [-48.50549029, -24.9475066], [-48.50548286, -24.94743443], [-48.50550976, -24.94737125], [-48.50554318, -24.94733967], [-48.5058995, -24.94721333], [-48.50598732, -24.94715918], [-48.50620939, -24.94685687], [-48.50623042, -24.94669894], [-48.5061302, -24.94655907], [-48.50555859, -24.94613045], [-48.50532103, -24.94583719], [-48.50511192, -24.94531832], [-48.50485953, -24.94486261], [-48.50406584, -24.94391513], [-48.50377849, -24.9434865], [-48.50371694, -24.94335565], [-48.50361239, -24.94312103], [-48.50359661, -24.94299017], [-48.50346452, -24.94242618], [-48.50330552, -24.94117637], [-48.50333429, -24.94087406], [-48.50346387, -24.94039578], [-48.50367045, -24.94000774], [-48.50373416, -24.93994458], [-48.50406415, -24.93938508], [-48.50416064, -24.9391685], [-48.50422991, -24.93882559], [-48.50377279, -24.93866769], [-48.50361412, -24.93858648], [-48.5035949, -24.9385673], [-48.50293926, -24.93908065], [-48.50185317, -24.93955323], [-48.50071546, -24.94015878], [-48.49997447, -24.94050328], [-48.49927971, -24.9409824], [-48.49853782, -24.94137151], [-48.49783493, -24.94225204], [-48.49726797, -24.94367027], [-48.49695732, -24.94451278], [-48.49660225, -24.94513145], [-48.49754909, -24.94670897], [-48.49805589, -24.95068843], [-48.49364526, -24.95127302], [-48.49276689, -24.95125826], [-48.49359677, -24.95502752], [-48.49332399, -24.95590552], [-48.49311354, -24.95687771], [-48.49257606, -24.95786883], [-48.49226533, -24.95871132], [-48.49206511, -24.95893103], [-48.49180602, -24.95964054], [-48.49284892, -24.96130895], [-48.49252463, -24.96282046], [-48.49274847, -24.96385043], [-48.49317254, -24.96466068], [-48.49379324, -24.96542962], [-48.49436411, -24.96624235], [-48.49464592, -24.96682711], [-48.49482809, -24.96749944], [-48.49511352, -24.96790579], [-48.49534643, -24.96848973], [-48.49607314, -24.96885891], [-48.49655159, -24.96940236], [-48.49739941, -24.97040921], [-48.49715995, -24.97049944], [-48.49740311, -24.97062126], [-48.49764811, -24.97069346], [-48.4974953, -24.97076113], [-48.49725276, -24.97100477], [-48.4970099, -24.97140632], [-48.49682551, -24.9718169], [-48.49660586, -24.97215078], [-48.49639024, -24.97238088], [-48.49611552, -24.97254781], [-48.49575758, -24.97267865], [-48.49546309, -24.97265157], [-48.49504883, -24.97285459], [-48.49471347, -24.97313431], [-48.49471966, -24.9731659], [-48.49378908, -24.97345914], [-48.49347077, -24.97362154], [-48.49283561, -24.97382005], [-48.49245849, -24.97388319], [-48.49122493, -24.97470863], [-48.49029776, -24.97522473], [-48.48962358, -24.97559318], [-48.48861616, -24.97595599], [-48.48701631, -24.97676456], [-48.48590334, -24.97736592], [-48.48523262, -24.9773794], [-48.48478401, -24.9774741], [-48.48433448, -24.97762295], [-48.48383885, -24.97769058], [-48.48354989, -24.97778079], [-48.48334879, -24.97788003], [-48.48251857, -24.97948702], [-48.48332292, -24.97954436], [-48.48386103, -24.97955346], [-48.48536002, -24.97936077], [-48.48660995, -24.97965446], [-48.48732407, -24.97983007], [-48.48857396, -24.98012375], [-48.48885408, -24.98105513], [-48.48973113, -24.98219838], [-48.48965312, -24.98277588], [-48.48941236, -24.98366019], [-48.48940149, -24.98419709], [-48.48959791, -24.98471145], [-48.49051265, -24.98637638], [-48.49059037, -24.98660822], [-48.49066609, -24.98671928], [-48.49140763, -24.98634445], [-48.49212541, -24.98598653], [-48.49315115, -24.98544882], [-48.49398162, -24.98453779], [-48.4953136, -24.98391276], [-48.49624166, -24.98318838], [-48.49687294, -24.98208895], [-48.49749285, -24.9815443], [-48.49862385, -24.98082332], [-48.49976976, -24.97936258], [-48.5000834, -24.97890537], [-48.50050048, -24.97835733], [-48.50162018, -24.97819111], [-48.50283762, -24.97821155], [-48.50333923, -24.9784975], [-48.50268703, -24.97915058], [-48.50226096, -24.97978382], [-48.50195348, -24.98068273], [-48.50185182, -24.98162278], [-48.50195978, -24.98241566], [-48.50220545, -24.98263632], [-48.50261245, -24.98284099], [-48.50306466, -24.98296159], [-48.50347096, -24.98330745], [-48.50371277, -24.98361286], [-48.50386815, -24.98410519], [-48.50413556, -24.98448796], [-48.50431136, -24.98506016], [-48.50429986, -24.98562921], [-48.50441781, -24.9859727], [-48.50537707, -24.98596598], [-48.50566298, -24.98685029], [-48.50626547, -24.98880387], [-48.50678524, -24.99047291], [-48.50644655, -24.99072138], [-48.50631289, -24.99076651], [-48.50566099, -24.99087481], [-48.50541936, -24.99116357], [-48.50500941, -24.99146137], [-48.50386153, -24.99176369], [-48.50308462, -24.99217427], [-48.50284174, -24.99223744], [-48.5025806, -24.99222843], [-48.50202955, -24.99215174], [-48.50160072, -24.99200736], [-48.50140115, -24.9919848], [-48.50111928, -24.99201188], [-48.50090269, -24.99210212], [-48.5004748, -24.99232771], [-48.50039805, -24.99238761], [-48.50006634, -24.99324171], [-48.49923982, -24.99368633], [-48.49903382, -24.99454253], [-48.4993913, -24.99552285], [-48.50020508, -24.99570848], [-48.50114804, -24.99572433], [-48.50158694, -24.99578901], [-48.50158114, -24.99607549], [-48.50144848, -24.9964171], [-48.50094089, -24.99663785], [-48.50011323, -24.99713973], [-48.49947297, -24.99770208], [-48.49940079, -24.99815939], [-48.4999492, -24.99902828], [-48.49994108, -24.99942933], [-48.50017167, -25.00046481], [-48.49978285, -25.0010314], [-48.49957804, -25.00183032], [-48.49938595, -25.00199903], [-48.49982022, -25.00229291], [-48.50064792, -25.00179101], [-48.50197283, -25.00158404], [-48.50291352, -25.00171444], [-48.50341529, -25.00178021], [-48.50360274, -25.00184066], [-48.50485549, -25.00209093], [-48.50540859, -25.00273064], [-48.50489171, -25.00340973], [-48.50480801, -25.00443994], [-48.50404896, -25.00465644], [-48.50366826, -25.00482198], [-48.50217123, -25.00731857], [-48.50258497, -25.00982877], [-48.50283005, -25.00981072], [-48.50327719, -25.0098423], [-48.5035065, -25.00991899], [-48.50445528, -25.01055512], [-48.50492472, -25.01069948], [-48.50528966, -25.01172666], [-48.50488576, -25.01303807], [-48.50404753, -25.01405561], [-48.50170148, -25.01499049], [-48.50074348, -25.01881431], [-48.50034531, -25.01983933], [-48.500279, -25.01993951], [-48.5004749, -25.02003425], [-48.50072278, -25.0201696], [-48.50083791, -25.02021021], [-48.50116223, -25.02027337], [-48.50211385, -25.02053955], [-48.50249048, -25.02071098], [-48.50296366, -25.02097266], [-48.50305436, -25.02162684], [-48.50298009, -25.02235774], [-48.50303056, -25.02295328], [-48.50308472, -25.02316081], [-48.50329702, -25.02349467], [-48.50331219, -25.02357588], [-48.50384698, -25.02406763], [-48.50393859, -25.02418945], [-48.5042026, -25.02505117], [-48.50437252, -25.02536698], [-48.50449043, -25.02550684], [-48.50480982, -25.02574144], [-48.50499582, -25.0258452], [-48.50533874, -25.02593091], [-48.50515863, -25.02617004], [-48.5050463, -25.02648134], [-48.50498596, -25.02677009], [-48.50502683, -25.02724832], [-48.50499312, -25.02794311], [-48.504852, -25.02806042], [-48.50416217, -25.02846649], [-48.50421478, -25.02856124], [-48.50429092, -25.02880937], [-48.5045738, -25.02918382], [-48.50476106, -25.02936429], [-48.50516681, -25.02963046], [-48.50592786, -25.03000942], [-48.50646051, -25.03018084], [-48.50757436, -25.03024846], [-48.50774279, -25.0303944], [-48.50856839, -25.03000706], [-48.50997146, -25.02905628], [-48.5106107, -25.02855117], [-48.51107285, -25.02747], [-48.51108788, -25.02672519], [-48.51071649, -25.02643242], [-48.51129965, -25.02558248], [-48.5124713, -25.02674836], [-48.51283944, -25.02721301], [-48.5128013, -25.02910369], [-48.51299889, -25.03099254], [-48.51363462, -25.03130379], [-48.51455171, -25.03181353], [-48.51521715, -25.03206612], [-48.51549106, -25.03209316], [-48.51557122, -25.03206608], [-48.51478552, -25.03309481], [-48.51421306, -25.03421374], [-48.51403917, -25.03473259], [-48.51400453, -25.03492659], [-48.51403558, -25.03583342], [-48.51164823, -25.03636303], [-48.51043949, -25.03703053], [-48.50723343, -25.03691942], [-48.50544362, -25.03832219], [-48.50651232, -25.03926723], [-48.50601494, -25.03962366], [-48.50584042, -25.04069743], [-48.50586832, -25.04167644], [-48.50609029, -25.0425968], [-48.50618844, -25.04322841], [-48.50619498, -25.04409013], [-48.50604891, -25.04464957], [-48.50602539, -25.04496988], [-48.50612384, -25.04530826], [-48.50636157, -25.04559247], [-48.50664388, -25.04608422], [-48.50677947, -25.04644063], [-48.50677391, -25.04666621], [-48.50661205, -25.04707226], [-48.5065031, -25.04726175], [-48.50935067, -25.04732847], [-48.51124206, -25.04713091]], [[-48.50680328, -24.99045968], [-48.50678534, -24.99047322], [-48.50678524, -24.99047291], [-48.50680328, -24.99045968]]]]}}]}