{"type": "FeatureCollection", "features": [{"type": "Feature", "properties": {"name": "Área de Proteção Ambiental Represa Bairro da Usina"}, "geometry": {"type": "MultiPolygon", "coordinates": [[[[-46.64239899, -23.1122014], [-46.64354106, -23.11198847], [-46.64452003, -23.11150043], [-46.64620703, -23.1109174], [-46.64704801, -23.11034945], [-46.64767502, -23.10928941], [-46.64840802, -23.10750536], [-46.64857406, -23.10627538], [-46.64806404, -23.10439435], [-46.64795705, -23.10332736], [-46.64822602, -23.10262535], [-46.64874507, -23.10216243], [-46.64941702, -23.10228536], [-46.65014106, -23.1027864], [-46.65097805, -23.1034134], [-46.65192409, -23.10359238], [-46.65245708, -23.10330235], [-46.65244008, -23.10272835], [-46.65221206, -23.10208634], [-46.65179805, -23.10156034], [-46.65171706, -23.10059538], [-46.65189509, -23.09938835], [-46.65253107, -23.09780034], [-46.65432208, -23.09440237], [-46.65511508, -23.09223829], [-46.65495905, -23.09129731], [-46.65439601, -23.09073827], [-46.65219804, -23.08922334], [-46.65088504, -23.08812732], [-46.65108904, -23.08696634], [-46.65097, -23.08594526], [-46.65011899, -23.08508831], [-46.64880199, -23.08343027], [-46.64772597, -23.08228831], [-46.64673793, -23.08147831], [-46.64499191, -23.08060329], [-46.6440679, -23.08001127], [-46.64349887, -23.07851033], [-46.64290688, -23.0774103], [-46.64235792, -23.07711526], [-46.64128989, -23.07716731], [-46.63908984, -23.07722528], [-46.63744882, -23.0771423], [-46.63630081, -23.07639028], [-46.63539881, -23.07543027], [-46.63443079, -23.07375927], [-46.63336484, -23.07231729], [-46.63225883, -23.0723923], [-46.63112981, -23.0727093], [-46.62843981, -23.07371129], [-46.62534271, -23.07516333], [-46.62439873, -23.07522628], [-46.62257272, -23.07550035], [-46.6215577, -23.07609137], [-46.62084469, -23.07726636], [-46.62000868, -23.07855735], [-46.61927868, -23.07915835], [-46.6180367, -23.07931437], [-46.61633672, -23.07962242], [-46.61544469, -23.08015534], [-46.61541267, -23.0808564], [-46.61585272, -23.08169234], [-46.61680268, -23.08239934], [-46.61821675, -23.08390734], [-46.61895777, -23.08497238], [-46.61944277, -23.08695641], [-46.61990173, -23.08867644], [-46.62177474, -23.08997536], [-46.62298982, -23.09129042], [-46.62348477, -23.09288337], [-46.62370981, -23.09498438], [-46.62363379, -23.09663844], [-46.62375782, -23.0983954], [-46.62445882, -23.09905742], [-46.62602082, -23.10039247], [-46.62752184, -23.10170545], [-46.62887187, -23.10276646], [-46.63156291, -23.10369348], [-46.63251289, -23.10444647], [-46.63372388, -23.10525446], [-46.63618097, -23.10637845], [-46.63711398, -23.10652246], [-46.63739999, -23.10653245], [-46.63803393, -23.10650647], [-46.63831993, -23.10650439], [-46.63964296, -23.10553242], [-46.64039998, -23.10537843], [-46.64107398, -23.10573138], [-46.64132397, -23.10591343], [-46.641375, -23.10606239], [-46.64139299, -23.10685543], [-46.641856, -23.10913843], [-46.64210401, -23.11087044], [-46.64239899, -23.1122014]]]]}}]}