{"type": "FeatureCollection", "features": [{"type": "Feature", "properties": {"name": "Área de Proteção Ambiental Sapucaí Mirim"}, "geometry": {"type": "MultiPolygon", "coordinates": [[[[-45.67482447, -22.87847717], [-45.67523542, -22.87860093], [-45.67585633, -22.87866238], [-45.67671618, -22.87857892], [-45.67717365, -22.87847758], [-45.6774828, -22.87842877], [-45.67762064, -22.87836431], [-45.6777975, -22.87829873], [-45.67798495, -22.87824056], [-45.67821331, -22.8782319], [-45.67847512, -22.87830514], [-45.67872472, -22.87845137], [-45.67894766, -22.87861339], [-45.6791206, -22.87883689], [-45.67943268, -22.87912336], [-45.67962189, -22.87921793], [-45.6801808, -22.8793072], [-45.68090818, -22.87940845], [-45.68133955, -22.87934369], [-45.68199698, -22.87914372], [-45.68259092, -22.87885318], [-45.68323371, -22.87860596], [-45.68372507, -22.87851603], [-45.6842169, -22.8785472], [-45.68460147, -22.87872197], [-45.6849291, -22.87896352], [-45.68532636, -22.87923429], [-45.68563684, -22.87935988], [-45.68645496, -22.87969943], [-45.68708645, -22.88000861], [-45.68774254, -22.88040407], [-45.68853611, -22.8808001], [-45.6890891, -22.88098954], [-45.68979488, -22.88105061], [-45.69059763, -22.88118656], [-45.69188693, -22.88166349], [-45.69293345, -22.88199432], [-45.6934821, -22.88225415], [-45.69403379, -22.88236404], [-45.69457103, -22.88246553], [-45.69507865, -22.88258459], [-45.69566278, -22.88292274], [-45.69593817, -22.88319317], [-45.69605055, -22.88351951], [-45.69616527, -22.88363355], [-45.69669131, -22.8839996], [-45.6974151, -22.88413505], [-45.6982122, -22.88435941], [-45.69878949, -22.88440918], [-45.69949494, -22.8843428], [-45.69987889, -22.88435669], [-45.70027218, -22.88453609], [-45.7005296, -22.88473121], [-45.70071221, -22.88491238], [-45.70080162, -22.88497628], [-45.70095671, -22.88507113], [-45.70125623, -22.88516126], [-45.70163434, -22.88527173], [-45.70204185, -22.88532668], [-45.70248073, -22.88542192], [-45.70287404, -22.88550373], [-45.70337227, -22.88555754], [-45.70400539, -22.88549892], [-45.70445739, -22.88542723], [-45.70489451, -22.88527124], [-45.70524103, -22.88515887], [-45.70566224, -22.88506585], [-45.70622234, -22.88509813], [-45.70670497, -22.88515166], [-45.70708351, -22.88528922], [-45.70753709, -22.88562326], [-45.70794544, -22.88573333], [-45.70869951, -22.88567407], [-45.70906976, -22.8857392], [-45.70922894, -22.88582509], [-45.70950237, -22.88614607], [-45.70960208, -22.88642519], [-45.70969203, -22.88660747], [-45.70986669, -22.8869421], [-45.71012654, -22.88730803], [-45.71021372, -22.88748302], [-45.7107155, -22.88808806], [-45.71122069, -22.88857207], [-45.71164907, -22.88875386], [-45.71212717, -22.88879102], [-45.71303794, -22.88855373], [-45.71358898, -22.8885036], [-45.7139282, -22.88856005], [-45.71429074, -22.88871811], [-45.71456016, -22.88894865], [-45.71471662, -22.88921881], [-45.71492408, -22.88937781], [-45.71515722, -22.88952098], [-45.71569298, -22.8896007], [-45.71594885, -22.88948583], [-45.71601743, -22.88937316], [-45.71618838, -22.88916467], [-45.71647501, -22.88902322], [-45.71687627, -22.88895333], [-45.71734117, -22.88896767], [-45.71749523, -22.88887183], [-45.71775231, -22.88855096], [-45.71814557, -22.88815021], [-45.7182805, -22.88793839], [-45.71843018, -22.88767169], [-45.71858095, -22.88754508], [-45.71874592, -22.88748918], [-45.71884857, -22.88747649], [-45.71897532, -22.88752656], [-45.71916556, -22.88771779], [-45.7193676, -22.88800138], [-45.71943855, -22.88825651], [-45.71955058, -22.88850602], [-45.71976399, -22.88885487], [-45.72021848, -22.88929099], [-45.72042626, -22.88933703], [-45.72084625, -22.8893542], [-45.72130456, -22.8891136], [-45.72155998, -22.88887492], [-45.72173003, -22.8885652], [-45.7217979, -22.88834138], [-45.72191683, -22.88810036], [-45.72201951, -22.88798917], [-45.72214043, -22.88794065], [-45.72231209, -22.88793999], [-45.72244666, -22.88798929], [-45.72264407, -22.88821226], [-45.72278141, -22.88846401], [-45.72305259, -22.88928913], [-45.72317561, -22.88967166], [-45.72333137, -22.88983156], [-45.72357367, -22.88985831], [-45.72377001, -22.88984271], [-45.72396465, -22.88971684], [-45.72420776, -22.88941109], [-45.72442967, -22.88904353], [-45.72454952, -22.88890282], [-45.72482164, -22.88890117], [-45.72500492, -22.8890507], [-45.7250961, -22.88931882], [-45.72512753, -22.88979556], [-45.72511495, -22.89013148], [-45.72510045, -22.89046646], [-45.72526792, -22.89057777], [-45.72546438, -22.89060463], [-45.72582485, -22.89018433], [-45.7259135, -22.8899455], [-45.72599432, -22.88970834], [-45.72614899, -22.88948419], [-45.72636, -22.88941733], [-45.72665103, -22.88949462], [-45.72687869, -22.88976599], [-45.72696966, -22.88989857], [-45.72708658, -22.89014816], [-45.72719923, -22.89051334], [-45.72730651, -22.89070855], [-45.72750351, -22.89090349], [-45.72785152, -22.89096006], [-45.72790032, -22.89095819], [-45.72815254, -22.89092818], [-45.7284843, -22.89087062], [-45.72910321, -22.89084058], [-45.72988781, -22.89086488], [-45.73043032, -22.89090038], [-45.73088777, -22.89089738], [-45.73104221, -22.89088015], [-45.73135165, -22.89071919], [-45.73159316, -22.8905905], [-45.73257009, -22.89026207], [-45.73295666, -22.8901946], [-45.73349898, -22.89023913], [-45.73416111, -22.8904872], [-45.73477771, -22.89081763], [-45.73524503, -22.89100454], [-45.73550416, -22.89106771], [-45.73586021, -22.89106386], [-45.73643329, -22.89088662], [-45.73681068, -22.89074127], [-45.73741032, -22.89030787], [-45.73768594, -22.88988609], [-45.73803021, -22.88968957], [-45.73881048, -22.88958815], [-45.73910031, -22.88952985], [-45.73952936, -22.88928779], [-45.7397414, -22.88902215], [-45.73999605, -22.88852681], [-45.74014859, -22.88796739], [-45.74030085, -22.8874712], [-45.74035856, -22.8870213], [-45.74041615, -22.88657772], [-45.74063833, -22.88619387], [-45.74118755, -22.88574423], [-45.74172864, -22.88526191], [-45.74197459, -22.88495799], [-45.74219713, -22.88465366], [-45.74236763, -22.88426984], [-45.74253783, -22.88394926], [-45.74352078, -22.88149923], [-45.74384334, -22.88092192], [-45.74403037, -22.88049048], [-45.74402821, -22.88005943], [-45.74395881, -22.87977271], [-45.74392259, -22.87948566], [-45.74404143, -22.87919763], [-45.74417787, -22.87900569], [-45.74443461, -22.87884471], [-45.74566685, -22.87861814], [-45.74619888, -22.87839318], [-45.74679975, -22.87794259], [-45.74741724, -22.87704772], [-45.74784488, -22.8766773], [-45.74810217, -22.87648832], [-45.74867665, -22.87643304], [-45.74915004, -22.87655857], [-45.7494274, -22.87673408], [-45.7496342, -22.87682886], [-45.74982444, -22.87692336], [-45.74999642, -22.8769543], [-45.75029442, -22.87697474], [-45.75060658, -22.87696921], [-45.75092386, -22.87685262], [-45.75152509, -22.87648154], [-45.75182863, -22.87612346], [-45.75209387, -22.87572949], [-45.75227202, -22.8753512], [-45.75237997, -22.87497172], [-45.75244793, -22.87459337], [-45.75245443, -22.87421578], [-45.75248631, -22.873985], [-45.75254609, -22.87382247], [-45.75267878, -22.87367111], [-45.75290154, -22.87350141], [-45.75311626, -22.87334423], [-45.75325685, -22.87318758], [-45.7533843, -22.87300542], [-45.75366812, -22.87265784], [-45.75389074, -22.87239688], [-45.75401494, -22.87223092], [-45.75439024, -22.87179364], [-45.75465146, -22.87145471], [-45.75496623, -22.87102091], [-45.75520055, -22.87051346], [-45.75528633, -22.87016975], [-45.75528996, -22.86988789], [-45.75521336, -22.86937335], [-45.75514868, -22.86899545], [-45.75508149, -22.86869522], [-45.7549699, -22.86807617], [-45.75496957, -22.86794514], [-45.75503601, -22.86774116], [-45.75516267, -22.86750024], [-45.75539764, -22.86725484], [-45.75611745, -22.86675202], [-45.75635828, -22.86650672], [-45.75641972, -22.86621049], [-45.75638236, -22.86583125], [-45.75626015, -22.86560146], [-45.75593644, -22.86530501], [-45.75552777, -22.86501524], [-45.7553903, -22.86486652], [-45.75520619, -22.86456159], [-45.75495323, -22.86389315], [-45.75477552, -22.86341303], [-45.75471227, -22.86296287], [-45.75478623, -22.86267498], [-45.7549199, -22.86227606], [-45.75506456, -22.86211045], [-45.7552557, -22.86196099], [-45.75586386, -22.86172826], [-45.75615694, -22.86160131], [-45.75649415, -22.86141186], [-45.75680115, -22.8612219], [-45.7571176, -22.86104656], [-45.75734068, -22.86085969], [-45.75751167, -22.86059512], [-45.75753832, -22.86028293], [-45.7574905, -22.86008785], [-45.7571356, -22.8593969], [-45.75708765, -22.85915934], [-45.75709583, -22.85894262], [-45.75714711, -22.85876548], [-45.75729901, -22.85847981], [-45.75734349, -22.85825196], [-45.75732577, -22.85806371], [-45.75725775, -22.85785473], [-45.75633904, -22.85648644], [-45.75620212, -22.85616244], [-45.7560206, -22.85562894], [-45.75594323, -22.85515324], [-45.7558739, -22.85446895], [-45.75584367, -22.85397597], [-45.75584993, -22.85356133], [-45.75594114, -22.85318879], [-45.75611759, -22.8528945], [-45.75653467, -22.85236305], [-45.75670191, -22.85218878], [-45.75697637, -22.85186815], [-45.75724924, -22.85152942], [-45.75752982, -22.85114564], [-45.75777719, -22.8507649], [-45.75782496, -22.85051813], [-45.75775297, -22.8502639], [-45.75766476, -22.85008982], [-45.75756979, -22.84991291], [-45.75740808, -22.84970866], [-45.75707902, -22.84948711], [-45.75677031, -22.84927223], [-45.75644252, -22.84913474], [-45.75610598, -22.84904499], [-45.75569405, -22.84902082], [-45.75532452, -22.84907147], [-45.75513412, -22.8490366], [-45.75483224, -22.84887063], [-45.7546172, -22.84865192], [-45.7542947, -22.84824705], [-45.75418674, -22.84808618], [-45.75412541, -22.84788454], [-45.75411311, -22.84761958], [-45.75414332, -22.84732461], [-45.75417672, -22.84716434], [-45.75424335, -22.84695042], [-45.75433821, -22.84683727], [-45.75460809, -22.84669819], [-45.75505544, -22.8466073], [-45.75530727, -22.84654291], [-45.75575308, -22.84633272], [-45.75613035, -22.84608793], [-45.75665352, -22.84576158], [-45.75708447, -22.84546439], [-45.75745699, -22.84526199], [-45.75760228, -22.84516235], [-45.75782397, -22.84494563], [-45.75818088, -22.84454688], [-45.75853908, -22.84423038], [-45.7588201, -22.844021], [-45.75893551, -22.84390368], [-45.75909987, -22.84367696], [-45.75916705, -22.84353352], [-45.75931352, -22.84302818], [-45.75938926, -22.84264906], [-45.75941817, -22.84227094], [-45.7594159, -22.84189229], [-45.75940961, -22.84166809], [-45.75932969, -22.84117337], [-45.75923427, -22.84082206], [-45.75912899, -22.84037751], [-45.75905946, -22.83985044], [-45.75894162, -22.83940025], [-45.7588519, -22.83920446], [-45.75869658, -22.83902291], [-45.75843178, -22.83880697], [-45.75788803, -22.83854834], [-45.75774737, -22.83846373], [-45.75759532, -22.83831386], [-45.75746358, -22.83807398], [-45.75740758, -22.83789863], [-45.7573622, -22.83767919], [-45.75736196, -22.83749395], [-45.75740479, -22.83734919], [-45.75747028, -22.83724188], [-45.75768385, -22.83699159], [-45.75788773, -22.83673843], [-45.75794688, -22.83660661], [-45.75806894, -22.83625085], [-45.75818371, -22.83586968], [-45.75828043, -22.8354647], [-45.75837599, -22.83506874], [-45.7584181, -22.83476313], [-45.75849899, -22.83446813], [-45.7586218, -22.83432112], [-45.75890233, -22.83418492], [-45.75905832, -22.83418395], [-45.75916148, -22.83419293], [-45.75947867, -22.8344215], [-45.76077176, -22.83573288], [-45.76113511, -22.83619084], [-45.76156614, -22.83662826], [-45.76188322, -22.83696165], [-45.7622467, -22.83731479], [-45.76276711, -22.8375215], [-45.76335378, -22.83758114], [-45.76388607, -22.83758113], [-45.76406259, -22.83752809], [-45.76418392, -22.83745605], [-45.76465658, -22.83692009], [-45.76487725, -22.83670426], [-45.76514271, -22.83659038], [-45.76586058, -22.83647332], [-45.76684417, -22.83637702], [-45.76701881, -22.83632034], [-45.76727663, -22.8361982], [-45.76805857, -22.83564849], [-45.76813682, -22.83543747], [-45.76823314, -22.83514995], [-45.76834421, -22.83480665], [-45.76845207, -22.83447776], [-45.76865091, -22.83398414], [-45.76876632, -22.83366803], [-45.7688119, -22.83348176], [-45.76883944, -22.83327168], [-45.76885849, -22.83294761], [-45.76888465, -22.83250981], [-45.76889777, -22.83219016], [-45.76892052, -22.83192579], [-45.76897304, -22.83168451], [-45.76903312, -22.83150481], [-45.76914692, -22.83131969], [-45.79170804, -22.8194026], [-45.79209026, -22.81919666], [-45.7922471, -22.8191017], [-45.79197528, -22.81859565], [-45.79166282, -22.81802385], [-45.79097746, -22.81728134], [-45.79067991, -22.81709473], [-45.79038841, -22.81699767], [-45.78955217, -22.81694387], [-45.78865562, -22.81683394], [-45.787603, -22.81658042], [-45.7872649, -22.81642384], [-45.78636103, -22.81584119], [-45.78542949, -22.81512886], [-45.78513778, -22.81499293], [-45.78490313, -22.81493025], [-45.78409767, -22.81484803], [-45.78332437, -22.81476635], [-45.78291348, -22.81464468], [-45.78201807, -22.81422841], [-45.78183976, -22.81412601], [-45.78159566, -22.81399811], [-45.78121373, -22.81379108], [-45.78090784, -22.81363322], [-45.7807479, -22.81353836], [-45.78043778, -22.8132982], [-45.78015409, -22.81305216], [-45.7799742, -22.81283136], [-45.77985427, -22.81258446], [-45.77977731, -22.81218468], [-45.77963454, -22.81191029], [-45.77940324, -22.81167687], [-45.77890615, -22.81137844], [-45.778638, -22.81123477], [-45.77835441, -22.8110836], [-45.77805354, -22.81091859], [-45.77775546, -22.81076086], [-45.7774125, -22.81060508], [-45.77717479, -22.81049987], [-45.77689191, -22.81036227], [-45.77658506, -22.81020438], [-45.77629313, -22.81003139], [-45.77611565, -22.80988653], [-45.77603266, -22.80964567], [-45.77601438, -22.80928573], [-45.77599177, -22.808998], [-45.77586829, -22.80883327], [-45.77570894, -22.80875829], [-45.77515477, -22.80878689], [-45.77497992, -22.80870714], [-45.77482762, -22.80857083], [-45.77470435, -22.80819737], [-45.77456639, -22.80802607], [-45.77446093, -22.80793664], [-45.77382229, -22.80765116], [-45.77360469, -22.80746496], [-45.7730218, -22.80682259], [-45.77266286, -22.80658792], [-45.77234267, -22.80646504], [-45.7719334, -22.80636144], [-45.7717481, -22.80631765], [-45.7715548, -22.80623486], [-45.77125535, -22.80609787], [-45.7709996, -22.80591916], [-45.77073068, -22.80571672], [-45.77052582, -22.80547832], [-45.77028054, -22.80511454], [-45.77009841, -22.80481056], [-45.76986952, -22.80450579], [-45.76965522, -22.80420217], [-45.76939597, -22.80390502], [-45.7689874, -22.80356829], [-45.76845698, -22.80318342], [-45.76764456, -22.80276576], [-45.76639966, -22.80208776], [-45.76601674, -22.80188429], [-45.76545146, -22.80178526], [-45.76446891, -22.8018906], [-45.76394522, -22.80200552], [-45.76346221, -22.80223227], [-45.76330115, -22.80219521], [-45.76257425, -22.80129735], [-45.76215482, -22.80096855], [-45.76185889, -22.80090119], [-45.76076712, -22.80115826], [-45.75976018, -22.80126497], [-45.75859842, -22.80116663], [-45.75838351, -22.80104371], [-45.75823415, -22.80076015], [-45.75819502, -22.80022455], [-45.75829026, -22.79974545], [-45.7585333, -22.79923362], [-45.75866606, -22.79887714], [-45.75866619, -22.79852564], [-45.7585379, -22.79791533], [-45.75830269, -22.79719207], [-45.75800578, -22.79653372], [-45.75743721, -22.79586262], [-45.7572718, -22.79560228], [-45.75708808, -22.79488802], [-45.75689854, -22.79456673], [-45.75674584, -22.79440329], [-45.75630393, -22.79398103], [-45.75573835, -22.79360365], [-45.75507341, -22.79332216], [-45.75443782, -22.79318304], [-45.75315649, -22.79317209], [-45.75205769, -22.79334315], [-45.75073622, -22.79343902], [-45.75029479, -22.79314144], [-45.74929515, -22.79248917], [-45.74922967, -22.7924492], [-45.74875697, -22.79235259], [-45.74854234, -22.79241309], [-45.74845637, -22.79247307], [-45.74800616, -22.79281509], [-45.7477285, -22.79315464], [-45.7475358, -22.79343599], [-45.74727996, -22.79375602], [-45.74698062, -22.79415664], [-45.74668171, -22.79443708], [-45.74629605, -22.79471785], [-45.74569539, -22.79497959], [-45.74522244, -22.7950429], [-45.74474843, -22.79486493], [-45.7446615, -22.7948255], [-45.74433852, -22.79474679], [-45.74405918, -22.79472847], [-45.74363013, -22.79478982], [-45.74331961, -22.79491825], [-45.74298632, -22.79521166], [-45.74279442, -22.79545235], [-45.74264853, -22.79578058], [-45.74256239, -22.79619206], [-45.74249947, -22.79661207], [-45.74245857, -22.79714992], [-45.74241065, -22.79823704], [-45.74245648, -22.79877547], [-45.74243632, -22.79905434], [-45.74230889, -22.79943439], [-45.74207576, -22.79993463], [-45.74184131, -22.80035441], [-45.74173478, -22.80061464], [-45.74171369, -22.8006947], [-45.74171605, -22.80121341], [-45.74178278, -22.80163202], [-45.74187173, -22.80201124], [-45.74200166, -22.80228997], [-45.74215456, -22.80268836], [-45.74226287, -22.80292696], [-45.74252599, -22.80376277], [-45.74252743, -22.80408267], [-45.74237935, -22.80442261], [-45.7421011, -22.80464285], [-45.74188659, -22.8048434], [-45.7417791, -22.80500422], [-45.74175933, -22.80526321], [-45.74178841, -22.8057128], [-45.74184704, -22.80595055], [-45.74190626, -22.80620728], [-45.74190978, -22.80637361], [-45.74191816, -22.8066873], [-45.74193351, -22.80694509], [-45.74198131, -22.80718807], [-45.74200394, -22.80756978], [-45.74201321, -22.80793681], [-45.74194413, -22.80817599], [-45.74173477, -22.80836217], [-45.74120743, -22.80846249], [-45.74052295, -22.8084264], [-45.73917505, -22.80837353], [-45.73856075, -22.80833773], [-45.73811859, -22.80832022], [-45.73740155, -22.80835314], [-45.73704263, -22.80836507], [-45.73644317, -22.80846505], [-45.73616009, -22.80863279], [-45.73597314, -22.80886814], [-45.73575898, -22.80914821], [-45.73558757, -22.80928804], [-45.73530816, -22.80937001], [-45.7350138, -22.80937039], [-45.73461061, -22.80925595], [-45.73441644, -22.80921739], [-45.73384453, -22.80915699], [-45.73360784, -22.80919811], [-45.73306963, -22.80906058], [-45.73263922, -22.80894296], [-45.73238089, -22.80894486], [-45.73203735, -22.80906547], [-45.7314023, -22.8093853], [-45.73052066, -22.80950934], [-45.73000514, -22.8096514], [-45.72923219, -22.80999415], [-45.72838032, -22.81053073], [-45.72782553, -22.81097934], [-45.72759401, -22.81110277], [-45.72709104, -22.81129925], [-45.72632988, -22.81158798], [-45.72591328, -22.8119495], [-45.7257077, -22.8124818], [-45.72574251, -22.812983], [-45.72570196, -22.81340248], [-45.72570556, -22.81410013], [-45.72561522, -22.81437689], [-45.72531317, -22.81505392], [-45.72503663, -22.81567356], [-45.7247698, -22.81609999], [-45.72451955, -22.81637942], [-45.72420514, -22.81655293], [-45.72380289, -22.81663457], [-45.72346674, -22.81667668], [-45.72323082, -22.81667805], [-45.7230052, -22.81665248], [-45.72280855, -22.81664006], [-45.72250822, -22.81659694], [-45.72217521, -22.81653067], [-45.72095435, -22.8161175], [-45.72041553, -22.81596093], [-45.71994369, -22.81606215], [-45.71981382, -22.81612226], [-45.71970749, -22.81622344], [-45.71945062, -22.81644402], [-45.71923645, -22.81662466], [-45.7185709, -22.81690687], [-45.71844183, -22.81692724], [-45.71792614, -22.8169301], [-45.71746532, -22.81691854], [-45.7169785, -22.81679359], [-45.71652587, -22.81661681], [-45.71626381, -22.8164641], [-45.71590535, -22.81630612], [-45.71547385, -22.81614506], [-45.7151718, -22.81609106], [-45.71495221, -22.81610444], [-45.71477343, -22.81612485], [-45.71462283, -22.81610056], [-45.71447746, -22.81601041], [-45.71411097, -22.81566975], [-45.71393048, -22.8154841], [-45.71375262, -22.81526417], [-45.71344989, -22.81495262], [-45.71328286, -22.81472745], [-45.71307327, -22.81443739], [-45.71292056, -22.81417903], [-45.71276842, -22.81394056], [-45.71263815, -22.81368079], [-45.71263769, -22.8134612], [-45.71269954, -22.81300233], [-45.71278375, -22.81264325], [-45.71284764, -22.81242297], [-45.71305875, -22.81176336], [-45.71307881, -22.81144383], [-45.71307742, -22.81112483], [-45.71309512, -22.81048629], [-45.7132013, -22.81024685], [-45.71343661, -22.80988676], [-45.71373389, -22.80920696], [-45.71422011, -22.8087771], [-45.71456221, -22.80853541], [-45.71477711, -22.80841442], [-45.71507778, -22.808294], [-45.71529287, -22.80821277], [-45.71587232, -22.80809084], [-45.71636681, -22.80792859], [-45.71683917, -22.80794667], [-45.71718394, -22.80810532], [-45.71763728, -22.80834265], [-45.71790683, -22.80865633], [-45.71805478, -22.80895797], [-45.71823975, -22.80906598], [-45.71834698, -22.80906512], [-45.71854347, -22.80898808], [-45.71872723, -22.80891354], [-45.71923038, -22.80870805], [-45.71958278, -22.808584], [-45.72012493, -22.80842617], [-45.72074368, -22.80833742], [-45.72102756, -22.80822755], [-45.72129372, -22.80793213], [-45.72140147, -22.80761321], [-45.72139993, -22.80734933], [-45.72128873, -22.80691549], [-45.72115529, -22.80657072], [-45.7210247, -22.80613203], [-45.72095837, -22.80579384], [-45.72082664, -22.80531447], [-45.72078213, -22.80505527], [-45.72069419, -22.80467695], [-45.72073493, -22.80429723], [-45.72077728, -22.80417778], [-45.72092714, -22.80389753], [-45.72137519, -22.80337663], [-45.72186928, -22.80313574], [-45.72214736, -22.80297426], [-45.72242751, -22.80295288], [-45.7226209, -22.80293271], [-45.72290857, -22.80277862], [-45.72302629, -22.8026433], [-45.72322113, -22.80211171], [-45.72339909, -22.80193676], [-45.72370916, -22.80178396], [-45.72410963, -22.80169145], [-45.72466787, -22.80141009], [-45.72486735, -22.80127978], [-45.72497399, -22.80116234], [-45.72506713, -22.80093985], [-45.72518457, -22.80062289], [-45.72542238, -22.80037939], [-45.72574932, -22.80025941], [-45.72596556, -22.80021704], [-45.72629952, -22.80028241], [-45.72671929, -22.80049203], [-45.72696622, -22.80066977], [-45.72733959, -22.80090931], [-45.72751167, -22.80102793], [-45.72835126, -22.80110379], [-45.7286733, -22.80108312], [-45.72897721, -22.80099436], [-45.72959876, -22.80061647], [-45.7298485, -22.80006775], [-45.72993517, -22.79968068], [-45.72997521, -22.79904162], [-45.72997069, -22.79824275], [-45.72992629, -22.79778205], [-45.72994546, -22.79750497], [-45.7300435, -22.79718316], [-45.73021424, -22.79678308], [-45.73041717, -22.79633295], [-45.73064741, -22.79612545], [-45.73086061, -22.79584447], [-45.7311829, -22.79566386], [-45.73141051, -22.79549065], [-45.73176086, -22.79522287], [-45.7318898, -22.79506152], [-45.73199571, -22.79488171], [-45.7320582, -22.79458279], [-45.73227682, -22.7941275], [-45.73264653, -22.79337661], [-45.73281665, -22.79305604], [-45.73305228, -22.79267604], [-45.73341442, -22.79225575], [-45.73366816, -22.79189594], [-45.73390522, -22.79139488], [-45.73407555, -22.79101467], [-45.73407333, -22.79063692], [-45.73428651, -22.79035594], [-45.73435145, -22.79027573], [-45.73475783, -22.78993389], [-45.73501516, -22.78983348], [-45.73542301, -22.78971125], [-45.7358952, -22.78948982], [-45.73615203, -22.78916982], [-45.73629988, -22.78889043], [-45.73655672, -22.78856952], [-45.73659892, -22.78831001], [-45.73653234, -22.78812995], [-45.73636008, -22.78797158], [-45.73633902, -22.78795224], [-45.7359506, -22.78783355], [-45.73547793, -22.7877369], [-45.73501815, -22.78757993], [-45.73463678, -22.78740081], [-45.73418388, -22.78714365], [-45.73364442, -22.78692657], [-45.73316949, -22.78665006], [-45.73214173, -22.78624118], [-45.73132263, -22.78592442], [-45.73074032, -22.78560901], [-45.73007246, -22.78533189], [-45.72968385, -22.78517432], [-45.72895312, -22.7851175], [-45.72839295, -22.78505999], [-45.72794095, -22.78500253], [-45.72729615, -22.78498604], [-45.72652154, -22.78502875], [-45.72600556, -22.78505151], [-45.72557577, -22.78505316], [-45.72523077, -22.78505446], [-45.72446474, -22.78491117], [-45.7239707, -22.78466593], [-45.72371378, -22.7843073], [-45.72358742, -22.78404759], [-45.72359073, -22.7837847], [-45.72358892, -22.78348557], [-45.72375885, -22.78312614], [-45.7242117, -22.78201978], [-45.72433841, -22.78158009], [-45.72435623, -22.7809813], [-45.72433338, -22.78066193], [-45.72413971, -22.78050318], [-45.72398843, -22.78056383], [-45.72394555, -22.780564], [-45.72368787, -22.78058487], [-45.72342943, -22.78054608], [-45.72336492, -22.78050702], [-45.72327771, -22.78028775], [-45.72293224, -22.78006946], [-45.72239318, -22.77993187], [-45.7218986, -22.77971462], [-45.72157641, -22.77969643], [-45.72080236, -22.77976081], [-45.72041427, -22.7798219], [-45.71960807, -22.78022639], [-45.71885825, -22.78058938], [-45.7186434, -22.78070947], [-45.71810617, -22.7807725], [-45.71767467, -22.78071446], [-45.7173734, -22.78057644], [-45.71704976, -22.78033863], [-45.71672597, -22.78006015], [-45.71648682, -22.77964308], [-45.71633515, -22.77938293], [-45.71622592, -22.7791443], [-45.71620307, -22.77882584], [-45.71622348, -22.77858583], [-45.71622186, -22.77832646], [-45.71626354, -22.77804615], [-45.7164326, -22.77748793], [-45.71638885, -22.77728838], [-45.71623623, -22.77692972], [-45.71584777, -22.77657242], [-45.71556554, -22.77621423], [-45.71539201, -22.7759754], [-45.71532571, -22.7756372], [-45.71541067, -22.77533686], [-45.71523678, -22.7750185], [-45.71478361, -22.77472966], [-45.7142443, -22.77441222], [-45.71361974, -22.77421529], [-45.71314604, -22.7739785], [-45.71230652, -22.7737625], [-45.71206878, -22.77366441], [-45.71142326, -22.7736867], [-45.71122996, -22.77360745], [-45.71101302, -22.77325039], [-45.71094767, -22.77301071], [-45.71090336, -22.77279127], [-45.71090199, -22.77247136], [-45.71089916, -22.77193366], [-45.71091739, -22.7714144], [-45.71110913, -22.77113397], [-45.71179313, -22.77026296], [-45.71209228, -22.76992294], [-45.7121554, -22.76964301], [-45.71219451, -22.76900573], [-45.71236584, -22.76862555], [-45.71257848, -22.76822621], [-45.71277022, -22.76794579], [-45.71294076, -22.76760536], [-45.71274526, -22.76724777], [-45.7122719, -22.76718989], [-45.71207832, -22.76727058], [-45.71182159, -22.76739085], [-45.71153499, -22.76705788], [-45.7118969, -22.76679486], [-45.71224029, -22.76643482], [-45.71230685, -22.76632302], [-45.7123854, -22.76605058], [-45.71252936, -22.76552897], [-45.712583, -22.7654296], [-45.71275483, -22.7652672], [-45.71320924, -22.76505547], [-45.71338133, -22.76483163], [-45.71347308, -22.76453231], [-45.71348359, -22.76386291], [-45.71374652, -22.76309395], [-45.71385145, -22.76267197], [-45.71387689, -22.76237512], [-45.71382152, -22.76197838], [-45.71373882, -22.76168147], [-45.71337443, -22.76100107], [-45.71322439, -22.76036957], [-45.71317011, -22.76025839], [-45.71271381, -22.75973996], [-45.71244383, -22.75930789], [-45.71222683, -22.75861468], [-45.71215809, -22.75820505], [-45.71237369, -22.75794854], [-45.712834, -22.75719925], [-45.71298023, -22.75704997], [-45.71336572, -22.7567756], [-45.71424771, -22.75642396], [-45.71455417, -22.75639762], [-45.715102, -22.75643328], [-45.71547498, -22.75634484], [-45.71654188, -22.75590601], [-45.71669924, -22.75583282], [-45.71687423, -22.75565782], [-45.7169329, -22.75550161], [-45.71705393, -22.7540814], [-45.71708048, -22.75377734], [-45.71708528, -22.75348916], [-45.71695873, -22.75314361], [-45.71680342, -22.75292044], [-45.71646959, -22.75256318], [-45.71622906, -22.75236294], [-45.71582747, -22.75212921], [-45.71553159, -22.75191988], [-45.71542396, -22.75179694], [-45.71553147, -22.75158554], [-45.71568944, -22.75128736], [-45.7162583, -22.75061314], [-45.71655158, -22.7503688], [-45.71689791, -22.74985971], [-45.71704263, -22.74900738], [-45.71713561, -22.74869452], [-45.71727577, -22.74840959], [-45.71780609, -22.74780969], [-45.71835302, -22.74730496], [-45.71873533, -22.74689588], [-45.71903873, -22.74648635], [-45.71928019, -22.74605587], [-45.71939552, -22.74564851], [-45.71962798, -22.74503535], [-45.71975286, -22.74483147], [-45.72015107, -22.7444064], [-45.72050287, -22.74415764], [-45.72080827, -22.7439885], [-45.72067622, -22.74362568], [-45.72041035, -22.74289098], [-45.72047035, -22.74257032], [-45.72068309, -22.74221163], [-45.72079673, -22.74198588], [-45.72101954, -22.74170779], [-45.72162481, -22.74110917], [-45.72219664, -22.74028316], [-45.72254165, -22.73954542], [-45.72287818, -22.73889067], [-45.72326717, -22.73824314], [-45.72379994, -22.73746887], [-45.723917, -22.73702268], [-45.72393532, -22.73654498], [-45.72374474, -22.73564983], [-45.72363505, -22.73499733], [-45.7236428, -22.73446343], [-45.72374679, -22.73408569], [-45.72407595, -22.73379858], [-45.72517344, -22.73352559], [-45.72539677, -22.73336678], [-45.72555543, -22.73317794], [-45.72583857, -22.73236593], [-45.72605875, -22.73168206], [-45.7263713, -22.73115339], [-45.72670409, -22.73048862], [-45.72720466, -22.72966589], [-45.72770464, -22.72872659], [-45.7277857, -22.72817948], [-45.72775057, -22.72740176], [-45.72748481, -22.72680803], [-45.7275456, -22.72625154], [-45.72785969, -22.72603465], [-45.72787974, -22.72600607], [-45.72842528, -22.72566213], [-45.72862285, -22.72528058], [-45.72862088, -22.72484229], [-45.72853438, -22.72434471], [-45.72814297, -22.72394582], [-45.72794773, -22.72382047], [-45.72782024, -22.72371708], [-45.7280607, -22.72352874], [-45.72838157, -22.72336256], [-45.72852817, -22.72328917], [-45.73038428, -22.72262977], [-45.73146391, -22.72217209], [-45.73241052, -22.72188833], [-45.73555121, -22.72153102], [-45.7369846, -22.72150407], [-45.73764819, -22.72163833], [-45.73827021, -22.72190379], [-45.73914137, -22.72247443], [-45.73971839, -22.72274997], [-45.7409193, -22.72236388], [-45.74156634, -22.72225295], [-45.74229208, -22.72225], [-45.74345821, -22.7223883], [-45.74435299, -22.72265389], [-45.7450541, -22.72286104], [-45.74583206, -22.72307402], [-45.74645363, -22.72316686], [-45.74691917, -22.72321908], [-45.74719157, -22.72318759], [-45.74746003, -22.72305933], [-45.74782998, -22.72277468], [-45.7481465, -22.72243309], [-45.74877466, -22.72184922], [-45.74912657, -22.72173684], [-45.74943795, -22.7217042], [-45.74977879, -22.7217082], [-45.75029347, -22.72183716], [-45.75052586, -22.72190708], [-45.75082385, -22.72210734], [-45.75118557, -22.72248399], [-45.75137434, -22.72264172], [-45.75165582, -22.7227414], [-45.75183677, -22.72275261], [-45.75214828, -22.72266394], [-45.75229616, -22.7225255], [-45.75246365, -22.72238015], [-45.75263059, -22.72226281], [-45.75279402, -22.72217524], [-45.75295731, -22.72209488], [-45.75315628, -22.72203231], [-45.75373693, -22.72182984], [-45.75410356, -22.72171228], [-45.75459435, -22.72157154], [-45.75547729, -22.72140132], [-45.75593823, -22.72134138], [-45.75625429, -22.72131784], [-45.75680443, -22.72127931], [-45.75718256, -22.72126947], [-45.75733199, -22.72129821], [-45.75769306, -22.72126459], [-45.75825365, -22.72128858], [-45.75872585, -22.72144751], [-45.75901267, -22.72152376], [-45.75953966, -22.72176946], [-45.75976138, -22.72203438], [-45.75991695, -22.72219696], [-45.76004333, -22.72230844], [-45.76040101, -22.72254494], [-45.76063116, -22.72292656], [-45.76071817, -22.72310786], [-45.76087742, -22.72357773], [-45.76103862, -22.72380005], [-45.7613532, -22.72395087], [-45.76157575, -22.72407573], [-45.76178263, -22.72420485], [-45.76201301, -22.72432804], [-45.76225166, -22.72452546], [-45.76245558, -22.72470603], [-45.76266046, -22.72498601], [-45.76300605, -22.72534248], [-45.76323795, -22.72548738], [-45.76370516, -22.72575283], [-45.76428458, -22.72590905], [-45.76466778, -22.72603843], [-45.76516081, -22.72612992], [-45.76649824, -22.72637759], [-45.76738166, -22.72643141], [-45.76817028, -22.72655049], [-45.76897639, -22.72677106], [-45.76943877, -22.72693612], [-45.76986188, -22.72716557], [-45.77028842, -22.72736977], [-45.77082926, -22.72805302], [-45.77145665, -22.72849556], [-45.77195042, -22.72879849], [-45.7725994, -22.72933265], [-45.77291404, -22.72972924], [-45.77329947, -22.73019208], [-45.77392086, -22.73089204], [-45.77435307, -22.73135386], [-45.77451778, -22.73154821], [-45.77464757, -22.73173474], [-45.77480109, -22.73195329], [-45.77506099, -22.7321619], [-45.77539784, -22.7323709], [-45.77569371, -22.73243373], [-45.77597578, -22.73250536], [-45.77628893, -22.73253233], [-45.77652144, -22.732548], [-45.7770947, -22.73262364], [-45.77768058, -22.7326019], [-45.77824329, -22.73256983], [-45.77882333, -22.73234919], [-45.77919203, -22.73222529], [-45.77954248, -22.73208842], [-45.78023742, -22.73196911], [-45.7807684, -22.73186601], [-45.78118956, -22.73184871], [-45.78151827, -22.73187684], [-45.78198756, -22.73193896], [-45.78239447, -22.73205244], [-45.78301301, -22.73230322], [-45.78381231, -22.73262572], [-45.78436669, -22.73282029], [-45.78453132, -22.73291975], [-45.78475883, -22.73309165], [-45.7850186, -22.73325776], [-45.78533264, -22.73348805], [-45.78577069, -22.73370325], [-45.78620864, -22.73382447], [-45.78682766, -22.73390175], [-45.7871952, -22.73398654], [-45.78784204, -22.73408597], [-45.78854886, -22.73445658], [-45.78925313, -22.73475757], [-45.79046878, -22.73541142], [-45.79127669, -22.73599336], [-45.79218506, -22.73661945], [-45.79258552, -22.73696503], [-45.79311983, -22.73744116], [-45.79351316, -22.73785257], [-45.7945806, -22.73866565], [-45.79515939, -22.73895909], [-45.79563034, -22.73913777], [-45.79602085, -22.73924461], [-45.79652843, -22.73929288], [-45.79713066, -22.73933369], [-45.79752902, -22.73928795], [-45.79797344, -22.73922762], [-45.79860727, -22.73924637], [-45.79909888, -22.73916423], [-45.79973081, -22.73903023], [-45.80032327, -22.73877177], [-45.8010019, -22.73874065], [-45.80157521, -22.7386653], [-45.80179135, -22.73867163], [-45.80223164, -22.73867357], [-45.80357883, -22.73847831], [-45.80422235, -22.7382984], [-45.80453128, -22.73814182], [-45.80493634, -22.73795159], [-45.80547412, -22.73759823], [-45.80567366, -22.73745608], [-45.80577457, -22.73737644], [-45.80594537, -22.73720941], [-45.80613165, -22.73699746], [-45.8062788, -22.73679389], [-45.80646397, -22.73648885], [-45.80665789, -22.73618396], [-45.80687562, -22.73595807], [-45.80725798, -22.73578192], [-45.8077162, -22.73551216], [-45.80809814, -22.73530709], [-45.80832421, -22.73520333], [-45.8086356, -22.73491937], [-45.80915454, -22.73433073], [-45.80961681, -22.73385139], [-45.80990763, -22.73347221], [-45.81039025, -22.73304832], [-45.81080962, -22.73272098], [-45.81126716, -22.73243493], [-45.81149664, -22.73225532], [-45.81195267, -22.73189605], [-45.81224885, -22.73169225], [-45.81252917, -22.73150264], [-45.81276245, -22.73132761], [-45.81306574, -22.73115917], [-45.81323993, -22.73106809], [-45.81362233, -22.73098952], [-45.81394175, -22.73089363], [-45.81428823, -22.73075843], [-45.81457619, -22.73062678], [-45.81477176, -22.73053787], [-45.81511477, -22.73033032], [-45.81526212, -22.73016561], [-45.81560297, -22.72991827], [-45.81587645, -22.72972944], [-45.81611693, -22.72948405], [-45.81618552, -22.72926199], [-45.81621626, -22.72903208], [-45.8161349, -22.72875603], [-45.8161429, -22.72854382], [-45.81609001, -22.72825649], [-45.81615338, -22.72780032], [-45.81622093, -22.72743006], [-45.81633886, -22.72702358], [-45.81638802, -22.7267479], [-45.8164222, -22.72659214], [-45.81653093, -22.72635901], [-45.8165941, -22.72621548], [-45.81680325, -22.72582679], [-45.8169675, -22.72564428], [-45.81711542, -22.72544975], [-45.81744173, -22.72509735], [-45.81777845, -22.72470987], [-45.81828518, -22.72439661], [-45.81882057, -22.72416243], [-45.81949582, -22.72389896], [-45.81975985, -22.723644], [-45.81991617, -22.72341799], [-45.82000009, -22.72320794], [-45.82002226, -22.72291734], [-45.81997288, -22.72254875], [-45.8198609, -22.72209237], [-45.81971051, -22.72175915], [-45.81954506, -22.72144917], [-45.81937045, -22.72121043], [-45.81923689, -22.72086303], [-45.81917249, -22.72051588], [-45.81907747, -22.7202911], [-45.8189347, -22.72001765], [-45.81881494, -22.71961174], [-45.81858537, -22.71919226], [-45.81839601, -22.718759], [-45.81817423, -22.71833965], [-45.81789916, -22.71795646], [-45.817718, -22.71770405], [-45.81748802, -22.71715535], [-45.81739165, -22.71669832], [-45.81738961, -22.7163504], [-45.81742257, -22.71585396], [-45.81746304, -22.71552391], [-45.81746823, -22.71510381], [-45.81752756, -22.7146042], [-45.8176107, -22.71413208], [-45.81761426, -22.71344359], [-45.81761646, -22.71257344], [-45.81765296, -22.71199483], [-45.81760799, -22.71114649], [-45.81753389, -22.71049466], [-45.81734005, -22.70973963], [-45.81722945, -22.70946489], [-45.81678742, -22.70865061], [-45.81662481, -22.7082955], [-45.81649629, -22.70789035], [-45.8163846, -22.70736981], [-45.81629629, -22.70705118], [-45.81616903, -22.70668129], [-45.8159563, -22.70629913], [-45.81563258, -22.70566302], [-45.81522162, -22.70490528], [-45.81495356, -22.70446347], [-45.81452717, -22.70369823], [-45.81381085, -22.70271582], [-45.81310027, -22.70153832], [-45.81275155, -22.70068582], [-45.81244221, -22.69996229], [-45.81224389, -22.69934001], [-45.81196024, -22.69895034], [-45.8114584, -22.69851186], [-45.81095493, -22.69810768], [-45.81057929, -22.69794238], [-45.8103365, -22.69785701], [-45.8098836, -22.69775819], [-45.8095853, -22.6976728], [-45.80935004, -22.6975505], [-45.80909154, -22.69742149], [-45.80848239, -22.69729476], [-45.80805248, -22.6972162], [-45.80765274, -22.69713904], [-45.8072615, -22.69702498], [-45.80690213, -22.69687441], [-45.80650283, -22.69677467], [-45.80609642, -22.69663957], [-45.80583184, -22.6965728], [-45.80542504, -22.69640787], [-45.80495813, -22.69617868], [-45.80439753, -22.69595968], [-45.80368599, -22.69579056], [-45.80309886, -22.69568405], [-45.80270859, -22.6956206], [-45.80245786, -22.69564352], [-45.80209123, -22.6956166], [-45.80178596, -22.69563951], [-45.80138103, -22.69572942], [-45.80099157, -22.69582502], [-45.80047913, -22.69608482], [-45.80020601, -22.69610735], [-45.79977188, -22.69604587], [-45.79944905, -22.69596998], [-45.79904597, -22.69586474], [-45.79864709, -22.6957433], [-45.79831902, -22.6956366], [-45.79771651, -22.69536988], [-45.79728404, -22.69512318], [-45.79691498, -22.69487121], [-45.79656715, -22.69457893], [-45.79619698, -22.69418417], [-45.79586016, -22.69402672], [-45.79528711, -22.69394844], [-45.79484899, -22.69379199], [-45.79449562, -22.69368486], [-45.79399629, -22.69357166], [-45.79353494, -22.6934582], [-45.79281014, -22.69337104], [-45.79227721, -22.69303318], [-45.79195182, -22.69258946], [-45.7915748, -22.69244668], [-45.79146699, -22.69243222], [-45.79127124, -22.69243255], [-45.79105319, -22.69247768], [-45.790819, -22.69255146], [-45.79056909, -22.6926322], [-45.79017987, -22.69281543], [-45.7898687, -22.69299092], [-45.78976728, -22.69299825], [-45.78957343, -22.69310072], [-45.78913744, -22.69333466], [-45.78884939, -22.6934735], [-45.7884905, -22.69359939], [-45.78824071, -22.69367381], [-45.7880526, -22.69368149], [-45.78767765, -22.69363272], [-45.7869733, -22.69334617], [-45.78661741, -22.6931685], [-45.78648212, -22.69301532], [-45.78632204, -22.69278491], [-45.78625003, -22.69248279], [-45.78623644, -22.69228106], [-45.78624185, -22.69205434], [-45.78618364, -22.69184372], [-45.78610263, -22.6917529], [-45.7856123, -22.69147898], [-45.78504717, -22.69109537], [-45.78483492, -22.69089391], [-45.78418999, -22.69050805], [-45.78329842, -22.6898867], [-45.78272542, -22.68930867], [-45.78219346, -22.6885253], [-45.78171044, -22.687928], [-45.78162429, -22.68785155], [-45.78142113, -22.68758427], [-45.78123913, -22.68723059], [-45.78108108, -22.68684751], [-45.7809148, -22.68653657], [-45.78097977, -22.68585452], [-45.78078744, -22.6848844], [-45.78045992, -22.68420478], [-45.78038399, -22.6841041], [-45.7802346, -22.68397507], [-45.77987069, -22.6837611], [-45.77910763, -22.68339311], [-45.77863718, -22.68319993], [-45.77806643, -22.68295716], [-45.77749458, -22.6827704], [-45.77691577, -22.68254105], [-45.77585152, -22.68203964], [-45.77481879, -22.68171858], [-45.77408322, -22.68143958], [-45.77347296, -22.68127565], [-45.7727992, -22.68092359], [-45.77190627, -22.68037716], [-45.77084032, -22.67971574], [-45.77028385, -22.67939187], [-45.76923465, -22.67891958], [-45.76871148, -22.67878422], [-45.76758895, -22.67847604], [-45.76694578, -22.67845159], [-45.76618435, -22.67849833], [-45.76513079, -22.67849583], [-45.76447132, -22.67850814], [-45.76388888, -22.67851453], [-45.76320415, -22.67852369], [-45.76218271, -22.67822533], [-45.76166703, -22.67795724], [-45.76089651, -22.67762607], [-45.76048905, -22.67735168], [-45.76015914, -22.67714457], [-45.75997422, -22.67699142], [-45.75979463, -22.67686458], [-45.7594956, -22.67657305], [-45.7593262, -22.67627559], [-45.75917007, -22.67560154], [-45.75902087, -22.67492128], [-45.75877623, -22.67414362], [-45.75850007, -22.67363108], [-45.75773642, -22.67310123], [-45.75689777, -22.6724743], [-45.75603566, -22.67170421], [-45.75573423, -22.67114064], [-45.75552544, -22.670669], [-45.75537321, -22.6703899], [-45.75518927, -22.67023767], [-45.75473962, -22.67012881], [-45.75454603, -22.6701201], [-45.75425819, -22.67015044], [-45.75385206, -22.67020407], [-45.75341533, -22.67032856], [-45.75297079, -22.67045382], [-45.7526435, -22.67060819], [-45.75213853, -22.67083453], [-45.75185465, -22.67095982], [-45.75161247, -22.67109395], [-45.75139202, -22.67121218], [-45.75102525, -22.67134328], [-45.75066476, -22.6715513], [-45.75040588, -22.67179086], [-45.75037619, -22.67181475], [-45.75033787, -22.67183217], [-45.75029281, -22.67184586], [-45.74984479, -22.67180208], [-45.74917155, -22.67162614], [-45.74798471, -22.67117757], [-45.74751709, -22.6707476], [-45.7466356, -22.67031959], [-45.74570247, -22.66984461], [-45.74482109, -22.66960817], [-45.74383846, -22.6694206], [-45.7424926, -22.66923494], [-45.74109514, -22.66909808], [-45.73990726, -22.66939042], [-45.73867249, -22.66890662], [-45.73793794, -22.66863199], [-45.73741975, -22.66829871], [-45.73638042, -22.66753541], [-45.73583151, -22.66629977], [-45.73553436, -22.66601546], [-45.73539994, -22.66596888], [-45.73435322, -22.66548104], [-45.73290309, -22.66500887], [-45.73259139, -22.66472159], [-45.73227768, -22.6642427], [-45.73170583, -22.66357414], [-45.73049961, -22.66244377], [-45.72974663, -22.66207029], [-45.72875399, -22.66150924], [-45.72869527, -22.6614757], [-45.72833096, -22.66109353], [-45.72760536, -22.6606175], [-45.72698304, -22.6602842], [-45.7267827, -22.66032142], [-45.72646604, -22.66038194], [-45.72496752, -22.66058116], [-45.72408929, -22.6607766], [-45.7227466, -22.66107066], [-45.72150613, -22.66126797], [-45.72062784, -22.6613685], [-45.71990337, -22.66137228], [-45.71892289, -22.66156773], [-45.71842726, -22.66176431], [-45.71751644, -22.66222481], [-45.71712613, -22.66236446], [-45.71645009, -22.6625263], [-45.71582049, -22.662557], [-45.71541204, -22.66233849], [-45.71519857, -22.6620592], [-45.71508877, -22.6616597], [-45.71473657, -22.66116114], [-45.71441196, -22.66093776], [-45.71401434, -22.66076191], [-45.71349899, -22.66063101], [-45.71243339, -22.66041018], [-45.71114091, -22.65999656], [-45.71035541, -22.65979141], [-45.71001159, -22.65970052], [-45.7097948, -22.65968412], [-45.70939851, -22.6596366], [-45.70902733, -22.65945397], [-45.70706036, -22.65738312], [-45.70554945, -22.65626264], [-45.70445261, -22.65561289], [-45.70335738, -22.65507702], [-45.70253038, -22.65485574], [-45.70090245, -22.65456905], [-45.69980822, -22.65437114], [-45.69802156, -22.65427956], [-45.69793527, -22.6542618], [-45.6975255, -22.65415979], [-45.69678188, -22.6539562], [-45.69603662, -22.65354474], [-45.69596234, -22.65351092], [-45.69525309, -22.65310008], [-45.69462035, -22.65275834], [-45.69406119, -22.65248475], [-45.69357783, -22.65231459], [-45.6930942, -22.65211008], [-45.6930572, -22.65211034], [-45.69283106, -22.65183441], [-45.69283148, -22.65176574], [-45.69294317, -22.65173063], [-45.69320286, -22.65169539], [-45.69435262, -22.65131148], [-45.69531851, -22.65106532], [-45.69635838, -22.65106081], [-45.69747156, -22.65084883], [-45.69806549, -22.65060523], [-45.69832198, -22.65005214], [-45.69832213, -22.64994822], [-45.69824535, -22.64936223], [-45.69757215, -22.64846858], [-45.69738022, -22.64736552], [-45.69737953, -22.64715857], [-45.69737591, -22.64646903], [-45.69770419, -22.6453976], [-45.69774005, -22.64526087], [-45.69777553, -22.64470846], [-45.69795886, -22.64425892], [-45.69814399, -22.6441546], [-45.69899715, -22.64370224], [-45.69945553, -22.64332345], [-45.69997931, -22.64264578], [-45.70028644, -22.64238092], [-45.70069477, -22.64206993], [-45.70125644, -22.64178238], [-45.70199828, -22.64163622], [-45.70313183, -22.64142365], [-45.70402182, -22.64107491], [-45.7048378, -22.6407267], [-45.70630284, -22.64034364], [-45.70698602, -22.64035457], [-45.70788994, -22.64037746], [-45.70846111, -22.64029427], [-45.70917957, -22.6398088], [-45.70980689, -22.63901361], [-45.71015026, -22.63810598], [-45.71042648, -22.63666403], [-45.7106075, -22.63569665], [-45.71082535, -22.63459165], [-45.71089919, -22.63445287], [-45.71130328, -22.63362308], [-45.71204257, -22.63253433], [-45.71259392, -22.63178752], [-45.71336971, -22.63081867], [-45.71399745, -22.63004787], [-45.71451489, -22.6296321], [-45.71495921, -22.62931898], [-45.71562658, -22.62890128], [-45.71614361, -22.62855417], [-45.71614332, -22.62851983], [-45.71693736, -22.62804738], [-45.71742042, -22.62740329], [-45.71754581, -22.62702321], [-45.71752208, -22.62655562], [-45.71744425, -22.62611601], [-45.71684319, -22.62541074], [-45.71642988, -22.62509998], [-45.71586987, -22.62462945], [-45.71579035, -22.62422596], [-45.71597003, -22.62351699], [-45.71615074, -22.62275654], [-45.71693429, -22.62144533], [-45.71699956, -22.62134525], [-45.71751514, -22.62068003], [-45.71799554, -22.62026451], [-45.71853378, -22.62002259], [-45.71943322, -22.61992243], [-45.72026073, -22.62001171], [-45.72236209, -22.62030998], [-45.72389844, -22.62072862], [-45.72485847, -22.6209575], [-45.72673326, -22.62124549], [-45.72770566, -22.62109866], [-45.72842045, -22.62073955], [-45.729032, -22.6201889], [-45.72968022, -22.61955575], [-45.73004935, -22.61910485], [-45.7303055, -22.61841344], [-45.72985574, -22.61758702], [-45.72936378, -22.6158996], [-45.7293197, -22.61464459], [-45.7295708, -22.61420612], [-45.73027041, -22.6132395], [-45.73064081, -22.61257717], [-45.73105084, -22.61212426], [-45.73228244, -22.61166557], [-45.73370931, -22.61127349], [-45.73543928, -22.61090917], [-45.73589591, -22.61065675], [-45.73653993, -22.61023134], [-45.73718749, -22.60982315], [-45.73762382, -22.60931826], [-45.73861278, -22.60828427], [-45.73881261, -22.60748526], [-45.73842355, -22.60683611], [-45.73781242, -22.60658707], [-45.73652122, -22.60627759], [-45.7353418, -22.60563295], [-45.73504413, -22.60494108], [-45.73489267, -22.601792], [-45.73519031, -22.60087087], [-45.73555671, -22.59986869], [-45.73551582, -22.59928243], [-45.73521529, -22.5984902], [-45.73499679, -22.59812409], [-45.73431664, -22.5972865], [-45.73342336, -22.59684103], [-45.7326776, -22.59646497], [-45.73178487, -22.59608999], [-45.73113186, -22.59584564], [-45.73024393, -22.59557194], [-45.72872039, -22.59515809], [-45.72740763, -22.59481382], [-45.72732567, -22.59472656], [-45.72743467, -22.59453144], [-45.72770943, -22.5943202], [-45.72872503, -22.59341233], [-45.72909278, -22.5926858], [-45.72926612, -22.59214298], [-45.72931427, -22.59163144], [-45.7290919, -22.59102127], [-45.72856717, -22.59029928], [-45.72785747, -22.58933734], [-45.72725113, -22.58836543], [-45.72685159, -22.58780824], [-45.7262818, -22.5874433], [-45.72509246, -22.58715987], [-45.72350833, -22.58695909], [-45.72211295, -22.58661426], [-45.72055981, -22.58583746], [-45.72017843, -22.58515224], [-45.71943617, -22.58426561], [-45.71888012, -22.58379968], [-45.71783317, -22.58306502], [-45.71687427, -22.5820156], [-45.71637185, -22.58130208], [-45.71625041, -22.58080659], [-45.71633333, -22.58035891], [-45.71658813, -22.57978317], [-45.71694602, -22.57940439], [-45.71724532, -22.57908425], [-45.71775305, -22.57880294], [-45.71816458, -22.57866095], [-45.71914535, -22.57866522], [-45.71816137, -22.5780437], [-45.71750871, -22.57768995], [-45.71689767, -22.57759084], [-45.71649046, -22.57761454], [-45.71532595, -22.5782821], [-45.71420587, -22.5787236], [-45.71381563, -22.57901687], [-45.71327858, -22.57974044], [-45.71288796, -22.58000387], [-45.71255947, -22.58012922], [-45.71235564, -22.5801519], [-45.71217663, -22.58024731], [-45.71168265, -22.58042401], [-45.71032624, -22.58017824], [-45.70925932, -22.58010284], [-45.70795206, -22.58022027], [-45.70695557, -22.58046506], [-45.70480703, -22.58143177], [-45.70380787, -22.58219609], [-45.70294336, -22.58318324], [-45.70261906, -22.58372793], [-45.70226202, -22.58454496], [-45.702001, -22.58489465], [-45.70166914, -22.58537957], [-45.70140644, -22.5855711], [-45.70089164, -22.58581338], [-45.7001838, -22.5859773], [-45.69962644, -22.5860137], [-45.69882816, -22.58602965], [-45.69838049, -22.58603181], [-45.69767525, -22.58606654], [-45.69705596, -22.58613349], [-45.6961963, -22.58620167], [-45.69537039, -22.5861882], [-45.69463075, -22.5861916], [-45.69357932, -22.5858769], [-45.69313122, -22.58551396], [-45.69305713, -22.58537622], [-45.69254079, -22.58458648], [-45.6921957, -22.5838458], [-45.69170916, -22.58312254], [-45.69125635, -22.58256071], [-45.6912188, -22.58249228], [-45.69089163, -22.58216578], [-45.69006219, -22.58146184], [-45.68978832, -22.58114621], [-45.6891271, -22.58040092], [-45.68817675, -22.57961353], [-45.6874319, -22.57920292], [-45.68653887, -22.5787581], [-45.68568256, -22.57827777], [-45.68482362, -22.57759136], [-45.68415194, -22.57683592], [-45.68348003, -22.57604433], [-45.68265879, -22.57532332], [-45.6819254, -22.57478096], [-45.68139163, -22.57432794], [-45.68068355, -22.5738818], [-45.68004479, -22.57361579], [-45.67940707, -22.57339499], [-45.67887284, -22.57330069], [-45.6780445, -22.5734109], [-45.67793945, -22.57345695], [-45.67756963, -22.57369988], [-45.67729482, -22.57395984], [-45.67666582, -22.57441149], [-45.67633363, -22.57462164], [-45.67603612, -22.57480168], [-45.67571667, -22.57515122], [-45.67508536, -22.57590736], [-45.67445836, -22.57673857], [-45.67399026, -22.57731593], [-45.67354424, -22.57766866], [-45.67328057, -22.57781043], [-45.67299334, -22.57786684], [-45.67237549, -22.57772136], [-45.67116878, -22.57724836], [-45.67034092, -22.57695098], [-45.66948004, -22.57684189], [-45.66829313, -22.57678308], [-45.66669435, -22.57635557], [-45.66646787, -22.57639135], [-45.66547199, -22.57669916], [-45.66476743, -22.57679791], [-45.66284189, -22.57688602], [-45.66175907, -22.57716245], [-45.6610736, -22.57761215], [-45.66030602, -22.57893784], [-45.6600891, -22.57921957], [-45.65976205, -22.57984365], [-45.6598623, -22.58031894], [-45.65993861, -22.58110827], [-45.66023981, -22.58179764], [-45.66117327, -22.58307106], [-45.66166101, -22.58396614], [-45.66244047, -22.58506244], [-45.66304898, -22.58685876], [-45.66311707, -22.58771843], [-45.66263385, -22.58888919], [-45.66150129, -22.5901669], [-45.66052451, -22.59139221], [-45.66030078, -22.59205426], [-45.66020164, -22.59342968], [-45.66026613, -22.59436971], [-45.66036328, -22.59552087], [-45.66044157, -22.59616655], [-45.66041999, -22.59674631], [-45.65949175, -22.59807007], [-45.65939811, -22.59846151], [-45.65943948, -22.59862761], [-45.65987946, -22.59876639], [-45.66095358, -22.5987338], [-45.66195127, -22.59886975], [-45.66266181, -22.59905576], [-45.66403233, -22.59961664], [-45.66493236, -22.60015117], [-45.66520957, -22.60044521], [-45.66541012, -22.60130088], [-45.66539671, -22.60214917], [-45.66505574, -22.60331069], [-45.66498542, -22.60418148], [-45.66508055, -22.60467112], [-45.6651992, -22.60491358], [-45.66607588, -22.60602241], [-45.66700864, -22.6070545], [-45.6676072, -22.60791445], [-45.66809079, -22.60873262], [-45.66823034, -22.60933509], [-45.66814155, -22.60996699], [-45.66752609, -22.61069988], [-45.6668035, -22.61129262], [-45.66630714, -22.61191194], [-45.66599296, -22.61247481], [-45.66592933, -22.61282702], [-45.6658914, -22.61330257], [-45.66600087, -22.61361445], [-45.66686415, -22.61442845], [-45.66809214, -22.61535276], [-45.66950558, -22.616396], [-45.67096508, -22.61857229], [-45.67160229, -22.61964074], [-45.67205145, -22.62043208], [-45.67232158, -22.62112449], [-45.67250384, -22.62173494], [-45.67301174, -22.62255803], [-45.67383824, -22.62331893], [-45.67441555, -22.62422366], [-45.67488573, -22.62498825], [-45.67519816, -22.62585128], [-45.67505163, -22.62654724], [-45.67468243, -22.62727904], [-45.67415976, -22.62780303], [-45.67373577, -22.62826098], [-45.67334954, -22.62868073], [-45.67324463, -22.62881353], [-45.67310617, -22.62920781], [-45.67312338, -22.62984518], [-45.6733891, -22.63042094], [-45.67435918, -22.63149521], [-45.67576468, -22.63255631], [-45.67634608, -22.63263969], [-45.67704174, -22.63256151], [-45.67752025, -22.63248675], [-45.67783691, -22.63242452], [-45.67827236, -22.63236075], [-45.6785763, -22.63244559], [-45.67892154, -22.63270194], [-45.67920031, -22.63301948], [-45.67956513, -22.63370179], [-45.67988241, -22.6346164], [-45.68032532, -22.6354808], [-45.68086035, -22.63597903], [-45.68119205, -22.63618363], [-45.68209534, -22.63642804], [-45.68254418, -22.63656872], [-45.6835651, -22.63715765], [-45.68434807, -22.63767195], [-45.68475969, -22.63825656], [-45.68494875, -22.63877494], [-45.68506343, -22.63936069], [-45.68510593, -22.63971385], [-45.68503084, -22.64010472], [-45.68413566, -22.63998698], [-45.68359382, -22.63991878], [-45.68343123, -22.63991956], [-45.68331929, -22.63991941], [-45.68298588, -22.63999039], [-45.68213185, -22.64033964], [-45.68079521, -22.64077262], [-45.68035657, -22.64084808], [-45.67964978, -22.64075349], [-45.67884957, -22.64017742], [-45.67842351, -22.63996936], [-45.67806407, -22.63988445], [-45.67766513, -22.63992265], [-45.67717527, -22.64017162], [-45.6756379, -22.64109172], [-45.6747427, -22.64140586], [-45.67370436, -22.64172111], [-45.67333425, -22.64182577], [-45.67296409, -22.6421717], [-45.67296517, -22.64230998], [-45.6732623, -22.643161], [-45.67325378, -22.64386659], [-45.67286531, -22.64496855], [-45.67275755, -22.64562361], [-45.67271359, -22.64658793], [-45.67238173, -22.64720382], [-45.67161093, -22.64843462], [-45.67086785, -22.6490207], [-45.66945025, -22.649885], [-45.66827336, -22.65035502], [-45.66774152, -22.65070262], [-45.66732269, -22.65109377], [-45.66704007, -22.65139423], [-45.66679598, -22.65152368], [-45.66607566, -22.65146946], [-45.66431959, -22.65112232], [-45.66377165, -22.65082713], [-45.66295132, -22.65014039], [-45.66242859, -22.64965949], [-45.66188276, -22.64930921], [-45.66048149, -22.64860952], [-45.65976631, -22.64844782], [-45.65911359, -22.64832608], [-45.65885486, -22.64836219], [-45.65777756, -22.64843628], [-45.65696093, -22.6484743], [-45.65662627, -22.64850996], [-45.65584567, -22.6485477], [-45.65409909, -22.64888106], [-45.65319444, -22.64898618], [-45.65219136, -22.649001], [-45.65170125, -22.64887848], [-45.65101328, -22.64852927], [-45.65050425, -22.64823744], [-45.65024725, -22.64823651], [-45.64962379, -22.64839718], [-45.64883575, -22.64856037], [-45.64802764, -22.64861024], [-45.64728078, -22.64852202], [-45.64655751, -22.64813873], [-45.64580901, -22.64765649], [-45.64455972, -22.64653012], [-45.64394489, -22.64617675], [-45.6433432, -22.64608386], [-45.64230823, -22.64608811], [-45.64136098, -22.64608759], [-45.64005987, -22.64591994], [-45.63920363, -22.64561287], [-45.63797469, -22.6452034], [-45.63697014, -22.6447238], [-45.63585421, -22.64445277], [-45.6345162, -22.64442358], [-45.63384133, -22.64452816], [-45.63291386, -22.64484331], [-45.63228095, -22.64503718], [-45.63141151, -22.64504069], [-45.63079671, -22.64473426], [-45.63057785, -22.64430114], [-45.63027991, -22.64345454], [-45.62993847, -22.64292344], [-45.62889611, -22.64154309], [-45.62818249, -22.64083819], [-45.62734988, -22.64023869], [-45.62632576, -22.63957886], [-45.62562176, -22.63930425], [-45.62506403, -22.63906478], [-45.62463478, -22.63887368], [-45.62395994, -22.63878936], [-45.62325481, -22.63885178], [-45.62295864, -22.63895674], [-45.62144288, -22.63905168], [-45.62036859, -22.63893581], [-45.61806434, -22.63799551], [-45.61668013, -22.63714664], [-45.61575646, -22.63620026], [-45.6151355, -22.63464753], [-45.61487127, -22.63368312], [-45.61438463, -22.63278793], [-45.61400956, -22.63209896], [-45.61363363, -22.63102954], [-45.61344239, -22.63062941], [-45.61243865, -22.62979183], [-45.6104813, -22.62856394], [-45.61009498, -22.62804284], [-45.60984898, -22.62737424], [-45.60949974, -22.62614715], [-45.60935762, -22.62530511], [-45.60924347, -22.62461538], [-45.60886863, -22.62382429], [-45.60838921, -22.62370816], [-45.60708483, -22.62347601], [-45.60662304, -22.62307464], [-45.60636433, -22.62236334], [-45.60631018, -22.621925], [-45.60610676, -22.62117673], [-45.6056593, -22.62069519], [-45.60461656, -22.62014692], [-45.60454231, -22.62011306], [-45.602526, -22.61952832], [-45.60093445, -22.61915993], [-45.59866726, -22.61903059], [-45.59725577, -22.61903591], [-45.59636411, -22.61903883], [-45.59539798, -22.61911179], [-45.59431605, -22.61932273], [-45.59406117, -22.6194094], [-45.59362098, -22.61955961], [-45.59321824, -22.61959482], [-45.59245042, -22.61963338], [-45.59147546, -22.61952362], [-45.59082944, -22.6193701], [-45.59079244, -22.61937033], [-45.58909606, -22.61861769], [-45.58849976, -22.61827438], [-45.58710566, -22.61707896], [-45.58630185, -22.61660628], [-45.58482209, -22.61596956], [-45.58466196, -22.61576154], [-45.58471635, -22.61521039], [-45.58514972, -22.61478176], [-45.58652642, -22.61411263], [-45.58772269, -22.61308871], [-45.58797605, -22.61247067], [-45.58794239, -22.61147604], [-45.58784053, -22.61108834], [-45.58757413, -22.61033168], [-45.58671588, -22.60930046], [-45.58596941, -22.60850892], [-45.58511122, -22.60761505], [-45.58451522, -22.60716781], [-45.58395596, -22.60682515], [-45.58313704, -22.60638019], [-45.58248186, -22.60615597], [-45.581894, -22.60601701], [-45.58146406, -22.60600562], [-45.58086958, -22.60604275], [-45.58038656, -22.6060096], [-45.58012641, -22.60583771], [-45.57997574, -22.60559732], [-45.58000997, -22.60494098], [-45.58000667, -22.60407883], [-45.57978176, -22.60352714], [-45.57948015, -22.60301291], [-45.57899313, -22.60275378], [-45.57843989, -22.60263531], [-45.57744652, -22.60271309], [-45.57709092, -22.60268405], [-45.57684309, -22.60257474], [-45.57669014, -22.60216532], [-45.57648539, -22.60181279], [-45.57595705, -22.60120498], [-45.57528538, -22.60051776], [-45.57485475, -22.60012318], [-45.57365707, -22.59927369], [-45.5725765, -22.59868657], [-45.57156839, -22.59840259], [-45.57119248, -22.59832166], [-45.57082545, -22.59832764], [-45.57029822, -22.59836143], [-45.56949828, -22.59849781], [-45.5688348, -22.59880835], [-45.56830303, -22.59928846], [-45.56768542, -22.59954652], [-45.56706724, -22.59960124], [-45.5664406, -22.59954917], [-45.56577072, -22.59937884], [-45.56528872, -22.59934476], [-45.5645086, -22.59941731], [-45.56388494, -22.59986953], [-45.56350443, -22.60055932], [-45.56340984, -22.60245619], [-45.56341421, -22.60418407], [-45.56353155, -22.60590859], [-45.56368628, -22.60719912], [-45.56384283, -22.60826559], [-45.56423092, -22.60952151], [-45.56454231, -22.61049229], [-45.56496594, -22.61149493], [-45.56329321, -22.61410135], [-45.56249056, -22.61500575], [-45.56166594, -22.61579769], [-45.56089035, -22.61680198], [-45.56053481, -22.61755096], [-45.55959886, -22.61983099], [-45.55875339, -22.6213301], [-45.55804992, -22.62237365], [-45.55718593, -22.62318292], [-45.55570842, -22.62432618], [-45.55527721, -22.62496894], [-45.55515127, -22.62553775], [-45.5552015, -22.62606099], [-45.55556895, -22.6266361], [-45.55634049, -22.62702159], [-45.55703173, -22.6271544], [-45.55877722, -22.62714829], [-45.55970538, -22.62735499], [-45.56075441, -22.62796873], [-45.56227891, -22.62948303], [-45.56317505, -22.63065332], [-45.56410942, -22.63185775], [-45.56498875, -22.63271958], [-45.56616764, -22.63364017], [-45.56665505, -22.6342075], [-45.56700342, -22.63499821], [-45.56711831, -22.63555063], [-45.56750626, -22.63617217], [-45.56857448, -22.6370347], [-45.56894666, -22.63734329], [-45.56937832, -22.63801623], [-45.56996843, -22.63870108], [-45.57076265, -22.63907787], [-45.57154523, -22.63959181], [-45.57187735, -22.63995388], [-45.57265753, -22.6403512], [-45.57334403, -22.64029679], [-45.57404814, -22.63991467], [-45.5752595, -22.63929866], [-45.57592299, -22.63931973], [-45.57697499, -22.63975359], [-45.57787858, -22.64062482], [-45.57807526, -22.64090129], [-45.57928407, -22.64267537], [-45.58002757, -22.64333676], [-45.58151197, -22.64409017], [-45.58212493, -22.64466424], [-45.58254083, -22.6457209], [-45.58295243, -22.64721486], [-45.58301071, -22.6473605], [-45.58347203, -22.64903698], [-45.58373689, -22.64973036], [-45.58401994, -22.65029935], [-45.58413069, -22.65063571], [-45.58431313, -22.65112788], [-45.58445725, -22.65163653], [-45.58445332, -22.65173135], [-45.58422343, -22.65206154], [-45.58380099, -22.65233494], [-45.58290126, -22.65248042], [-45.58183371, -22.65268882], [-45.58100671, -22.65284736], [-45.57881577, -22.65337247], [-45.57747567, -22.65385514], [-45.57757909, -22.65444619], [-45.57791432, -22.6554499], [-45.57826691, -22.6559063], [-45.58059328, -22.65700029], [-45.58121436, -22.65728262], [-45.58188995, -22.65765902], [-45.58236962, -22.65799934], [-45.58287343, -22.65830304], [-45.58393585, -22.65912922], [-45.58530462, -22.66001966], [-45.58591785, -22.66035244], [-45.58660248, -22.66067024], [-45.58674321, -22.66069176], [-45.58692382, -22.66080798], [-45.58767822, -22.66109541], [-45.58854883, -22.6615991], [-45.58910284, -22.66211063], [-45.58956127, -22.66290869], [-45.58968684, -22.66300313], [-45.59073588, -22.66433235], [-45.59091015, -22.664659], [-45.59102887, -22.66508043], [-45.59106319, -22.66562686], [-45.59122274, -22.66623789], [-45.5917692, -22.66743695], [-45.59185661, -22.66786595], [-45.59191244, -22.66798985], [-45.59184381, -22.66847749], [-45.5916901, -22.66907564], [-45.59126321, -22.67025715], [-45.59106178, -22.67094842], [-45.59102514, -22.67134988], [-45.59085672, -22.67223151], [-45.59064611, -22.67275635], [-45.59031085, -22.67328165], [-45.59014808, -22.67366095], [-45.59091658, -22.67365042], [-45.59119956, -22.67371516], [-45.59174173, -22.67400417], [-45.59232527, -22.67441048], [-45.59283653, -22.67464109], [-45.59306334, -22.67469127], [-45.5939971, -22.67469454], [-45.59450726, -22.67483837], [-45.59483043, -22.67498336], [-45.5951829, -22.67517134], [-45.59574289, -22.67554017], [-45.5964043, -22.67613493], [-45.59758672, -22.67742674], [-45.59810631, -22.67791231], [-45.59886987, -22.67841944], [-45.59933357, -22.67864375], [-45.59961646, -22.67885306], [-45.59978162, -22.67891838], [-45.60011322, -22.67926682], [-45.60032633, -22.67960049], [-45.60044461, -22.67990533], [-45.60054881, -22.68037168], [-45.60073273, -22.68084398], [-45.60107112, -22.68128743], [-45.60155173, -22.68172891], [-45.60188937, -22.68197535], [-45.60259009, -22.68232228], [-45.60317914, -22.68256058], [-45.60336078, -22.6826759], [-45.60357982, -22.68272591], [-45.60420923, -22.68303723], [-45.60444563, -22.68318876], [-45.60493292, -22.68331047], [-45.60673085, -22.68362466], [-45.60814326, -22.68379367], [-45.60888269, -22.68396597], [-45.60906204, -22.68395834], [-45.60946361, -22.68417518], [-45.61014902, -22.6847911], [-45.61069147, -22.68521107], [-45.61117984, -22.68551531], [-45.61144688, -22.68564569], [-45.61182443, -22.68575366], [-45.61216973, -22.6857734], [-45.61258574, -22.68576458], [-45.61307991, -22.68569662], [-45.6139269, -22.68570816], [-45.61478352, -22.68595934], [-45.61552166, -22.68624182], [-45.61593023, -22.68635666], [-45.61626825, -22.68639885], [-45.61691742, -22.68651076], [-45.6174006, -22.68655012], [-45.61795361, -22.68665036], [-45.61848512, -22.68689481], [-45.61892894, -22.68728226], [-45.61904174, -22.68771261], [-45.6189984, -22.68811215], [-45.61862528, -22.68872899], [-45.61825214, -22.6891118], [-45.61731653, -22.68956859], [-45.61679546, -22.68957102], [-45.61538319, -22.68939215], [-45.61449436, -22.68933108], [-45.61381023, -22.6896821], [-45.61300873, -22.69057321], [-45.61261758, -22.69154033], [-45.61210174, -22.69250884], [-45.61133705, -22.69340783], [-45.61110966, -22.69389895], [-45.61109885, -22.69395026], [-45.61155677, -22.69520549], [-45.61167024, -22.69574338], [-45.61207023, -22.69659996], [-45.61254468, -22.69724824], [-45.61376363, -22.69848545], [-45.61440961, -22.69908166], [-45.61485891, -22.69981622], [-45.61516068, -22.70057345], [-45.61543605, -22.70110158], [-45.61620788, -22.70211029], [-45.61670484, -22.70266135], [-45.61740467, -22.70380883], [-45.61770439, -22.70433739], [-45.61798021, -22.70521976], [-45.61866065, -22.70763107], [-45.61987689, -22.71079022], [-45.62030591, -22.71288167], [-45.62014991, -22.71368764], [-45.61973186, -22.71444827], [-45.61953626, -22.71490925], [-45.61948877, -22.71541444], [-45.61959351, -22.71571812], [-45.62013633, -22.71608023], [-45.62107942, -22.71639888], [-45.62196412, -22.71652671], [-45.62320531, -22.71665548], [-45.6242509, -22.71682231], [-45.62552496, -22.71729232], [-45.62597605, -22.71761663], [-45.62721186, -22.71908897], [-45.62857375, -22.72054186], [-45.62887304, -22.72100081], [-45.62899889, -22.72141511], [-45.62890112, -22.7216682], [-45.62858036, -22.72210617], [-45.62798674, -22.72240826], [-45.62697281, -22.72273359], [-45.62630514, -22.72298918], [-45.62537263, -22.72347409], [-45.6246681, -22.72405161], [-45.6244726, -22.72479001], [-45.62456322, -22.72544676], [-45.62460036, -22.72577002], [-45.62445575, -22.72597979], [-45.62408039, -22.72604268], [-45.62309609, -22.72592303], [-45.62242072, -22.72584411], [-45.62147064, -22.72576572], [-45.6207843, -22.72560528], [-45.62031896, -22.72549757], [-45.61994733, -22.72552166], [-45.61943525, -22.7255071], [-45.61888265, -22.72542675], [-45.61821221, -22.72529821], [-45.61790838, -22.7252467], [-45.61744437, -22.72530979], [-45.61713535, -22.72541452], [-45.61684994, -22.72574286], [-45.61682626, -22.72594485], [-45.61738173, -22.72649696], [-45.61780606, -22.72675033], [-45.61822314, -22.72693037], [-45.61923693, -22.72722499], [-45.62017138, -22.72735281], [-45.62072998, -22.72737905], [-45.6214986, -22.72747138], [-45.62214298, -22.72763559], [-45.6222218, -22.72768669], [-45.62236373, -22.72770097], [-45.62312679, -22.72806157], [-45.62407173, -22.72876518], [-45.6246698, -22.72909663], [-45.62503083, -22.72925578], [-45.62584862, -22.72951433], [-45.62692501, -22.72975127], [-45.62765527, -22.73000283], [-45.62866965, -22.73022421], [-45.63028044, -22.73076342], [-45.63076827, -22.73082089], [-45.63132466, -22.73076662], [-45.63269674, -22.73031841], [-45.6334415, -22.73019881], [-45.63430489, -22.73023131], [-45.63493548, -22.730688], [-45.63543737, -22.73067794], [-45.63627804, -22.73082027], [-45.63755128, -22.73124408], [-45.63784196, -22.73127273], [-45.63821884, -22.73118363], [-45.63926013, -22.73071413], [-45.64031823, -22.73037414], [-45.64071038, -22.73030067], [-45.64158912, -22.73020238], [-45.64220117, -22.73023581], [-45.64282968, -22.73041592], [-45.64338021, -22.73074014], [-45.64375147, -22.73106659], [-45.64420846, -22.73158162], [-45.64447614, -22.73182853], [-45.64491709, -22.73198724], [-45.64556122, -22.73207183], [-45.64595407, -22.73220077], [-45.64635516, -22.73240305], [-45.64693806, -22.73285975], [-45.64735467, -22.7331129], [-45.64972166, -22.73397703], [-45.65050782, -22.734309], [-45.65084762, -22.73455536], [-45.65100501, -22.73476598], [-45.65100562, -22.73492593], [-45.65077154, -22.73522451], [-45.6508049, -22.73545011], [-45.65130665, -22.735543], [-45.65228854, -22.73554678], [-45.65271976, -22.73561041], [-45.65318442, -22.73575416], [-45.65355414, -22.73591972], [-45.65385302, -22.73616626], [-45.65442168, -22.73689196], [-45.6549892, -22.73743602], [-45.65565968, -22.73789965], [-45.65623357, -22.73818085], [-45.65663341, -22.73820778], [-45.65697208, -22.73827248], [-45.65758363, -22.73828416], [-45.65806887, -22.75036789], [-45.65840168, -22.75866903], [-45.67610081, -22.78715006], [-45.6760198, -22.78725166], [-45.67576644, -22.78753819], [-45.67548708, -22.78771312], [-45.67487286, -22.78801322], [-45.6744626, -22.78829971], [-45.67372812, -22.78876216], [-45.67348846, -22.78899742], [-45.67310551, -22.78990427], [-45.67297259, -22.7900664], [-45.67278587, -22.79019054], [-45.67278633, -22.79021585], [-45.6725317, -22.79022947], [-45.67243839, -22.79021699], [-45.67239821, -22.79018014], [-45.67213018, -22.79018177], [-45.6716632, -22.79038142], [-45.67165073, -22.79041916], [-45.67157031, -22.79044395], [-45.67157077, -22.79046926], [-45.67114289, -22.79051959], [-45.67058174, -22.79050976], [-45.66972752, -22.790774], [-45.66924699, -22.79082522], [-45.66879207, -22.79081543], [-45.6680742, -22.79094019], [-45.6678386, -22.79092792], [-45.6676827, -22.79083121], [-45.66756975, -22.79068284], [-45.66740665, -22.79041341], [-45.66715927, -22.7902148], [-45.66687161, -22.79012752], [-45.66620236, -22.79020975], [-45.6659012, -22.79021079], [-45.66567447, -22.79014626], [-45.6654733, -22.79002345], [-45.66520465, -22.78991211], [-45.66507113, -22.78986458], [-45.66472442, -22.78985307], [-45.6645109, -22.78995324], [-45.66419081, -22.79016539], [-45.66400438, -22.79022717], [-45.66391082, -22.79022734], [-45.66349555, -22.78999413], [-45.66303262, -22.78942304], [-45.66292918, -22.78933448], [-45.66272978, -22.78926772], [-45.66254669, -22.78926179], [-45.66220856, -22.78935525], [-45.66194215, -22.78946803], [-45.66092922, -22.79015324], [-45.66063597, -22.79029176], [-45.65986097, -22.79049318], [-45.65928692, -22.79049483], [-45.65924648, -22.79047062], [-45.65891038, -22.79046471], [-45.65804289, -22.79037625], [-45.65748101, -22.79035461], [-45.65716631, -22.79030298], [-45.65695298, -22.79029832], [-45.65678643, -22.79024569], [-45.65666588, -22.79018392], [-45.65565949, -22.78940715], [-45.65539066, -22.78920995], [-45.65513648, -22.7889633], [-45.65493536, -22.78879078], [-45.65439818, -22.78842076], [-45.65421041, -22.78830992], [-45.65402358, -22.7882488], [-45.65380869, -22.78822513], [-45.65354237, -22.7882385], [-45.65327634, -22.78847508], [-45.65308891, -22.78853774], [-45.6529817, -22.78853856], [-45.65291569, -22.78852565], [-45.65270066, -22.78836643], [-45.6524641, -22.78811647], [-45.6522799, -22.78802196], [-45.65158859, -22.78784982], [-45.65030505, -22.78780548], [-45.65003759, -22.78773208], [-45.64946662, -22.78744188], [-45.64912022, -22.78741588], [-45.64802946, -22.78747523], [-45.64769182, -22.78749728], [-45.64736323, -22.78745804], [-45.6469341, -22.7872372], [-45.64657168, -22.78708983], [-45.64629134, -22.78697915], [-45.64607698, -22.78693018], [-45.64511454, -22.78691045], [-45.64479421, -22.78684876], [-45.64459303, -22.78677472], [-45.6444046, -22.78660241], [-45.64436854, -22.78655478], [-45.64384021, -22.78589844], [-45.64353246, -22.78565173], [-45.6433631, -22.78559451], [-45.64334478, -22.78681588], [-45.64312154, -22.78748242], [-45.64252146, -22.78860675], [-45.64218593, -22.78951979], [-45.64169706, -22.79011747], [-45.64102143, -22.79117087], [-45.64070868, -22.79159275], [-45.64050712, -22.79196237], [-45.64052801, -22.79222569], [-45.64058606, -22.79257733], [-45.6404601, -22.79292028], [-45.6400517, -22.79311184], [-45.63964332, -22.79316063], [-45.63910675, -22.79318727], [-45.6386974, -22.79309417], [-45.63836408, -22.79295272], [-45.63798558, -22.79278155], [-45.63764309, -22.79265981], [-45.63703575, -22.79257404], [-45.63619062, -22.79262953], [-45.63570645, -22.7928089], [-45.63504398, -22.79312787], [-45.63453363, -22.79330044], [-45.6340584, -22.79351881], [-45.63346198, -22.79370611], [-45.63302871, -22.79382764], [-45.63262032, -22.79382942], [-45.63200631, -22.79373628], [-45.63134014, -22.79352565], [-45.63077635, -22.79317225], [-45.63033403, -22.79288246], [-45.62980014, -22.79263803], [-45.62903618, -22.79244462], [-45.62835617, -22.79243253], [-45.62774909, -22.79252293], [-45.62702848, -22.79282457], [-45.62663071, -22.7930199], [-45.62597514, -22.79342751], [-45.62531144, -22.79371027], [-45.62427931, -22.79404159], [-45.62323685, -22.79421278], [-45.62169877, -22.79417452], [-45.62075382, -22.79415496], [-45.6199356, -22.79413404], [-45.61906764, -22.79420891], [-45.61835317, -22.79444827], [-45.61771566, -22.79473599], [-45.61752453, -22.79483469], [-45.61728854, -22.7948883], [-45.61700783, -22.79488962], [-45.61648045, -22.79489556], [-45.61616823, -22.79495956], [-45.61577598, -22.79512243], [-45.61541869, -22.79538533], [-45.61506238, -22.79574132], [-45.61496051, -22.79585968], [-45.61475819, -22.79616871], [-45.61458024, -22.7964303], [-45.6144018, -22.79666928], [-45.61417273, -22.79685856], [-45.61450364, -22.79734882], [-45.61465402, -22.79756928], [-45.61489265, -22.79785818], [-45.61499737, -22.79802451], [-45.61519281, -22.79832801], [-45.61530761, -22.79847825], [-45.61559042, -22.79875168], [-45.6158567, -22.79907], [-45.61608099, -22.79934509], [-45.61619351, -22.79955855], [-45.61623914, -22.79984852], [-45.61622437, -22.80004344], [-45.61619629, -22.80022186], [-45.61588832, -22.80101877], [-45.61566596, -22.80144763], [-45.61520626, -22.80194726], [-45.61461338, -22.802571], [-45.61420099, -22.8029043], [-45.61400573, -22.80315473], [-45.61402586, -22.8033584], [-45.61412685, -22.80361051], [-45.61430729, -22.80388572], [-45.61441215, -22.80409272], [-45.61451792, -22.80439642], [-45.61456372, -22.80463128], [-45.61460878, -22.80494835], [-45.61471488, -22.80537676], [-45.61480593, -22.80563863], [-45.61495654, -22.80594222], [-45.61538869, -22.80658067], [-45.61609093, -22.80712093], [-45.61653306, -22.80737371], [-45.61720162, -22.80765854], [-45.61770378, -22.80793046], [-45.61804747, -22.8081363], [-45.61836124, -22.80832805], [-45.61880549, -22.80857272], [-45.61914697, -22.80879117], [-45.61963304, -22.80918117], [-45.61979795, -22.80936032], [-45.62029195, -22.80988509], [-45.62058488, -22.81032948], [-45.62078505, -22.81073516], [-45.6208894, -22.81096744], [-45.62121547, -22.8114594], [-45.62148478, -22.81168017], [-45.62173881, -22.81188621], [-45.62217191, -22.81210537], [-45.62249153, -22.81225023], [-45.62312468, -22.81259947], [-45.62333724, -22.81283097], [-45.62349262, -22.81314096], [-45.62364229, -22.81353851], [-45.62383683, -22.81416909], [-45.62411615, -22.81480118], [-45.6244303, -22.81511671], [-45.62472938, -22.81540668], [-45.62514824, -22.81570239], [-45.62550436, -22.81592108], [-45.62577506, -22.81598193], [-45.6261917, -22.81600832], [-45.62634084, -22.81600826], [-45.62669826, -22.81588179], [-45.62711369, -22.81559009], [-45.6274338, -22.81533554], [-45.62753789, -22.81525155], [-45.62799839, -22.81508986], [-45.6282129, -22.81508645], [-45.62858341, -22.81522225], [-45.62891056, -22.81552265], [-45.62967859, -22.81651492], [-45.62991924, -22.81703878], [-45.63034013, -22.81799145], [-45.63050581, -22.8183224], [-45.63065684, -22.81874979], [-45.63071965, -22.81905904], [-45.63082497, -22.81929224], [-45.63095888, -22.81960456], [-45.63108438, -22.81989956], [-45.6311446, -22.82014551], [-45.63126277, -22.82051176], [-45.63144341, -22.8209216], [-45.63155987, -22.82122909], [-45.63160524, -22.82148653], [-45.63154795, -22.8217584], [-45.63125601, -22.82211195], [-45.63089755, -22.82238209], [-45.63041015, -22.82271228], [-45.63004909, -22.823014], [-45.62967855, -22.82344386], [-45.62952615, -22.82388392], [-45.62946609, -22.82424249], [-45.62947301, -22.82428508], [-45.6294272, -22.82470897], [-45.62944441, -22.82491349], [-45.62941271, -22.82540901], [-45.62948136, -22.82581325], [-45.62981886, -22.82646262], [-45.62995612, -22.82699006], [-45.63002449, -22.82745483], [-45.62999416, -22.82816724], [-45.62956523, -22.82953402], [-45.62917042, -22.83066465], [-45.62893629, -22.83166169], [-45.62870833, -22.83226668], [-45.6286776, -22.83276221], [-45.6287794, -22.83316613], [-45.62921701, -22.83378385], [-45.62972383, -22.83444889], [-45.62999305, -22.83495969], [-45.63044404, -22.83549632], [-45.63086756, -22.83608849], [-45.63113677, -22.83655321], [-45.63131878, -22.83685012], [-45.63160847, -22.83722032], [-45.63165284, -22.83738466], [-45.6316534, -22.83759341], [-45.63166577, -22.83789092], [-45.63175457, -22.83845273], [-45.63187324, -22.83870153], [-45.63224129, -22.83910114], [-45.63253592, -22.83956269], [-45.63263986, -22.83976966], [-45.63281631, -22.84066646], [-45.63276582, -22.84098635], [-45.63266672, -22.84125296], [-45.63257114, -22.84153771], [-45.63259255, -22.84182273], [-45.6327021, -22.84213552], [-45.63284146, -22.84232685], [-45.63305749, -22.8425349], [-45.63325638, -22.84267668], [-45.63365633, -22.84299553], [-45.63418733, -22.84329501], [-45.63499813, -22.84354795], [-45.63555027, -22.84376829], [-45.63643978, -22.84431719], [-45.63757943, -22.84488679], [-45.63785467, -22.84506064], [-45.63808016, -22.84523633], [-45.63845944, -22.84547166], [-45.63890157, -22.84568461], [-45.63923576, -22.84578993], [-45.63964945, -22.84591654], [-45.64071647, -22.84589567], [-45.64140412, -22.84583375], [-45.64221158, -22.84577666], [-45.64265494, -22.84588299], [-45.64285142, -22.84604731], [-45.64323872, -22.84660356], [-45.64355095, -22.84701751], [-45.64408032, -22.84787175], [-45.64426162, -22.84815779], [-45.6444965, -22.84849357], [-45.64468786, -22.84890719], [-45.64508653, -22.84947989], [-45.64577898, -22.85022767], [-45.64614012, -22.85068224], [-45.64652524, -22.8516776], [-45.64668036, -22.85200473], [-45.6469757, -22.85248254], [-45.64714921, -22.85281632], [-45.64725382, -22.85294468], [-45.64737534, -22.85324682], [-45.64748054, -22.85372578], [-45.64749934, -22.85404419], [-45.64744985, -22.85450686], [-45.64725715, -22.85501129], [-45.64681904, -22.85583306], [-45.64654761, -22.856515], [-45.64649748, -22.85677165], [-45.64639569, -22.85712226], [-45.64627245, -22.85775712], [-45.64620568, -22.8583957], [-45.64620788, -22.85871561], [-45.64620786, -22.85881139], [-45.64626114, -22.85901745], [-45.64638235, -22.8591452], [-45.64655427, -22.85927203], [-45.64693453, -22.85946218], [-45.64755594, -22.85973159], [-45.6478491, -22.85993736], [-45.64871263, -22.8604767], [-45.64928268, -22.86087351], [-45.64976725, -22.86130224], [-45.65031814, -22.86192008], [-45.65042215, -22.86207824], [-45.6508027, -22.86244459], [-45.65087225, -22.86252353], [-45.65094144, -22.86271541], [-45.6510163, -22.86301131], [-45.65113374, -22.86341729], [-45.65123902, -22.86370378], [-45.65130855, -22.86392639], [-45.65136084, -22.86408635], [-45.65139657, -22.86424601], [-45.65146707, -22.86451653], [-45.65156977, -22.86488069], [-45.65164214, -22.86520274], [-45.65176069, -22.86541266], [-45.65216182, -22.86577485], [-45.65235195, -22.86596525], [-45.65286344, -22.86627155], [-45.65343888, -22.86650218], [-45.65396665, -22.86668045], [-45.65519194, -22.86708065], [-45.65586184, -22.86736533], [-45.65650179, -22.86777961], [-45.65688997, -22.86815601], [-45.65724609, -22.86876408], [-45.65745408, -22.8690831], [-45.65764551, -22.86944881], [-45.65783531, -22.86975125], [-45.65803923, -22.86993555], [-45.65855606, -22.87026814], [-45.65926238, -22.87058508], [-45.66024664, -22.87104334], [-45.66138646, -22.87166789], [-45.66250908, -22.87237073], [-45.66341287, -22.87304624], [-45.66382252, -22.873423], [-45.66416959, -22.87376072], [-45.66441197, -22.8739728], [-45.66468302, -22.87411762], [-45.66496797, -22.87420304], [-45.66529191, -22.87428915], [-45.66564846, -22.87435414], [-45.66632104, -22.87446262], [-45.66688418, -22.87453485], [-45.66722901, -22.87460054], [-45.66738639, -22.87467739], [-45.66754375, -22.87480304], [-45.66768405, -22.87509556], [-45.66769263, -22.87524842], [-45.66777149, -22.87539799], [-45.66792686, -22.8755733], [-45.66827339, -22.87574745], [-45.66868885, -22.87579268], [-45.66904539, -22.87581068], [-45.66935099, -22.87584043], [-45.66949296, -22.87590798], [-45.66975938, -22.87618463], [-45.67025636, -22.87648881], [-45.67076658, -22.87666943], [-45.67099691, -22.87680359], [-45.67136509, -22.87701605], [-45.67192014, -22.87719836], [-45.67247578, -22.87735176], [-45.67297447, -22.87752494], [-45.67354466, -22.87777799], [-45.67421791, -22.87819006], [-45.67482447, -22.87847717]]]]}}]}