{"type": "FeatureCollection", "features": [{"type": "Feature", "properties": {"name": "Área de Proteção Ambiental Haras São Bernardo"}, "geometry": {"type": "MultiPolygon", "coordinates": [[[[-46.53503433, -23.69714491], [-46.53514058, -23.69705783], [-46.53525732, -23.69698019], [-46.53540918, -23.69694682], [-46.53560249, -23.69690667], [-46.53594773, -23.69683951], [-46.53603062, -23.69682595], [-46.53623747, -23.69676016], [-46.53632735, -23.6967529], [-46.53656135, -23.69664224], [-46.53678866, -23.69655076], [-46.53687698, -23.69640968], [-46.53698553, -23.69622379], [-46.53698411, -23.69610272], [-46.53698916, -23.69594335], [-46.5370158, -23.69585386], [-46.53704161, -23.69569429], [-46.53706021, -23.69550929], [-46.53703676, -23.6952801], [-46.53700625, -23.69503823], [-46.53691331, -23.69478424], [-46.53689039, -23.69459965], [-46.53687461, -23.69443412], [-46.53692028, -23.69419787], [-46.5369792, -23.6939105], [-46.53700516, -23.69376367], [-46.53702369, -23.6935723], [-46.53703596, -23.69343835], [-46.53704056, -23.69324074], [-46.53705179, -23.69301758], [-46.5371465, -23.69283183], [-46.53726167, -23.69262038], [-46.53738369, -23.69240249], [-46.53738852, -23.692224], [-46.53741931, -23.69189868], [-46.53741978, -23.69164376], [-46.53742387, -23.69140155], [-46.5374894, -23.69108863], [-46.537576, -23.69080099], [-46.53771163, -23.69056385], [-46.53781318, -23.69037165], [-46.53787366, -23.6902181], [-46.53802945, -23.68992978], [-46.5381647, -23.68966077], [-46.5383289, -23.68949982], [-46.53858253, -23.68929337], [-46.5389052, -23.68907348], [-46.53910399, -23.68891218], [-46.53926774, -23.688713], [-46.53916915, -23.6885674], [-46.5391007, -23.68863181], [-46.53900458, -23.6886965], [-46.53887371, -23.68874878], [-46.53860557, -23.68889802], [-46.53834309, -23.68893887], [-46.53810143, -23.68898588], [-46.53770763, -23.68904077], [-46.53734864, -23.68911444], [-46.53703757, -23.68914302], [-46.53679562, -23.68916454], [-46.53649139, -23.68918668], [-46.53625568, -23.68915078], [-46.53606157, -23.68912084], [-46.53585317, -23.68905281], [-46.53564484, -23.68899114], [-46.53546419, -23.68892921], [-46.53526249, -23.68884199], [-46.53501934, -23.68876155], [-46.5349843, -23.68872366], [-46.53478981, -23.68866186], [-46.53456758, -23.68859396], [-46.53424854, -23.6885334], [-46.53409639, -23.68854128], [-46.53392348, -23.68854936], [-46.53377877, -23.68860178], [-46.5336482, -23.68867955], [-46.53353139, -23.68875081], [-46.53339516, -23.68893697], [-46.53327232, -23.68908476], [-46.53310857, -23.68928394], [-46.53299994, -23.68946346], [-46.53289005, -23.68953465], [-46.53275352, -23.68969532], [-46.53259646, -23.68987532], [-46.53239758, -23.69003024], [-46.53224376, -23.69017133], [-46.53241015, -23.69051445], [-46.53244512, -23.69054597], [-46.53265039, -23.69093905], [-46.53278544, -23.69124362], [-46.53300009, -23.69184691], [-46.53324994, -23.69250084], [-46.5335143, -23.69321199], [-46.53373543, -23.69377698], [-46.53385671, -23.69408805], [-46.53407227, -23.69476781], [-46.53431357, -23.69528162], [-46.53446469, -23.69577721], [-46.53456351, -23.69594192], [-46.53460681, -23.69609444], [-46.5346365, -23.69626622], [-46.53469559, -23.69658427], [-46.53477394, -23.69677468], [-46.53490192, -23.69706657], [-46.53503433, -23.69714491]]]]}}]}