{"type": "FeatureCollection", "features": [{"type": "Feature", "properties": {"name": "Área de Proteção Ambiental Cajati"}, "geometry": {"type": "MultiPolygon", "coordinates": [[[[-48.20850678, -24.88968279], [-48.21053955, -24.88782986], [-48.21328072, -24.88717723], [-48.21575068, -24.8873588], [-48.21580475, -24.8871868], [-48.21584311, -24.88688455], [-48.21585466, -24.8863792], [-48.21580047, -24.88597752], [-48.21574154, -24.88577437], [-48.21554576, -24.88536342], [-48.21541145, -24.88483525], [-48.21585112, -24.88511126], [-48.21676525, -24.88559114], [-48.21712398, -24.88583992], [-48.21738681, -24.88612014], [-48.21756583, -24.88655813], [-48.2175978, -24.88724855], [-48.21775457, -24.88768651], [-48.21789872, -24.88795298], [-48.21897853, -24.88845568], [-48.21979082, -24.88856086], [-48.22051804, -24.88853502], [-48.22108622, -24.88857659], [-48.2217771, -24.88452013], [-48.22423485, -24.88488642], [-48.22436279, -24.88521602], [-48.22463371, -24.88560576], [-48.22547359, -24.8864764], [-48.22628118, -24.88554252], [-48.22640418, -24.88537736], [-48.22628897, -24.88516961], [-48.22613029, -24.8847452], [-48.22610349, -24.8845421], [-48.22611235, -24.8841315], [-48.22614059, -24.8839285], [-48.22631023, -24.88350915], [-48.22645911, -24.88326574], [-48.22699874, -24.88272968], [-48.22760071, -24.88224335], [-48.22866079, -24.88147352], [-48.22899228, -24.88112663], [-48.22912381, -24.88090123], [-48.22928589, -24.88054503], [-48.22937606, -24.87997212], [-48.22987926, -24.88002259], [-48.23229752, -24.87998144], [-48.23302663, -24.87991493], [-48.23365987, -24.87955048], [-48.23402006, -24.87937508], [-48.23449826, -24.87924048], [-48.23552733, -24.87912934], [-48.23808843, -24.87618184], [-48.23782905, -24.8720875], [-48.23579691, -24.87017745], [-48.23480212, -24.87050524], [-48.23446932, -24.87059495], [-48.23402403, -24.87066643], [-48.23358128, -24.8707018], [-48.23291926, -24.87063756], [-48.23250685, -24.87065042], [-48.23191784, -24.87087057], [-48.23136116, -24.87099148], [-48.2308597, -24.87101774], [-48.23025643, -24.87094003], [-48.23006735, -24.87088107], [-48.22982528, -24.87074737], [-48.23014005, -24.8689928], [-48.23019064, -24.86672394], [-48.22801417, -24.86588244], [-48.22511839, -24.86449351], [-48.22396593, -24.86367098], [-48.22178666, -24.86296283], [-48.2206642, -24.86080574], [-48.21939552, -24.85864583], [-48.21985819, -24.85758634], [-48.22279859, -24.85697357], [-48.22542261, -24.85742287], [-48.22641069, -24.85904343], [-48.22681391, -24.86065312], [-48.2282588, -24.86148106], [-48.22925596, -24.86270118], [-48.23348861, -24.86559524], [-48.23562924, -24.86571993], [-48.23685157, -24.86523244], [-48.23691487, -24.86232802], [-48.23636306, -24.8576534], [-48.23608295, -24.85535359], [-48.23589841, -24.85237728], [-48.23552072, -24.85006903], [-48.23560477, -24.84902336], [-48.23574297, -24.84884761], [-48.23584288, -24.84864471], [-48.23592275, -24.84825677], [-48.23591813, -24.8480853], [-48.23574595, -24.84730439], [-48.23571051, -24.84676735], [-48.23570221, -24.84563024], [-48.23579773, -24.84418641], [-48.23581078, -24.84382997], [-48.23586366, -24.8433382], [-48.2356873, -24.84300872], [-48.23559273, -24.84279177], [-48.23561346, -24.84265296], [-48.23705519, -24.84262246], [-48.23783076, -24.84155054], [-48.2387842, -24.8409393], [-48.24116395, -24.84098328], [-48.24257831, -24.8412373], [-48.24469386, -24.84001936], [-48.24317445, -24.83802972], [-48.24087001, -24.83446035], [-48.23926937, -24.83394043], [-48.23893428, -24.83378135], [-48.23917622, -24.83364186], [-48.23962381, -24.83327255], [-48.2400017, -24.8328174], [-48.24025421, -24.83232143], [-48.24037973, -24.83196966], [-48.2405661, -24.83179397], [-48.24092382, -24.83155087], [-48.24122815, -24.83142951], [-48.24174998, -24.83134008], [-48.24190201, -24.83134934], [-48.24176082, -24.83097378], [-48.24213848, -24.83059198], [-48.2425451, -24.8301848], [-48.24276122, -24.83004629], [-48.24296074, -24.83001109], [-48.24334648, -24.82990154], [-48.24350022, -24.82937304], [-48.24355056, -24.82902417], [-48.24379793, -24.82875662], [-48.24399517, -24.82882506], [-48.24437582, -24.82894867], [-48.24468428, -24.8284879], [-48.24483629, -24.82803712], [-48.24455694, -24.8278246], [-48.24406387, -24.82764707], [-48.24362881, -24.82741878], [-48.24316433, -24.82722875], [-48.24283961, -24.82714506], [-48.24213454, -24.82692468], [-48.24131772, -24.82662444], [-48.24100539, -24.82661867], [-48.24061928, -24.82674115], [-48.2404589, -24.82693262], [-48.24014706, -24.82754877], [-48.24022613, -24.82782242], [-48.24079017, -24.82800134], [-48.24085485, -24.82828762], [-48.24094705, -24.82861318], [-48.24132932, -24.82865913], [-48.24176675, -24.82878394], [-48.24085098, -24.82987211], [-48.24026414, -24.83066988], [-48.23973764, -24.83126469], [-48.23925682, -24.83189114], [-48.23885435, -24.83226052], [-48.23863714, -24.83240458], [-48.23791892, -24.83272382], [-48.23747301, -24.83286749], [-48.23699755, -24.83293893], [-48.23665547, -24.8330873], [-48.23658733, -24.83315488], [-48.23090096, -24.82918769], [-48.23143789, -24.82891799], [-48.23285268, -24.82821462], [-48.23254159, -24.82782576], [-48.23223649, -24.82716346], [-48.23226255, -24.82689037], [-48.23261347, -24.82638603], [-48.23338446, -24.82587139], [-48.2333718, -24.82554282], [-48.23297502, -24.8254078], [-48.23231738, -24.82532263], [-48.23154425, -24.82503474], [-48.23068731, -24.82492756], [-48.22989511, -24.82549672], [-48.22946205, -24.82519673], [-48.22964485, -24.82465281], [-48.22992846, -24.82355512], [-48.22943497, -24.82338734], [-48.22877468, -24.8231877], [-48.22800435, -24.82300142], [-48.22767715, -24.82281587], [-48.22738221, -24.82257621], [-48.22712014, -24.82226893], [-48.22701985, -24.82204765], [-48.22697808, -24.82192574], [-48.22687955, -24.82174057], [-48.22652849, -24.82082397], [-48.22640841, -24.82060718], [-48.22603388, -24.81999286], [-48.22579543, -24.81932459], [-48.22552003, -24.81889545], [-48.22536858, -24.81859737], [-48.22525945, -24.81815948], [-48.22525501, -24.81729758], [-48.22513767, -24.81694992], [-48.22499161, -24.81675113], [-48.224702, -24.81661978], [-48.22531959, -24.81653058], [-48.22599006, -24.81626546], [-48.22632399, -24.81616223], [-48.22720546, -24.81607344], [-48.22742733, -24.81606929], [-48.22852581, -24.81592673], [-48.2288423, -24.81590018], [-48.22931561, -24.81594156], [-48.22969303, -24.81603695], [-48.23075968, -24.81637263], [-48.23118469, -24.81646809], [-48.23146961, -24.81645953], [-48.23215289, -24.81627112], [-48.23248412, -24.81627618], [-48.23277506, -24.81635335], [-48.23302933, -24.81653427], [-48.23365203, -24.81635027], [-48.23418974, -24.81632407], [-48.23476232, -24.81617609], [-48.23550652, -24.81611412], [-48.23599067, -24.81598854], [-48.23625146, -24.81599348], [-48.23665233, -24.81611597], [-48.23680853, -24.81619743], [-48.23736559, -24.81671727], [-48.23774642, -24.81697059], [-48.2381687, -24.81720139], [-48.23821495, -24.8172556], [-48.23883443, -24.81745965], [-48.2395406, -24.81757812], [-48.24001223, -24.81753826], [-48.24046458, -24.81756153], [-48.24101632, -24.81764363], [-48.24175514, -24.81781627], [-48.24231983, -24.81791644], [-48.24297231, -24.81799417], [-48.24491357, -24.81829953], [-48.24569796, -24.81856698], [-48.24726609, -24.81946288], [-48.24775694, -24.81972084], [-48.24801513, -24.81980247], [-48.24821515, -24.8199201], [-48.24864838, -24.82026371], [-48.24889172, -24.82035433], [-48.25101137, -24.82181959], [-48.25241826, -24.821014], [-48.25269158, -24.82092868], [-48.25385961, -24.82034571], [-48.25416887, -24.8201367], [-48.25442776, -24.81983024], [-48.25491665, -24.81877957], [-48.25513787, -24.81845951], [-48.25558989, -24.81797735], [-48.2566273, -24.8170764], [-48.25686246, -24.81690076], [-48.25767821, -24.81683427], [-48.25822269, -24.81705917], [-48.25976236, -24.81723056], [-48.26095426, -24.81775396], [-48.26194221, -24.8180347], [-48.26310552, -24.81867679], [-48.26447674, -24.81937039], [-48.26541086, -24.81972191], [-48.26629432, -24.8200007], [-48.26689581, -24.82001171], [-48.26843824, -24.8200638], [-48.26916492, -24.82005919], [-48.27038471, -24.82110779], [-48.27058676, -24.82132017], [-48.27103979, -24.82073212], [-48.2710581, -24.81989675], [-48.27142961, -24.8196648], [-48.27149077, -24.81925997], [-48.27144321, -24.81904409], [-48.27163663, -24.81857015], [-48.27143474, -24.81823221], [-48.27107807, -24.81779585], [-48.27045565, -24.81754565], [-48.26965019, -24.8172922], [-48.2689504, -24.81699296], [-48.26827094, -24.81695664], [-48.26730644, -24.8167957], [-48.26673281, -24.81671351], [-48.26611252, -24.81636791], [-48.2657935, -24.81540696], [-48.26494839, -24.81421644], [-48.26554079, -24.81357413], [-48.26603962, -24.81297469], [-48.26628718, -24.81258696], [-48.26660866, -24.81183819], [-48.26591464, -24.81153515], [-48.26471108, -24.81125244], [-48.26378597, -24.81094532], [-48.26275027, -24.81228858], [-48.26242454, -24.81285137], [-48.26202097, -24.81356906], [-48.26174962, -24.81395224], [-48.26147283, -24.81425867], [-48.26119638, -24.81445453], [-48.2609631, -24.81454673], [-48.26059256, -24.81404532], [-48.26031153, -24.81377866], [-48.25973128, -24.81338974], [-48.25917519, -24.8129783], [-48.25888437, -24.81282895], [-48.25848112, -24.81266138], [-48.25822651, -24.81265198], [-48.25805898, -24.81268332], [-48.2576322, -24.81288577], [-48.25742512, -24.81291254], [-48.25729785, -24.81289429], [-48.25704464, -24.81280366], [-48.25636926, -24.81240556], [-48.25570671, -24.81208872], [-48.25545483, -24.81193941], [-48.25444451, -24.81154081], [-48.25420998, -24.81136899], [-48.25412488, -24.8112741], [-48.25401838, -24.8110393], [-48.25388895, -24.81050663], [-48.25381011, -24.80863832], [-48.25307127, -24.80883576], [-48.25203145, -24.80904627], [-48.25180773, -24.80905046], [-48.25162736, -24.80900055], [-48.25155211, -24.80892372], [-48.25153866, -24.8088515], [-48.25146402, -24.80877468], [-48.25118063, -24.80862984], [-48.25095757, -24.80861145], [-48.25040072, -24.80864218], [-48.25005719, -24.80860106], [-48.25025194, -24.80855622], [-48.25037377, -24.80851131], [-48.25046095, -24.80847533], [-48.25052478, -24.80838518], [-48.25096831, -24.80780824], [-48.25132547, -24.80748388], [-48.25178982, -24.80700174], [-48.25217978, -24.80631192], [-48.25258792, -24.80547321], [-48.25305292, -24.80497301], [-48.25354674, -24.80459021], [-48.25389194, -24.80437862], [-48.25268929, -24.80366162], [-48.25198113, -24.80340106], [-48.25175343, -24.80322472], [-48.25166673, -24.80298542], [-48.25164922, -24.80275527], [-48.25156547, -24.8025972], [-48.25147531, -24.80256999], [-48.25102785, -24.80327778], [-48.25063916, -24.80395406], [-48.25042458, -24.8043734], [-48.25019407, -24.80471598], [-48.2499373, -24.80523453], [-48.24981588, -24.80572622], [-48.24975084, -24.80615481], [-48.24955091, -24.80666893], [-48.24937122, -24.80692587], [-48.24922573, -24.80707456], [-48.24899579, -24.8071058], [-48.24857654, -24.80690208], [-48.24839982, -24.80689731], [-48.24801699, -24.80705918], [-48.24779513, -24.80706333], [-48.24759326, -24.80695022], [-48.24718912, -24.80661115], [-48.24694407, -24.80646187], [-48.24668967, -24.80635317], [-48.24657907, -24.80634398], [-48.24616744, -24.80637493], [-48.24565989, -24.80648244], [-48.24546214, -24.80647762], [-48.24521014, -24.80640954], [-48.24490641, -24.8062421], [-48.244035, -24.8052886], [-48.24368242, -24.80513914], [-48.24327466, -24.80509338], [-48.24302882, -24.80503884], [-48.24268066, -24.80483523], [-48.24236784, -24.80457302], [-48.242435, -24.80407467], [-48.24264945, -24.8033237], [-48.24153079, -24.80309795], [-48.24125714, -24.80404784], [-48.24097224, -24.80405638], [-48.2406537, -24.8042093], [-48.2403681, -24.80426301], [-48.24014691, -24.80423558], [-48.23995922, -24.80414954], [-48.23965756, -24.80388284], [-48.23942834, -24.80352598], [-48.23904842, -24.80282592], [-48.24157784, -24.80200728], [-48.2440045, -24.80109699], [-48.24632037, -24.80047108], [-48.24703644, -24.80035428], [-48.24821551, -24.79990905], [-48.24897671, -24.79963399], [-48.24945897, -24.79875345], [-48.25020513, -24.79805564], [-48.25087382, -24.79755653], [-48.25175772, -24.79723924], [-48.2527181, -24.79676771], [-48.25340525, -24.79653574], [-48.25428473, -24.79641848], [-48.25533172, -24.7964377], [-48.25591706, -24.79640397], [-48.25696698, -24.79628982], [-48.25750656, -24.79612184], [-48.25858621, -24.79576363], [-48.25916764, -24.7959077], [-48.25984939, -24.79592019], [-48.26136779, -24.79554777], [-48.26239727, -24.79525532], [-48.26411141, -24.79484198], [-48.26486768, -24.7947891], [-48.26589324, -24.79467444], [-48.26675566, -24.79422326], [-48.27205962, -24.79005086], [-48.2713908, -24.78679143], [-48.27105687, -24.78676841], [-48.27038662, -24.78687127], [-48.2699054, -24.78698792], [-48.26897359, -24.7873792], [-48.26842095, -24.78752282], [-48.26776846, -24.78788742], [-48.26738366, -24.78799067], [-48.26701721, -24.78801271], [-48.26640058, -24.78781779], [-48.26601174, -24.78775406], [-48.2647701, -24.78739126], [-48.26415053, -24.78729108], [-48.26388436, -24.78721399], [-48.26307136, -24.7871316], [-48.26266803, -24.78740628], [-48.26239992, -24.78755481], [-48.26205853, -24.78756333], [-48.26126806, -24.78732302], [-48.26107745, -24.78731371], [-48.26067822, -24.78735826], [-48.26039219, -24.78733077], [-48.25987338, -24.7870367], [-48.25966709, -24.78699126], [-48.259444, -24.78700898], [-48.25877081, -24.78718398], [-48.25805673, -24.78707464], [-48.25791202, -24.78715566], [-48.25721593, -24.78769162], [-48.25709471, -24.78776364], [-48.25687903, -24.78777685], [-48.25670557, -24.78768634], [-48.25643293, -24.78743324], [-48.25616504, -24.7872749], [-48.25584146, -24.7871616], [-48.25562273, -24.78717481], [-48.25555654, -24.78721533], [-48.25542269, -24.78742722], [-48.25525434, -24.78793237], [-48.25504423, -24.78829759], [-48.25475143, -24.78859498], [-48.25423021, -24.78877922], [-48.25379279, -24.78909895], [-48.25314658, -24.78920633], [-48.25297572, -24.78921958], [-48.25227486, -24.78931781], [-48.25211411, -24.78937171], [-48.25188829, -24.78952931], [-48.25178175, -24.78967355], [-48.25176367, -24.78975926], [-48.25187412, -24.79018362], [-48.25186409, -24.79026934], [-48.25174467, -24.79035941], [-48.25109166, -24.79029976], [-48.25069322, -24.79024048], [-48.25038546, -24.79026259], [-48.24981637, -24.79060467], [-48.24959367, -24.79074422], [-48.24930674, -24.79087014], [-48.24883078, -24.79096417], [-48.2484487, -24.79108542], [-48.24816849, -24.79124744], [-48.24787885, -24.79149971], [-48.24767908, -24.79160319], [-48.24633839, -24.79217873], [-48.24588847, -24.79255709], [-48.2456277, -24.79289965], [-48.24532994, -24.79352191], [-48.24477886, -24.79413477], [-48.2446273, -24.79454968], [-48.24433482, -24.79565933], [-48.24401903, -24.79600179], [-48.24388361, -24.79605121], [-48.2434244, -24.79610465], [-48.24328029, -24.79617662], [-48.24321189, -24.79640214], [-48.24340285, -24.79671832], [-48.2434189, -24.79705679], [-48.24326402, -24.79726863], [-48.24313465, -24.79739027], [-48.24282038, -24.7975793], [-48.24253727, -24.79763301], [-48.24237972, -24.79762374], [-48.24169334, -24.79722104], [-48.24137586, -24.79714834], [-48.24117376, -24.79716607], [-48.24021977, -24.79710154], [-48.23953464, -24.79722431], [-48.23813232, -24.79757759], [-48.23727104, -24.79761585], [-48.23536559, -24.79698532], [-48.23506812, -24.79743159], [-48.2347362, -24.79811696], [-48.23460205, -24.7984597], [-48.23409141, -24.800485], [-48.23378627, -24.8010576], [-48.23367227, -24.80121085], [-48.23345287, -24.80185578], [-48.2333449, -24.80208574], [-48.2331585, -24.80229302], [-48.23291662, -24.8024325], [-48.23270049, -24.80234188], [-48.23246327, -24.80230541], [-48.23198732, -24.80237232], [-48.23160025, -24.80249353], [-48.23117743, -24.80256502], [-48.23092538, -24.802524], [-48.23019746, -24.80219791], [-48.22952715, -24.8017997], [-48.22904187, -24.8015823], [-48.22826356, -24.80142758], [-48.227793, -24.80127337], [-48.22746022, -24.80112841], [-48.22690082, -24.80089284], [-48.22641476, -24.80076116], [-48.22478818, -24.80053281], [-48.22439904, -24.80044643], [-48.22406931, -24.80032855], [-48.22364769, -24.80011575], [-48.22328079, -24.80002939], [-48.22304037, -24.80005605], [-48.22279428, -24.80012332], [-48.22214134, -24.80032078], [-48.221918, -24.80045125], [-48.22178856, -24.80058641], [-48.22175163, -24.80083004], [-48.22186202, -24.80153869], [-48.22194504, -24.80174189], [-48.22208678, -24.80193618], [-48.22229882, -24.80250061], [-48.22229473, -24.8026811], [-48.2222532, -24.80275322], [-48.2220775, -24.80284318], [-48.22177849, -24.80280207], [-48.22166061, -24.80273417], [-48.22150571, -24.80263012], [-48.22134288, -24.80247641], [-48.22128994, -24.80238156], [-48.22132329, -24.8020883], [-48.22133099, -24.80194844], [-48.22128113, -24.80184908], [-48.22114603, -24.80173603], [-48.22094353, -24.80164543], [-48.22050321, -24.80151383], [-48.22009897, -24.80125592], [-48.21983564, -24.80100275], [-48.21976126, -24.80083529], [-48.20452891, -24.84946051], [-48.20477391, -24.84951962], [-48.20474426, -24.85083805], [-48.20502399, -24.85108626], [-48.20505499, -24.85139923], [-48.20539176, -24.8516485], [-48.20565169, -24.85193104], [-48.20593532, -24.85200577], [-48.20593922, -24.8518323], [-48.20592723, -24.85151968], [-48.20602229, -24.85152146], [-48.20626555, -24.85169956], [-48.20654528, -24.85194777], [-48.20715369, -24.85195915], [-48.20729067, -24.85178816], [-48.20744082, -24.85187775], [-48.20728483, -24.85204838], [-48.20724212, -24.85225584], [-48.2070834, -24.8525479], [-48.20686958, -24.85275216], [-48.20693978, -24.8530138], [-48.2073177, -24.853125], [-48.20754585, -24.85312927], [-48.20754312, -24.8532507], [-48.20744377, -24.85343975], [-48.20727564, -24.85362302], [-48.2077051, -24.85399831], [-48.20773842, -24.85402544], [-48.20774708, -24.85402546], [-48.20762126, -24.85417865], [-48.20738296, -24.8546069], [-48.20700618, -24.85589676], [-48.20688138, -24.85615374], [-48.20648871, -24.85678025], [-48.20642961, -24.85695612], [-48.20640873, -24.85717719], [-48.2065537, -24.85738195], [-48.20686806, -24.85735924], [-48.20771838, -24.85723201], [-48.20837542, -24.85733016], [-48.20912388, -24.85754457], [-48.20926149, -24.8584064], [-48.2088798, -24.85862827], [-48.20820997, -24.85910261], [-48.20784745, -24.85986912], [-48.20708547, -24.86025577], [-48.20662822, -24.86104904], [-48.2066147, -24.86165028], [-48.20638153, -24.86224731], [-48.20643205, -24.86279239], [-48.20564554, -24.86343998], [-48.20574559, -24.86357626], [-48.20633813, -24.86413506], [-48.20695482, -24.86485361], [-48.20721913, -24.86521262], [-48.20561799, -24.86591068], [-48.20550112, -24.86668052], [-48.20736741, -24.8678054], [-48.20744115, -24.87116742], [-48.20815897, -24.87245244], [-48.20813957, -24.87331495], [-48.20787695, -24.87432551], [-48.20835977, -24.87487672], [-48.20834758, -24.87541867], [-48.20782007, -24.87685457], [-48.20869499, -24.87759385], [-48.2082765, -24.87858006], [-48.20742584, -24.87988815], [-48.20572534, -24.88229656], [-48.20341646, -24.88402889], [-48.20379391, -24.88447177], [-48.20412785, -24.88473408], [-48.20441691, -24.88488351], [-48.20469256, -24.88493815], [-48.20507229, -24.88490273], [-48.20596662, -24.88450726], [-48.20727275, -24.88411253], [-48.20669108, -24.88489661], [-48.20637126, -24.88554129], [-48.20633703, -24.88564049], [-48.20633227, -24.88584354], [-48.20639116, -24.88606023], [-48.20654262, -24.88636282], [-48.20657413, -24.8863719], [-48.20676832, -24.88664749], [-48.20711652, -24.88718506], [-48.20728342, -24.88749671], [-48.20753679, -24.88785362], [-48.2077326, -24.88824202], [-48.20811533, -24.88882929], [-48.20850678, -24.88968279]]]]}}]}