{"type": "FeatureCollection", "features": [{"type": "Feature", "properties": {"name": "Área de Proteção Ambiental Morro de São Bento"}, "geometry": {"type": "MultiPolygon", "coordinates": [[[[-47.79711208, -21.17605915], [-47.79899114, -21.17469046], [-47.79773851, -21.17362204], [-47.7974595, -21.1739515], [-47.79724961, -21.17416516], [-47.797101, -21.17438737], [-47.79698294, -21.17460906], [-47.79687632, -21.17489745], [-47.79683187, -21.17524213], [-47.79680174, -21.17580632], [-47.79700774, -21.17592712], [-47.79711208, -21.17605915]]]]}}]}