{"type": "FeatureCollection", "features": [{"type": "Feature", "properties": {"name": "Área de Proteção Ambiental Campos do Jordão"}, "geometry": {"type": "MultiPolygon", "coordinates": [[[[-45.58474935, -22.79239822], [-45.58557478, -22.79267879], [-45.5864919, -22.79272336], [-45.58685018, -22.79269458], [-45.5874113, -22.79252037], [-45.58788708, -22.79232563], [-45.58857499, -22.79191424], [-45.58912877, -22.79148597], [-45.58978397, -22.79119326], [-45.59018559, -22.79109568], [-45.59078917, -22.79098728], [-45.59151149, -22.79097951], [-45.59194875, -22.79094853], [-45.59235822, -22.7907553], [-45.59287884, -22.79055956], [-45.59353333, -22.79025417], [-45.59388163, -22.79009598], [-45.59433753, -22.790059], [-45.59472431, -22.79011115], [-45.59499266, -22.79023435], [-45.59537415, -22.79035327], [-45.59576384, -22.79045335], [-45.59612276, -22.79043993], [-45.59642336, -22.79032606], [-45.59672902, -22.79015625], [-45.59691287, -22.79003305], [-45.59735888, -22.78976998], [-45.59756742, -22.78963096], [-45.59783363, -22.78943695], [-45.59798324, -22.78936644], [-45.59822095, -22.78932373], [-45.59832522, -22.78932379], [-45.59860582, -22.78937402], [-45.598919, -22.78949712], [-45.59929131, -22.78963574], [-45.59966881, -22.78989915], [-45.60008909, -22.79007387], [-45.60074698, -22.79044443], [-45.60134786, -22.79093143], [-45.60169216, -22.79133792], [-45.60205132, -22.79163985], [-45.60270832, -22.7919137], [-45.60287782, -22.79196373], [-45.60334721, -22.79212125], [-45.60393685, -22.79226014], [-45.60527758, -22.79241431], [-45.60563537, -22.79245507], [-45.60618696, -22.7925499], [-45.60675402, -22.79260343], [-45.6076631, -22.7926134], [-45.60794519, -22.79263924], [-45.60816144, -22.79264402], [-45.6086159, -22.79281662], [-45.60894423, -22.79300864], [-45.60921814, -22.79319337], [-45.60978181, -22.79350347], [-45.61015017, -22.7936456], [-45.61049337, -22.79373217], [-45.61091102, -22.79366013], [-45.61123182, -22.79346526], [-45.61161208, -22.79331664], [-45.61182094, -22.79330231], [-45.61205956, -22.79335628], [-45.61231393, -22.79359035], [-45.61246799, -22.7938678], [-45.61251025, -22.7941785], [-45.61248049, -22.79434424], [-45.61247124, -22.79455462], [-45.61251118, -22.79483636], [-45.61260771, -22.7951155], [-45.61260828, -22.79527545], [-45.61274192, -22.79550374], [-45.61306561, -22.79587279], [-45.61345643, -22.79624755], [-45.61369509, -22.79644068], [-45.61417273, -22.79685856], [-45.6144018, -22.79666928], [-45.61458024, -22.7964303], [-45.61475819, -22.79616871], [-45.61496051, -22.79585968], [-45.61506238, -22.79574132], [-45.61541869, -22.79538533], [-45.61577598, -22.79512243], [-45.61616823, -22.79495956], [-45.61648045, -22.79489556], [-45.61700783, -22.79488962], [-45.61728854, -22.7948883], [-45.61752453, -22.79483469], [-45.61771566, -22.79473599], [-45.61835317, -22.79444827], [-45.61906764, -22.79420891], [-45.6199356, -22.79413404], [-45.62075382, -22.79415496], [-45.62169877, -22.79417452], [-45.62323685, -22.79421278], [-45.62427931, -22.79404159], [-45.62531144, -22.79371027], [-45.62597514, -22.79342751], [-45.62663071, -22.7930199], [-45.62702848, -22.79282457], [-45.62774909, -22.79252293], [-45.62835617, -22.79243253], [-45.62903618, -22.79244462], [-45.62980014, -22.79263803], [-45.63033403, -22.79288246], [-45.63077635, -22.79317225], [-45.63134014, -22.79352565], [-45.63200631, -22.79373628], [-45.63262032, -22.79382942], [-45.63302871, -22.79382764], [-45.63346198, -22.79370611], [-45.6340584, -22.79351881], [-45.63453363, -22.79330044], [-45.63504398, -22.79312787], [-45.63570645, -22.7928089], [-45.63619062, -22.79262953], [-45.63703575, -22.79257404], [-45.63764309, -22.79265981], [-45.63798558, -22.79278155], [-45.63836408, -22.79295272], [-45.6386974, -22.79309417], [-45.63910675, -22.79318727], [-45.63964332, -22.79316063], [-45.6400517, -22.79311184], [-45.6404601, -22.79292028], [-45.64058606, -22.79257733], [-45.64052801, -22.79222569], [-45.64050712, -22.79196237], [-45.64070868, -22.79159275], [-45.64102143, -22.79117087], [-45.64169706, -22.79011747], [-45.64218593, -22.78951979], [-45.64252146, -22.78860675], [-45.64312154, -22.78748242], [-45.64334478, -22.78681588], [-45.6433631, -22.78559451], [-45.64353246, -22.78565173], [-45.64384021, -22.78589844], [-45.64436854, -22.78655478], [-45.6444046, -22.78660241], [-45.64459303, -22.78677472], [-45.64479421, -22.78684876], [-45.64511454, -22.78691045], [-45.64607698, -22.78693018], [-45.64629134, -22.78697915], [-45.64657168, -22.78708983], [-45.6469341, -22.7872372], [-45.64736323, -22.78745804], [-45.64769182, -22.78749728], [-45.64802946, -22.78747523], [-45.64912022, -22.78741588], [-45.64946662, -22.78744188], [-45.65003759, -22.78773208], [-45.65030505, -22.78780548], [-45.65158859, -22.78784982], [-45.6522799, -22.78802196], [-45.6524641, -22.78811647], [-45.65270066, -22.78836643], [-45.65291569, -22.78852565], [-45.6529817, -22.78853856], [-45.65308891, -22.78853774], [-45.65327634, -22.78847508], [-45.65354237, -22.7882385], [-45.65380869, -22.78822513], [-45.65402358, -22.7882488], [-45.65421041, -22.78830992], [-45.65439818, -22.78842076], [-45.65493536, -22.78879078], [-45.65513648, -22.7889633], [-45.65539066, -22.78920995], [-45.65565949, -22.78940715], [-45.65666588, -22.79018392], [-45.65678643, -22.79024569], [-45.65695298, -22.79029832], [-45.65716631, -22.79030298], [-45.65748101, -22.79035461], [-45.65804289, -22.79037625], [-45.65891038, -22.79046471], [-45.65924648, -22.79047062], [-45.65928692, -22.79049483], [-45.65986097, -22.79049318], [-45.66063597, -22.79029176], [-45.66092922, -22.79015324], [-45.66194215, -22.78946803], [-45.66220856, -22.78935525], [-45.66254669, -22.78926179], [-45.66272978, -22.78926772], [-45.66292918, -22.78933448], [-45.66303262, -22.78942304], [-45.66349555, -22.78999413], [-45.66391082, -22.79022734], [-45.66400438, -22.79022717], [-45.66419081, -22.79016539], [-45.6645109, -22.78995324], [-45.66472442, -22.78985307], [-45.66507113, -22.78986458], [-45.66520465, -22.78991211], [-45.6654733, -22.79002345], [-45.66567447, -22.79014626], [-45.6659012, -22.79021079], [-45.66620236, -22.79020975], [-45.66687161, -22.79012752], [-45.66715927, -22.7902148], [-45.66740665, -22.79041341], [-45.66756975, -22.79068284], [-45.6676827, -22.79083121], [-45.6678386, -22.79092792], [-45.6680742, -22.79094019], [-45.66879207, -22.79081543], [-45.66924699, -22.79082522], [-45.66972752, -22.790774], [-45.67058174, -22.79050976], [-45.67114289, -22.79051959], [-45.67157077, -22.79046926], [-45.67157031, -22.79044395], [-45.67165073, -22.79041916], [-45.6716632, -22.79038142], [-45.67213018, -22.79018177], [-45.67239821, -22.79018014], [-45.67243839, -22.79021699], [-45.6725317, -22.79022947], [-45.67278633, -22.79021585], [-45.67278587, -22.79019054], [-45.67297259, -22.7900664], [-45.67310551, -22.78990427], [-45.67348846, -22.78899742], [-45.67372812, -22.78876216], [-45.6744626, -22.78829971], [-45.67487286, -22.78801322], [-45.67548708, -22.78771312], [-45.67576644, -22.78753819], [-45.6760198, -22.78725166], [-45.67610081, -22.78715006], [-45.65840168, -22.75866903], [-45.65806887, -22.75036789], [-45.65758363, -22.73828416], [-45.65697208, -22.73827248], [-45.65663341, -22.73820778], [-45.65623357, -22.73818085], [-45.65565968, -22.73789965], [-45.6549892, -22.73743602], [-45.65442168, -22.73689196], [-45.65385302, -22.73616626], [-45.65355414, -22.73591972], [-45.65318442, -22.73575416], [-45.65271976, -22.73561041], [-45.65228854, -22.73554678], [-45.65130665, -22.735543], [-45.6508049, -22.73545011], [-45.65077154, -22.73522451], [-45.65100562, -22.73492593], [-45.65100501, -22.73476598], [-45.65084762, -22.73455536], [-45.65050782, -22.734309], [-45.64972166, -22.73397703], [-45.64735467, -22.7331129], [-45.64693806, -22.73285975], [-45.64635516, -22.73240305], [-45.64595407, -22.73220077], [-45.64556122, -22.73207183], [-45.64491709, -22.73198724], [-45.64447614, -22.73182853], [-45.64420846, -22.73158162], [-45.64375147, -22.73106659], [-45.64338021, -22.73074014], [-45.64282968, -22.73041592], [-45.64220117, -22.73023581], [-45.64158912, -22.73020238], [-45.64071038, -22.73030067], [-45.64031823, -22.73037414], [-45.63926013, -22.73071413], [-45.63821884, -22.73118363], [-45.63784196, -22.73127273], [-45.63755128, -22.73124408], [-45.63627804, -22.73082027], [-45.63543737, -22.73067794], [-45.63493548, -22.730688], [-45.63430489, -22.73023131], [-45.6334415, -22.73019881], [-45.63269674, -22.73031841], [-45.63132466, -22.73076662], [-45.63076827, -22.73082089], [-45.63028044, -22.73076342], [-45.62866965, -22.73022421], [-45.62765527, -22.73000283], [-45.62692501, -22.72975127], [-45.62584862, -22.72951433], [-45.62503083, -22.72925578], [-45.6246698, -22.72909663], [-45.62407173, -22.72876518], [-45.62312679, -22.72806157], [-45.62236373, -22.72770097], [-45.6222218, -22.72768669], [-45.62214298, -22.72763559], [-45.6214986, -22.72747138], [-45.62072998, -22.72737905], [-45.62017138, -22.72735281], [-45.61923693, -22.72722499], [-45.61822314, -22.72693037], [-45.61780606, -22.72675033], [-45.61738173, -22.72649696], [-45.61682626, -22.72594485], [-45.61684994, -22.72574286], [-45.61713535, -22.72541452], [-45.61744437, -22.72530979], [-45.61790838, -22.7252467], [-45.61821221, -22.72529821], [-45.61888265, -22.72542675], [-45.61943525, -22.7255071], [-45.61994733, -22.72552166], [-45.62031896, -22.72549757], [-45.6207843, -22.72560528], [-45.62147064, -22.72576572], [-45.62242072, -22.72584411], [-45.62309609, -22.72592303], [-45.62408039, -22.72604268], [-45.62445575, -22.72597979], [-45.62460036, -22.72577002], [-45.62456322, -22.72544676], [-45.6244726, -22.72479001], [-45.6246681, -22.72405161], [-45.62537263, -22.72347409], [-45.62630514, -22.72298918], [-45.62697281, -22.72273359], [-45.62798674, -22.72240826], [-45.62858036, -22.72210617], [-45.62890112, -22.7216682], [-45.62899889, -22.72141511], [-45.62887304, -22.72100081], [-45.62857375, -22.72054186], [-45.62721186, -22.71908897], [-45.62597605, -22.71761663], [-45.62552496, -22.71729232], [-45.6242509, -22.71682231], [-45.62320531, -22.71665548], [-45.62196412, -22.71652671], [-45.62107942, -22.71639888], [-45.62013633, -22.71608023], [-45.61959351, -22.71571812], [-45.61948877, -22.71541444], [-45.61953626, -22.71490925], [-45.61973186, -22.71444827], [-45.62014991, -22.71368764], [-45.62030591, -22.71288167], [-45.61987689, -22.71079022], [-45.61866065, -22.70763107], [-45.61798021, -22.70521976], [-45.61770439, -22.70433739], [-45.61740467, -22.70380883], [-45.61670484, -22.70266135], [-45.61620788, -22.70211029], [-45.61543605, -22.70110158], [-45.61516068, -22.70057345], [-45.61485891, -22.69981622], [-45.61440961, -22.69908166], [-45.61376363, -22.69848545], [-45.61254468, -22.69724824], [-45.61207023, -22.69659996], [-45.61167024, -22.69574338], [-45.61155677, -22.69520549], [-45.61109885, -22.69395026], [-45.61110966, -22.69389895], [-45.61133705, -22.69340783], [-45.61210174, -22.69250884], [-45.61261758, -22.69154033], [-45.61300873, -22.69057321], [-45.61381023, -22.6896821], [-45.61449436, -22.68933108], [-45.61538319, -22.68939215], [-45.61679546, -22.68957102], [-45.61731653, -22.68956859], [-45.61825214, -22.6891118], [-45.61862528, -22.68872899], [-45.6189984, -22.68811215], [-45.61904174, -22.68771261], [-45.61892894, -22.68728226], [-45.61848512, -22.68689481], [-45.61795361, -22.68665036], [-45.6174006, -22.68655012], [-45.61691742, -22.68651076], [-45.61626825, -22.68639885], [-45.61593023, -22.68635666], [-45.61552166, -22.68624182], [-45.61478352, -22.68595934], [-45.6139269, -22.68570816], [-45.61307991, -22.68569662], [-45.61258574, -22.68576458], [-45.61216973, -22.6857734], [-45.61182443, -22.68575366], [-45.61144688, -22.68564569], [-45.61117984, -22.68551531], [-45.61069147, -22.68521107], [-45.61014902, -22.6847911], [-45.60946361, -22.68417518], [-45.60906204, -22.68395834], [-45.60888269, -22.68396597], [-45.60814326, -22.68379367], [-45.60673085, -22.68362466], [-45.60493292, -22.68331047], [-45.60444563, -22.68318876], [-45.60420923, -22.68303723], [-45.60357982, -22.68272591], [-45.60336078, -22.6826759], [-45.60317914, -22.68256058], [-45.60259009, -22.68232228], [-45.60188937, -22.68197535], [-45.60155173, -22.68172891], [-45.60107112, -22.68128743], [-45.60073273, -22.68084398], [-45.60054881, -22.68037168], [-45.60044461, -22.67990533], [-45.60032633, -22.67960049], [-45.60011322, -22.67926682], [-45.59978162, -22.67891838], [-45.59961646, -22.67885306], [-45.59933357, -22.67864375], [-45.59886987, -22.67841944], [-45.59810631, -22.67791231], [-45.59758672, -22.67742674], [-45.5964043, -22.67613493], [-45.59574289, -22.67554017], [-45.5951829, -22.67517134], [-45.59483043, -22.67498336], [-45.59450726, -22.67483837], [-45.5939971, -22.67469454], [-45.59306334, -22.67469127], [-45.59283653, -22.67464109], [-45.59232527, -22.67441048], [-45.59174173, -22.67400417], [-45.59119956, -22.67371516], [-45.59091658, -22.67365042], [-45.59014808, -22.67366095], [-45.59031085, -22.67328165], [-45.59064611, -22.67275635], [-45.59085672, -22.67223151], [-45.59102514, -22.67134988], [-45.59106178, -22.67094842], [-45.59126321, -22.67025715], [-45.5916901, -22.66907564], [-45.59184381, -22.66847749], [-45.59191244, -22.66798985], [-45.59185661, -22.66786595], [-45.5917692, -22.66743695], [-45.59122274, -22.66623789], [-45.59106319, -22.66562686], [-45.59102887, -22.66508043], [-45.59091015, -22.664659], [-45.59073588, -22.66433235], [-45.58968684, -22.66300313], [-45.58956127, -22.66290869], [-45.58910284, -22.66211063], [-45.58854883, -22.6615991], [-45.58767822, -22.66109541], [-45.58692382, -22.66080798], [-45.58674321, -22.66069176], [-45.58660248, -22.66067024], [-45.58591785, -22.66035244], [-45.58530462, -22.66001966], [-45.58393585, -22.65912922], [-45.58287343, -22.65830304], [-45.58236962, -22.65799934], [-45.58188995, -22.65765902], [-45.58121436, -22.65728262], [-45.58059328, -22.65700029], [-45.57826691, -22.6559063], [-45.57791432, -22.6554499], [-45.57757909, -22.65444619], [-45.57747567, -22.65385514], [-45.57648059, -22.65464406], [-45.57596193, -22.65523197], [-45.57551895, -22.65578601], [-45.57518675, -22.6563041], [-45.57474204, -22.65675509], [-45.57429832, -22.6572052], [-45.57403908, -22.65730983], [-45.57370981, -22.6573644], [-45.5731937, -22.65732251], [-45.57227603, -22.65697692], [-45.57128684, -22.65669871], [-45.57067819, -22.65661265], [-45.56957701, -22.6567047], [-45.56861135, -22.65674227], [-45.56779393, -22.65681416], [-45.5670505, -22.65688649], [-45.5662417, -22.65678051], [-45.56554986, -22.65648417], [-45.56444337, -22.65558388], [-45.56352739, -22.65515965], [-45.56221978, -22.65474726], [-45.56105806, -22.65438813], [-45.56016447, -22.65387303], [-45.55944526, -22.65353731], [-45.55878685, -22.65336535], [-45.55767642, -22.65343546], [-45.55618399, -22.65375162], [-45.5553637, -22.6540972], [-45.55480698, -22.65440964], [-45.55436248, -22.65461839], [-45.55384157, -22.65461972], [-45.55343214, -22.65441434], [-45.55283553, -22.6538992], [-45.5522387, -22.65334881], [-45.55179204, -22.6531084], [-45.55108469, -22.65276564], [-45.55048978, -22.65263005], [-45.55003064, -22.65261081], [-45.54925074, -22.65261281], [-45.5486427, -22.65263692], [-45.54772572, -22.65240055], [-45.54703086, -22.65188268], [-45.54617207, -22.65138259], [-45.54520581, -22.65099168], [-45.54420175, -22.65082237], [-45.54335749, -22.65092075], [-45.54234504, -22.6513739], [-45.5414564, -22.65213926], [-45.54077795, -22.6525434], [-45.54033213, -22.65267619], [-45.53998398, -22.65256588], [-45.53967606, -22.65234967], [-45.53881583, -22.65132449], [-45.53830333, -22.65061203], [-45.53793473, -22.65031971], [-45.53736189, -22.6500173], [-45.53646385, -22.64962488], [-45.53568566, -22.64909098], [-45.53499206, -22.64828933], [-45.5339609, -22.64756642], [-45.53322071, -22.64716875], [-45.53242102, -22.64682239], [-45.53149845, -22.6465316], [-45.53090334, -22.6463616], [-45.53021227, -22.64626302], [-45.52934289, -22.64626237], [-45.52863934, -22.6462467], [-45.528099, -22.64629277], [-45.52721282, -22.64648608], [-45.52669309, -22.64666085], [-45.52619892, -22.64677825], [-45.52568402, -22.64681845], [-45.52501661, -22.6467971], [-45.52488667, -22.64677302], [-45.5247486, -22.64671896], [-45.52460438, -22.64658889], [-45.52417689, -22.64591139], [-45.52383083, -22.64556884], [-45.52339914, -22.64517862], [-45.52287129, -22.64486886], [-45.52194206, -22.64452729], [-45.52075073, -22.64401369], [-45.51981877, -22.64311901], [-45.51899824, -22.64243062], [-45.5185135, -22.64201863], [-45.51788073, -22.64174486], [-45.51732117, -22.64164415], [-45.51676958, -22.64153454], [-45.51612196, -22.64113669], [-45.51578392, -22.64064879], [-45.5153243, -22.63924954], [-45.51512547, -22.63871632], [-45.51476973, -22.63823712], [-45.51411978, -22.63754101], [-45.51340925, -22.63717271], [-45.51275361, -22.6369229], [-45.51203307, -22.63665833], [-45.5114571, -22.63637114], [-45.51073213, -22.63576942], [-45.51007218, -22.63531348], [-45.5090323, -22.63464446], [-45.50850569, -22.63423527], [-45.50801287, -22.63383936], [-45.50792743, -22.63360282], [-45.50780271, -22.63283962], [-45.50775888, -22.6323436], [-45.50739281, -22.63180365], [-45.50700918, -22.63167182], [-45.50644203, -22.63169925], [-45.50590713, -22.63163057], [-45.50545397, -22.63147305], [-45.50495903, -22.63113131], [-45.50434083, -22.63063727], [-45.50380425, -22.63010498], [-45.50347468, -22.62972384], [-45.50318236, -22.62933073], [-45.50271185, -22.62853399], [-45.50213037, -22.62755716], [-45.50147124, -22.62656985], [-45.50120018, -22.62631992], [-45.50028141, -22.62572719], [-45.49966026, -22.62532615], [-45.49937435, -22.62522323], [-45.49846812, -22.6250419], [-45.49750579, -22.62484415], [-45.49707617, -22.624725], [-45.4967197, -22.62464426], [-45.49659071, -22.62462197], [-45.49640739, -22.62463663], [-45.49629835, -22.6246825], [-45.49614594, -22.62470857], [-45.49590428, -22.62490017], [-45.49546718, -22.62535199], [-45.49511494, -22.62561562], [-45.49478557, -22.62585709], [-45.49445729, -22.6262278], [-45.49415142, -22.62659802], [-45.4938123, -22.62697485], [-45.49365864, -22.62710302], [-45.4934568, -22.6272086], [-45.49281477, -22.6274135], [-45.49156349, -22.62761246], [-45.49120735, -22.627651], [-45.49097993, -22.62776875], [-45.49075206, -22.627863], [-45.49055705, -22.62792261], [-45.49025199, -22.62816452], [-45.49006475, -22.62840502], [-45.4898336, -22.62882995], [-45.48972576, -22.62904481], [-45.48954362, -22.62954385], [-45.48951549, -22.62958399], [-45.48949902, -22.62962525], [-45.48949049, -22.62965943], [-45.4894823, -22.62967825], [-45.48943732, -22.62973254], [-45.48939325, -22.62974437], [-45.48934339, -22.62975428], [-45.48929067, -22.62976143], [-45.48924686, -22.62976151], [-45.48876724, -22.62974804], [-45.48842701, -22.62968114], [-45.48828027, -22.6295799], [-45.4881586, -22.62944479], [-45.48810555, -22.62937692], [-45.4880413, -22.62928716], [-45.4879933, -22.62921126], [-45.48793744, -22.62900418], [-45.48789437, -22.62843136], [-45.48783873, -22.62803451], [-45.48778762, -22.62778776], [-45.48772902, -22.62761678], [-45.48762995, -22.62742696], [-45.48753367, -22.62724353], [-45.48675277, -22.62590597], [-45.48634011, -22.62522954], [-45.48601555, -22.62466501], [-45.4859605, -22.62451035], [-45.48594076, -22.62443317], [-45.48589924, -22.62423811], [-45.48587204, -22.62392131], [-45.48582322, -22.62374871], [-45.48574247, -22.62356737], [-45.485533, -22.62317216], [-45.48537554, -22.62284751], [-45.48532678, -22.62267219], [-45.48531923, -22.62252656], [-45.48534138, -22.62235799], [-45.48546528, -22.62198619], [-45.48549886, -22.62182958], [-45.48549833, -22.62171932], [-45.48549469, -22.62143821], [-45.4853449, -22.62071519], [-45.48529976, -22.62041794], [-45.48527936, -22.62032629], [-45.48524806, -22.62024347], [-45.48510534, -22.62000223], [-45.4849517, -22.61977073], [-45.48468953, -22.61947213], [-45.4846021, -22.61932953], [-45.48455047, -22.61919662], [-45.48449723, -22.61895887], [-45.48449791, -22.61870314], [-45.4844973, -22.61855222], [-45.48447413, -22.61845328], [-45.4844392, -22.61835865], [-45.48440368, -22.61829111], [-45.48422358, -22.61806815], [-45.48403052, -22.61790369], [-45.48370357, -22.61763009], [-45.48364351, -22.61757203], [-45.48358569, -22.61750046], [-45.48354713, -22.61743829], [-45.48353484, -22.61737661], [-45.48353256, -22.61680907], [-45.48353054, -22.61618459], [-45.48353851, -22.61590732], [-45.48352804, -22.61576163], [-45.48349511, -22.61557486], [-45.48342156, -22.61542076], [-45.48328997, -22.61525022], [-45.48316218, -22.61512854], [-45.48284138, -22.61484059], [-45.48264259, -22.61471668], [-45.48246063, -22.61462472], [-45.48232413, -22.61454535], [-45.48199616, -22.61440908], [-45.4818396, -22.61431217], [-45.48177754, -22.61425679], [-45.48172464, -22.6141826], [-45.48167173, -22.61410932], [-45.48164906, -22.61407726], [-45.48156254, -22.6138931], [-45.48152975, -22.61378947], [-45.48151986, -22.61370705], [-45.48153706, -22.61309469], [-45.48152805, -22.61274751], [-45.48152417, -22.61261279], [-45.48150844, -22.61253026], [-45.4814889, -22.61244404], [-45.48144212, -22.61235732], [-45.4812995, -22.61215675], [-45.48118786, -22.61205344], [-45.48108092, -22.61195836], [-45.4809114, -22.61183139], [-45.48076709, -22.61175368], [-45.48003504, -22.61140019], [-45.47978557, -22.61123466], [-45.47948128, -22.61103919], [-45.47874184, -22.61048855], [-45.47830509, -22.61011799], [-45.47818412, -22.60999644], [-45.47810829, -22.60990285], [-45.47796911, -22.60972402], [-45.47786274, -22.60955756], [-45.47769928, -22.60933129], [-45.47755771, -22.60908284], [-45.47737794, -22.60871167], [-45.47689498, -22.60773659], [-45.47685297, -22.60760929], [-45.47683049, -22.60747964], [-45.47680397, -22.60726678], [-45.47680344, -22.60711225], [-45.47681309, -22.60702658], [-45.47684066, -22.60687799], [-45.47688177, -22.60659862], [-45.47694836, -22.60613267], [-45.47713392, -22.60561112], [-45.47716479, -22.6054897], [-45.47718061, -22.60538879], [-45.47719978, -22.60526805], [-45.47719959, -22.60518762], [-45.47717329, -22.60505429], [-45.47699549, -22.60454761], [-45.47684716, -22.6041183], [-45.47680298, -22.6040018], [-45.47678004, -22.60389293], [-45.4767793, -22.60379261], [-45.47679416, -22.60364649], [-45.47686497, -22.60334419], [-45.47692414, -22.60308504], [-45.47693375, -22.60300118], [-45.47693316, -22.60293881], [-45.47693828, -22.6028377], [-45.47692242, -22.60276149], [-45.47688477, -22.60265777], [-45.47681988, -22.60255353], [-45.47669801, -22.60242925], [-45.47654562, -22.60232066], [-45.4762663, -22.6021862], [-45.47616358, -22.60212101], [-45.47607791, -22.60203265], [-45.47601592, -22.60192938], [-45.47598634, -22.60181315], [-45.47592178, -22.60124624], [-45.47590996, -22.6011186], [-45.47588199, -22.60101777], [-45.4758363, -22.60092564], [-45.47572123, -22.60075721], [-45.47558851, -22.60059477], [-45.47544738, -22.60046109], [-45.47511829, -22.60015399], [-45.47492824, -22.59994258], [-45.4748128, -22.5997913], [-45.47474961, -22.59969885], [-45.47471596, -22.59963496], [-45.47465239, -22.5994702], [-45.4746285, -22.59936041], [-45.47462193, -22.59925998], [-45.47462701, -22.59916067], [-45.47465116, -22.59907979], [-45.47479672, -22.59878612], [-45.47484631, -22.59865421], [-45.47485506, -22.59861009], [-45.47486487, -22.59856148], [-45.47486701, -22.5985082], [-45.47486066, -22.59844212], [-45.47483767, -22.59833595], [-45.47471996, -22.59788643], [-45.47465573, -22.59757346], [-45.47465471, -22.59748578], [-45.47466086, -22.59742716], [-45.4746808, -22.59736066], [-45.47471813, -22.59729991], [-45.47475407, -22.59725811], [-45.4748036, -22.59721838], [-45.47486986, -22.59716992], [-45.47492787, -22.59714299], [-45.4750209, -22.59711672], [-45.47539839, -22.59703254], [-45.47549632, -22.59700455], [-45.4756285, -22.59696818], [-45.47585315, -22.59688654], [-45.47596032, -22.59683614], [-45.47604412, -22.5967871], [-45.47611109, -22.59675041], [-45.4761893, -22.59668952], [-45.47623317, -22.59664155], [-45.47626018, -22.59660771], [-45.47629144, -22.59655769], [-45.47631478, -22.59651385], [-45.47633138, -22.59646627], [-45.47633743, -22.59641216], [-45.4763356, -22.59631724], [-45.47632118, -22.59621937], [-45.47624971, -22.59592615], [-45.47607953, -22.59551721], [-45.47602945, -22.59535903], [-45.47599815, -22.59523193], [-45.47597742, -22.59511135], [-45.47597285, -22.59500824], [-45.47596721, -22.59490964], [-45.4759693, -22.59485817], [-45.47597823, -22.59476074], [-45.47598499, -22.59471839], [-45.47600152, -22.59467442], [-45.4760459, -22.59460296], [-45.47610675, -22.59453452], [-45.47619945, -22.59443414], [-45.47627005, -22.59436498], [-45.47639593, -22.59425981], [-45.47679846, -22.59391944], [-45.47684701, -22.59387969], [-45.47689298, -22.59382452], [-45.47694708, -22.59375324], [-45.47698931, -22.59369078], [-45.47701701, -22.59362533], [-45.47705225, -22.59343712], [-45.47708649, -22.59316034], [-45.47711054, -22.59299451], [-45.47713716, -22.59288928], [-45.47715818, -22.59281738], [-45.47718771, -22.59275739], [-45.4772361, -22.59268058], [-45.47730588, -22.59260417], [-45.47757442, -22.59238329], [-45.47787295, -22.59221538], [-45.47795131, -22.59214727], [-45.47800508, -22.59209135], [-45.47804233, -22.59203421], [-45.47816139, -22.59179516], [-45.47825731, -22.59150146], [-45.47832251, -22.59127766], [-45.478366, -22.59115739], [-45.47839933, -22.5910568], [-45.47845219, -22.59095297], [-45.47849571, -22.59087607], [-45.47854962, -22.59081382], [-45.47858521, -22.59078828], [-45.47862148, -22.59077631], [-45.47871593, -22.59077356], [-45.47876154, -22.59077984], [-45.47880984, -22.5907961], [-45.47914708, -22.59095153], [-45.47973787, -22.59126172], [-45.48016002, -22.59149555], [-45.48057904, -22.59169407], [-45.4807702, -22.59176452], [-45.48086614, -22.59178349], [-45.48097878, -22.59179464], [-45.48105275, -22.59179421], [-45.48112494, -22.59178653], [-45.48119144, -22.59177151], [-45.48125524, -22.5917465], [-45.48128202, -22.5917235], [-45.48130634, -22.59167878], [-45.48131758, -22.5916094], [-45.4813104, -22.59153698], [-45.48129696, -22.59148341], [-45.48126155, -22.59141135], [-45.48121216, -22.5913553], [-45.48048203, -22.59078406], [-45.47945808, -22.59016484], [-45.47897852, -22.58993084], [-45.47882026, -22.58986913], [-45.47860014, -22.58978819], [-45.47818163, -22.58965564], [-45.4771123, -22.58942323], [-45.4764323, -22.58918817], [-45.47622535, -22.58912826], [-45.47599841, -22.58909237], [-45.47577125, -22.58906642], [-45.47553596, -22.58905659], [-45.47523051, -22.58905085], [-45.473908, -22.58896006], [-45.4730239, -22.58889195], [-45.47288547, -22.58890291], [-45.47275254, -22.58892933], [-45.47262706, -22.58897125], [-45.47251479, -22.5890324], [-45.472254, -22.58921004], [-45.47207241, -22.5893711], [-45.47166512, -22.58993005], [-45.47155468, -22.59004094], [-45.47137237, -22.59023451], [-45.47114216, -22.59043803], [-45.47030547, -22.59109645], [-45.46913959, -22.59185531], [-45.46817532, -22.59247246], [-45.46731934, -22.59298771], [-45.46712943, -22.59312782], [-45.46699729, -22.59325185], [-45.46679963, -22.59347947], [-45.46648037, -22.59388283], [-45.4663454, -22.59409175], [-45.46625163, -22.59419662], [-45.4661327, -22.59429469], [-45.4659497, -22.59443041], [-45.46575642, -22.59454606], [-45.46505585, -22.59489614], [-45.46489136, -22.59498613], [-45.46474395, -22.59509631], [-45.4645689, -22.59526833], [-45.46447221, -22.59550688], [-45.46434496, -22.5958524], [-45.46427112, -22.59598024], [-45.46415934, -22.59610736], [-45.463777, -22.59650229], [-45.46363506, -22.59662884], [-45.46348673, -22.5967363], [-45.46276407, -22.59725043], [-45.46210368, -22.5975868], [-45.46178013, -22.59782921], [-45.46127028, -22.59809071], [-45.4602555, -22.59865535], [-45.4600724, -22.59879467], [-45.45991837, -22.59893997], [-45.45955751, -22.59933078], [-45.45947276, -22.59942317], [-45.45937785, -22.59953524], [-45.45915968, -22.59980945], [-45.4584662, -22.6008121], [-45.45828255, -22.60106528], [-45.45820354, -22.60116229], [-45.45811234, -22.60123828], [-45.45802264, -22.60128991], [-45.45774289, -22.60139849], [-45.4573664, -22.60152423], [-45.45697042, -22.60169568], [-45.45681956, -22.60178501], [-45.45643719, -22.60204618], [-45.45622387, -22.60223192], [-45.4557255, -22.60267887], [-45.45558432, -22.60281446], [-45.45542272, -22.60299395], [-45.45455421, -22.60420926], [-45.45443268, -22.60446993], [-45.45434795, -22.60460569], [-45.45419187, -22.60493258], [-45.45404627, -22.60513677], [-45.45389548, -22.60522248], [-45.45378537, -22.60531709], [-45.4536945, -22.60537773], [-45.45291459, -22.60583561], [-45.4527355, -22.60596868], [-45.45256875, -22.60611644], [-45.4523505, -22.60639336], [-45.45199812, -22.60683944], [-45.45175548, -22.60707432], [-45.45169604, -22.607122], [-45.4516164, -22.60715845], [-45.45154854, -22.6071906], [-45.45147621, -22.60720459], [-45.45121644, -22.60719968], [-45.45093595, -22.60716365], [-45.44990765, -22.60692009], [-45.44956128, -22.60682588], [-45.44926597, -22.60671094], [-45.44907326, -22.60662235], [-45.44888777, -22.60651492], [-45.44859425, -22.60631869], [-45.44798277, -22.60575406], [-45.44765172, -22.60544958], [-45.44733523, -22.60514718], [-45.44716812, -22.60504552], [-45.44705479, -22.60502078], [-45.44689329, -22.60501772], [-45.44678087, -22.60503999], [-45.44663011, -22.60512389], [-45.44656261, -22.60522834], [-45.44653892, -22.60555321], [-45.44651768, -22.60612122], [-45.44647476, -22.60687859], [-45.44642962, -22.60738289], [-45.44588139, -22.60947626], [-45.44552957, -22.61007235], [-45.44514376, -22.61031084], [-45.44495577, -22.61040578], [-45.4438515, -22.61065053], [-45.44220284, -22.6107765], [-45.44133291, -22.6108106], [-45.44086278, -22.610855], [-45.44055665, -22.61092239], [-45.44028969, -22.61097877], [-45.43958572, -22.61125549], [-45.43809237, -22.61175307], [-45.43756476, -22.61188854], [-45.43740712, -22.61193073], [-45.43725868, -22.61199749], [-45.43706397, -22.61208778], [-45.43697094, -22.6121574], [-45.4368607, -22.61225742], [-45.43672787, -22.61241033], [-45.43666061, -22.61250303], [-45.43658958, -22.61263452], [-45.43606386, -22.6141409], [-45.43602779, -22.61432005], [-45.43605217, -22.61462686], [-45.43602897, -22.61506108], [-45.43605428, -22.6151935], [-45.4361164, -22.61559862], [-45.43618225, -22.61579055], [-45.43629528, -22.61600597], [-45.43666764, -22.61664381], [-45.43675585, -22.61683706], [-45.43679271, -22.61697512], [-45.43679944, -22.61706742], [-45.43679689, -22.61713877], [-45.43675845, -22.61773446], [-45.43666002, -22.61849077], [-45.43659126, -22.6186955], [-45.43651786, -22.61884593], [-45.43639061, -22.61905497], [-45.43625503, -22.61919969], [-45.43564573, -22.61981616], [-45.43555468, -22.61988402], [-45.43541655, -22.61996814], [-45.43505465, -22.62013567], [-45.43468603, -22.62025428], [-45.43451894, -22.62028363], [-45.43435037, -22.62029127], [-45.43409988, -22.62026211], [-45.43336934, -22.62010814], [-45.43302878, -22.62005829], [-45.43237003, -22.62000328], [-45.43199372, -22.62002956], [-45.43180381, -22.62003408], [-45.43122293, -22.6200673], [-45.4308252, -22.62009407], [-45.43037531, -22.62014605], [-45.42985964, -22.62026817], [-45.42951602, -22.62035651], [-45.42880032, -22.6205444], [-45.4279742, -22.62083952], [-45.42769072, -22.62093714], [-45.42729545, -22.62107239], [-45.42673088, -22.62120441], [-45.42527012, -22.62149827], [-45.42442843, -22.62166024], [-45.42423013, -22.6216917], [-45.42408321, -22.62168889], [-45.42385524, -22.62165382], [-45.42360573, -22.62158038], [-45.42291931, -22.62132419], [-45.42242576, -22.62123796], [-45.4217046, -22.6212757], [-45.42150157, -22.62125736], [-45.42103809, -22.62121959], [-45.42016584, -22.62095985], [-45.41967179, -22.62089619], [-45.4191539, -22.62089804], [-45.41861977, -22.62097368], [-45.41830862, -22.62104635], [-45.417548, -22.62132731], [-45.41656802, -22.62179927], [-45.41600487, -22.62208581], [-45.41574068, -22.62223528], [-45.4154851, -22.62239125], [-45.41533511, -22.62243899], [-45.41513995, -22.62246055], [-45.41493248, -22.62246652], [-45.41472954, -22.62244366], [-45.41363059, -22.62235485], [-45.41354803, -22.62239032], [-45.41318184, -22.62248633], [-45.41298414, -22.62257834], [-45.41282779, -22.6227371], [-45.41265917, -22.6227908], [-45.4125609, -22.62296424], [-45.41249051, -22.62310928], [-45.41241758, -22.62332477], [-45.4123946, -22.6234391], [-45.41237803, -22.62352734], [-45.41236443, -22.62370149], [-45.41235336, -22.62398051], [-45.41252776, -22.62493723], [-45.4127298, -22.62592069], [-45.41289436, -22.62661967], [-45.41303933, -22.62714838], [-45.41338098, -22.62798269], [-45.41343996, -22.62813202], [-45.4135374, -22.62839053], [-45.41356846, -22.6284824], [-45.41361185, -22.62863234], [-45.41362081, -22.62871113], [-45.41363459, -22.62896713], [-45.41352493, -22.62917107], [-45.41299096, -22.62954491], [-45.41278492, -22.62974881], [-45.41255536, -22.63017908], [-45.4124522, -22.63030904], [-45.41222548, -22.63048001], [-45.41200635, -22.63061589], [-45.41158238, -22.63072615], [-45.41101825, -22.63087981], [-45.41074531, -22.63098393], [-45.41064099, -22.63107862], [-45.41038398, -22.63125443], [-45.40993337, -22.63164341], [-45.4096563, -22.63197698], [-45.40944604, -22.63232629], [-45.40918953, -22.63287352], [-45.40909608, -22.63322326], [-45.40904937, -22.63339767], [-45.40902748, -22.63376867], [-45.4090046, -22.63418482], [-45.40900608, -22.63464301], [-45.40907213, -22.63535005], [-45.40908535, -22.63558707], [-45.40912477, -22.63591586], [-45.40931562, -22.63635147], [-45.40957765, -22.63686978], [-45.40966261, -22.63747055], [-45.4097668, -22.63821356], [-45.40979062, -22.63841192], [-45.40981657, -22.63851453], [-45.40992779, -22.6387227], [-45.41003946, -22.63886672], [-45.41045727, -22.63934102], [-45.41101708, -22.63995269], [-45.41126675, -22.64019514], [-45.41134764, -22.64027892], [-45.41147556, -22.6404368], [-45.41156061, -22.6405523], [-45.4116123, -22.64063552], [-45.41167396, -22.64075237], [-45.41173129, -22.64084474], [-45.41179164, -22.64102031], [-45.41182014, -22.64118351], [-45.41183837, -22.64137092], [-45.41182796, -22.64153248], [-45.41179055, -22.64159502], [-45.41166353, -22.64174712], [-45.41135464, -22.64193459], [-45.41111569, -22.64208544], [-45.41082435, -22.64222806], [-45.41036596, -22.64243978], [-45.41016438, -22.6425299], [-45.40993113, -22.64259953], [-45.40956211, -22.64264487], [-45.40930118, -22.64268957], [-45.40918425, -22.64273793], [-45.40911934, -22.64276742], [-45.40904908, -22.64281848], [-45.40899819, -22.64287444], [-45.40894766, -22.64295751], [-45.40884901, -22.6431472], [-45.4085388, -22.64378738], [-45.40842454, -22.64402195], [-45.40837907, -22.64414036], [-45.40830156, -22.6443422], [-45.40821728, -22.6447608], [-45.40819364, -22.645167], [-45.40823192, -22.64541534], [-45.40826855, -22.64560672], [-45.40834237, -22.64583315], [-45.40843301, -22.64591621], [-45.40851292, -22.64604426], [-45.40859162, -22.64613885], [-45.40864096, -22.64619673], [-45.40872527, -22.64625798], [-45.40896123, -22.64641704], [-45.40948139, -22.64675504], [-45.41041346, -22.64743981], [-45.41060175, -22.64755367], [-45.41081514, -22.64767704], [-45.41088421, -22.64772355], [-45.41099685, -22.64782421], [-45.41103074, -22.64787636], [-45.41106564, -22.64797101], [-45.41108639, -22.64804461], [-45.41114604, -22.64816413], [-45.41117091, -22.64849084], [-45.41110004, -22.64922597], [-45.41097361, -22.64978925], [-45.41094536, -22.64996492], [-45.41091215, -22.65014502], [-45.41089322, -22.65020792], [-45.41069226, -22.65110142], [-45.41063336, -22.65177985], [-45.41061023, -22.65216347], [-45.41056186, -22.65241195], [-45.41039276, -22.65266084], [-45.41013756, -22.65279692], [-45.40990629, -22.6528205], [-45.40959031, -22.65284427], [-45.40934619, -22.65283236], [-45.40904289, -22.65281119], [-45.40883553, -22.65276655], [-45.40840981, -22.65273399], [-45.40793583, -22.65281346], [-45.40723524, -22.65301329], [-45.40703777, -22.65309264], [-45.40642888, -22.65350298], [-45.40561105, -22.65393912], [-45.40536243, -22.65404189], [-45.40512139, -22.65411046], [-45.40484744, -22.65417027], [-45.4045611, -22.65421809], [-45.40429497, -22.65423286], [-45.40379516, -22.65420429], [-45.40333869, -22.65415305], [-45.40205596, -22.65395491], [-45.4012421, -22.65386336], [-45.40093685, -22.65384213], [-45.4006885, -22.65384549], [-45.40018902, -22.65388921], [-45.39981832, -22.65444507], [-45.39965616, -22.65494892], [-45.3996291, -22.65533246], [-45.39974838, -22.65592123], [-45.40052924, -22.65749237], [-45.40084979, -22.6580064], [-45.40096936, -22.65832046], [-45.40101803, -22.65862684], [-45.40106949, -22.65893869], [-45.40110047, -22.65925196], [-45.40113924, -22.66043832], [-45.40116944, -22.66104888], [-45.4012065, -22.66143907], [-45.40125504, -22.66183853], [-45.40150906, -22.66271635], [-45.40166772, -22.66394117], [-45.40173675, -22.66416389], [-45.40183174, -22.66453261], [-45.40193502, -22.66483552], [-45.40207013, -22.66506403], [-45.40243158, -22.66527339], [-45.40274383, -22.66541856], [-45.40464435, -22.66656204], [-45.40527405, -22.66696903], [-45.40556543, -22.66722042], [-45.40586369, -22.66768792], [-45.40609457, -22.66825172], [-45.40621865, -22.66875744], [-45.40632078, -22.66906846], [-45.40640512, -22.66921647], [-45.40677596, -22.66979199], [-45.40720507, -22.67063702], [-45.40790639, -22.67158938], [-45.40815936, -22.67194847], [-45.40843187, -22.67221757], [-45.40880095, -22.67252285], [-45.40935276, -22.67297442], [-45.41014439, -22.673633], [-45.41095436, -22.67412384], [-45.41269964, -22.67498773], [-45.41305331, -22.6750668], [-45.41348705, -22.67517992], [-45.41386183, -22.67522957], [-45.41435148, -22.67519285], [-45.41462841, -22.67513218], [-45.41491012, -22.67511949], [-45.41524249, -22.675237], [-45.41573955, -22.67556821], [-45.41603432, -22.67566874], [-45.4162516, -22.67570723], [-45.41656717, -22.67570423], [-45.41711212, -22.67572097], [-45.41856553, -22.67560958], [-45.41887002, -22.6756669], [-45.4193816, -22.67578331], [-45.41998406, -22.67610477], [-45.42039104, -22.67641527], [-45.42068172, -22.6766124], [-45.42095413, -22.67675586], [-45.42148624, -22.67726394], [-45.42204466, -22.67803549], [-45.42255131, -22.6785503], [-45.42330813, -22.67898224], [-45.42394935, -22.67926918], [-45.42435709, -22.67950197], [-45.42464871, -22.67978948], [-45.42482408, -22.68009374], [-45.42490349, -22.68059769], [-45.42489965, -22.68112265], [-45.42486805, -22.68162629], [-45.42464089, -22.6822979], [-45.42446464, -22.682825], [-45.42437696, -22.68317846], [-45.42431899, -22.68355328], [-45.42442619, -22.68420958], [-45.42454609, -22.68437995], [-45.42466345, -22.68457738], [-45.42487742, -22.68481009], [-45.42571381, -22.68556433], [-45.42659112, -22.6861865], [-45.42680049, -22.68631881], [-45.42699776, -22.68651415], [-45.42710302, -22.68673032], [-45.42716306, -22.68700979], [-45.4271521, -22.68724092], [-45.42705058, -22.68742785], [-45.42683786, -22.68766689], [-45.42640025, -22.68790254], [-45.42608985, -22.68806651], [-45.42576052, -22.68833766], [-45.42543784, -22.68879238], [-45.42523656, -22.68926206], [-45.42517304, -22.68957985], [-45.42516353, -22.68996553], [-45.4251793, -22.69123277], [-45.42520391, -22.69152874], [-45.42530801, -22.69184158], [-45.4254243, -22.69217544], [-45.42561292, -22.69249803], [-45.42589255, -22.69275639], [-45.42631366, -22.69317919], [-45.4266958, -22.69377838], [-45.42697001, -22.69423814], [-45.4270409, -22.69455578], [-45.42734727, -22.69519056], [-45.42780521, -22.69557792], [-45.4288332, -22.69590745], [-45.42910175, -22.69596317], [-45.42954106, -22.69600406], [-45.43013006, -22.69610202], [-45.43057582, -22.69629214], [-45.43072114, -22.69637082], [-45.43086616, -22.69650732], [-45.43097118, -22.69673523], [-45.43107256, -22.69712754], [-45.43117473, -22.69726413], [-45.4313004, -22.69735056], [-45.43214128, -22.69786267], [-45.43255414, -22.6980874], [-45.432947, -22.69824759], [-45.43345243, -22.69829334], [-45.43354504, -22.69833396], [-45.43363698, -22.69840439], [-45.43370533, -22.69852858], [-45.4337055, -22.69865329], [-45.43368934, -22.69872347], [-45.43355612, -22.69906704], [-45.43353112, -22.69931688], [-45.43352874, -22.69955721], [-45.43367427, -22.69984734], [-45.43403354, -22.70011714], [-45.43429506, -22.70027121], [-45.43470374, -22.70042085], [-45.43517453, -22.70053643], [-45.43572479, -22.70066978], [-45.43620788, -22.70080185], [-45.43663435, -22.70094008], [-45.43676872, -22.70098601], [-45.43685917, -22.7010799], [-45.43708441, -22.70120075], [-45.43801536, -22.70187086], [-45.43879596, -22.70246854], [-45.43910719, -22.70284224], [-45.43929207, -22.70320359], [-45.43945321, -22.70344883], [-45.43972338, -22.70374132], [-45.43999075, -22.7038955], [-45.4402043, -22.70392847], [-45.44099842, -22.70386943], [-45.44162855, -22.70391481], [-45.44198524, -22.70399386], [-45.44337726, -22.70429405], [-45.44504659, -22.70482901], [-45.44510721, -22.70486269], [-45.44533405, -22.70495555], [-45.44545182, -22.70504814], [-45.44560228, -22.70520371], [-45.4456546, -22.70530501], [-45.44568814, -22.70550716], [-45.44568158, -22.7056724], [-45.44563024, -22.7058368], [-45.44535625, -22.70686901], [-45.44534963, -22.70703697], [-45.44537578, -22.70717663], [-45.44544282, -22.70731706], [-45.44560708, -22.70742138], [-45.44591118, -22.70750034], [-45.44621428, -22.70758017], [-45.44655175, -22.70778085], [-45.44693755, -22.7079978], [-45.44721324, -22.70826146], [-45.44747493, -22.70876343], [-45.44784592, -22.70978797], [-45.44802371, -22.7110935], [-45.44806343, -22.71185694], [-45.44785057, -22.71263367], [-45.44736161, -22.7138299], [-45.44730818, -22.71413343], [-45.44732573, -22.71448709], [-45.44735204, -22.7146638], [-45.44740287, -22.71478856], [-45.44747091, -22.71492811], [-45.44758125, -22.71504858], [-45.4480011, -22.71540172], [-45.44841368, -22.71564266], [-45.44861584, -22.71575131], [-45.44910174, -22.71593581], [-45.44990436, -22.71611365], [-45.45072714, -22.71617167], [-45.45174517, -22.71598849], [-45.45256177, -22.71597319], [-45.45278672, -22.71601991], [-45.45302281, -22.71613642], [-45.45319915, -22.71626807], [-45.45339839, -22.7165104], [-45.4536274, -22.71726024], [-45.45370753, -22.7176928], [-45.45380112, -22.71804428], [-45.45396161, -22.71827684], [-45.45418964, -22.71849441], [-45.45436471, -22.71859531], [-45.45482847, -22.71881281], [-45.45569417, -22.71909121], [-45.45602207, -22.71915251], [-45.456325, -22.71915281], [-45.45665239, -22.71910386], [-45.4569311, -22.71900972], [-45.45748272, -22.71877432], [-45.45789019, -22.71853802], [-45.4592775, -22.71754937], [-45.45973043, -22.71714945], [-45.45995589, -22.71677326], [-45.46005536, -22.71623384], [-45.46005483, -22.71585791], [-45.45998914, -22.71569944], [-45.45993881, -22.71555119], [-45.4598645, -22.71543051], [-45.45958605, -22.71520206], [-45.4592839, -22.71494425], [-45.45922334, -22.7148184], [-45.45920672, -22.71473224], [-45.45923135, -22.71463059], [-45.45938916, -22.71449621], [-45.45954578, -22.71450549], [-45.45973018, -22.71453607], [-45.46057062, -22.71472179], [-45.46095734, -22.71472095], [-45.46154109, -22.71475182], [-45.46221128, -22.71474998], [-45.46252328, -22.71473598], [-45.46275815, -22.71468618], [-45.46292994, -22.71462525], [-45.46346334, -22.71433076], [-45.46368925, -22.71424465], [-45.46389113, -22.71418881], [-45.46428098, -22.71413379], [-45.46458847, -22.71414771], [-45.46490811, -22.71418535], [-45.46521861, -22.71423999], [-45.46556997, -22.71434148], [-45.46583259, -22.71440335], [-45.46603291, -22.71446315], [-45.46635533, -22.71459662], [-45.46660348, -22.71469617], [-45.46710207, -22.71483567], [-45.46749318, -22.7150355], [-45.46777526, -22.71527666], [-45.46832007, -22.71579746], [-45.46884888, -22.71611464], [-45.46977257, -22.71663714], [-45.47022831, -22.71677673], [-45.47102559, -22.71702213], [-45.47135491, -22.71715211], [-45.47163361, -22.71732542], [-45.47184441, -22.71748571], [-45.4721655, -22.71777006], [-45.47289983, -22.71840104], [-45.47370992, -22.71877408], [-45.47436756, -22.71917047], [-45.47489961, -22.71947414], [-45.47510898, -22.7196109], [-45.47526044, -22.71981254], [-45.47538186, -22.71991783], [-45.4756097, -22.72001157], [-45.47586595, -22.72005342], [-45.47608945, -22.72003321], [-45.47686061, -22.71991392], [-45.47697254, -22.71991783], [-45.47708158, -22.71996505], [-45.47717466, -22.72011951], [-45.4772607, -22.72037324], [-45.47726149, -22.72069496], [-45.47726271, -22.7209968], [-45.4773941, -22.72153875], [-45.47767654, -22.72225702], [-45.47794797, -22.72312328], [-45.4780669, -22.72329811], [-45.47823742, -22.7234748], [-45.47862351, -22.72372783], [-45.47919888, -22.72401151], [-45.47961581, -22.72414582], [-45.48003403, -22.72422052], [-45.48081718, -22.72426681], [-45.48099363, -22.72430535], [-45.48116191, -22.72440609], [-45.48145054, -22.7246618], [-45.48165767, -22.72485725], [-45.481802, -22.72507412], [-45.48189557, -22.72534064], [-45.48191372, -22.72576027], [-45.48188928, -22.72621255], [-45.48182271, -22.72658632], [-45.48177377, -22.72686553], [-45.48161884, -22.72736055], [-45.48157476, -22.72764076], [-45.48159146, -22.72781367], [-45.48161559, -22.72791352], [-45.48170343, -22.72808505], [-45.48190668, -22.72823524], [-45.4821234, -22.72834864], [-45.48240868, -22.72840006], [-45.48272589, -22.72837165], [-45.48326395, -22.72849106], [-45.48359421, -22.72871411], [-45.48368732, -22.72909177], [-45.48380468, -22.72920511], [-45.48418495, -22.73004087], [-45.48425206, -22.73018038], [-45.48437744, -22.73032821], [-45.48456372, -22.73045278], [-45.48483314, -22.73056174], [-45.48528802, -22.73065427], [-45.48539647, -22.73068431], [-45.48556412, -22.73076968], [-45.48572429, -22.73088563], [-45.48584589, -22.73102796], [-45.48625165, -22.7317675], [-45.4865584, -22.73222144], [-45.48677215, -22.73247213], [-45.48693845, -22.73261982], [-45.48709993, -22.73272043], [-45.48724402, -22.73281439], [-45.48797559, -22.73308558], [-45.48814408, -22.73317729], [-45.4883289, -22.73332442], [-45.48914271, -22.73416102], [-45.48986554, -22.73474562], [-45.49034738, -22.73521275], [-45.49053576, -22.73537621], [-45.49077722, -22.73551717], [-45.4912833, -22.73558534], [-45.49181426, -22.7355844], [-45.49219846, -22.73561234], [-45.49247671, -22.73567446], [-45.4929276, -22.73586179], [-45.49321653, -22.73606055], [-45.49351146, -22.73638684], [-45.49364726, -22.73672914], [-45.49371465, -22.7371262], [-45.4938195, -22.73808782], [-45.49395807, -22.73897689], [-45.49395979, -22.73934741], [-45.49388946, -22.7399407], [-45.49389505, -22.74017756], [-45.49396357, -22.74038758], [-45.49412066, -22.74073661], [-45.49424795, -22.74111218], [-45.49437559, -22.74165133], [-45.49448135, -22.7420762], [-45.49454926, -22.74222476], [-45.49460593, -22.74230715], [-45.49470093, -22.74241916], [-45.49486086, -22.74254684], [-45.49520045, -22.74274655], [-45.49553182, -22.74287561], [-45.49602961, -22.74292284], [-45.49633972, -22.74295391], [-45.49654341, -22.74299565], [-45.49674334, -22.74307619], [-45.49691403, -22.74320226], [-45.49703201, -22.74328759], [-45.49739583, -22.74353834], [-45.49857846, -22.7442191], [-45.49887969, -22.74434579], [-45.49923003, -22.74440924], [-45.49966595, -22.74443451], [-45.49994726, -22.74440089], [-45.50028254, -22.74439447], [-45.50098045, -22.74446889], [-45.50128188, -22.744451], [-45.50172385, -22.74433179], [-45.5022589, -22.74405257], [-45.50279613, -22.74416827], [-45.50343995, -22.74435644], [-45.50407103, -22.74441244], [-45.504529, -22.74449956], [-45.50489186, -22.74461473], [-45.50563938, -22.74523495], [-45.50604669, -22.74554794], [-45.5061263, -22.74560634], [-45.50637917, -22.74594267], [-45.50660155, -22.74629289], [-45.50699842, -22.74681895], [-45.50850016, -22.74775044], [-45.50955715, -22.74798148], [-45.51058444, -22.74850565], [-45.5108691, -22.74872419], [-45.51094806, -22.74876722], [-45.51131188, -22.74883902], [-45.51179954, -22.74863388], [-45.5122253, -22.74854327], [-45.51284226, -22.74884928], [-45.51342571, -22.74903719], [-45.51361655, -22.74935971], [-45.51391247, -22.75036823], [-45.51401907, -22.75057624], [-45.51435458, -22.7509674], [-45.51492186, -22.75118302], [-45.5156111, -22.75120932], [-45.51636172, -22.75123585], [-45.51678645, -22.75132955], [-45.51723922, -22.75152407], [-45.51771183, -22.7519286], [-45.51794666, -22.75215433], [-45.51825183, -22.7524166], [-45.51871544, -22.75265108], [-45.5190297, -22.75285297], [-45.51931214, -22.75308501], [-45.51953267, -22.75343246], [-45.51965923, -22.75366433], [-45.52000404, -22.7538957], [-45.52078725, -22.75403848], [-45.52154233, -22.75413013], [-45.52207423, -22.75427007], [-45.52244229, -22.75446301], [-45.52261628, -22.75457285], [-45.52279901, -22.75468466], [-45.52308236, -22.75482905], [-45.52348331, -22.75498735], [-45.52389075, -22.75516113], [-45.52428004, -22.75531832], [-45.52476791, -22.75537611], [-45.525382, -22.75522748], [-45.52578516, -22.75514636], [-45.52615716, -22.75510984], [-45.52642444, -22.75514097], [-45.52684252, -22.75522729], [-45.52722353, -22.75536172], [-45.52758685, -22.75559432], [-45.52777635, -22.75584451], [-45.52783915, -22.75596043], [-45.52780962, -22.75633851], [-45.52793302, -22.7567185], [-45.52805578, -22.75699186], [-45.52812776, -22.75736187], [-45.5281979, -22.75763515], [-45.52852829, -22.75785901], [-45.52889351, -22.75800309], [-45.52920674, -22.75816338], [-45.52927736, -22.75832372], [-45.52927696, -22.75838787], [-45.52913999, -22.75882362], [-45.52908881, -22.75898443], [-45.5290363, -22.75916148], [-45.52907281, -22.75932209], [-45.52926447, -22.75956328], [-45.52956033, -22.75985247], [-45.52978715, -22.7600446], [-45.53002615, -22.76034991], [-45.53046257, -22.7609923], [-45.53102025, -22.76152305], [-45.53161208, -22.76205172], [-45.53217006, -22.76261411], [-45.53272016, -22.7630896], [-45.53338953, -22.76359258], [-45.53434921, -22.764053], [-45.53490541, -22.76424395], [-45.53547746, -22.76433126], [-45.53617706, -22.76446882], [-45.53669845, -22.76469255], [-45.53704214, -22.76507026], [-45.53711271, -22.76555319], [-45.5371142, -22.76593998], [-45.53715019, -22.76626233], [-45.53721396, -22.7665617], [-45.53732975, -22.76684305], [-45.5375963, -22.76700066], [-45.53795687, -22.76699915], [-45.53826305, -22.76680596], [-45.53871361, -22.76651422], [-45.53920027, -22.76644815], [-45.53989397, -22.76654311], [-45.54041596, -22.766831], [-45.54086986, -22.76757036], [-45.54103879, -22.76846806], [-45.54123668, -22.76910424], [-45.54153665, -22.7695227], [-45.54180567, -22.7697933], [-45.54201428, -22.76997243], [-45.54241226, -22.77013605], [-45.54288734, -22.77006523], [-45.54334208, -22.76985127], [-45.54356213, -22.76967638], [-45.54368083, -22.76959361], [-45.54403763, -22.76935707], [-45.54430523, -22.76932853], [-45.54466815, -22.76935416], [-45.54512556, -22.76956404], [-45.54549958, -22.77002903], [-45.5456653, -22.77034653], [-45.54606831, -22.77073163], [-45.5463458, -22.77087948], [-45.5465401, -22.77090743], [-45.5477132, -22.77095872], [-45.54873855, -22.77071813], [-45.54919314, -22.77046529], [-45.54951449, -22.77020007], [-45.5499123, -22.76977631], [-45.55021401, -22.76956405], [-45.55051723, -22.76950995], [-45.55067416, -22.76959956], [-45.55082307, -22.76979114], [-45.55088655, -22.77005978], [-45.55099224, -22.77040509], [-45.55103548, -22.77061733], [-45.55114195, -22.77106387], [-45.55126362, -22.77157484], [-45.55142038, -22.77190211], [-45.55163022, -22.77225294], [-45.55201236, -22.7727045], [-45.55220289, -22.77295558], [-45.55241304, -22.77320069], [-45.55262303, -22.77349911], [-45.55300872, -22.77401309], [-45.55325259, -22.77418471], [-45.5534325, -22.77424764], [-45.5536127, -22.7743431], [-45.55399371, -22.77448108], [-45.55423909, -22.77453526], [-45.55435742, -22.77456182], [-45.55465542, -22.77461605], [-45.55473047, -22.77461561], [-45.55521044, -22.77463612], [-45.55568498, -22.7747749], [-45.55603375, -22.77500898], [-45.55631685, -22.77521475], [-45.55646731, -22.77538014], [-45.55673491, -22.77548985], [-45.55722715, -22.77552954], [-45.5575092, -22.77541721], [-45.55777748, -22.77526487], [-45.55803426, -22.77496593], [-45.55821196, -22.77467368], [-45.55853259, -22.77421235], [-45.55868891, -22.77400917], [-45.55886588, -22.77370516], [-45.5590791, -22.77353012], [-45.55945734, -22.77324695], [-45.55996938, -22.7730873], [-45.56048161, -22.77310295], [-45.56093907, -22.77331189], [-45.56119599, -22.77351175], [-45.56125612, -22.77366375], [-45.56136058, -22.77388433], [-45.56152577, -22.77409066], [-45.56180974, -22.77425577], [-45.56212152, -22.77448826], [-45.56242243, -22.77477386], [-45.56249607, -22.77493153], [-45.56269364, -22.77517369], [-45.56284622, -22.77533098], [-45.56301753, -22.77552477], [-45.56334988, -22.77579829], [-45.56379929, -22.77629623], [-45.56460072, -22.77724426], [-45.56498438, -22.77771842], [-45.56537393, -22.77814479], [-45.56564332, -22.77830872], [-45.56582195, -22.77843306], [-45.5660158, -22.77852875], [-45.56629938, -22.77852848], [-45.56690993, -22.77845735], [-45.56732616, -22.77822093], [-45.56749634, -22.77814541], [-45.56780769, -22.77793781], [-45.56821641, -22.77759553], [-45.56856981, -22.77733447], [-45.56906327, -22.77703981], [-45.56957496, -22.77694338], [-45.57001142, -22.77699467], [-45.57041907, -22.77711774], [-45.57143163, -22.77725268], [-45.57190965, -22.77732009], [-45.57358369, -22.77751039], [-45.57466614, -22.77761224], [-45.57527473, -22.7776802], [-45.57557878, -22.77767938], [-45.57600874, -22.77762302], [-45.57667926, -22.77748064], [-45.57705041, -22.77730121], [-45.57811956, -22.77687779], [-45.57870869, -22.77680532], [-45.579146, -22.77690902], [-45.57967155, -22.77726462], [-45.57993492, -22.77743746], [-45.58012704, -22.77752317], [-45.58070251, -22.7775905], [-45.58099289, -22.77759124], [-45.58154158, -22.77772767], [-45.58171421, -22.77790609], [-45.58179959, -22.77810915], [-45.58172623, -22.77826144], [-45.58146306, -22.77854223], [-45.58131503, -22.77872299], [-45.58110807, -22.77897226], [-45.58096704, -22.7791911], [-45.58078743, -22.77943725], [-45.58066464, -22.77966907], [-45.58052513, -22.77986173], [-45.58049377, -22.78005545], [-45.58047582, -22.78021416], [-45.58050845, -22.78028433], [-45.58056529, -22.78040825], [-45.58077234, -22.78061803], [-45.58089185, -22.78072772], [-45.58128064, -22.78109982], [-45.58189327, -22.78218169], [-45.58203197, -22.78253752], [-45.58212283, -22.782897], [-45.58215098, -22.78327342], [-45.58207633, -22.78376455], [-45.58192971, -22.78438811], [-45.58176936, -22.78487679], [-45.58139946, -22.78532011], [-45.5809706, -22.78583284], [-45.58071801, -22.78616623], [-45.58067637, -22.78689471], [-45.58076686, -22.78722617], [-45.58091712, -22.7876807], [-45.58105339, -22.78801299], [-45.58117342, -22.78832962], [-45.58118907, -22.78855852], [-45.58120989, -22.78905138], [-45.58119128, -22.78942695], [-45.58132597, -22.78964897], [-45.58153547, -22.7897892], [-45.5818021, -22.78994764], [-45.58205771, -22.79007335], [-45.58225169, -22.79021059], [-45.58264013, -22.79055466], [-45.58285025, -22.79080515], [-45.58319417, -22.79122704], [-45.58377978, -22.79174274], [-45.58416812, -22.79204525], [-45.58474935, -22.79239822]]]]}}]}