{"type": "FeatureCollection", "features": [{"type": "Feature", "properties": {"name": "Área de Proteção Ambiental Rio Batalha"}, "geometry": {"type": "MultiPolygon", "coordinates": [[[[-49.06588906, -22.50211679], [-49.06798229, -22.50236393], [-49.06939901, -22.50237351], [-49.07223393, -22.5021014], [-49.07371481, -22.50158716], [-49.07532079, -22.50066594], [-49.07606407, -22.49979715], [-49.07693757, -22.49747297], [-49.07762286, -22.49584652], [-49.07899532, -22.49218581], [-49.07949692, -22.49032513], [-49.08073151, -22.48975081], [-49.08202657, -22.48940996], [-49.08362665, -22.48971196], [-49.08448566, -22.49041665], [-49.08516095, -22.49088722], [-49.08602086, -22.49141712], [-49.08836141, -22.49143272], [-49.09113313, -22.49145105], [-49.09230416, -22.49128407], [-49.0947144, -22.48955245], [-49.0978712, -22.4861946], [-49.10114599, -22.48394418], [-49.10380338, -22.48198103], [-49.10596462, -22.48077185], [-49.10837081, -22.47985543], [-49.11058982, -22.47946207], [-49.11212926, -22.4795304], [-49.11262253, -22.47941709], [-49.11293205, -22.47906949], [-49.11293466, -22.47848699], [-49.11269067, -22.47796119], [-49.11207664, -22.47754942], [-49.11115563, -22.47690265], [-49.11048215, -22.47602447], [-49.10993575, -22.47427336], [-49.10951227, -22.47258128], [-49.10939383, -22.47153202], [-49.10970596, -22.47060201], [-49.11069629, -22.46950164], [-49.11254932, -22.46829028], [-49.11520388, -22.46685118], [-49.11644026, -22.46581052], [-49.11816999, -22.46459838], [-49.11984104, -22.46274503], [-49.12064725, -22.46146863], [-49.12120327, -22.46106448], [-49.12268325, -22.46060797], [-49.12447296, -22.4597456], [-49.12478187, -22.45951453], [-49.12478442, -22.45893202], [-49.1241101, -22.45822869], [-49.12392876, -22.45747024], [-49.12423992, -22.45671489], [-49.12492143, -22.45578725], [-49.12591079, -22.45486156], [-49.12665171, -22.45440021], [-49.12764008, -22.45370744], [-49.12819604, -22.45330326], [-49.12918461, -22.45255224], [-49.12919019, -22.45127075], [-49.1296303, -22.44917638], [-49.13068548, -22.44726077], [-49.1317966, -22.44662699], [-49.13321539, -22.44605346], [-49.13481734, -22.44583055], [-49.13610887, -22.4461883], [-49.13832458, -22.44643526], [-49.13986472, -22.44627019], [-49.13992829, -22.44580458], [-49.139747, -22.44498791], [-49.13864267, -22.4440489], [-49.13821516, -22.44323065], [-49.1374813, -22.44206098], [-49.13736163, -22.44124465], [-49.13773405, -22.44054795], [-49.13959071, -22.43834599], [-49.14101208, -22.43713164], [-49.14273979, -22.43626868], [-49.14348063, -22.43580725], [-49.14490115, -22.43476756], [-49.14613651, -22.43384328], [-49.14749374, -22.43321095], [-49.14909624, -22.43281318], [-49.15020502, -22.43270355], [-49.15112709, -22.43305883], [-49.15290801, -22.43417669], [-49.15450546, -22.43500223], [-49.15573545, -22.4353593], [-49.15788775, -22.43601346], [-49.15874537, -22.43706735], [-49.15935459, -22.43864398], [-49.15965289, -22.44097595], [-49.15939818, -22.44301323], [-49.16019595, -22.44365896], [-49.1611807, -22.4437816], [-49.16339645, -22.44402822], [-49.16585921, -22.44410164], [-49.16838469, -22.4438841], [-49.16955819, -22.44301745], [-49.17122423, -22.44215375], [-49.17258027, -22.44181246], [-49.17467379, -22.44182523], [-49.17627333, -22.44218452], [-49.17842845, -22.44219757], [-49.17978313, -22.44220572], [-49.18045951, -22.44244286], [-49.1823024, -22.44356083], [-49.18346905, -22.44438342], [-49.18506567, -22.44549986], [-49.18605019, -22.44568058], [-49.18753106, -22.4449321], [-49.18870372, -22.4442401], [-49.18919769, -22.44389351], [-49.1900607, -22.44366572], [-49.19061465, -22.44372728], [-49.19141371, -22.44408151], [-49.19202767, -22.44455122], [-49.19258003, -22.4450206], [-49.19362597, -22.44525984], [-49.19498332, -22.44456886], [-49.19627737, -22.44434352], [-49.19652368, -22.44434501], [-49.19775631, -22.44406109], [-49.19849789, -22.44336645], [-49.19924019, -22.44249702], [-49.20041685, -22.44075633], [-49.20121861, -22.4404115], [-49.20183435, -22.44041511], [-49.20300431, -22.44042209], [-49.20386811, -22.43996111], [-49.20399371, -22.43932108], [-49.2041206, -22.43833146], [-49.2038801, -22.43681541], [-49.20345176, -22.43611378], [-49.20278155, -22.43424569], [-49.20253977, -22.43307914], [-49.20291315, -22.43203276], [-49.20470601, -22.43012092], [-49.20550842, -22.42960128], [-49.20686455, -22.42920145], [-49.20809638, -22.42909224], [-49.20920503, -22.4289822], [-49.21025326, -22.42858055], [-49.21074712, -22.42823389], [-49.2121689, -22.42672759], [-49.21321909, -22.42580163], [-49.21439128, -22.42516765], [-49.21556194, -22.42494141], [-49.21691665, -22.424891], [-49.21851766, -22.42484203], [-49.21913503, -22.42437959], [-49.21907737, -22.42333067], [-49.21871227, -22.42216341], [-49.21902658, -22.42041756], [-49.21927625, -22.41948697], [-49.21927795, -22.4190209], [-49.22045398, -22.41733827], [-49.22261338, -22.41606915], [-49.22471107, -22.41485783], [-49.22687172, -22.41323905], [-49.22804673, -22.41178939], [-49.22915951, -22.4105142], [-49.2301491, -22.4092382], [-49.23132282, -22.40813801], [-49.23200288, -22.40732632], [-49.23335934, -22.40675155], [-49.23674682, -22.40630476], [-49.23982798, -22.40544833], [-49.24118371, -22.40504819], [-49.24216992, -22.40470425], [-49.24377291, -22.40401423], [-49.24445135, -22.40366847], [-49.24568515, -22.40291808], [-49.24716704, -22.40164477], [-49.24839946, -22.4013021], [-49.25055462, -22.40113944], [-49.25098451, -22.40207529], [-49.25146358, -22.40372046], [-49.25278732, -22.40505559], [-49.25409982, -22.40713171], [-49.2554708, -22.40904953], [-49.25617387, -22.41069667], [-49.25676581, -22.41228996], [-49.25748327, -22.41298447], [-49.2589832, -22.41379179], [-49.25982076, -22.4139581], [-49.26072069, -22.41370143], [-49.26157422, -22.41280912], [-49.26214465, -22.41212614], [-49.26362048, -22.41081587], [-49.26430047, -22.41029261], [-49.26531478, -22.40987813], [-49.26699624, -22.40978718], [-49.26845607, -22.40953547], [-49.27014951, -22.40865058], [-49.2713886, -22.4081851], [-49.27273564, -22.40798524], [-49.27408666, -22.40752076], [-49.27493771, -22.40678727], [-49.27551433, -22.40568073], [-49.27648056, -22.40473645], [-49.27727398, -22.40410824], [-49.27931194, -22.40264398], [-49.28079075, -22.40112192], [-49.28311497, -22.39923672], [-49.28457864, -22.39872015], [-49.28626312, -22.39841729], [-49.28833084, -22.39869997], [-49.29044833, -22.39940654], [-49.29138933, -22.39941477], [-49.29142459, -22.39936665], [-49.29159236, -22.39913809], [-49.2917743, -22.39889025], [-49.29193955, -22.39866518], [-49.29206546, -22.39849387], [-49.29215928, -22.3983661], [-49.29223665, -22.39826073], [-49.29231263, -22.39815715], [-49.29240311, -22.39803377], [-49.29252005, -22.39787519], [-49.2926631, -22.39768392], [-49.29282896, -22.39746779], [-49.29301448, -22.39723453], [-49.29321581, -22.39699178], [-49.29342975, -22.39674681], [-49.29365014, -22.39650425], [-49.29387085, -22.39626821], [-49.29408543, -22.39604302], [-49.29428796, -22.39583269], [-49.29447419, -22.39563962], [-49.29464947, -22.39545799], [-49.29482094, -22.3952802], [-49.2949963, -22.39509857], [-49.29518252, -22.39490559], [-49.29538585, -22.3946959], [-49.29560756, -22.39447593], [-49.29584699, -22.39425417], [-49.29610404, -22.39403917], [-49.29637836, -22.39383962], [-49.29666802, -22.39366236], [-49.29696542, -22.39350666], [-49.29726115, -22.39337009], [-49.29754586, -22.39325029], [-49.29781022, -22.39314472], [-49.29804817, -22.39305061], [-49.29826842, -22.39296344], [-49.29848272, -22.39287865], [-49.29870272, -22.3927914], [-49.29894076, -22.39269728], [-49.29920613, -22.39259371], [-49.29949707, -22.39248805], [-49.29980995, -22.39239003], [-49.30014087, -22.39230936], [-49.30048604, -22.39225583], [-49.30084136, -22.39223618], [-49.30120346, -22.39224567], [-49.30156818, -22.39227668], [-49.30193217, -22.39232168], [-49.3022916, -22.39237313], [-49.30264406, -22.39242487], [-49.3029914, -22.39247556], [-49.30333731, -22.39252632], [-49.30368481, -22.39257701], [-49.30403728, -22.39262856], [-49.3043963, -22.39268018], [-49.30475915, -22.39272706], [-49.30512021, -22.3927629], [-49.30547491, -22.39278188], [-49.3058186, -22.3927778], [-49.30614595, -22.39274683], [-49.30645025, -22.39269575], [-49.30672505, -22.39263335], [-49.30696312, -22.39256848], [-49.30715779, -22.39251011], [-49.30730681, -22.39246472], [-49.30742553, -22.3924284], [-49.30753437, -22.39239513], [-49.30765301, -22.39235881], [-49.30780196, -22.39231324], [-49.30799576, -22.39225341], [-49.30822708, -22.39217755], [-49.3084835, -22.39208551], [-49.30875229, -22.39197663], [-49.30902073, -22.39185058], [-49.30927743, -22.39170852], [-49.30951548, -22.39155896], [-49.30972836, -22.39141219], [-49.3099104, -22.39127811], [-49.31005533, -22.39116712], [-49.31016131, -22.39108552], [-49.31024126, -22.3910236], [-49.31031279, -22.39096863], [-49.31039266, -22.3909068], [-49.31049856, -22.39082511], [-49.31064413, -22.39071394], [-49.31082954, -22.39057917], [-49.31105189, -22.39043052], [-49.311308, -22.39027734], [-49.31159511, -22.39012946], [-49.31190931, -22.38999431], [-49.31224562, -22.38987096], [-49.31259807, -22.38975671], [-49.31296102, -22.38964871], [-49.31332874, -22.38954374], [-49.31369622, -22.38943949], [-49.31406336, -22.38933551], [-49.31443003, -22.38923161], [-49.31479717, -22.38912753], [-49.3151648, -22.38902328], [-49.3155329, -22.38891948], [-49.31589944, -22.38881946], [-49.31626163, -22.38872779], [-49.31661695, -22.38864823], [-49.31696262, -22.38858519], [-49.3170134, -22.38850428], [-49.31701914, -22.38842614], [-49.31703608, -22.38821683], [-49.3170659, -22.38791483], [-49.31710919, -22.38755852], [-49.31716684, -22.38718584], [-49.31723904, -22.38682911], [-49.31732169, -22.38649606], [-49.3174094, -22.38618825], [-49.31749735, -22.38590672], [-49.31758079, -22.38565332], [-49.31765574, -22.38542764], [-49.31772487, -22.38521941], [-49.31779185, -22.38501721], [-49.31786081, -22.38480917], [-49.31793576, -22.38458322], [-49.31801872, -22.3843308], [-49.31810419, -22.38405511], [-49.31818514, -22.38376277], [-49.31825388, -22.38346018], [-49.31830353, -22.38315378], [-49.31832888, -22.38285038], [-49.31833408, -22.38255814], [-49.31832494, -22.38228554], [-49.31830794, -22.38204111], [-49.31828898, -22.38183341], [-49.31827305, -22.38166638], [-49.31825967, -22.38152638], [-49.31824732, -22.38139541], [-49.31823394, -22.38125549], [-49.31821801, -22.38108837], [-49.31819897, -22.38088067], [-49.31818045, -22.38063641], [-49.31816794, -22.38036449], [-49.31816608, -22.38007327], [-49.31818027, -22.37977165], [-49.31821452, -22.37946698], [-49.31827025, -22.37916137], [-49.31834839, -22.37885545], [-49.31844951, -22.37855022], [-49.31857432, -22.37824623], [-49.31872232, -22.37794437], [-49.31888845, -22.37764659], [-49.31906653, -22.37735416], [-49.3192502, -22.37706893], [-49.31943305, -22.37679227], [-49.31961058, -22.37652521], [-49.31978387, -22.37626434], [-49.31995586, -22.37600553], [-49.32012898, -22.37574493], [-49.32030659, -22.37547769], [-49.32048976, -22.37520103], [-49.32067424, -22.37491463], [-49.32085522, -22.37461953], [-49.32102733, -22.37431639], [-49.3211848, -22.37400578], [-49.32132408, -22.37368938], [-49.32144656, -22.37337173], [-49.32155498, -22.37305754], [-49.32165225, -22.3727519], [-49.32174111, -22.37245945], [-49.32182425, -22.37218365], [-49.32190414, -22.37191874], [-49.32198293, -22.37165779], [-49.32206282, -22.37139278], [-49.32214604, -22.37111698], [-49.32223322, -22.37082442], [-49.32231938, -22.37051677], [-49.32358181, -22.36941741], [-49.32500825, -22.36826104], [-49.32598317, -22.36668129], [-49.32813051, -22.36532313], [-49.3306681, -22.36407416], [-49.33179778, -22.36339558], [-49.33309066, -22.36303589], [-49.3340454, -22.36283226], [-49.33488971, -22.36252175], [-49.33540425, -22.36178498], [-49.33659134, -22.36100095], [-49.33710516, -22.36031718], [-49.33823627, -22.35953265], [-49.33891417, -22.35911485], [-49.34056746, -22.35706429], [-49.34097161, -22.35622073], [-49.34187875, -22.35543423], [-49.34417779, -22.35495761], [-49.34508393, -22.35322342], [-49.34599661, -22.35103492], [-49.34723173, -22.34869765], [-49.34968106, -22.34546164], [-49.35029298, -22.34190746], [-49.35138853, -22.33813011], [-49.35259615, -22.33768576], [-49.35899084, -22.33849597], [-49.36986648, -22.33956997], [-49.37562741, -22.33992005], [-49.37659037, -22.33977637], [-49.37803928, -22.33925813], [-49.38184996, -22.33595692], [-49.38816846, -22.33085845], [-49.3940807, -22.32613511], [-49.39537249, -22.32538813], [-49.39682, -22.32494537], [-49.40034712, -22.32467076], [-49.40819029, -22.32496045], [-49.41659084, -22.3254815], [-49.42220076, -22.32514702], [-49.43075204, -22.32635002], [-49.43865674, -22.32800201], [-49.44584724, -22.32919365], [-49.4563125, -22.33101597], [-49.45887475, -22.33103557], [-49.46224702, -22.3303797], [-49.46851409, -22.32883693], [-49.47454393, -22.32706493], [-49.47551402, -22.32639066], [-49.47616582, -22.32556249], [-49.47691, -22.32382631], [-49.47895155, -22.32088803], [-49.47991848, -22.32044089], [-49.4825668, -22.32000634], [-49.48898323, -22.31922123], [-49.49211183, -22.31879009], [-49.49268645, -22.31773412], [-49.49477738, -22.31108511], [-49.49636534, -22.30609847], [-49.49682541, -22.3016336], [-49.4969013, -22.29595412], [-49.49582007, -22.29299248], [-49.49299706, -22.28857906], [-49.492145, -22.2864522], [-49.49240442, -22.2850152], [-49.49338829, -22.2832806], [-49.49710972, -22.28035454], [-49.49929924, -22.27825016], [-49.50041105, -22.27736057], [-49.50298663, -22.2748593], [-49.5070189, -22.27156588], [-49.50982662, -22.26901298], [-49.51128667, -22.26789831], [-49.51396395, -22.26674185], [-49.51675477, -22.26580157], [-49.51879302, -22.26480001], [-49.51897617, -22.26388781], [-49.51894363, -22.26141457], [-49.51994231, -22.26008023], [-49.52139557, -22.25961061], [-49.5240064, -22.25925968], [-49.52510662, -22.25932422], [-49.52609261, -22.25922625], [-49.52656098, -22.25874701], [-49.52657143, -22.25772559], [-49.5260654, -22.25621538], [-49.52546093, -22.25383816], [-49.52435863, -22.25258603], [-49.52214203, -22.25132332], [-49.5207344, -22.25062601], [-49.51803333, -22.24983572], [-49.51747658, -22.248815], [-49.51727114, -22.24834996], [-49.51699562, -22.24788437], [-49.51700329, -22.24715615], [-49.51743499, -22.2461002], [-49.51800492, -22.24524381], [-49.51801258, -22.24451559], [-49.51766969, -22.24378471], [-49.51718108, -22.24358231], [-49.5156416, -22.24330574], [-49.51473306, -22.24303403], [-49.51425073, -22.24223586], [-49.51390306, -22.24196836], [-49.51327353, -22.24183112], [-49.51201244, -22.24175529], [-49.5104702, -22.24174342], [-49.50907099, -22.24146791], [-49.50739763, -22.24059431], [-49.50649614, -22.23966052], [-49.5057335, -22.23886011], [-49.50496735, -22.2383908], [-49.50462384, -22.23772608], [-49.50407433, -22.2366625], [-49.50324859, -22.23519958], [-49.50311891, -22.2342055], [-49.50313227, -22.23294771], [-49.5031393, -22.23228567], [-49.50286526, -22.23168769], [-49.50273418, -22.23082598], [-49.50239429, -22.22983025], [-49.50177327, -22.22889856], [-49.50086821, -22.22838669], [-49.50024367, -22.22779396], [-49.49982873, -22.22726855], [-49.49969692, -22.22648522], [-49.49970462, -22.22576855], [-49.49964296, -22.22498596], [-49.49936746, -22.22452712], [-49.49873732, -22.22445556], [-49.49755074, -22.2239875], [-49.49692763, -22.22326446], [-49.49624774, -22.22130276], [-49.49625191, -22.22091188], [-49.49675371, -22.21987433], [-49.49747279, -22.21818734], [-49.49762557, -22.21701599], [-49.49791569, -22.21610661], [-49.49848267, -22.21552586], [-49.49863196, -22.21468029], [-49.49864244, -22.21370295], [-49.49816866, -22.21213435], [-49.49733395, -22.21153949], [-49.49600303, -22.21146091], [-49.49460693, -22.2109256], [-49.49363838, -22.20974288], [-49.49289766, -22.20693347], [-49.49271617, -22.20426], [-49.49230411, -22.20347398], [-49.4921016, -22.2027551], [-49.49211142, -22.20184295], [-49.49183739, -22.20125371], [-49.4914296, -22.20007672], [-49.49068121, -22.19798397], [-49.49034628, -22.19654703], [-49.49035541, -22.19570007], [-49.49085924, -22.19446705], [-49.49172051, -22.19258607], [-49.49187399, -22.19134953], [-49.49174719, -22.19011021], [-49.49147248, -22.18958608], [-49.49098755, -22.1890599], [-49.48994208, -22.18852808], [-49.4892512, -22.1876088], [-49.48864099, -22.18571301], [-49.48817227, -22.18368822], [-49.48804473, -22.18251409], [-49.48847639, -22.18147582], [-49.48841409, -22.18075841], [-49.48835172, -22.18004101], [-49.48801335, -22.17892985], [-49.48795733, -22.17762599], [-49.48790626, -22.17586614], [-49.48784459, -22.17508354], [-49.48708513, -22.17403331], [-49.48681334, -22.17324867], [-49.48663128, -22.17064029], [-49.48833383, -22.16870265], [-49.4894717, -22.16715023], [-49.48970223, -22.16526287], [-49.48935962, -22.16454268], [-49.48880614, -22.16388547], [-49.4872039, -22.16302212], [-49.4851834, -22.16195919], [-49.48385584, -22.16161995], [-49.48092533, -22.16048248], [-49.47842022, -22.15889318], [-49.47696737, -22.15718417], [-49.47691145, -22.1558804], [-49.47677988, -22.15509715], [-49.47594418, -22.1546325], [-49.47517282, -22.15468985], [-49.47355945, -22.15486891], [-49.47272228, -22.15453453], [-49.47251992, -22.15381572], [-49.47266929, -22.15297017], [-49.47309814, -22.15219253], [-49.47324531, -22.15154246], [-49.47367556, -22.15063461], [-49.47438171, -22.15012044], [-49.47508863, -22.14954116], [-49.4756625, -22.14830893], [-49.47588608, -22.14707314], [-49.47583515, -22.14531329], [-49.47584856, -22.14407536], [-49.47592357, -22.14361994], [-49.47677339, -22.14278147], [-49.47755309, -22.14194233], [-49.47784105, -22.14122847], [-49.47792306, -22.14012157], [-49.4777999, -22.13855637], [-49.47774257, -22.13738289], [-49.47790954, -22.13490842], [-49.47709793, -22.1322286], [-49.47655311, -22.1307895], [-49.47606702, -22.13039359], [-49.47501922, -22.13012228], [-49.47383631, -22.1293935], [-49.47174708, -22.12826448], [-49.47028968, -22.12701151], [-49.46967062, -22.12596262], [-49.46835189, -22.12484142], [-49.4672469, -22.12339658], [-49.46677152, -22.12202331], [-49.46559224, -22.12096869], [-49.46420506, -22.11971642], [-49.46308658, -22.11950948], [-49.46161583, -22.11949446], [-49.46007286, -22.11967415], [-49.4591645, -22.11946936], [-49.45777015, -22.11886859], [-49.45742426, -22.11847404], [-49.45687614, -22.11736067], [-49.45654169, -22.11592368], [-49.45654886, -22.11527212], [-49.45670535, -22.11377503], [-49.45650171, -22.11318649], [-49.45609079, -22.11233512], [-49.45471443, -22.11010553], [-49.45361901, -22.10781357], [-49.45278722, -22.10702313], [-49.45070711, -22.10511203], [-49.44820829, -22.10306616], [-49.44744157, -22.10273252], [-49.44611458, -22.10239301], [-49.44429385, -22.10237415], [-49.44240676, -22.10202882], [-49.44122632, -22.10110433], [-49.43775535, -22.0983315], [-49.43692442, -22.09747579], [-49.43672303, -22.09669176], [-49.43673172, -22.09590991], [-49.43709775, -22.09448023], [-49.43776265, -22.09135932], [-49.43813661, -22.08921288], [-49.4380847, -22.08758333], [-49.43754329, -22.08588354], [-49.42839806, -22.07705678], [-49.42153954, -22.07046892], [-49.41613865, -22.06506912], [-49.41424108, -22.06570073], [-49.41277165, -22.0656201], [-49.41073919, -22.06579416], [-49.40884233, -22.0663606], [-49.40714591, -22.06777628], [-49.40552756, -22.06847597], [-49.40370949, -22.0682612], [-49.40126726, -22.06751864], [-49.39988191, -22.06620069], [-49.39821127, -22.06533586], [-49.39625108, -22.06531512], [-49.3940041, -22.0658776], [-49.3922487, -22.06631511], [-49.3905037, -22.0658404], [-49.38820459, -22.06483844], [-49.38173672, -22.05493007], [-49.38125718, -22.05401265], [-49.3807173, -22.05224752], [-49.38051702, -22.05139834], [-49.38031451, -22.05074454], [-49.37941052, -22.05021356], [-49.38516248, -22.04310754], [-49.36812997, -22.03282478], [-49.36037031, -22.02589907], [-49.35725424, -22.02299828], [-49.35558897, -22.0217422], [-49.35404927, -22.02172547], [-49.35363085, -22.0215906], [-49.35217258, -22.02059727], [-49.35037878, -22.01836234], [-49.34884449, -22.01788952], [-49.34801456, -22.01703341], [-49.34705388, -22.01539389], [-49.34671846, -22.01415222], [-49.34689111, -22.01135222], [-49.3442563, -22.00923833], [-49.33724052, -22.00473069], [-49.33480974, -22.00314021], [-49.33371531, -22.00087737], [-49.33414615, -21.99827425], [-49.33477078, -21.99623195], [-49.33578522, -21.99512488], [-49.33720992, -21.99318397], [-49.33823182, -21.99142516], [-49.33965537, -21.98957732], [-49.34017117, -21.98827887], [-49.3406848, -21.9871666], [-49.33971232, -21.98464208], [-49.33893052, -21.98295756], [-49.33894879, -21.9813746], [-49.33946564, -21.97998297], [-49.34017948, -21.97887281], [-49.34159537, -21.97767683], [-49.34331484, -21.97620451], [-49.3455307, -21.97510985], [-49.34673774, -21.97465669], [-49.34916232, -21.9728191], [-49.35068887, -21.97069278], [-49.35382279, -21.96811734], [-49.35594576, -21.96636971], [-49.35797491, -21.96406223], [-49.35960027, -21.96202999], [-49.36083469, -21.95915557], [-49.3618751, -21.95572041], [-49.36289329, -21.95424068], [-49.36482098, -21.95202528], [-49.36756111, -21.94879355], [-49.3700103, -21.9447207], [-49.37186179, -21.9403624], [-49.37287658, -21.93916196], [-49.37589255, -21.93807503], [-49.38091275, -21.93682195], [-49.38261463, -21.93683907], [-49.38491926, -21.93667608], [-49.38712168, -21.93669825], [-49.38802792, -21.93624172], [-49.38863791, -21.9354096], [-49.38754716, -21.93446735], [-49.38488378, -21.93090152], [-49.38490254, -21.92922533], [-49.38532382, -21.92736698], [-49.3849369, -21.92615232], [-49.38404641, -21.9252121], [-49.38335715, -21.92418066], [-49.38287964, -21.92212691], [-49.38280974, -21.91942546], [-49.38343853, -21.91691717], [-49.38285772, -21.9151418], [-49.38287649, -21.91346561], [-49.38349271, -21.91207487], [-49.38380861, -21.91068108], [-49.38353329, -21.90844312], [-49.38285874, -21.90610804], [-49.38257826, -21.90433571], [-49.38279829, -21.9025684], [-49.38312978, -21.89977778], [-49.38315063, -21.89791531], [-49.38297022, -21.89614406], [-49.38249585, -21.89381094], [-49.38151901, -21.89165909], [-49.38123549, -21.89016613], [-49.38165036, -21.88886642], [-49.38287731, -21.88655047], [-49.38288563, -21.88580546], [-49.3829013, -21.88440872], [-49.38191198, -21.88337425], [-49.37843972, -21.88063841], [-49.37804777, -21.87988938], [-49.37805927, -21.8788651], [-49.37857216, -21.87775265], [-49.38130003, -21.87545184], [-49.38533287, -21.87279163], [-49.38816276, -21.8703054], [-49.38918516, -21.86835988], [-49.38951021, -21.86612797], [-49.38952162, -21.86510359], [-49.38883676, -21.86369972], [-49.38784439, -21.86294474], [-49.38695948, -21.86153891], [-49.3863788, -21.85976356], [-49.38619321, -21.85845785], [-49.38650379, -21.8575296], [-49.39002845, -21.85551599], [-49.39114152, -21.85440953], [-49.39225553, -21.85320997], [-49.39327671, -21.85135751], [-49.39359338, -21.84987059], [-49.39371095, -21.84828853], [-49.39323138, -21.84642108], [-49.39295909, -21.84390375], [-49.39297359, -21.84259999], [-49.39309219, -21.84092475], [-49.39382135, -21.83832434], [-49.39373989, -21.83664715], [-49.39367084, -21.83385248], [-49.39248997, -21.83207112], [-49.39210631, -21.83057719], [-49.39040984, -21.83018769], [-49.38881437, -21.82970606], [-49.38752009, -21.82913426], [-49.38604756, -21.82660491], [-49.38496895, -21.82463829], [-49.38398104, -21.82351085], [-49.38209296, -21.82237421], [-49.38161248, -21.82059991], [-49.38033806, -21.81825876], [-49.37834167, -21.81786611], [-49.3754284, -21.81895434], [-49.37231288, -21.82022671], [-49.36990485, -21.8208543], [-49.36790424, -21.82083408], [-49.36661858, -21.81951712], [-49.36463899, -21.81763438], [-49.36184873, -21.8166747], [-49.36026617, -21.81507535], [-49.3585816, -21.81366126], [-49.35619891, -21.81205373], [-49.35500919, -21.81111023], [-49.35365445, -21.80917121], [-49.35145272, -21.80680209], [-49.34972887, -21.80502443], [-49.34771707, -21.8030182], [-49.34647005, -21.80192236], [-49.34488208, -21.80100334], [-49.34276242, -21.79998858], [-49.34064235, -21.79901893], [-49.33880679, -21.79859367], [-49.3368224, -21.79848259], [-49.33465042, -21.79782814], [-49.33087299, -21.79783362], [-49.3295802, -21.79651154], [-49.32765396, -21.7955437], [-49.32460389, -21.79546647], [-49.32242492, -21.79544345], [-49.32029179, -21.79564644], [-49.31778662, -21.79449191], [-49.31431408, -21.7932369], [-49.31220042, -21.79172553], [-49.310622, -21.78999421], [-49.30938513, -21.78804089], [-49.30901726, -21.7863224], [-49.30875691, -21.78365756], [-49.30901844, -21.78194587], [-49.30879435, -21.78036429], [-49.30813438, -21.77877808], [-49.30791438, -21.77683552], [-49.30681564, -21.77551535], [-49.30528078, -21.77423567], [-49.30390195, -21.77201014], [-49.30212503, -21.77072778], [-49.3002431, -21.77016627], [-49.29908275, -21.77001853], [-49.29686452, -21.76922768], [-49.29504031, -21.76785455], [-49.29336914, -21.76580626], [-49.29185514, -21.76272193], [-49.2905167, -21.76121859], [-49.28845276, -21.75966231], [-49.28633414, -21.75864688], [-49.28469445, -21.75808781], [-49.28307147, -21.75608508], [-49.28124755, -21.75471181], [-49.27863982, -21.75414217], [-49.27724699, -21.7531796], [-49.27498078, -21.75238798], [-49.27107612, -21.75094694], [-49.27045205, -21.750489], [-49.26750669, -21.74982528], [-49.25881821, -21.74760733], [-49.25157474, -21.74608679], [-49.24955258, -21.74516341], [-49.24678618, -21.7417077], [-49.24305732, -21.7377907], [-49.2413397, -21.73569865], [-49.23980287, -21.73469028], [-49.23924264, -21.73297125], [-49.2374349, -21.73033722], [-49.23618417, -21.72969253], [-49.23328677, -21.72912002], [-49.23194145, -21.72829406], [-49.23041454, -21.72647429], [-49.23015021, -21.72430781], [-49.22938678, -21.72339801], [-49.22755645, -21.72265676], [-49.22544127, -21.72146158], [-49.22487035, -21.72064403], [-49.22150791, -21.71853362], [-49.21911442, -21.71634371], [-49.21594025, -21.71468607], [-49.21277275, -21.71248756], [-49.20950081, -21.71091888], [-49.20555593, -21.7089821], [-49.20237217, -21.70813545], [-49.20005275, -21.70783929], [-49.19763331, -21.70781236], [-49.19589569, -21.70743244], [-49.1952338, -21.70616296], [-49.19545841, -21.7036413], [-49.19645607, -21.70121835], [-49.19861164, -21.69907878], [-49.19979057, -21.69764953], [-49.20145336, -21.69622551], [-49.20331517, -21.69435304], [-49.20440383, -21.69238178], [-49.205111, -21.68995562], [-49.20522974, -21.68815391], [-49.20566639, -21.68410206], [-49.20568728, -21.68238941], [-49.20746527, -21.6794341], [-49.20972039, -21.67702499], [-49.21157087, -21.67605373], [-49.21284516, -21.67471551], [-49.21353557, -21.67364134], [-49.21393139, -21.67292447], [-49.21423589, -21.67175594], [-49.21327923, -21.67084382], [-49.21206051, -21.66968832], [-49.20966797, -21.66979906], [-49.20797269, -21.67005446], [-49.2063484, -21.6705163], [-49.20542298, -21.67098588], [-49.20386727, -21.67185975], [-49.20197755, -21.67296983], [-49.20056681, -21.67401653], [-49.19948918, -21.67489564], [-49.19774356, -21.67624715], [-49.19673738, -21.6772984], [-49.19595272, -21.67828351], [-49.19501834, -21.6794726], [-49.19420283, -21.67997761], [-49.19291069, -21.68034017], [-49.19150786, -21.68073583], [-49.19014475, -21.68089199], [-49.18870887, -21.68097881], [-49.18775459, -21.68079673], [-49.1865872, -21.67999549], [-49.18500797, -21.67977215], [-49.18427017, -21.67993529], [-49.18349264, -21.68033781], [-49.18271166, -21.68101453], [-49.18255651, -21.68166396], [-49.18269092, -21.68269357], [-49.18293869, -21.68348458], [-49.18329465, -21.68444817], [-49.18329001, -21.68482511], [-49.18299149, -21.68516443], [-49.18158773, -21.68562853], [-49.1813298, -21.68565992], [-49.17970612, -21.68605297], [-49.17811752, -21.68658345], [-49.17726338, -21.68722502], [-49.17666078, -21.68834919], [-49.17639093, -21.68934004], [-49.17649367, -21.68995808], [-49.17714003, -21.69123333], [-49.17771079, -21.69267913], [-49.17788535, -21.69343512], [-49.17802362, -21.69415631], [-49.17798042, -21.6946699], [-49.17771566, -21.6952495], [-49.17711812, -21.69596252], [-49.17626435, -21.69656977], [-49.17545162, -21.69683479], [-49.174712, -21.69713492], [-49.17323491, -21.69756382], [-49.17249917, -21.69755553], [-49.17187335, -21.69758276], [-49.17091258, -21.69791466], [-49.16990693, -21.6988971], [-49.16912795, -21.69940238], [-49.16831425, -21.69973589], [-49.16716826, -21.70016848], [-49.16665105, -21.70033405], [-49.16418195, -21.70064877], [-49.16329425, -21.70101574], [-49.16233004, -21.7016217], [-49.16158567, -21.70229861], [-49.16086946, -21.70366138], [-49.16052767, -21.70451423], [-49.16062172, -21.70581762], [-49.16078887, -21.70715605], [-49.16099633, -21.70822079], [-49.16097654, -21.70979706], [-49.16036515, -21.71160651], [-49.15978576, -21.7137932], [-49.1590994, -21.71570456], [-49.15861117, -21.71648724], [-49.15744133, -21.71880443], [-49.15650557, -21.72006178], [-49.1561247, -21.72108557], [-49.15596937, -21.72173497], [-49.15580625, -21.7230011], [-49.15593874, -21.72416785], [-49.15617005, -21.72626097], [-49.15614931, -21.72790576], [-49.15645854, -21.72965707], [-49.15656157, -21.73024081], [-49.15690755, -21.73199253], [-49.157348, -21.73501343], [-49.1577616, -21.73724573], [-49.15788422, -21.73920057], [-49.15813208, -21.74290458], [-49.15821141, -21.74537299], [-49.15840033, -21.74791116], [-49.15849348, -21.74928308], [-49.15854254, -21.751237], [-49.15833355, -21.75322237], [-49.15844707, -21.75589677], [-49.15842081, -21.75798701], [-49.15807149, -21.75942236], [-49.15713766, -21.76342138], [-49.15637091, -21.76584586], [-49.15550022, -21.76775512], [-49.15423148, -21.76911148], [-49.15333515, -21.77012931], [-49.15259211, -21.77066919], [-49.15043866, -21.7721182], [-49.14906558, -21.77299351], [-49.14842852, -21.77387724], [-49.14805182, -21.77455836], [-49.14782272, -21.77520692], [-49.14785215, -21.77578983], [-49.14820629, -21.77689053], [-49.14863938, -21.77758091], [-49.14952876, -21.78002425], [-49.15049615, -21.78212579], [-49.15136742, -21.78309538], [-49.15161082, -21.78422906], [-49.15211358, -21.78522866], [-49.15236386, -21.78581413], [-49.15268218, -21.78684589], [-49.15259601, -21.78783872], [-49.15217938, -21.78875923], [-49.15168477, -21.79002163], [-49.15067486, -21.79127808], [-49.14988702, -21.79243426], [-49.14928679, -21.79331839], [-49.1489363, -21.79482231], [-49.14899781, -21.79578257], [-49.14905843, -21.79681135], [-49.1493741, -21.79804869], [-49.15017185, -21.79901747], [-49.1510848, -21.79961046], [-49.15225589, -21.8001722], [-49.15327892, -21.80080072], [-49.15382113, -21.80159516], [-49.15410792, -21.80221535], [-49.15442576, -21.80328132], [-49.15506592, -21.80507073], [-49.15566583, -21.80713383], [-49.15620552, -21.80813383], [-49.15719179, -21.80876193], [-49.15902744, -21.80919406], [-49.16053644, -21.80924556], [-49.16130922, -21.80928866], [-49.16219236, -21.80933298], [-49.16263113, -21.80957787], [-49.1631392, -21.81016621], [-49.16363572, -21.81167976], [-49.16427297, -21.81370894], [-49.16447538, -21.81518491], [-49.16457593, -21.81597422], [-49.16456517, -21.81683092], [-49.16454792, -21.81820151], [-49.16464971, -21.81888808], [-49.16508771, -21.81920149], [-49.16659516, -21.81938999], [-49.16706906, -21.81977233], [-49.16772622, -21.82022532], [-49.16852116, -21.82143382], [-49.16928022, -21.82257338], [-49.16941372, -21.82367151], [-49.16951255, -21.82459796], [-49.16938831, -21.82569323], [-49.16911728, -21.82675255], [-49.16792564, -21.82780138], [-49.16670019, -21.82860992], [-49.16532742, -21.8294168], [-49.16480334, -21.83009632], [-49.16472536, -21.83043812], [-49.16471713, -21.83108915], [-49.16469777, -21.8326311], [-49.16475806, -21.83369419], [-49.16466107, -21.83554372], [-49.16449782, -21.83680984], [-49.16477692, -21.83804674], [-49.16539039, -21.83904755], [-49.16636999, -21.84022389], [-49.16778332, -21.84205626], [-49.16879246, -21.8438155], [-49.16933796, -21.84437002], [-49.16995672, -21.84495966], [-49.17057759, -21.84537793], [-49.17123828, -21.84555683], [-49.17256185, -21.84574315], [-49.17340976, -21.84568419], [-49.17440621, -21.84552412], [-49.17610839, -21.84489228], [-49.17677422, -21.84465991], [-49.17747394, -21.84466783], [-49.17820573, -21.84505308], [-49.17889172, -21.84615749], [-49.17924544, -21.84732667], [-49.17973833, -21.8491486], [-49.17974258, -21.85175315], [-49.17972632, -21.85305531], [-49.179561, -21.8544928], [-49.17940558, -21.85514221], [-49.17850196, -21.85670844], [-49.17778982, -21.85769418], [-49.17541296, -21.85924373], [-49.17306949, -21.86106784], [-49.17172377, -21.86262902], [-49.16915837, -21.86451905], [-49.16855958, -21.86526618], [-49.16787718, -21.86680057], [-49.16731347, -21.86768525], [-49.16667832, -21.86839766], [-49.16541477, -21.86927435], [-49.16404291, -21.86997836], [-49.16193653, -21.8705027], [-49.16134075, -21.87100992], [-49.16070372, -21.87185944], [-49.1603632, -21.8725752], [-49.16024013, -21.87356761], [-49.1601534, -21.87459474], [-49.16028561, -21.8757957], [-49.16109772, -21.8785809], [-49.16185348, -21.8799946], [-49.16279213, -21.88151319], [-49.16358477, -21.88292729], [-49.16372861, -21.88320312], [-49.16390114, -21.88413039], [-49.16392675, -21.88502171], [-49.16383748, -21.88625442], [-49.16297596, -21.88737549], [-49.16148602, -21.88866082], [-49.15999694, -21.88987752], [-49.157501, -21.89204223], [-49.1561167, -21.89370568], [-49.15555112, -21.89472726], [-49.1546864, -21.89608815], [-49.1543015, -21.89738606], [-49.15351083, -21.89871346], [-49.15140252, -21.90225336], [-49.14979304, -21.90422256], [-49.14948828, -21.90500723], [-49.1488696, -21.90729627], [-49.14818374, -21.90907042], [-49.14773069, -21.90992195], [-49.1451378, -21.91386739], [-49.14457198, -21.91488892], [-49.1440764, -21.91618546], [-49.1437992, -21.91769015], [-49.1433387, -21.91912415], [-49.14291675, -21.92042152], [-49.14235525, -21.92110051], [-49.14160912, -21.92181154], [-49.13920328, -21.9226405], [-49.1377632, -21.92286374], [-49.13598843, -21.92332291], [-49.13532082, -21.92365792], [-49.13479748, -21.92423437], [-49.13438162, -21.92505205], [-49.13410741, -21.92631684], [-49.13404324, -21.92844082], [-49.13372678, -21.92963352], [-49.13401605, -21.92974218], [-49.13441454, -21.92989172], [-49.13481382, -21.93004171], [-49.1351629, -21.9301728], [-49.13541008, -21.93026545], [-49.13550389, -21.93030074], [-49.13590409, -21.93308804], [-49.1356159, -21.9358288], [-49.13684232, -21.93858682], [-49.13956856, -21.94250531], [-49.14017599, -21.94434163], [-49.14089476, -21.94732251], [-49.14060952, -21.94983468], [-49.1382987, -21.95278133], [-49.13826288, -21.95552495], [-49.1387171, -21.95941769], [-49.1401815, -21.96332187], [-49.13991116, -21.96469082], [-49.13863071, -21.96604823], [-49.13306127, -21.96712854], [-49.1289824, -21.97005482], [-49.12573903, -21.97664929], [-49.12567306, -21.98167939], [-49.12585943, -21.98671237], [-49.12328319, -21.99057028], [-49.11920049, -21.99372502], [-49.11724848, -21.99613645], [-49.1173191, -21.99619496], [-49.11744647, -21.99723487], [-49.11826102, -21.99919147], [-49.11908009, -22.00075877], [-49.11922973, -22.00247261], [-49.12066522, -22.00418125], [-49.12155985, -22.00546056], [-49.12245752, -22.00648619], [-49.12290238, -22.00733732], [-49.12407895, -22.00785869], [-49.12498253, -22.00837683], [-49.12533948, -22.00897314], [-49.12604737, -22.01067323], [-49.12603744, -22.01151898], [-49.1255669, -22.0128669], [-49.12482834, -22.01378883], [-49.12436755, -22.01429091], [-49.12444372, -22.01556066], [-49.12551447, -22.0173496], [-49.12631636, -22.01879704], [-49.12756811, -22.02067273], [-49.12900673, -22.02212753], [-49.13035449, -22.02358137], [-49.13115742, -22.02494419], [-49.1311426, -22.02621291], [-49.13094294, -22.02773314], [-49.13093605, -22.0283252], [-49.13129497, -22.02875241], [-49.13201877, -22.02909917], [-49.13246874, -22.02952742], [-49.13419619, -22.02963216], [-49.1353778, -22.02973049], [-49.13592364, -22.02973689], [-49.13691741, -22.03034061], [-49.13772343, -22.03144963], [-49.13816254, -22.0328082], [-49.1382378, -22.03416255], [-49.13803914, -22.03559829], [-49.13719977, -22.03736489], [-49.1361813, -22.03887564], [-49.13571563, -22.03980071], [-49.13598071, -22.04048056], [-49.13651766, -22.04124812], [-49.13787349, -22.04202525], [-49.1392235, -22.04330985], [-49.13966951, -22.04407636], [-49.13955992, -22.04568232], [-49.13826359, -22.04761276], [-49.13392924, -22.05255305], [-49.12978353, -22.05690332], [-49.12876689, -22.05824491], [-49.12848601, -22.05891835], [-49.12782331, -22.06110992], [-49.12681155, -22.06202853], [-49.12615877, -22.06337435], [-49.12530409, -22.06640956], [-49.12436843, -22.06859799], [-49.12379564, -22.07087517], [-49.12258584, -22.07314486], [-49.12220696, -22.07440929], [-49.12227511, -22.07635568], [-49.12189813, -22.07745083], [-49.12115823, -22.07845721], [-49.11904632, -22.08003958], [-49.11775434, -22.08154703], [-49.11526626, -22.08413997], [-49.11444121, -22.08463771], [-49.11342518, -22.08589458], [-49.11294819, -22.08774989], [-49.11274915, -22.08918557], [-49.11182206, -22.09061266], [-49.11043391, -22.09254176], [-49.10949879, -22.09464547], [-49.10938265, -22.09675884], [-49.10946239, -22.09942786], [-49.10944982, -22.10035925], [-49.10944342, -22.10080386], [-49.10943097, -22.10140795], [-49.10941199, -22.10194487], [-49.10938241, -22.10242533], [-49.10933858, -22.10286029], [-49.10927838, -22.1032576], [-49.10920739, -22.10361388], [-49.10913318, -22.10392344], [-49.10906326, -22.10418023], [-49.10900525, -22.1043782], [-49.10896392, -22.10451668], [-49.10893415, -22.10461619], [-49.1089083, -22.10470276], [-49.1088786, -22.10480254], [-49.10883736, -22.10494084], [-49.10877665, -22.1051368], [-49.10868877, -22.1053802], [-49.10856606, -22.10565353], [-49.10840074, -22.1059391], [-49.10818483, -22.10621975], [-49.10791491, -22.106481], [-49.10760355, -22.10672136], [-49.10726792, -22.1069422], [-49.10692526, -22.10714509], [-49.10659224, -22.10733165], [-49.10628131, -22.1075042], [-49.10598648, -22.10766773], [-49.10569688, -22.10782834], [-49.10540221, -22.10799169], [-49.10509111, -22.10816433], [-49.10475515, -22.10834941], [-49.10439095, -22.10854274], [-49.10399756, -22.10873717], [-49.10357357, -22.10892602], [-49.10311784, -22.10910266], [-49.10262429, -22.10926315], [-49.10206843, -22.10941614], [-49.10142069, -22.10957331], [-49.10065166, -22.10974612], [-49.09973227, -22.10994634], [-49.09864962, -22.11018114], [-49.09745924, -22.11043932], [-49.09623271, -22.11070529], [-49.09504225, -22.11096327], [-49.09395983, -22.11119812], [-49.09304026, -22.11139785], [-49.09227173, -22.11156783], [-49.09162512, -22.1117172], [-49.09107144, -22.11185501], [-49.09058196, -22.1119906], [-49.09013262, -22.1121308], [-49.08972138, -22.11227217], [-49.08935151, -22.1124096], [-49.08902637, -22.11253716], [-49.08874882, -22.11264949], [-49.08851851, -22.11274349], [-49.08831866, -22.11282476], [-49.08812902, -22.112902], [-49.08792932, -22.11298345], [-49.08769877, -22.11307736], [-49.08742274, -22.11319024], [-49.0871073, -22.1133208], [-49.08676352, -22.11346675], [-49.0864032, -22.11362478], [-49.08603763, -22.11379232], [-49.08567814, -22.1139657], [-49.08533416, -22.11413846], [-49.08501521, -22.11430392], [-49.0847305, -22.1144548], [-49.08448932, -22.11458442], [-49.08429611, -22.11468843], [-49.08413446, -22.11477537], [-49.08398352, -22.11485649], [-49.08382194, -22.11494362], [-49.08362865, -22.11504762], [-49.08338721, -22.11517824], [-49.08310081, -22.11533622], [-49.08277783, -22.11552141], [-49.08242565, -22.11573243], [-49.08205259, -22.11596885], [-49.08166376, -22.11623046], [-49.08125297, -22.11652043], [-49.08081113, -22.11684245], [-49.08032957, -22.1172002], [-49.0797988, -22.11759765], [-49.07921569, -22.1180351], [-49.07859762, -22.1184986], [-49.07796808, -22.11897081], [-49.07734993, -22.1194343], [-49.07676672, -22.11987175], [-49.0762364, -22.12026981], [-49.0757561, -22.1206329], [-49.07531861, -22.12096885], [-49.07491614, -22.12128581], [-49.07454098, -22.12159216], [-49.07418682, -22.12189424], [-49.07385337, -22.12218944], [-49.07354132, -22.12247414], [-49.07325201, -22.12274394], [-49.07298621, -22.1229947], [-49.07274276, -22.12322477], [-49.07251419, -22.12344103], [-49.07229041, -22.12365237], [-49.07206161, -22.12386871], [-49.07181839, -22.1240986], [-49.07155371, -22.12434946], [-49.07127262, -22.12461944], [-49.07098342, -22.1249045], [-49.07069438, -22.12520057], [-49.07041339, -22.12550369], [-49.07014812, -22.12580917], [-49.06990236, -22.12610801], [-49.06967984, -22.12639087], [-49.06948379, -22.12664822], [-49.06931748, -22.12687045], [-49.06918168, -22.12705267], [-49.06906583, -22.12720804], [-49.06895665, -22.12735464], [-49.06884088, -22.12750992], [-49.06870517, -22.12769206], [-49.06853973, -22.12791465], [-49.06834956, -22.12817396], [-49.06814303, -22.12846189], [-49.06792877, -22.12877094], [-49.06771513, -22.12909309], [-49.06750974, -22.12942004], [-49.06731697, -22.12974126], [-49.06714033, -22.13004651], [-49.06698339, -22.13032482], [-49.06684966, -22.13056557], [-49.06674026, -22.13076318], [-49.06664685, -22.13093191], [-49.06655867, -22.13109086], [-49.06646533, -22.13125968], [-49.06635578, -22.13145719], [-49.06622324, -22.13169832], [-49.06607482, -22.13197881], [-49.06592095, -22.13229001], [-49.06577245, -22.13262314], [-49.06564032, -22.13296927], [-49.06553268, -22.13331904], [-49.06544825, -22.13366015], [-49.06538354, -22.13397981], [-49.06533488, -22.13426482], [-49.06529879, -22.1345024], [-49.06527159, -22.13468572], [-49.06524991, -22.13483282], [-49.06522984, -22.13496792], [-49.06520809, -22.13511483], [-49.06518097, -22.13529816], [-49.06514655, -22.1355363], [-49.06511078, -22.13582543], [-49.06508061, -22.13615589], [-49.06506351, -22.13651811], [-49.06506673, -22.13690296], [-49.06509534, -22.13730102], [-49.06514544, -22.1377053], [-49.06521058, -22.13810948], [-49.06528437, -22.13850645], [-49.06536041, -22.13889018], [-49.06543382, -22.13925636], [-49.06550484, -22.13961014], [-49.06557496, -22.13996021], [-49.06564598, -22.14031418], [-49.06571931, -22.14068026], [-49.06579718, -22.14106474], [-49.06588257, -22.14146735], [-49.06597931, -22.14188654], [-49.06609097, -22.14232053], [-49.06622123, -22.14276738], [-49.06637399, -22.14322903], [-49.06655358, -22.14372188], [-49.06676477, -22.14426585], [-49.06701184, -22.14488094], [-49.06729996, -22.14558725], [-49.06762938, -22.14639391], [-49.06798637, -22.14726717], [-49.06835232, -22.14816275], [-49.06870923, -22.14903601], [-49.06903883, -22.14984268], [-49.06932673, -22.15054889], [-49.06957279, -22.15116288], [-49.06978077, -22.15170383], [-49.06995382, -22.15219091], [-49.07009626, -22.15264314], [-49.07021131, -22.15307563], [-49.0703033, -22.15348736], [-49.07037654, -22.15387312], [-49.07043525, -22.15422838], [-49.07048349, -22.15454768], [-49.07052537, -22.1548296], [-49.07056367, -22.15508729], [-49.0706008, -22.15533675], [-49.07063917, -22.15559434], [-49.07068097, -22.15587645], [-49.07072762, -22.15619572], [-49.07077474, -22.15655103], [-49.07081687, -22.15693778], [-49.07084856, -22.15735114], [-49.07086397, -22.15778642], [-49.07085877, -22.15823835], [-49.07083154, -22.15869913], [-49.07078247, -22.15916074], [-49.07071144, -22.15961496], [-49.070618, -22.16005347], [-49.07050353, -22.16046907], [-49.07037488, -22.16085723], [-49.07024003, -22.16121399], [-49.07010741, -22.16153575], [-49.06998523, -22.1618188], [-49.06987869, -22.16206295], [-49.06978345, -22.16228158], [-49.06969184, -22.16249159], [-49.06959652, -22.16271023], [-49.06949022, -22.16295419], [-49.06936638, -22.16323569], [-49.06922273, -22.16354576], [-49.06905831, -22.16387102], [-49.0688719, -22.16419755], [-49.06866239, -22.16451171], [-49.06843107, -22.16480151], [-49.06819047, -22.16506194], [-49.06795551, -22.16528957], [-49.0677412, -22.16548106], [-49.06756276, -22.16563316], [-49.06742923, -22.1657457], [-49.06732611, -22.16583287], [-49.06723294, -22.16591113], [-49.06712982, -22.16599821], [-49.06699629, -22.16611075], [-49.06681674, -22.16626166], [-49.06659534, -22.16644548], [-49.06634108, -22.16665175], [-49.06606299, -22.16687101], [-49.06576975, -22.16709271], [-49.06547116, -22.16730767], [-49.06517899, -22.1675097], [-49.06490579, -22.16769254], [-49.06466418, -22.16785075], [-49.06446664, -22.16797814], [-49.06431977, -22.16807256], [-49.06420676, -22.16814534], [-49.06410514, -22.16821059], [-49.06399213, -22.16828328], [-49.06384533, -22.16837779], [-49.06364795, -22.16850573], [-49.06340702, -22.1686671], [-49.06313577, -22.16885854], [-49.06284752, -22.16907731], [-49.06255534, -22.16931996], [-49.06227088, -22.16958248], [-49.06200037, -22.16985447], [-49.06174827, -22.17012423], [-49.06151906, -22.17038009], [-49.06131763, -22.17061064], [-49.06114567, -22.17080849], [-49.06099271, -22.17098418], [-49.06084642, -22.17115236], [-49.06069354, -22.17132787], [-49.06052134, -22.17152581], [-49.06032069, -22.17175708], [-49.06009716, -22.17201852], [-49.05985972, -22.17230326], [-49.0596179, -22.17260402], [-49.0593809, -22.17291441], [-49.05915723, -22.17322667], [-49.05895119, -22.17353047], [-49.05876635, -22.17381512], [-49.05860623, -22.17406954], [-49.05847465, -22.17428322], [-49.05837195, -22.17445002], [-49.05828853, -22.17458572], [-49.05821157, -22.1747113], [-49.05812808, -22.174847], [-49.05802545, -22.1750139], [-49.05789292, -22.17522693], [-49.05772766, -22.17547714], [-49.05752874, -22.17575033], [-49.05729509, -22.17603177], [-49.05702578, -22.17630719], [-49.05672251, -22.1765645], [-49.05639664, -22.1768015], [-49.05606193, -22.17701881], [-49.05573236, -22.17721649], [-49.05542145, -22.17739534], [-49.05513899, -22.17755656], [-49.05487621, -22.17770656], [-49.05461978, -22.17785283], [-49.05435691, -22.17800282], [-49.05407446, -22.17816404], [-49.05376266, -22.17834261], [-49.05342679, -22.17853913], [-49.05307492, -22.17875351], [-49.05271562, -22.17898469], [-49.05235754, -22.17923222], [-49.05200788, -22.17949475], [-49.05166961, -22.17976635], [-49.05134489, -22.18004065], [-49.05103574, -22.18031088], [-49.05074401, -22.18057022], [-49.05047015, -22.18081451], [-49.05020788, -22.18104829], [-49.0499498, -22.18127877], [-49.04968752, -22.18151264], [-49.04941382, -22.18175684], [-49.04912319, -22.18201709], [-49.04882161, -22.18229401], [-49.04851807, -22.18258615], [-49.04822111, -22.18289291], [-49.04793948, -22.18321304], [-49.04768009, -22.18354445], [-49.04744399, -22.18387893], [-49.04723037, -22.18420728], [-49.04703847, -22.18451999], [-49.0468677, -22.18480768], [-49.04671599, -22.1850648], [-49.04657623, -22.18530149], [-49.04644072, -22.18553118], [-49.04630097, -22.18576768], [-49.04614933, -22.18602481], [-49.04597896, -22.18631268], [-49.0457904, -22.18662624], [-49.04558609, -22.18695686], [-49.04536823, -22.18729599], [-49.04513877, -22.18763506], [-49.04490096, -22.18796564], [-49.04466199, -22.18828185], [-49.04443001, -22.18857764], [-49.04421271, -22.18884734], [-49.04401807, -22.18908526], [-49.04385094, -22.18928875], [-49.0437025, -22.18947007], [-49.04356009, -22.1896437], [-49.04341149, -22.18982465], [-49.04324436, -22.19002841], [-49.04304869, -22.19026568], [-49.04282351, -22.19053212], [-49.04256973, -22.19081926], [-49.04228877, -22.19111807], [-49.04198201, -22.19142046], [-49.04165068, -22.19171858], [-49.04129787, -22.19200849], [-49.04092706, -22.19228771], [-49.04054141, -22.19255294], [-49.04014431, -22.1928016], [-49.0397393, -22.19303246], [-49.03933028, -22.19325335], [-49.0389211, -22.19347324], [-49.03851612, -22.19370193], [-49.03811912, -22.1939486], [-49.03773441, -22.19422033], [-49.03736618, -22.19451447], [-49.03701849, -22.19482593], [-49.03669527, -22.19514923], [-49.03640105, -22.19547975], [-49.0361388, -22.19581119], [-49.03590865, -22.19613489], [-49.0357092, -22.19644082], [-49.03553932, -22.1967192], [-49.03539787, -22.19696045], [-49.03528212, -22.19715941], [-49.03518282, -22.1973302], [-49.03508894, -22.19749159], [-49.03498965, -22.1976623], [-49.03487389, -22.19786134], [-49.03473411, -22.19810297], [-49.03457586, -22.19838438], [-49.03440805, -22.19869809], [-49.03423956, -22.19903671], [-49.03407947, -22.1993934], [-49.03393512, -22.19976156], [-49.03380943, -22.20013952], [-49.03370343, -22.2005272], [-49.03361867, -22.20092371], [-49.03355641, -22.20132871], [-49.03351708, -22.20174094], [-49.03349684, -22.20215475], [-49.03349074, -22.20256413], [-49.03349398, -22.20296296], [-49.03350145, -22.20334479], [-49.03350937, -22.20370612], [-49.033517, -22.20405355], [-49.03352454, -22.20439637], [-49.03353217, -22.20474398], [-49.03354001, -22.20510531], [-49.03354757, -22.20548678], [-49.03355027, -22.20588389], [-49.03354296, -22.20628865], [-49.0335206, -22.20669359], [-49.03347779, -22.20709106], [-49.03343581, -22.20733243], [-49.03358259, -22.20734062], [-49.03398237, -22.20736278], [-49.03457352, -22.20739556], [-49.03529548, -22.20743552], [-49.0360868, -22.20747938], [-49.03689443, -22.20752425], [-49.03769654, -22.20756868], [-49.03847947, -22.20761207], [-49.03922916, -22.20765352], [-49.03993211, -22.20769259], [-49.04057735, -22.20772962], [-49.0411655, -22.20777164], [-49.04170029, -22.20782665], [-49.04218544, -22.20790318], [-49.0426246, -22.20800932], [-49.04302246, -22.20815269], [-49.0433879, -22.2083382], [-49.04373104, -22.20856985], [-49.04406165, -22.20885182], [-49.04438998, -22.20918839], [-49.04472184, -22.20958151], [-49.04504725, -22.2100254], [-49.04535191, -22.21051191], [-49.04562147, -22.2110334], [-49.0458422, -22.21158139], [-49.0460031, -22.21214699], [-49.04610702, -22.21271632], [-49.04616023, -22.21327449], [-49.04616861, -22.21380638], [-49.04613863, -22.21429692], [-49.04607716, -22.21473326], [-49.04599498, -22.2151122], [-49.04590313, -22.21543243], [-49.04581307, -22.21569292], [-49.04573633, -22.21589216], [-49.04568039, -22.2160336], [-49.04563936, -22.21613757], [-49.04560322, -22.21622923], [-49.04556203, -22.21633329], [-49.04550625, -22.21647473], [-49.04542937, -22.21667289], [-49.0453395, -22.21692507], [-49.04524796, -22.217223], [-49.04516621, -22.21755861], [-49.04510581, -22.21792355], [-49.04507663, -22.21830945], [-49.04508264, -22.21870678], [-49.04512622, -22.21910548], [-49.04520974, -22.21949589], [-49.04533566, -22.21986776], [-49.04550291, -22.22021313], [-49.0456985, -22.22052716], [-49.04590528, -22.220807], [-49.04610689, -22.22104995], [-49.04628651, -22.22125264], [-49.046433, -22.22141592], [-49.04655619, -22.2215531], [-49.04667149, -22.2216817], [-49.04679491, -22.22181907], [-49.04694125, -22.22198217], [-49.04712425, -22.22218372], [-49.04734982, -22.22241811], [-49.04762162, -22.22267517], [-49.04794373, -22.22294448], [-49.04831986, -22.22321597], [-49.04874959, -22.22348125], [-49.0492146, -22.22374063], [-49.04969286, -22.22399592], [-49.05016179, -22.22424902], [-49.05059889, -22.22450246], [-49.05098569, -22.22475575], [-49.05132003, -22.22500226], [-49.05160381, -22.22523292], [-49.05183834, -22.22543897], [-49.05202552, -22.22561122], [-49.05216963, -22.2257454], [-49.05228634, -22.22585388], [-49.05239373, -22.22595394], [-49.05251036, -22.22606241], [-49.05265447, -22.2261965], [-49.05283835, -22.22636953], [-49.05305075, -22.22658018], [-49.05327429, -22.22682384], [-49.0534916, -22.22709559], [-49.05368549, -22.22739044], [-49.05384227, -22.22770191], [-49.05396382, -22.22801576], [-49.05405574, -22.2283159], [-49.05412343, -22.22858621], [-49.05417256, -22.22881099], [-49.05420836, -22.22898061], [-49.05423645, -22.22911322], [-49.05426182, -22.22923343], [-49.05429006, -22.22936604], [-49.05432579, -22.22953566], [-49.05437297, -22.22976276], [-49.05442627, -22.23005024], [-49.05447907, -22.23039668], [-49.05452476, -22.23080072], [-49.05455625, -22.23126084], [-49.05456806, -22.23177237], [-49.05455741, -22.23231767], [-49.05452315, -22.23287614], [-49.05446348, -22.23342682], [-49.05437693, -22.23394873], [-49.05426381, -22.2344249], [-49.05413126, -22.23485453], [-49.05398829, -22.23523988], [-49.05384356, -22.23558422], [-49.05370632, -22.23588983], [-49.05358275, -22.23616183], [-49.05346867, -22.23641219], [-49.0533582, -22.23665572], [-49.05324428, -22.23690608], [-49.05312078, -22.23717808], [-49.05298117, -22.23748158], [-49.05282144, -22.23781103], [-49.05263734, -22.23815652], [-49.05242475, -22.23850808], [-49.05217974, -22.23885591], [-49.05190002, -22.23919195], [-49.05159109, -22.23951716], [-49.05126028, -22.23983408], [-49.05091498, -22.2401455], [-49.05056244, -22.24045411], [-49.05020879, -22.24076218], [-49.04985506, -22.24107006], [-49.04950165, -22.24137794], [-49.04914807, -22.24168591], [-49.04879441, -22.24199388], [-49.04844179, -22.24230195], [-49.04809646, -22.24260975], [-49.0477656, -22.2429169], [-49.04745668, -22.24322297], [-49.04717689, -22.24352785], [-49.04693234, -22.24382909], [-49.04672373, -22.24411703], [-49.04655067, -22.24438013], [-49.04641282, -22.24460672], [-49.04630939, -22.24478542], [-49.04623791, -22.24491024], [-49.04618708, -22.24499946], [-49.04614282, -22.2450764], [-49.0460919, -22.24516562], [-49.04602042, -22.24529053], [-49.04591816, -22.24547132], [-49.04578721, -22.2457137], [-49.04563331, -22.24601946], [-49.04546201, -22.24639065], [-49.04527883, -22.24682913], [-49.0450896, -22.24733355], [-49.04490071, -22.24788916], [-49.04471887, -22.2484779], [-49.04455074, -22.24908189], [-49.04445256, -22.24948122], [-49.04796554, -22.2497982], [-49.04996159, -22.25069597], [-49.05178861, -22.25183158], [-49.05355019, -22.25346785], [-49.0550321, -22.25510183], [-49.05601858, -22.25640746], [-49.05749349, -22.25913237], [-49.05819781, -22.26081888], [-49.05862283, -22.26241474], [-49.05874117, -22.26335929], [-49.05926097, -22.26472], [-49.05975223, -22.26569709], [-49.05993388, -22.26646526], [-49.06005065, -22.26764572], [-49.06004551, -22.26844182], [-49.06019307, -22.26968151], [-49.06058917, -22.27095271], [-49.06238385, -22.27232375], [-49.06386696, -22.27381025], [-49.06538228, -22.27512015], [-49.06708387, -22.2764904], [-49.06847337, -22.27803506], [-49.0708597, -22.2793225], [-49.07293755, -22.28022396], [-49.07442795, -22.28058989], [-49.0767866, -22.28134621], [-49.07833748, -22.281978], [-49.08013833, -22.28243486], [-49.08262032, -22.28336907], [-49.0839264, -22.28337953], [-49.08517064, -22.28333065], [-49.08669667, -22.28298902], [-49.08862744, -22.28256223], [-49.08965382, -22.28254099], [-49.09083421, -22.28275686], [-49.09241742, -22.28321184], [-49.09555093, -22.28441634], [-49.09666138, -22.28589963], [-49.09768014, -22.28711675], [-49.09832482, -22.28847837], [-49.09850774, -22.28906956], [-49.09884294, -22.2901927], [-49.09961459, -22.29114246], [-49.10110211, -22.2920095], [-49.10305143, -22.29364685], [-49.10367012, -22.29418254], [-49.10611806, -22.29567634], [-49.10819255, -22.29719664], [-49.10995811, -22.29839007], [-49.11138289, -22.29937439], [-49.11395582, -22.3007806], [-49.1155678, -22.30167794], [-49.1164955, -22.30256994], [-49.11853986, -22.30397194], [-49.11977722, -22.30510218], [-49.12045844, -22.30560883], [-49.1213615, -22.30543899], [-49.12260378, -22.30574356], [-49.12402849, -22.3067573], [-49.12492453, -22.3077669], [-49.12557025, -22.30901043], [-49.12618809, -22.309723], [-49.12835902, -22.31080148], [-49.13006168, -22.31217114], [-49.13157928, -22.31327401], [-49.13368599, -22.3147058], [-49.13582669, -22.31566602], [-49.13703713, -22.31611775], [-49.13884093, -22.31619065], [-49.13734278, -22.31703427], [-49.13534494, -22.31822778], [-49.1316643, -22.31990948], [-49.13035185, -22.32090189], [-49.12960042, -22.32172172], [-49.12894099, -22.32274865], [-49.12828232, -22.32365766], [-49.12778052, -22.32433193], [-49.12734084, -22.32503625], [-49.12705541, -22.32594813], [-49.12676889, -22.32703696], [-49.12598504, -22.32806288], [-49.12458055, -22.32881861], [-49.12276978, -22.32989547], [-49.12180079, -22.33065459], [-49.11861445, -22.33284117], [-49.11786015, -22.33410323], [-49.11735546, -22.33524928], [-49.11710123, -22.33613188], [-49.11677972, -22.33783966], [-49.11675867, -22.34131906], [-49.11631198, -22.34314384], [-49.11608831, -22.3441151], [-49.11558356, -22.34526122], [-49.11489214, -22.34640571], [-49.11445239, -22.34708047], [-49.11282182, -22.34916123], [-49.11194315, -22.35039282], [-49.11072289, -22.35150367], [-49.11040962, -22.35185503], [-49.10905878, -22.35396745], [-49.10815128, -22.3548154], [-49.10761853, -22.35543036], [-49.10711477, -22.3563995], [-49.10679831, -22.35725209], [-49.10679236, -22.35822515], [-49.10672144, -22.35964005], [-49.10655662, -22.36114259], [-49.10596036, -22.36196347], [-49.10445827, -22.36333741], [-49.10339417, -22.36433157], [-49.10183094, -22.36552807], [-49.0994272, -22.3667768], [-49.09736276, -22.36850006], [-49.09635749, -22.37002539], [-49.09525699, -22.37184475], [-49.09469096, -22.37278385], [-49.09362471, -22.37410222], [-49.09249542, -22.37553803], [-49.09177494, -22.37629887], [-49.09081752, -22.3777171], [-49.08979243, -22.37921117], [-49.08846612, -22.3813132], [-49.08796596, -22.38206038], [-49.08723815, -22.38353339], [-49.08636592, -22.38434794], [-49.0854957, -22.38483386], [-49.08452329, -22.38581198], [-49.0835528, -22.38648486], [-49.08210521, -22.38816329], [-49.0812309, -22.38928295], [-49.08052529, -22.39115517], [-49.08039631, -22.39195232], [-49.08039055, -22.39286776], [-49.08050484, -22.39437104], [-49.08084918, -22.39477294], [-49.08104443, -22.39524394], [-49.08104159, -22.39568992], [-49.08079126, -22.39608701], [-49.079421, -22.39727309], [-49.07830245, -22.39782734], [-49.07668972, -22.39816633], [-49.07539943, -22.39846092], [-49.07353928, -22.39875098], [-49.07113293, -22.3992008], [-49.06949486, -22.3996334], [-49.06798106, -22.3999965], [-49.06656786, -22.40012578], [-49.06507929, -22.40041873], [-49.06368776, -22.40104103], [-49.06021136, -22.40218615], [-49.05757751, -22.40331461], [-49.05640626, -22.40433773], [-49.05587844, -22.40548361], [-49.05525071, -22.40674602], [-49.05477151, -22.40803315], [-49.05409956, -22.4084736], [-49.05303073, -22.40898114], [-49.05213609, -22.40937276], [-49.05168654, -22.40990896], [-49.05113744, -22.41051475], [-49.05061618, -22.4106512], [-49.04945004, -22.4108763], [-49.04835812, -22.41112539], [-49.04537366, -22.41276718], [-49.04422935, -22.41343833], [-49.04231549, -22.4143143], [-49.04052523, -22.41523834], [-49.03815243, -22.41803529], [-49.03612429, -22.42116376], [-49.03574897, -22.42170045], [-49.03427655, -22.42323734], [-49.03335009, -22.4246615], [-49.03229903, -22.4261784], [-49.03072394, -22.42823078], [-49.0292746, -22.43000254], [-49.02702735, -22.43249522], [-49.02294016, -22.43584082], [-49.02149577, -22.4368613], [-49.02037181, -22.43814283], [-49.01999106, -22.43945415], [-49.01931266, -22.44080984], [-49.01845911, -22.44239875], [-49.01760623, -22.44389376], [-49.01745156, -22.44476094], [-49.01734122, -22.4464032], [-49.01723594, -22.44729428], [-49.01720508, -22.448186], [-49.01729506, -22.44952484], [-49.01738697, -22.45058194], [-49.01792626, -22.45145502], [-49.01819638, -22.45183293], [-49.01858116, -22.4535498], [-49.01953882, -22.45487248], [-49.02017764, -22.45569947], [-49.02116303, -22.45659987], [-49.02232151, -22.4575487], [-49.02395022, -22.45861885], [-49.02439049, -22.45949115], [-49.02430799, -22.46068758], [-49.02432353, -22.46204926], [-49.0243699, -22.46251912], [-49.02493437, -22.46334546], [-49.02569918, -22.46389183], [-49.0267108, -22.46458117], [-49.02752513, -22.46512805], [-49.02799243, -22.46567186], [-49.02826114, -22.466261], [-49.02842955, -22.46701359], [-49.02819995, -22.46797403], [-49.02789542, -22.46900433], [-49.027891, -22.46966155], [-49.02793834, -22.46999058], [-49.02857745, -22.47079407], [-49.02931696, -22.47141073], [-49.02973453, -22.47197758], [-49.03025, -22.47273315], [-49.03071371, -22.47381681], [-49.03088438, -22.47424079], [-49.03080624, -22.47480349], [-49.030629, -22.47534194], [-49.03010334, -22.47608858], [-49.0298501, -22.47688459], [-49.02952417, -22.47742168], [-49.02949709, -22.47775008], [-49.02946818, -22.47836023], [-49.02946023, -22.47953383], [-49.02947659, -22.48077805], [-49.02944595, -22.4816463], [-49.02926809, -22.48227865], [-49.02926489, -22.48274809], [-49.02943417, -22.48338332], [-49.02977692, -22.48401995], [-49.03011983, -22.4846332], [-49.03167473, -22.48567918], [-49.03275951, -22.48658038], [-49.03461254, -22.48753499], [-49.03569941, -22.48813103], [-49.03661447, -22.48846739], [-49.03720944, -22.48847247], [-49.03780398, -22.48854788], [-49.03822438, -22.48871569], [-49.03899041, -22.4890978], [-49.03973066, -22.48962044], [-49.04019809, -22.49016422], [-49.04061576, -22.49073114], [-49.04118146, -22.4914166], [-49.04202075, -22.49196363], [-49.04355261, -22.49277458], [-49.04461455, -22.49339382], [-49.04535731, -22.49356436], [-49.04617605, -22.49347732], [-49.04702056, -22.49324966], [-49.04779038, -22.49306831], [-49.04841021, -22.49307347], [-49.04915357, -22.49315019], [-49.05009363, -22.49346321], [-49.05152695, -22.49417936], [-49.05271205, -22.49494043], [-49.05350216, -22.49543996], [-49.05527875, -22.49674581], [-49.05636251, -22.49783464], [-49.05732375, -22.49871117], [-49.05766876, -22.4990427], [-49.05816383, -22.49916415], [-49.05940263, -22.49931532], [-49.06069021, -22.49958416], [-49.06210333, -22.49961941], [-49.0630689, -22.49983868], [-49.06373603, -22.50019629], [-49.0640297, -22.50078559], [-49.06484422, -22.5016437], [-49.06588906, -22.50211679]]]]}}]}