{"type": "FeatureCollection", "features": [{"type": "Feature", "properties": {"name": "Área de Proteção Ambiental Cabreúva"}, "geometry": {"type": "MultiPolygon", "coordinates": [[[[-47.10079534, -23.40405163], [-47.10106453, -23.40404854], [-47.10129291, -23.40401528], [-47.1014965, -23.40391767], [-47.10169978, -23.40375411], [-47.10181561, -23.40352747], [-47.10191298, -23.40319047], [-47.10201082, -23.40290315], [-47.10212705, -23.40273432], [-47.10230592, -23.40256423], [-47.10251749, -23.40245133], [-47.10268982, -23.40234713], [-47.10297299, -23.40221949], [-47.10335864, -23.40211983], [-47.10372803, -23.401983], [-47.10433755, -23.40152213], [-47.10460445, -23.40135731], [-47.10480096, -23.40128131], [-47.10505305, -23.40122657], [-47.10547154, -23.40117055], [-47.10584252, -23.40116561], [-47.10646066, -23.40120796], [-47.10704703, -23.4012943], [-47.10775175, -23.40138797], [-47.10900187, -23.40145741], [-47.10983393, -23.40154133], [-47.11026248, -23.40165159], [-47.11089135, -23.40189185], [-47.11126608, -23.40209921], [-47.11175425, -23.40241323], [-47.11219969, -23.4025968], [-47.11259728, -23.40267247], [-47.11292876, -23.40270421], [-47.11318304, -23.40272264], [-47.11370395, -23.4027009], [-47.11447875, -23.40263977], [-47.11530783, -23.40253394], [-47.1158544, -23.40239317], [-47.11650133, -23.40229661], [-47.11689596, -23.40227739], [-47.11734061, -23.40234442], [-47.11784802, -23.40249779], [-47.11948532, -23.40300134], [-47.11992983, -23.40308281], [-47.12043743, -23.40311964], [-47.12117834, -23.40302206], [-47.12166575, -23.40282567], [-47.12202636, -23.40258664], [-47.1223708, -23.40220204], [-47.12261756, -23.40179674], [-47.12275454, -23.40140857], [-47.12279437, -23.4009473], [-47.12282596, -23.40042906], [-47.12277614, -23.39983064], [-47.12271961, -23.39921861], [-47.12263247, -23.39873097], [-47.12251539, -23.3983018], [-47.12228665, -23.39788072], [-47.12218931, -23.39772994], [-47.12214041, -23.39762745], [-47.12205758, -23.39739549], [-47.1220126, -23.39709701], [-47.12199209, -23.39679783], [-47.12191019, -23.39617836], [-47.12180686, -23.39564632], [-47.1216987, -23.39530485], [-47.1215586, -23.39492697], [-47.12129017, -23.39446399], [-47.12088703, -23.39396554], [-47.12058997, -23.39362517], [-47.12031473, -23.39325698], [-47.12005428, -23.39277871], [-47.11976905, -23.39223519], [-47.11950341, -23.39149401], [-47.11933092, -23.39102823], [-47.11923782, -23.39064894], [-47.11921678, -23.3903064], [-47.1192312, -23.38974465], [-47.11926498, -23.38940077], [-47.1193817, -23.38878659], [-47.11946783, -23.38829591], [-47.11956346, -23.38783422], [-47.11958273, -23.38757062], [-47.11957149, -23.38732391], [-47.11951931, -23.3870615], [-47.1193959, -23.38677771], [-47.11914261, -23.38627059], [-47.11904106, -23.385856], [-47.11900574, -23.38557205], [-47.11900804, -23.38524326], [-47.11906668, -23.3849574], [-47.11928042, -23.38442806], [-47.11959532, -23.38386164], [-47.11993591, -23.38336771], [-47.12019945, -23.38304385], [-47.12031467, -23.3828741], [-47.12033523, -23.38277491], [-47.12031958, -23.38267631], [-47.12019283, -23.3825316], [-47.11998144, -23.38243405], [-47.11953988, -23.38235803], [-47.11882696, -23.3823104], [-47.11816922, -23.3822244], [-47.11771002, -23.38215003], [-47.11751758, -23.38211587], [-47.11737437, -23.38205141], [-47.11721488, -23.38195159], [-47.11709281, -23.3818286], [-47.11698005, -23.3816551], [-47.11690377, -23.38135725], [-47.11680683, -23.38067893], [-47.11675909, -23.38016814], [-47.11686262, -23.37921058], [-47.11688464, -23.37857573], [-47.11692877, -23.37788144], [-47.11698477, -23.37737063], [-47.11709527, -23.37679163], [-47.11735467, -23.37619674], [-47.11771076, -23.37571739], [-47.11808526, -23.37535474], [-47.11846845, -23.37510145], [-47.11881411, -23.37497974], [-47.11909837, -23.37493157], [-47.11951815, -23.37493334], [-47.12025483, -23.37504801], [-47.12095406, -23.37528702], [-47.12166389, -23.37564174], [-47.12219312, -23.37605093], [-47.12293712, -23.37660919], [-47.12401995, -23.37753707], [-47.12516428, -23.37838327], [-47.12644675, -23.37941129], [-47.12721525, -23.37997064], [-47.12778315, -23.38043072], [-47.12849588, -23.38099049], [-47.1288721, -23.38124119], [-47.12927842, -23.38141806], [-47.12973138, -23.38152939], [-47.13019988, -23.38165349], [-47.13052445, -23.38168604], [-47.13100772, -23.38170096], [-47.13130735, -23.38168271], [-47.13158387, -23.38162723], [-47.13194518, -23.38150653], [-47.13225921, -23.38131857], [-47.13260125, -23.38097096], [-47.13293483, -23.38058715], [-47.13313731, -23.38029889], [-47.13326631, -23.38001904], [-47.13330911, -23.3797484], [-47.13330534, -23.37953608], [-47.13315863, -23.37923133], [-47.13243664, -23.37812408], [-47.13180012, -23.37688475], [-47.13163427, -23.37633955], [-47.13151057, -23.37558964], [-47.13148203, -23.37481524], [-47.13150886, -23.37447762], [-47.13168556, -23.374125], [-47.13181745, -23.37394816], [-47.13202834, -23.37379908], [-47.13235978, -23.37372871], [-47.13277733, -23.37365816], [-47.13310026, -23.3735579], [-47.13357107, -23.37334687], [-47.13402457, -23.37300562], [-47.13435951, -23.37267963], [-47.13470079, -23.37220735], [-47.13489897, -23.37175825], [-47.1351056, -23.37134626], [-47.13533722, -23.37097875], [-47.13573279, -23.3705566], [-47.13626177, -23.37000189], [-47.13683404, -23.36962188], [-47.13717643, -23.36933298], [-47.13746453, -23.36899213], [-47.13761893, -23.36881457], [-47.13770356, -23.36866713], [-47.13775569, -23.36844083], [-47.13775089, -23.36813366], [-47.13762541, -23.36766106], [-47.13736831, -23.36694165], [-47.13725107, -23.36652694], [-47.13716856, -23.3658641], [-47.13707448, -23.36538273], [-47.13701499, -23.3646686], [-47.1370214, -23.36401825], [-47.13707249, -23.36330233], [-47.13710203, -23.36268831], [-47.13710879, -23.3621021], [-47.13706977, -23.36119753], [-47.13701985, -23.36050515], [-47.13692279, -23.35992891], [-47.136782, -23.35952212], [-47.13668042, -23.35910754], [-47.13655466, -23.35866385], [-47.13653605, -23.35846766], [-47.13655453, -23.35818146], [-47.13671258, -23.35763266], [-47.13682068, -23.35748542], [-47.13701318, -23.35721242], [-47.13723587, -23.3567563], [-47.13749514, -23.35616137], [-47.13777379, -23.35528837], [-47.13804984, -23.35467823], [-47.13828603, -23.35414182], [-47.13841652, -23.35390624], [-47.13854118, -23.35376546], [-47.13873574, -23.35358101], [-47.13894659, -23.35343192], [-47.13916042, -23.3533768], [-47.13948952, -23.35324135], [-47.13988334, -23.35309019], [-47.14022859, -23.35290338], [-47.14054251, -23.35281839], [-47.14075571, -23.35272804], [-47.14095928, -23.35262225], [-47.141178, -23.3524669], [-47.14129484, -23.35232605], [-47.14135452, -23.35212691], [-47.14136591, -23.35186414], [-47.14140828, -23.35153477], [-47.14149747, -23.35122025], [-47.14173269, -23.35058175], [-47.14184689, -23.3503099], [-47.14190725, -23.35014148], [-47.14192764, -23.34995827], [-47.14189788, -23.3496012], [-47.14184439, -23.34917076], [-47.14176801, -23.34887925], [-47.14178846, -23.34868972], [-47.14190328, -23.348454], [-47.14213678, -23.34818857], [-47.14248142, -23.34796381], [-47.14328272, -23.34766158], [-47.14411679, -23.3474093], [-47.14543332, -23.34714297], [-47.14649865, -23.34695314], [-47.14813662, -23.34663076], [-47.14897184, -23.34645886], [-47.14974397, -23.34623675], [-47.15071957, -23.34591605], [-47.15148233, -23.34565049], [-47.1522519, -23.34528833], [-47.15317684, -23.34474317], [-47.15374126, -23.34444975], [-47.15416544, -23.34429158], [-47.15443769, -23.34416285], [-47.15466879, -23.34404011], [-47.15486411, -23.34397488], [-47.15508231, -23.34397217], [-47.15542713, -23.34402562], [-47.15568886, -23.34407296], [-47.15593319, -23.34409938], [-47.15613099, -23.34408114], [-47.15635093, -23.34399895], [-47.15664045, -23.34380442], [-47.15715241, -23.34317], [-47.15739177, -23.34280071], [-47.15747577, -23.34271378], [-47.15766464, -23.34260694], [-47.15797158, -23.3425318], [-47.15842832, -23.34244524], [-47.15909122, -23.34238478], [-47.16038109, -23.34243971], [-47.16182746, -23.34249682], [-47.16274206, -23.34250889], [-47.16387499, -23.34250468], [-47.16442712, -23.34246767], [-47.16491705, -23.3423877], [-47.16529425, -23.34222911], [-47.16577202, -23.34199004], [-47.16628021, -23.34163921], [-47.1665149, -23.34144692], [-47.16666217, -23.34129095], [-47.16694244, -23.34093733], [-47.16728095, -23.34042882], [-47.16764203, -23.33981029], [-47.16792105, -23.33938259], [-47.16822041, -23.33887466], [-47.16848391, -23.33853536], [-47.16868639, -23.33833467], [-47.16890591, -23.33819285], [-47.16927442, -23.33802062], [-47.16984848, -23.33783744], [-47.17028851, -23.33765496], [-47.17057861, -23.33749835], [-47.17078247, -23.33735639], [-47.17087473, -23.33722345], [-47.17091157, -23.33705483], [-47.17086975, -23.33682594], [-47.17075267, -23.33659011], [-47.17051109, -23.33627918], [-47.17023687, -23.33590385], [-47.17004855, -23.3355491], [-47.16978946, -23.33471951], [-47.16972231, -23.33448047], [-47.16971689, -23.33443345], [-47.16972357, -23.3343495], [-47.16976806, -23.334199], [-47.16989097, -23.33393081], [-47.17009708, -23.33355491], [-47.17029375, -23.33314369], [-47.17054578, -23.33257123], [-47.17074191, -23.33190978], [-47.1708225, -23.33156627], [-47.17093678, -23.33127903], [-47.17108374, -23.33105169], [-47.17140201, -23.33071103], [-47.17172118, -23.3303776], [-47.172056, -23.3300443], [-47.17219389, -23.32984488], [-47.17232318, -23.32952164], [-47.17247337, -23.32906036], [-47.17260086, -23.32861966], [-47.17262861, -23.32837779], [-47.1726558, -23.32809346], [-47.17264952, -23.32772846], [-47.17267399, -23.32731944], [-47.17273382, -23.32709951], [-47.17289512, -23.32680453], [-47.17306542, -23.32659093], [-47.17332042, -23.32621542], [-47.17345788, -23.32595819], [-47.17354699, -23.32564274], [-47.17356713, -23.32527615], [-47.17355601, -23.32521192], [-47.17349083, -23.32507317], [-47.17333779, -23.32491474], [-47.17312001, -23.32477565], [-47.17279417, -23.32468535], [-47.17238456, -23.32465851], [-47.17171191, -23.32462319], [-47.17120529, -23.32461543], [-47.17001656, -23.32443585], [-47.16902135, -23.32417203], [-47.16846582, -23.32406268], [-47.16779841, -23.32388917], [-47.16705149, -23.32364364], [-47.1663523, -23.32342018], [-47.16589215, -23.32336039], [-47.16484717, -23.32328855], [-47.16459484, -23.32328467], [-47.16438766, -23.32326489], [-47.16427656, -23.32322242], [-47.16409355, -23.32313058], [-47.16399554, -23.32304937], [-47.16378627, -23.32283988], [-47.16356354, -23.32250651], [-47.16335173, -23.32225725], [-47.16293279, -23.32178043], [-47.16262758, -23.32147981], [-47.162074, -23.32096846], [-47.16169621, -23.32058684], [-47.16147075, -23.32033385], [-47.1613246, -23.32007247], [-47.16121681, -23.31978883], [-47.16116464, -23.31952011], [-47.16116692, -23.31918408], [-47.16120086, -23.31881037], [-47.16132635, -23.31827572], [-47.16153966, -23.31776257], [-47.16181852, -23.31734843], [-47.16226012, -23.31679561], [-47.16277426, -23.3163274], [-47.1631389, -23.31594287], [-47.16361113, -23.3152566], [-47.16407569, -23.31465337], [-47.16448793, -23.31420148], [-47.16503132, -23.31363955], [-47.16563803, -23.31300227], [-47.16620006, -23.31253444], [-47.16632473, -23.31238641], [-47.16639336, -23.31226864], [-47.16642375, -23.31215958], [-47.16642118, -23.31202044], [-47.16635335, -23.31175159], [-47.16620637, -23.31147486], [-47.16600494, -23.31126633], [-47.16581336, -23.31115183], [-47.165599, -23.31106696], [-47.16534515, -23.3110206], [-47.16501207, -23.3109736], [-47.16469624, -23.31096377], [-47.16436504, -23.31102698], [-47.16375867, -23.31122434], [-47.16339693, -23.31130988], [-47.16306587, -23.31135774], [-47.16274256, -23.31141379], [-47.16254398, -23.31141667], [-47.16240228, -23.31140376], [-47.16220406, -23.3113696], [-47.16195741, -23.31128536], [-47.16183779, -23.31121481], [-47.16162896, -23.31106404], [-47.16146164, -23.31086934], [-47.16137892, -23.31072502], [-47.16132089, -23.31055652], [-47.1612837, -23.31035657], [-47.16129137, -23.31017054], [-47.16134101, -23.30989181], [-47.16137458, -23.30965812], [-47.16137439, -23.30947564], [-47.16128772, -23.30852731], [-47.16119981, -23.30831339], [-47.16111949, -23.30802184], [-47.16108528, -23.30781831], [-47.16108139, -23.30761321], [-47.16113208, -23.30732817], [-47.16118478, -23.307138], [-47.16132205, -23.30679947], [-47.16158397, -23.3064159], [-47.16209598, -23.30586095], [-47.1624172, -23.30561518], [-47.1627222, -23.30542889], [-47.16312362, -23.30528405], [-47.16328838, -23.30523753], [-47.1635645, -23.30520548], [-47.1639198, -23.3051786], [-47.16435411, -23.30517225], [-47.16467048, -23.30512426], [-47.16505562, -23.30504523], [-47.1653708, -23.30491774], [-47.16569789, -23.30467201], [-47.16608004, -23.30429394], [-47.16638924, -23.30387372], [-47.16669539, -23.30326286], [-47.16688623, -23.30284436], [-47.16723883, -23.30218239], [-47.16750843, -23.30171035], [-47.16762876, -23.30140239], [-47.16771884, -23.30108695], [-47.1677626, -23.30080908], [-47.16775234, -23.30065542], [-47.16769863, -23.30034242], [-47.16762942, -23.29991276], [-47.16758187, -23.29946791], [-47.16742555, -23.29904566], [-47.16733119, -23.29858779], [-47.16717312, -23.29804176], [-47.16708701, -23.29764087], [-47.16705769, -23.29733439], [-47.16707846, -23.29710781], [-47.16712913, -23.29682277], [-47.1672712, -23.29628824], [-47.16732216, -23.29597249], [-47.167363, -23.29559161], [-47.16738992, -23.29523319], [-47.1674311, -23.29491826], [-47.16749707, -23.29456739], [-47.16758044, -23.29433953], [-47.16773464, -23.29406798], [-47.16791282, -23.29384541], [-47.16812948, -23.29358703], [-47.16836997, -23.29339388], [-47.16862875, -23.29322979], [-47.16894978, -23.29310144], [-47.16928185, -23.29304544], [-47.17044977, -23.29291953], [-47.17118369, -23.29287315], [-47.17221159, -23.29286622], [-47.17309698, -23.29283192], [-47.17385521, -23.29279928], [-47.17463817, -23.29284001], [-47.1751131, -23.29287732], [-47.17559621, -23.29297973], [-47.17605912, -23.29314883], [-47.17652127, -23.29339742], [-47.17709465, -23.29367401], [-47.17744529, -23.29382322], [-47.17758774, -23.2938578], [-47.17785748, -23.29387627], [-47.1781176, -23.29387929], [-47.17841808, -23.29385374], [-47.17870068, -23.29375396], [-47.17913272, -23.2935732], [-47.1795628, -23.29339151], [-47.17984575, -23.29325561], [-47.18020512, -23.29300288], [-47.1805705, -23.29263277], [-47.18087174, -23.29221968], [-47.18136489, -23.29137182], [-47.1818891, -23.2905477], [-47.18246174, -23.28977276], [-47.18304855, -23.28894644], [-47.18338729, -23.28839362], [-47.18367732, -23.28771756], [-47.18405599, -23.2867712], [-47.18429816, -23.28608842], [-47.18452853, -23.28561783], [-47.1848364, -23.28522556], [-47.18505483, -23.28498162], [-47.18513265, -23.28492262], [-47.18524204, -23.28483408], [-47.18540613, -23.2847514], [-47.18564952, -23.28466033], [-47.18582221, -23.28459939], [-47.18601935, -23.28453776], [-47.18604239, -23.28448013], [-47.18604889, -23.28441333], [-47.18604781, -23.28432118], [-47.18579502, -23.2839614], [-47.1856728, -23.28375444], [-47.18560032, -23.28356053], [-47.18551151, -23.28292475], [-47.18554128, -23.28246699], [-47.18573214, -23.28183166], [-47.18595073, -23.28126251], [-47.18655617, -23.28011653], [-47.18701305, -23.27947523], [-47.18816213, -23.27812588], [-47.18839019, -23.2776905], [-47.18842686, -23.2776393], [-47.18859704, -23.27712034], [-47.18899692, -23.27661047], [-47.18903929, -23.2764735], [-47.18904233, -23.27594596], [-47.18891342, -23.27489792], [-47.18900325, -23.27460143], [-47.18909653, -23.27445765], [-47.19001294, -23.2735093], [-47.19027852, -23.27313746], [-47.19031594, -23.27300677], [-47.19031841, -23.2728487], [-47.19020654, -23.27216846], [-47.19021884, -23.27179909], [-47.19058751, -23.271382], [-47.19066439, -23.27111071], [-47.19064638, -23.27084497], [-47.19069727, -23.27042622], [-47.19115386, -23.26960423], [-47.19098146, -23.26185988], [-47.19101087, -23.26187198], [-47.19184997, -23.26212471], [-47.19267986, -23.26208062], [-47.19347957, -23.26192408], [-47.1943799, -23.26164696], [-47.19480373, -23.26133226], [-47.19498775, -23.26093333], [-47.19488145, -23.26023059], [-47.19453579, -23.25953029], [-47.19476118, -23.25873443], [-47.19489732, -23.25833617], [-47.19508133, -23.25793725], [-47.19526679, -23.25762678], [-47.19550155, -23.2574032], [-47.19583396, -23.25735431], [-47.19626427, -23.25743586], [-47.19688943, -23.25778013], [-47.19761295, -23.25834242], [-47.19872037, -23.25907537], [-47.19929838, -23.25946363], [-47.19968951, -23.2600748], [-47.20022546, -23.26081665], [-47.20080637, -23.26138092], [-47.201477, -23.26163605], [-47.20262004, -23.26162001], [-47.20318865, -23.26143507], [-47.20342559, -23.26134417], [-47.20361464, -23.26125304], [-47.2038477, -23.26098613], [-47.20412597, -23.26049739], [-47.20439964, -23.25978842], [-47.20457929, -23.25912591], [-47.20490543, -23.2586365], [-47.20542181, -23.25818865], [-47.20740636, -23.25723623], [-47.20925259, -23.25654937], [-47.21014777, -23.25596436], [-47.21085245, -23.25538203], [-47.21136371, -23.25462547], [-47.2116434, -23.25422518], [-47.21201349, -23.25355907], [-47.2122395, -23.25280743], [-47.21232625, -23.25232137], [-47.21246089, -23.25183555], [-47.21269344, -23.25148016], [-47.21335093, -23.25094182], [-47.21405728, -23.2504037], [-47.21504133, -23.2494644], [-47.21583513, -23.24848444], [-47.21635144, -23.24803656], [-47.21677009, -23.247414], [-47.21708571, -23.24635231], [-47.21731095, -23.24555643], [-47.21763385, -23.24493522], [-47.21800899, -23.24457782], [-47.21876654, -23.24430258], [-47.21938122, -23.2440736], [-47.21980712, -23.24389152], [-47.22042133, -23.24357497], [-47.22074858, -23.24321733], [-47.22139945, -23.24228361], [-47.22163487, -23.24210422], [-47.22239313, -23.2418732], [-47.22320362, -23.24190597], [-47.22430299, -23.24215403], [-47.22602288, -23.24252691], [-47.22640237, -23.24243306], [-47.22706441, -23.2421158], [-47.22782337, -23.24192808], [-47.22858382, -23.24182971], [-47.22953693, -23.24186042], [-47.23058624, -23.24197734], [-47.23163263, -23.24191823], [-47.23267927, -23.24181578], [-47.23443161, -23.24126179], [-47.23618199, -23.24053266], [-47.23731893, -23.24016346], [-47.23764761, -23.23989515], [-47.23791666, -23.23892166], [-47.23780942, -23.23817474], [-47.23755935, -23.23747408], [-47.23711439, -23.23651077], [-47.23690629, -23.23545651], [-47.23674754, -23.23449002], [-47.23696311, -23.23312185], [-47.23718747, -23.23228172], [-47.23746387, -23.23174962], [-47.23793683, -23.23152259], [-47.23940971, -23.23132555], [-47.24092504, -23.23086336], [-47.24182309, -23.23040996], [-47.24229358, -23.23009447], [-47.24285613, -23.22955828], [-47.24322305, -23.22871611], [-47.24330454, -23.22792226], [-47.24333293, -23.22675687], [-47.24328487, -23.22657384], [-47.2432631, -23.22617257], [-47.24327415, -23.22592422], [-47.24336377, -23.22509743], [-47.24344852, -23.22448379], [-47.24355804, -23.2239417], [-47.24370264, -23.22362574], [-47.24375874, -23.22326031], [-47.24371273, -23.22283717], [-47.24363782, -23.22258274], [-47.24327295, -23.22196742], [-47.24280389, -23.22130973], [-47.24227051, -23.22063076], [-47.24178826, -23.22013377], [-47.24151388, -23.21978022], [-47.24137569, -23.2194982], [-47.24133246, -23.21930815], [-47.2413271, -23.219038], [-47.24124049, -23.21856576], [-47.24113174, -23.21816472], [-47.24104926, -23.21799153], [-47.24079214, -23.21762355], [-47.24079321, -23.21761915], [-47.24059946, -23.21703823], [-47.24073177, -23.21641976], [-47.24101276, -23.21610698], [-47.24148543, -23.21592418], [-47.24281113, -23.21546469], [-47.24371103, -23.21518731], [-47.24441757, -23.21473754], [-47.24516532, -23.21388993], [-47.24577121, -23.21308858], [-47.24598494, -23.21167529], [-47.24592409, -23.21084013], [-47.24567402, -23.21013859], [-47.2452836, -23.20957176], [-47.2447955, -23.20882937], [-47.24445122, -23.20821765], [-47.24415063, -23.20729743], [-47.24409028, -23.20654984], [-47.24412415, -23.20571242], [-47.24424907, -23.20465341], [-47.24447704, -23.20403352], [-47.24545319, -23.20265448], [-47.24605242, -23.20145688], [-47.24617364, -23.20017763], [-47.24619571, -23.19863527], [-47.24593539, -23.19731813], [-47.24577222, -23.19608718], [-47.24549277, -23.1936246], [-47.24546187, -23.19177512], [-47.24539073, -23.19032256], [-47.24518048, -23.18913652], [-47.24529972, -23.18759006], [-47.24524186, -23.18596989], [-47.24491397, -23.18490906], [-47.24487539, -23.18409898], [-47.24489468, -23.18363607], [-47.24624482, -23.18244023], [-47.24730565, -23.18153371], [-47.24790006, -23.18057294], [-47.24676559, -23.1800582], [-47.24548416, -23.17988943], [-47.2448332, -23.18017874], [-47.24343002, -23.18028], [-47.24140877, -23.17994066], [-47.24000941, -23.17877154], [-47.23716341, -23.1765215], [-47.23543681, -23.17575333], [-47.23356989, -23.17511985], [-47.23141618, -23.17444528], [-47.22950461, -23.1739442], [-47.22835213, -23.17334387], [-47.22714671, -23.17243551], [-47.22622882, -23.17161155], [-47.22439527, -23.1700963], [-47.22372193, -23.16970946], [-47.22305174, -23.16945439], [-47.22200372, -23.1693807], [-47.22004561, -23.16901198], [-47.21684478, -23.16830861], [-47.21579097, -23.16788286], [-47.21488332, -23.16767533], [-47.214268, -23.16790428], [-47.21280299, -23.16854153], [-47.21085891, -23.1689652], [-47.20900637, -23.16925575], [-47.20767328, -23.16918597], [-47.20461214, -23.16830433], [-47.19959395, -23.16705273], [-47.19654369, -23.16683168], [-47.19445343, -23.16703689], [-47.1921333, -23.16781769], [-47.18953166, -23.16882357], [-47.18650091, -23.16974599], [-47.18436606, -23.17021623], [-47.18171218, -23.17095818], [-47.17839456, -23.17184108], [-47.17659352, -23.1723057], [-47.17450501, -23.17268758], [-47.1729791, -23.1725326], [-47.1719211, -23.17184205], [-47.17114251, -23.17079552], [-47.17041462, -23.16992436], [-47.16962115, -23.16795348], [-47.16921626, -23.16646119], [-47.16923572, -23.16469941], [-47.16907686, -23.16368857], [-47.16858341, -23.16263809], [-47.16819346, -23.16207104], [-47.167383, -23.16195038], [-47.16624432, -23.16218635], [-47.16468273, -23.16278025], [-47.16316824, -23.16332925], [-47.16112906, -23.16379785], [-47.15971235, -23.1644782], [-47.15795706, -23.16481015], [-47.15643053, -23.16461076], [-47.15479988, -23.16388459], [-47.15331276, -23.16315645], [-47.15196564, -23.16220607], [-47.15023048, -23.16086371], [-47.1491136, -23.15946955], [-47.14818782, -23.15811702], [-47.14731873, -23.15737947], [-47.14655236, -23.15708204], [-47.14593511, -23.15713469], [-47.14508149, -23.15736662], [-47.14456524, -23.15781426], [-47.14400536, -23.15852614], [-47.14321568, -23.15977023], [-47.14219786, -23.16158986], [-47.14145878, -23.16300932], [-47.14083718, -23.16395677], [-47.14023444, -23.16535451], [-47.13968493, -23.16623056], [-47.13919334, -23.16675821], [-47.13801799, -23.16764275], [-47.13727553, -23.16811602], [-47.13696856, -23.16852468], [-47.1367903, -23.16910675], [-47.1369263, -23.16979923], [-47.13712019, -23.17020199], [-47.13756223, -23.17042713], [-47.13799963, -23.17042119], [-47.1384959, -23.17012553], [-47.13911523, -23.1697695], [-47.13980078, -23.16958683], [-47.14005256, -23.16969898], [-47.14030992, -23.17010087], [-47.14044134, -23.17050448], [-47.14033016, -23.17137367], [-47.14015003, -23.17189799], [-47.13941584, -23.17289212], [-47.13831213, -23.17435445], [-47.13795651, -23.17557456], [-47.1379069, -23.17638603], [-47.13792346, -23.17742774], [-47.13762665, -23.17841592], [-47.1373886, -23.17922995], [-47.13714692, -23.1797542], [-47.13627751, -23.18017049], [-47.1346573, -23.18054009], [-47.13328974, -23.18113739], [-47.13204906, -23.18179164], [-47.13092967, -23.1822122], [-47.13011813, -23.18233876], [-47.12930751, -23.18252309], [-47.12805482, -23.18248225], [-47.12693265, -23.18272856], [-47.12637298, -23.18291038], [-47.12606046, -23.18297239], [-47.12587757, -23.18326469], [-47.12539134, -23.18413894], [-47.12478831, -23.18559442], [-47.12442615, -23.18641011], [-47.12278348, -23.18938474], [-47.12205998, -23.19113167], [-47.12176485, -23.19223537], [-47.12208647, -23.19280979], [-47.12234103, -23.19309618], [-47.12291088, -23.19349389], [-47.1229816, -23.19401391], [-47.12286483, -23.19453645], [-47.12269288, -23.19552293], [-47.12226904, -23.19645501], [-47.12209433, -23.19726726], [-47.12274132, -23.1985903], [-47.12370723, -23.20031443], [-47.12523841, -23.20220426], [-47.12599947, -23.20283051], [-47.12687637, -23.20287644], [-47.12774962, -23.20269127], [-47.1293095, -23.20238033], [-47.12982179, -23.2026869], [-47.12979609, -23.20269032], [-47.12955335, -23.20282558], [-47.12927537, -23.20306443], [-47.12885714, -23.20355143], [-47.12833115, -23.20425975], [-47.12816676, -23.20477239], [-47.12807904, -23.20524141], [-47.12805309, -23.20559171], [-47.12815923, -23.20632074], [-47.12817126, -23.20707878], [-47.12814708, -23.20754654], [-47.12805882, -23.20797038], [-47.12778244, -23.20844142], [-47.12753587, -23.20876455], [-47.12722599, -23.20916393], [-47.12715855, -23.20945967], [-47.12715652, -23.20976319], [-47.12724403, -23.21030145], [-47.12750894, -23.21108603], [-47.12786439, -23.21180724], [-47.12799867, -23.21236125], [-47.12804315, -23.21280338], [-47.1279822, -23.21313441], [-47.12764164, -23.21376841], [-47.12727677, -23.21419262], [-47.12671234, -23.21473168], [-47.12595003, -23.21541359], [-47.12502907, -23.21612578], [-47.1237844, -23.21714959], [-47.1232842, -23.21771447], [-47.12305252, -23.21801242], [-47.1228369, -23.21836562], [-47.12245102, -23.21893328], [-47.12199278, -23.21940637], [-47.12169634, -23.21962969], [-47.12134365, -23.21980918], [-47.12106123, -23.21990072], [-47.12078512, -23.21994806], [-47.12006873, -23.22003772], [-47.11944673, -23.22017063], [-47.11887127, -23.22043765], [-47.11823132, -23.22089924], [-47.11720402, -23.22187607], [-47.11665287, -23.22264466], [-47.11620874, -23.22365808], [-47.11614577, -23.22408936], [-47.11614435, -23.22471991], [-47.11609976, -23.22595355], [-47.11548974, -23.22556892], [-47.11499329, -23.22545988], [-47.11438517, -23.22537428], [-47.11401594, -23.22534854], [-47.11339515, -23.22535677], [-47.11272779, -23.22542785], [-47.11232644, -23.22548584], [-47.11178661, -23.22560859], [-47.11139227, -23.22565038], [-47.11087847, -23.22561435], [-47.11034768, -23.22551856], [-47.10987206, -23.22537987], [-47.10935515, -23.22516675], [-47.10894885, -23.22493923], [-47.10870785, -23.22470137], [-47.10840972, -23.22431216], [-47.10807713, -23.22375372], [-47.10788797, -23.22331847], [-47.10778058, -23.22301401], [-47.10765824, -23.22273833], [-47.10749277, -23.22257159], [-47.10736243, -23.22250813], [-47.10714959, -23.22248281], [-47.10679497, -23.22256016], [-47.10644224, -23.22274052], [-47.10593465, -23.22306047], [-47.10543259, -23.22331542], [-47.10504653, -23.22340785], [-47.10488906, -23.22341733], [-47.10457982, -23.22335595], [-47.10399299, -23.22319641], [-47.10337353, -23.22297787], [-47.10249333, -23.2227345], [-47.1018753, -23.22256746], [-47.10144656, -23.22243457], [-47.10096223, -23.22228856], [-47.10060057, -23.22219148], [-47.1002957, -23.22208496], [-47.09996953, -23.22195837], [-47.09948591, -23.22184037], [-47.099233, -23.22181469], [-47.09905125, -23.22180951], [-47.09851561, -23.22190424], [-47.09821738, -23.22201097], [-47.09774765, -23.22225805], [-47.09751253, -23.22240688], [-47.09657556, -23.22303926], [-47.09598343, -23.22349938], [-47.09546062, -23.22396732], [-47.09505664, -23.22438027], [-47.09472378, -23.22481553], [-47.09442357, -23.22530888], [-47.09417218, -23.22590294], [-47.09349323, -23.22740118], [-47.09315492, -23.22856451], [-47.09289874, -23.22962828], [-47.09283173, -23.23044978], [-47.09277094, -23.23094882], [-47.09246239, -23.23235542], [-47.09231619, -23.23317804], [-47.09196622, -23.23413891], [-47.09137559, -23.23492604], [-47.0909594, -23.23528468], [-47.09015837, -23.23580438], [-47.08942457, -23.23624968], [-47.08868996, -23.23658205], [-47.08808193, -23.23677189], [-47.08751427, -23.2368374], [-47.08684929, -23.23676475], [-47.08629545, -23.23662531], [-47.08446883, -23.23600771], [-47.08256197, -23.23530356], [-47.0806073, -23.23449779], [-47.0793975, -23.23388643], [-47.07884067, -23.23366022], [-47.07844463, -23.23357815], [-47.07806529, -23.23358295], [-47.07757765, -23.23366268], [-47.07685199, -23.2337882], [-47.07542323, -23.23431767], [-47.07414766, -23.23477892], [-47.07356976, -23.23498432], [-47.07257082, -23.23525647], [-47.07205937, -23.23536941], [-47.07180734, -23.23544578], [-47.07126738, -23.23566867], [-47.07066289, -23.23598675], [-47.06983116, -23.23634799], [-47.0690453, -23.2366211], [-47.06852509, -23.23672942], [-47.06799036, -23.23682407], [-47.06765793, -23.23682926], [-47.06716736, -23.23671832], [-47.06622653, -23.23628631], [-47.06584727, -23.23609415], [-47.06573725, -23.23605162], [-47.06553159, -23.23599288], [-47.06536471, -23.23596521], [-47.06519177, -23.23595645], [-47.06497751, -23.23597352], [-47.06475717, -23.23601041], [-47.06449812, -23.23610478], [-47.06427888, -23.23622389], [-47.06275971, -23.23688615], [-47.0614864, -23.23731118], [-47.06041855, -23.23771906], [-47.05982062, -23.23787364], [-47.05953678, -23.23790635], [-47.05914209, -23.23788206], [-47.05830278, -23.23774722], [-47.05722462, -23.23745486], [-47.05601735, -23.23707733], [-47.05533696, -23.23698363], [-47.054721, -23.23699169], [-47.05418528, -23.23708628], [-47.05357223, -23.23728407], [-47.05274179, -23.23770305], [-47.05203731, -23.2381367], [-47.05164722, -23.23841959], [-47.0514606, -23.23859679], [-47.05133789, -23.23883238], [-47.05103184, -23.23949273], [-47.05048936, -23.24023046], [-47.05000734, -23.24070313], [-47.04933682, -23.2412518], [-47.04882059, -23.24153626], [-47.04834773, -23.24160068], [-47.04765107, -23.24156553], [-47.04665551, -23.24150601], [-47.04606912, -23.24139686], [-47.04559284, -23.24122817], [-47.04524167, -23.24096936], [-47.04496768, -23.24062271], [-47.04489819, -23.24025892], [-47.04485942, -23.23976262], [-47.04482249, -23.23936931], [-47.04484376, -23.23874165], [-47.0448706, -23.23842029], [-47.04483575, -23.23820226], [-47.04475315, -23.23796935], [-47.04449072, -23.23763906], [-47.04401786, -23.23724003], [-47.04370718, -23.23703668], [-47.04353785, -23.23696379], [-47.04329976, -23.23692191], [-47.04282625, -23.23695649], [-47.04247989, -23.23707804], [-47.04198065, -23.23742045], [-47.04147909, -23.23770411], [-47.04096323, -23.23804637], [-47.04069554, -23.23812346], [-47.04037907, -23.23809802], [-47.03905041, -23.23792524], [-47.03844854, -23.23780237], [-47.03813161, -23.23763509], [-47.03781663, -23.23737659], [-47.03756917, -23.23711238], [-47.03732885, -23.23691146], [-47.03680434, -23.23668449], [-47.03634491, -23.2365891], [-47.03589411, -23.23660219], [-47.03545949, -23.23656484], [-47.03503218, -23.23648328], [-47.03445969, -23.236264], [-47.03384604, -23.23586999], [-47.03322115, -23.23533766], [-47.03282174, -23.23502237], [-47.03266167, -23.2349071], [-47.03247878, -23.23482233], [-47.03236772, -23.23478699], [-47.03204603, -23.23479401], [-47.03172198, -23.23483896], [-47.03120315, -23.23499867], [-47.03057397, -23.23524049], [-47.02968016, -23.235638], [-47.02891999, -23.23596987], [-47.02819923, -23.23627318], [-47.02817986, -23.23662352], [-47.0282326, -23.23690405], [-47.02826362, -23.23747979], [-47.02820207, -23.23811973], [-47.02824343, -23.23873441], [-47.02823394, -23.23925919], [-47.02816074, -23.24025857], [-47.02807769, -23.24080527], [-47.0278737, -23.24105004], [-47.02778718, -23.24155515], [-47.02752685, -23.2422249], [-47.02744744, -23.2425214], [-47.02738798, -23.24323995], [-47.02723038, -23.24399375], [-47.02715699, -23.24519368], [-47.02695763, -23.24573661], [-47.02655349, -23.24714944], [-47.02643627, -23.24723148], [-47.0255245, -23.247655], [-47.02500142, -23.24775052], [-47.02428057, -23.24778009], [-47.02350838, -23.24767368], [-47.02307923, -23.24767067], [-47.02277502, -23.24795969], [-47.02256867, -23.24860644], [-47.02183827, -23.24888976], [-47.02161303, -23.24892474], [-47.02125146, -23.2489097], [-47.02047038, -23.24881133], [-47.02021617, -23.24881352], [-47.01974356, -23.248942], [-47.01923297, -23.24914873], [-47.01857968, -23.24935053], [-47.01808025, -23.24942727], [-47.01779991, -23.24940392], [-47.0175707, -23.24944519], [-47.01745561, -23.24951008], [-47.01735657, -23.24962933], [-47.01719424, -23.24999733], [-47.01716998, -23.25016333], [-47.01711882, -23.25037515], [-47.01711639, -23.25060188], [-47.0170889, -23.25079495], [-47.01729879, -23.25182763], [-47.01728483, -23.25194404], [-47.01714896, -23.25212347], [-47.01620531, -23.25287006], [-47.01601573, -23.25313482], [-47.01594479, -23.25327691], [-47.01590354, -23.25356742], [-47.01595769, -23.25435295], [-47.0158638, -23.25490225], [-47.01550673, -23.25583308], [-47.01548383, -23.25605329], [-47.01553771, -23.25649915], [-47.01549545, -23.25670203], [-47.01537444, -23.25695387], [-47.0150843, -23.2572954], [-47.01478061, -23.25780664], [-47.01456188, -23.25832678], [-47.01444246, -23.2587033], [-47.01438789, -23.2590506], [-47.01439487, -23.25931084], [-47.01449996, -23.260086], [-47.0145122, -23.2608585], [-47.01441145, -23.2617727], [-47.01429832, -23.26229201], [-47.01412908, -23.26284604], [-47.0139717, -23.26320595], [-47.01337421, -23.26421406], [-47.01284626, -23.26493734], [-47.01250641, -23.26526214], [-47.01163315, -23.26599941], [-47.01111992, -23.26653401], [-47.01093734, -23.26660009], [-47.0104342, -23.26665237], [-47.01031549, -23.26668922], [-47.00983513, -23.26698563], [-47.00967699, -23.26705283], [-47.00899612, -23.26708271], [-47.00863158, -23.26715704], [-47.00748558, -23.26779421], [-47.00690541, -23.26791624], [-47.00634776, -23.26794453], [-47.00600052, -23.26786544], [-47.0055872, -23.26765837], [-47.00504306, -23.26734078], [-47.00475243, -23.26727215], [-47.004504, -23.26754991], [-47.00430709, -23.26767456], [-47.00406324, -23.26770935], [-47.00363324, -23.26768821], [-47.00330645, -23.2675271], [-47.00254313, -23.26695363], [-47.00147521, -23.26588681], [-47.00068504, -23.26499689], [-47.00062306, -23.26494121], [-47.00051817, -23.2648761], [-47.00042863, -23.26483733], [-47.00035049, -23.26483029], [-47.00012837, -23.26484539], [-46.99990572, -23.26472951], [-46.9996625, -23.26425569], [-46.99943397, -23.26405122], [-46.99909489, -23.26394148], [-46.99882902, -23.2639345], [-46.99823663, -23.26410155], [-46.9977749, -23.26412257], [-46.99742155, -23.26397656], [-46.99684731, -23.2636433], [-46.99643814, -23.26332694], [-46.99533487, -23.26236995], [-46.99464261, -23.26201211], [-46.99405303, -23.26156216], [-46.99357025, -23.26136164], [-46.99307543, -23.26118991], [-46.99193168, -23.26090103], [-46.99144356, -23.2604728], [-46.99125271, -23.26004192], [-46.9910334, -23.25980048], [-46.99080556, -23.25971344], [-46.99028335, -23.25963269], [-46.98971006, -23.25939518], [-46.98943099, -23.25934379], [-46.98920128, -23.25933804], [-46.98891807, -23.25939683], [-46.98801951, -23.25975702], [-46.98736908, -23.26013579], [-46.98713081, -23.26019771], [-46.98619934, -23.26025766], [-46.98444984, -23.26064421], [-46.98358424, -23.26075988], [-46.98171519, -23.26108024], [-46.98157517, -23.26118733], [-46.98141425, -23.26132856], [-46.98116446, -23.26145992], [-46.98091348, -23.2615208], [-46.98070018, -23.26153506], [-46.98037385, -23.2614236], [-46.97996994, -23.26116596], [-46.97928126, -23.26075297], [-46.97882122, -23.26044241], [-46.97790234, -23.25998028], [-46.97741768, -23.25977517], [-46.97710285, -23.25968639], [-46.97666124, -23.25965695], [-46.97602191, -23.25973495], [-46.97528084, -23.25990775], [-46.9742009, -23.26013156], [-46.97311878, -23.26019815], [-46.97112488, -23.26022361], [-46.97068441, -23.26026733], [-46.97033007, -23.26039137], [-46.97000965, -23.26054282], [-46.96987343, -23.26065988], [-46.96976606, -23.26082057], [-46.96966658, -23.26115117], [-46.96967626, -23.26133645], [-46.96975966, -23.2614872], [-46.97024537, -23.26203834], [-46.97084522, -23.26261313], [-46.97105057, -23.26287705], [-46.97116854, -23.26317266], [-46.97117813, -23.26345551], [-46.97110777, -23.26380536], [-46.97079572, -23.26496778], [-46.97074649, -23.26552922], [-46.97078003, -23.26612215], [-46.97082427, -23.26636558], [-46.97088748, -23.26657395], [-46.97096707, -23.26680416], [-46.97108882, -23.26702303], [-46.97128244, -23.26728683], [-46.97137815, -23.26747474], [-46.97142294, -23.26766848], [-46.97143159, -23.26785918], [-46.9713787, -23.26804387], [-46.97128863, -23.26823092], [-46.97108277, -23.26845483], [-46.97082939, -23.26864395], [-46.96977567, -23.26914261], [-46.96715391, -23.27004831], [-46.96586415, -23.27040287], [-46.9652105, -23.27044546], [-46.96426715, -23.27042297], [-46.96346738, -23.27032776], [-46.96231577, -23.27012894], [-46.96177018, -23.27012647], [-46.96139616, -23.27017079], [-46.96120489, -23.27031171], [-46.96116272, -23.27041068], [-46.96115388, -23.27050274], [-46.96126319, -23.27060857], [-46.96155048, -23.27080192], [-46.96176987, -23.27103346], [-46.96194133, -23.27126635], [-46.96208927, -23.27159207], [-46.96215421, -23.27181943], [-46.96219333, -23.27199416], [-46.96229134, -23.27267804], [-46.96234376, -23.27332807], [-46.96237977, -23.27343139], [-46.96244253, -23.27350245], [-46.96254442, -23.27357298], [-46.96273198, -23.27367775], [-46.96291101, -23.27375804], [-46.9632397, -23.27392196], [-46.96435889, -23.27422526], [-46.96450694, -23.27427816], [-46.96465187, -23.27434729], [-46.96498337, -23.27452207], [-46.96537057, -23.27478952], [-46.96564112, -23.27499354], [-46.96582969, -23.27518413], [-46.96710645, -23.27653502], [-46.96727217, -23.27675792], [-46.96743048, -23.27703223], [-46.96745224, -23.27718601], [-46.96745463, -23.27732335], [-46.96737825, -23.27759816], [-46.96711408, -23.27796424], [-46.96632905, -23.2786515], [-46.96453263, -23.28077098], [-46.96403152, -23.28151422], [-46.96342067, -23.28262862], [-46.9630377, -23.28373885], [-46.96299386, -23.28398776], [-46.96298079, -23.28419632], [-46.96296817, -23.2848918], [-46.96297108, -23.28506979], [-46.96304543, -23.2854192], [-46.96315804, -23.2856696], [-46.96338042, -23.28607461], [-46.96346782, -23.28621727], [-46.96353653, -23.28628297], [-46.96419549, -23.28673729], [-46.96433784, -23.28686421], [-46.96451657, -23.28706103], [-46.96492353, -23.28792941], [-46.96516728, -23.2884358], [-46.96541263, -23.28879857], [-46.96562367, -23.28908062], [-46.96640563, -23.28991009], [-46.96653284, -23.29008023], [-46.96666207, -23.29050874], [-46.9666664, -23.29082316], [-46.96662355, -23.29115971], [-46.96634443, -23.29225376], [-46.96623135, -23.2931913], [-46.96619259, -23.2934231], [-46.96616394, -23.29353756], [-46.9660656, -23.29367484], [-46.96592014, -23.29382704], [-46.96569453, -23.29397667], [-46.96558977, -23.29407505], [-46.96548484, -23.29427641], [-46.96540676, -23.29452681], [-46.96544726, -23.29484337], [-46.96547959, -23.29501441], [-46.96554363, -23.29514782], [-46.96578798, -23.29542566], [-46.96601381, -23.29561028], [-46.96641555, -23.29571797], [-46.96664994, -23.29583582], [-46.96684519, -23.29604363], [-46.96693903, -23.29622429], [-46.96698003, -23.29640716], [-46.9670419, -23.29664894], [-46.96714197, -23.29741414], [-46.96714868, -23.29760301], [-46.96715137, -23.29780178], [-46.96718934, -23.29799365], [-46.96724269, -23.29821006], [-46.96741452, -23.29841314], [-46.9676096, -23.29854868], [-46.96826188, -23.29881863], [-46.96859994, -23.29893746], [-46.96900561, -23.29913281], [-46.96941894, -23.29934268], [-46.96963768, -23.29946128], [-46.97016788, -23.29980505], [-46.97043668, -23.29999549], [-46.97089163, -23.30033403], [-46.97136641, -23.30064836], [-46.97179925, -23.30095236], [-46.97196674, -23.30128458], [-46.97195848, -23.3015004], [-46.97168285, -23.30183837], [-46.97067177, -23.30252714], [-46.97004478, -23.30288618], [-46.9692087, -23.30340315], [-46.96853919, -23.30380334], [-46.96840016, -23.30390501], [-46.96828632, -23.3040286], [-46.96810127, -23.30431141], [-46.96757925, -23.30508156], [-46.9673568, -23.30556186], [-46.96731964, -23.30573766], [-46.96730747, -23.30595255], [-46.96737235, -23.30618804], [-46.96749859, -23.30635816], [-46.96766478, -23.30654221], [-46.96788999, -23.30669611], [-46.96849256, -23.30695384], [-46.96861268, -23.30705887], [-46.96871323, -23.30725223], [-46.96873445, -23.30745569], [-46.96871116, -23.30788096], [-46.96863313, -23.30812594], [-46.96855086, -23.30831306], [-46.96840409, -23.30849506], [-46.96823735, -23.30862537], [-46.96786419, -23.30884769], [-46.96703845, -23.30930963], [-46.96694632, -23.30941535], [-46.96687127, -23.30956731], [-46.96687195, -23.30968295], [-46.9669612, -23.30983737], [-46.96715805, -23.31007862], [-46.96745728, -23.31052591], [-46.96764446, -23.31102272], [-46.96778926, -23.31190216], [-46.96787064, -23.31214865], [-46.9681223, -23.31256477], [-46.96822945, -23.31278078], [-46.96827691, -23.31299984], [-46.96833534, -23.31355235], [-46.96837027, -23.31419588], [-46.96838322, -23.31435138], [-46.96842522, -23.31453335], [-46.96852683, -23.31480894], [-46.96861463, -23.3150067], [-46.96870572, -23.31517197], [-46.96889543, -23.31544116], [-46.96946226, -23.3159271], [-46.96960398, -23.31611363], [-46.9697235, -23.31636138], [-46.96978862, -23.31657609], [-46.96980079, -23.31689058], [-46.9697894, -23.31712444], [-46.96971966, -23.31732704], [-46.96963199, -23.31747075], [-46.96947124, -23.31767791], [-46.96912451, -23.31807302], [-46.96896144, -23.31831268], [-46.96878501, -23.31869855], [-46.96871341, -23.31880447], [-46.96854078, -23.31902417], [-46.96834619, -23.31937103], [-46.96800835, -23.3201113], [-46.96789774, -23.32029454], [-46.96764178, -23.32053061], [-46.96745296, -23.32062187], [-46.96717139, -23.3206969], [-46.96669862, -23.32072585], [-46.96599932, -23.3206289], [-46.96589573, -23.32062069], [-46.96580263, -23.32063607], [-46.96554814, -23.32073935], [-46.96498569, -23.32109176], [-46.96477864, -23.32115032], [-46.96437725, -23.32126938], [-46.96358182, -23.32137296], [-46.96328496, -23.32141531], [-46.96299177, -23.32147938], [-46.96259199, -23.32162916], [-46.96231557, -23.32176836], [-46.96187487, -23.3219033], [-46.96108979, -23.32195547], [-46.9608369, -23.32200185], [-46.96059491, -23.32212331], [-46.96043056, -23.32230062], [-46.96032714, -23.32253993], [-46.96024473, -23.32282551], [-46.96021188, -23.32314048], [-46.96017641, -23.32412932], [-46.96014467, -23.32443165], [-46.96008496, -23.32469847], [-46.95996631, -23.32507585], [-46.95987835, -23.32585914], [-46.95981286, -23.32611778], [-46.95975298, -23.32631234], [-46.9596388, -23.32655155], [-46.95950427, -23.3267734], [-46.9593146, -23.32702725], [-46.95912509, -23.32717902], [-46.95885272, -23.3273047], [-46.95861661, -23.32733679], [-46.95861625, -23.3273693], [-46.95872151, -23.32757989], [-46.95891426, -23.32775155], [-46.95900864, -23.32779671], [-46.95951251, -23.32778976], [-46.95981564, -23.32771224], [-46.96015049, -23.32750945], [-46.96044307, -23.32723761], [-46.96154119, -23.32639707], [-46.96182384, -23.32613778], [-46.96224831, -23.32561695], [-46.96263471, -23.32491238], [-46.96292935, -23.32401452], [-46.96317018, -23.323557], [-46.96331363, -23.32341201], [-46.96357598, -23.3233061], [-46.96376866, -23.32330883], [-46.96393522, -23.32337274], [-46.96415629, -23.32354828], [-46.96442899, -23.32392034], [-46.96473936, -23.32415905], [-46.96558884, -23.32456277], [-46.96617134, -23.32496124], [-46.96700627, -23.32526725], [-46.96763484, -23.3255695], [-46.96812812, -23.32589847], [-46.96824592, -23.32594927], [-46.96842144, -23.32599971], [-46.96870812, -23.32599338], [-46.96929269, -23.32585256], [-46.96969979, -23.32583833], [-46.96990983, -23.3258629], [-46.97011237, -23.32594702], [-46.97031966, -23.32613145], [-46.97046774, -23.32636321], [-46.97049497, -23.32673113], [-46.97053185, -23.32684621], [-46.97072359, -23.32702237], [-46.97089107, -23.3270917], [-46.97129026, -23.32717315], [-46.97143004, -23.32727113], [-46.97166193, -23.32753168], [-46.97187305, -23.32754812], [-46.97220306, -23.327516], [-46.97233681, -23.32754075], [-46.97258452, -23.32787462], [-46.97307684, -23.3280265], [-46.97336835, -23.32829213], [-46.97348262, -23.32848652], [-46.97350314, -23.32866558], [-46.97346967, -23.32912778], [-46.9735433, -23.32936968], [-46.97361469, -23.32945978], [-46.9737769, -23.32956429], [-46.97444542, -23.32979552], [-46.97493385, -23.3297694], [-46.97538632, -23.32954421], [-46.97599558, -23.32893926], [-46.97628799, -23.32876857], [-46.97655282, -23.32879364], [-46.97691449, -23.32899578], [-46.97708759, -23.32908864], [-46.97785962, -23.32933619], [-46.97801816, -23.32941988], [-46.97839901, -23.32974596], [-46.97861264, -23.33006775], [-46.97884973, -23.33021271], [-46.9793064, -23.33040579], [-46.97953966, -23.33054349], [-46.97985691, -23.33087257], [-46.98016911, -23.3313046], [-46.98040493, -23.33156607], [-46.98131116, -23.33206599], [-46.98210478, -23.33284399], [-46.98255315, -23.33308125], [-46.98303718, -23.3332791], [-46.98350833, -23.33340185], [-46.9838335, -23.33336605], [-46.98424513, -23.3332082], [-46.98493022, -23.33291198], [-46.9855262, -23.33280192], [-46.98595462, -23.33280772], [-46.98620128, -23.33279467], [-46.98701731, -23.33251141], [-46.98729056, -23.33248234], [-46.98754484, -23.33248833], [-46.98771208, -23.33267146], [-46.98780209, -23.33338595], [-46.98786873, -23.3335537], [-46.98830948, -23.33386314], [-46.98847036, -23.33391162], [-46.98877058, -23.33392164], [-46.98906297, -23.33384216], [-46.98948805, -23.33361577], [-46.99017214, -23.33314156], [-46.99088002, -23.33254922], [-46.99122377, -23.33242415], [-46.9914536, -23.3324299], [-46.99162591, -23.33250738], [-46.99175545, -23.33264861], [-46.99181072, -23.33278372], [-46.99177063, -23.33296131], [-46.99136211, -23.33328362], [-46.99130655, -23.33335537], [-46.99130288, -23.33351162], [-46.99153818, -23.33364389], [-46.99263437, -23.33350504], [-46.99286753, -23.33338435], [-46.99302803, -23.33319885], [-46.9933014, -23.3325311], [-46.99354651, -23.33230121], [-46.99410004, -23.33195675], [-46.99430111, -23.3318186], [-46.99464896, -23.33149572], [-46.99514111, -23.33094834], [-46.99544716, -23.33078135], [-46.99562604, -23.33079385], [-46.99570101, -23.33082707], [-46.99587361, -23.33096688], [-46.99614367, -23.33132079], [-46.99675574, -23.33170949], [-46.99706906, -23.33186326], [-46.99736142, -23.33196624], [-46.99795024, -23.33206384], [-46.9982656, -23.33212006], [-46.99888191, -23.33229921], [-46.999259, -23.33252674], [-46.99976804, -23.33294609], [-46.99986342, -23.33308067], [-46.99988518, -23.33323896], [-46.9995016, -23.33396984], [-46.99943441, -23.33421132], [-46.99941332, -23.33444238], [-46.9994806, -23.33464264], [-46.99966084, -23.33489093], [-46.99987164, -23.33529849], [-47.00034729, -23.33645105], [-47.00101822, -23.33745908], [-47.00141861, -23.33752421], [-47.00160766, -23.3373218], [-47.00193542, -23.33686683], [-47.00236251, -23.33654466], [-47.00258422, -23.33648799], [-47.00368783, -23.33638707], [-47.00399539, -23.3364423], [-47.00419213, -23.33661305], [-47.00428706, -23.33679098], [-47.0044, -23.33729248], [-47.00446832, -23.3373979], [-47.00488757, -23.33752914], [-47.00682007, -23.33758399], [-47.00720427, -23.33742763], [-47.00730687, -23.33716661], [-47.00742697, -23.33700691], [-47.00758021, -23.3369487], [-47.00774637, -23.33696288], [-47.0079096, -23.33706646], [-47.00810728, -23.33724173], [-47.0083563, -23.33782668], [-47.00847894, -23.33797506], [-47.00882285, -23.33819774], [-47.00919717, -23.33823189], [-47.0102544, -23.33816934], [-47.01078793, -23.33822664], [-47.01093113, -23.33828306], [-47.01125316, -23.33853986], [-47.01142277, -23.33868776], [-47.01158662, -23.33873443], [-47.0133554, -23.33909665], [-47.01350444, -23.33915583], [-47.01393185, -23.33943888], [-47.01443078, -23.33962052], [-47.01498013, -23.33975473], [-47.01521166, -23.33987609], [-47.01542732, -23.34010932], [-47.01584948, -23.34069947], [-47.01628222, -23.34103315], [-47.0161493, -23.34138605], [-47.01583506, -23.34195138], [-47.01579854, -23.34216334], [-47.01582602, -23.34242827], [-47.01590692, -23.34263859], [-47.0160609, -23.34278544], [-47.01713647, -23.34347821], [-47.0172789, -23.34360689], [-47.01728896, -23.34376416], [-47.01707289, -23.34457159], [-47.01708635, -23.34468463], [-47.01715144, -23.34481892], [-47.0173548, -23.34492286], [-47.01751289, -23.34495954], [-47.01811272, -23.34494967], [-47.01844025, -23.34487859], [-47.0189879, -23.34462523], [-47.01926367, -23.34454464], [-47.01964755, -23.34432773], [-47.02024666, -23.34411007], [-47.02073975, -23.34365206], [-47.02083708, -23.34360778], [-47.02098392, -23.34359918], [-47.02117312, -23.34365511], [-47.02193357, -23.34399447], [-47.02284873, -23.3443208], [-47.02423452, -23.34501003], [-47.02477817, -23.34522274], [-47.02502026, -23.34527283], [-47.02546605, -23.34530398], [-47.02630619, -23.34523664], [-47.02789107, -23.34533144], [-47.02874501, -23.34562104], [-47.02933576, -23.34563724], [-47.03015043, -23.34548022], [-47.03051674, -23.34544198], [-47.03074555, -23.34545309], [-47.03108322, -23.34553203], [-47.03147016, -23.34576137], [-47.03182788, -23.34607175], [-47.03290395, -23.34728024], [-47.0330865, -23.34741017], [-47.03342527, -23.34757042], [-47.03392985, -23.34768609], [-47.03407915, -23.34781481], [-47.03449163, -23.34803625], [-47.03478614, -23.34812654], [-47.03551493, -23.34813493], [-47.03577844, -23.34810298], [-47.03593861, -23.34812972], [-47.03606423, -23.34818506], [-47.03626255, -23.34830519], [-47.03716927, -23.34925014], [-47.03731363, -23.34938424], [-47.03768476, -23.34963059], [-47.03811894, -23.34983595], [-47.03890464, -23.35001467], [-47.03942234, -23.35018645], [-47.03961781, -23.35029842], [-47.04026135, -23.3507839], [-47.04102898, -23.35137798], [-47.04133814, -23.35156414], [-47.04170856, -23.35169394], [-47.04240023, -23.3517905], [-47.04263253, -23.35184318], [-47.04271166, -23.35176259], [-47.04308626, -23.35149495], [-47.0436027, -23.35113735], [-47.04432462, -23.35077797], [-47.04442974, -23.35073736], [-47.0446417, -23.35067693], [-47.04481513, -23.35065229], [-47.04502927, -23.35066415], [-47.04519532, -23.35069094], [-47.04536239, -23.35080535], [-47.04557845, -23.35100693], [-47.04584491, -23.35134627], [-47.04609624, -23.35172974], [-47.04645886, -23.35222893], [-47.04671027, -23.35260426], [-47.04707269, -23.35303028], [-47.04742593, -23.3533993], [-47.04773013, -23.35368658], [-47.04798825, -23.35398248], [-47.04829975, -23.35422646], [-47.04872982, -23.35445434], [-47.0493099, -23.35465104], [-47.04997648, -23.35481057], [-47.05120391, -23.35504196], [-47.05191717, -23.35513506], [-47.05253418, -23.35517038], [-47.05335593, -23.35518133], [-47.05385452, -23.3552192], [-47.05422772, -23.35527221], [-47.05463244, -23.35539867], [-47.05495918, -23.35559038], [-47.05540701, -23.3558979], [-47.05583045, -23.35619978], [-47.05606919, -23.35638618], [-47.05638931, -23.35655706], [-47.0567628, -23.35667601], [-47.05711838, -23.35672976], [-47.0582264, -23.35678117], [-47.05877093, -23.35673001], [-47.05929107, -23.3566723], [-47.05984269, -23.35650466], [-47.06073035, -23.35620089], [-47.0617367, -23.35586655], [-47.06249834, -23.35554268], [-47.06332134, -23.35505765], [-47.06411798, -23.35447121], [-47.06454029, -23.35422382], [-47.06487774, -23.35404433], [-47.06509054, -23.35399743], [-47.06527172, -23.35398097], [-47.06589603, -23.35397204], [-47.06606982, -23.354007], [-47.06624588, -23.35410702], [-47.06645414, -23.3543085], [-47.06660942, -23.35461973], [-47.06658125, -23.35488235], [-47.06639674, -23.35522038], [-47.06595936, -23.35597803], [-47.06571417, -23.35650612], [-47.06560814, -23.35682316], [-47.06554807, -23.35704937], [-47.06553617, -23.35725342], [-47.0656328, -23.3573699], [-47.0657759, -23.35743982], [-47.06608422, -23.357429], [-47.06650236, -23.35739476], [-47.06703808, -23.35734439], [-47.06737848, -23.35735372], [-47.06760023, -23.3573873], [-47.0679096, -23.3574632], [-47.06825939, -23.35760541], [-47.06861851, -23.35779015], [-47.06937486, -23.35816629], [-47.0698758, -23.3583568], [-47.07033631, -23.35848281], [-47.0708737, -23.3585553], [-47.07118277, -23.35856615], [-47.07160951, -23.35855275], [-47.07204249, -23.35850327], [-47.0725405, -23.35840919], [-47.07311431, -23.35827061], [-47.07367158, -23.3580289], [-47.0739068, -23.35789547], [-47.07435446, -23.3576555], [-47.07485518, -23.35739342], [-47.07532692, -23.35718979], [-47.07572037, -23.35708304], [-47.07628861, -23.35700944], [-47.07664309, -23.35698184], [-47.07721231, -23.3570031], [-47.07775947, -23.35707655], [-47.07849452, -23.35714713], [-47.07926336, -23.35726137], [-47.0799516, -23.35731709], [-47.08078916, -23.35731358], [-47.08129461, -23.35725658], [-47.08178216, -23.35713257], [-47.08226932, -23.35695164], [-47.0826611, -23.3567202], [-47.08331626, -23.35618482], [-47.08400181, -23.35554763], [-47.0846786, -23.35480918], [-47.08519958, -23.35428527], [-47.08575294, -23.35375261], [-47.08611806, -23.3533529], [-47.08651501, -23.35299683], [-47.08668698, -23.3528276], [-47.08689759, -23.35270748], [-47.08707115, -23.35266925], [-47.08730028, -23.35265137], [-47.08764833, -23.35267609], [-47.08796561, -23.35274479], [-47.08829094, -23.35288674], [-47.08878581, -23.35319367], [-47.08912094, -23.35343055], [-47.08958411, -23.35367939], [-47.090103, -23.35402988], [-47.09094107, -23.35455117], [-47.09131686, -23.35483086], [-47.09166888, -23.35513925], [-47.09183029, -23.35533397], [-47.0919939, -23.35569673], [-47.0920208, -23.35584149], [-47.09205553, -23.35608208], [-47.09206888, -23.35640379], [-47.09196469, -23.35683468], [-47.09170028, -23.35762643], [-47.09161089, -23.35794905], [-47.09154158, -23.3581255], [-47.09152053, -23.35827075], [-47.09150722, -23.35842511], [-47.0915193, -23.35867996], [-47.09158427, -23.35931286], [-47.09171308, -23.36001859], [-47.09186186, -23.36087806], [-47.09199887, -23.36154681], [-47.09213438, -23.36207645], [-47.09227231, -23.36236762], [-47.09246709, -23.36264934], [-47.09277923, -23.3629366], [-47.09317785, -23.36318668], [-47.09360899, -23.36341444], [-47.09388838, -23.36365083], [-47.09422664, -23.36396813], [-47.09453924, -23.36430688], [-47.09478154, -23.36463147], [-47.0950027, -23.36511035], [-47.0952475, -23.36557408], [-47.09558814, -23.36613891], [-47.09582314, -23.3665077], [-47.09597826, -23.36684238], [-47.0961001, -23.36708101], [-47.09613324, -23.3671897], [-47.09616007, -23.36734259], [-47.09614503, -23.36747435], [-47.09600038, -23.36774681], [-47.09573887, -23.36825313], [-47.09539168, -23.36871715], [-47.09499418, -23.36912382], [-47.09444893, -23.36962677], [-47.09423991, -23.36987789], [-47.09416224, -23.37001091], [-47.09409571, -23.37020184], [-47.09407338, -23.3703769], [-47.09411715, -23.37059498], [-47.09431788, -23.37077468], [-47.09450043, -23.37081691], [-47.09472147, -23.37082786], [-47.09516329, -23.37077749], [-47.09568232, -23.37064016], [-47.09618509, -23.37046565], [-47.0969155, -23.37013413], [-47.09811773, -23.36968744], [-47.09915631, -23.36936037], [-47.099983, -23.36918142], [-47.10108726, -23.36903468], [-47.10191578, -23.36896504], [-47.10274612, -23.36900562], [-47.10322988, -23.36906489], [-47.10364229, -23.36921298], [-47.10417684, -23.36947593], [-47.10482397, -23.36992685], [-47.10507488, -23.37027408], [-47.10519028, -23.37057137], [-47.10516302, -23.37084846], [-47.1050118, -23.37128799], [-47.1047117, -23.37183915], [-47.10451851, -23.37207507], [-47.10382037, -23.37289471], [-47.10345565, -23.37335136], [-47.1032021, -23.37374936], [-47.10306394, -23.37405801], [-47.10297551, -23.37448182], [-47.10291972, -23.37486977], [-47.10288777, -23.37541692], [-47.10270258, -23.37766644], [-47.10265345, -23.3785576], [-47.10256239, -23.37982058], [-47.10247207, -23.38062377], [-47.10217738, -23.38247487], [-47.10194074, -23.3835207], [-47.10167574, -23.38475779], [-47.10153248, -23.38518293], [-47.10130393, -23.38571844], [-47.10114211, -23.38594649], [-47.10094721, -23.38615438], [-47.10076775, -23.38628743], [-47.10060266, -23.38635556], [-47.10035865, -23.38638778], [-47.10012081, -23.38639115], [-47.09976499, -23.38635194], [-47.09940765, -23.38626937], [-47.09921016, -23.3862505], [-47.09898881, -23.38626755], [-47.09874451, -23.38632868], [-47.09854079, -23.38644164], [-47.09817306, -23.38670856], [-47.09787758, -23.38699055], [-47.09758844, -23.38722744], [-47.09739894, -23.38728903], [-47.09720191, -23.38732075], [-47.0969405, -23.38733204], [-47.09652918, -23.38726434], [-47.09583054, -23.38706227], [-47.09508133, -23.38663483], [-47.09404392, -23.38606397], [-47.09354253, -23.38580849], [-47.09322594, -23.38576148], [-47.09273641, -23.38578253], [-47.09218304, -23.38582651], [-47.09158351, -23.38588634], [-47.09130653, -23.38588935], [-47.09100614, -23.38588494], [-47.090626, -23.38583105], [-47.09025248, -23.38570495], [-47.08999609, -23.38551212], [-47.08953888, -23.38505105], [-47.08888332, -23.38408149], [-47.08846195, -23.38346717], [-47.08814751, -23.38311394], [-47.08780318, -23.38281284], [-47.08742921, -23.38263524], [-47.08705631, -23.38254527], [-47.08644655, -23.38245866], [-47.08616767, -23.38236047], [-47.0859135, -23.38223902], [-47.08544157, -23.38188079], [-47.08484225, -23.38144377], [-47.08431454, -23.38108596], [-47.08378729, -23.38077874], [-47.08334135, -23.38055895], [-47.0828236, -23.38037556], [-47.08257914, -23.38035717], [-47.08227152, -23.38039061], [-47.08195751, -23.38047459], [-47.08176863, -23.3805714], [-47.08158124, -23.38071339], [-47.08148158, -23.38088957], [-47.08141292, -23.38109493], [-47.08135542, -23.38145305], [-47.08136741, -23.38171512], [-47.0814452, -23.38214489], [-47.08160484, -23.38270455], [-47.081729, -23.38309768], [-47.08176371, -23.38324342], [-47.08179061, -23.38348304], [-47.08178334, -23.38400149], [-47.08173631, -23.38457831], [-47.08156325, -23.38513596], [-47.08131257, -23.38572274], [-47.08101943, -23.38625043], [-47.08077995, -23.38660425], [-47.08070511, -23.38683936], [-47.08072222, -23.38698405], [-47.08081957, -23.38712943], [-47.08106932, -23.38739629], [-47.08151702, -23.38773264], [-47.08216371, -23.38813215], [-47.08255485, -23.38835417], [-47.08282613, -23.38852546], [-47.08320328, -23.38887112], [-47.08345282, -23.38915876], [-47.08358226, -23.38942005], [-47.08369184, -23.38980492], [-47.08373177, -23.3903012], [-47.08369138, -23.3908049], [-47.08361821, -23.39116379], [-47.08351101, -23.39140585], [-47.08336925, -23.39148772], [-47.08314825, -23.39146953], [-47.08277639, -23.39146718], [-47.08225552, -23.39148792], [-47.08186927, -23.3915523], [-47.08157059, -23.39166531], [-47.08128871, -23.39185887], [-47.08107188, -23.39210268], [-47.08094141, -23.3924177], [-47.08070343, -23.39281489], [-47.08051943, -23.3931972], [-47.08045981, -23.3934749], [-47.08046585, -23.3938399], [-47.08047341, -23.39396101], [-47.0805489, -23.39432933], [-47.08072834, -23.39467687], [-47.08107654, -23.39517495], [-47.08144844, -23.39565154], [-47.08186568, -23.39609782], [-47.08241385, -23.39675572], [-47.08251197, -23.39692189], [-47.08261831, -23.39714594], [-47.08268592, -23.39742386], [-47.08273045, -23.39785333], [-47.08274562, -23.39828344], [-47.08279354, -23.39885928], [-47.08277768, -23.39935597], [-47.08277441, -23.40015178], [-47.08279461, -23.40047173], [-47.08283746, -23.40068349], [-47.08296865, -23.40096647], [-47.08328297, -23.40133416], [-47.08382596, -23.40173546], [-47.08460217, -23.40220655], [-47.0853499, -23.40259157], [-47.08563588, -23.40266904], [-47.08590554, -23.40271565], [-47.08639581, -23.40272354], [-47.08713914, -23.40267762], [-47.08803993, -23.40264392], [-47.08898056, -23.40263855], [-47.08978609, -23.40253987], [-47.09039396, -23.40243766], [-47.09073875, -23.40231509], [-47.09124239, -23.40206744], [-47.09168864, -23.40178405], [-47.09221935, -23.40137675], [-47.09244492, -23.40113932], [-47.09268433, -23.40079271], [-47.09293808, -23.40028725], [-47.09318768, -23.39961192], [-47.09330711, -23.39912877], [-47.09341324, -23.39889392], [-47.09361484, -23.39860751], [-47.09390243, -23.39833358], [-47.09426171, -23.39803589], [-47.09451333, -23.39793057], [-47.09471077, -23.39786002], [-47.09493038, -23.39782308], [-47.09526333, -23.39780428], [-47.09576134, -23.39781943], [-47.09637102, -23.39792046], [-47.09692779, -23.39812492], [-47.09727139, -23.39831036], [-47.09746544, -23.39847735], [-47.09769025, -23.3986997], [-47.097853, -23.39896037], [-47.09797623, -23.39925863], [-47.09803789, -23.39964398], [-47.09808427, -23.40008882], [-47.09805882, -23.40047522], [-47.097992, -23.40079081], [-47.09797231, -23.40099479], [-47.09799071, -23.40120723], [-47.09808978, -23.40147547], [-47.09843819, -23.40195995], [-47.09917949, -23.40278929], [-47.09986152, -23.4034808], [-47.10036618, -23.4039043], [-47.1005805, -23.40400371], [-47.10079534, -23.40405163]]]]}}]}