{"type": "FeatureCollection", "features": [{"type": "Feature", "properties": {"name": "Área de Proteção Ambiental Marinha Litoral Centro"}, "geometry": {"type": "MultiPolygon", "coordinates": [[[[-46.06347237, -24.28225167], [-46.10328281, -24.43279942], [-46.17274072, -24.50524399], [-46.34628306, -24.3268448], [-46.1760701, -24.18074287], [-46.06347237, -24.28225167]]], [[[-47.00883198, -24.33281123], [-47.00902113, -24.33268556], [-47.0090686, -24.33276949], [-47.00948081, -24.33257376], [-47.00970882, -24.33240162], [-47.01000535, -24.33218629], [-47.01023602, -24.33218323], [-47.0106733, -24.33211401], [-47.01087957, -24.33202671], [-47.01102235, -24.33185061], [-47.01124639, -24.33167565], [-47.01152574, -24.33153579], [-47.01184441, -24.33140974], [-47.01216162, -24.33130986], [-47.01257854, -24.33114416], [-47.01324014, -24.3309752], [-47.0135147, -24.33065121], [-47.0140689, -24.3303235], [-47.01479686, -24.32992941], [-47.01531914, -24.32979433], [-47.01552176, -24.32934315], [-47.01530849, -24.32912174], [-47.01498986, -24.3288697], [-47.01477507, -24.32855221], [-47.01445897, -24.3284603], [-47.01437764, -24.32839501], [-47.01389456, -24.32850891], [-47.01376288, -24.32858949], [-47.01359947, -24.32864182], [-47.01327956, -24.32868906], [-47.01303048, -24.32876403], [-47.01249311, -24.32890732], [-47.01250003, -24.3288499], [-47.01255816, -24.32874883], [-47.01283162, -24.32853379], [-47.01326988, -24.32852797], [-47.01352261, -24.3284612], [-47.01356607, -24.3282915], [-47.013889, -24.32828721], [-47.01418586, -24.328093], [-47.01429718, -24.32783784], [-47.01376665, -24.32784489], [-47.01332705, -24.32776616], [-47.01274805, -24.32762587], [-47.01218276, -24.32751544], [-47.01225798, -24.32727299], [-47.01233923, -24.32657428], [-47.01242448, -24.3261292], [-47.01248733, -24.3257267], [-47.01250506, -24.32538822], [-47.01252111, -24.32494406], [-47.01260469, -24.3243933], [-47.01239409, -24.32420583], [-47.01211263, -24.3239136], [-47.01190303, -24.32378954], [-47.01146846, -24.32402785], [-47.01109974, -24.32405388], [-47.01075642, -24.32422755], [-47.01040677, -24.32399965], [-47.01014838, -24.32370711], [-47.00993979, -24.32364645], [-47.0096436, -24.32388292], [-47.00941728, -24.32416074], [-47.00923408, -24.32424773], [-47.00912209, -24.32446062], [-47.00935742, -24.32475347], [-47.00963754, -24.32496116], [-47.0097796, -24.32519182], [-47.00999287, -24.32554838], [-47.00990761, -24.32599346], [-47.00970402, -24.32624984], [-47.00931689, -24.32657208], [-47.00869611, -24.32670714], [-47.00816558, -24.32671417], [-47.00761133, -24.32667923], [-47.0072844, -24.32642987], [-47.00696081, -24.32639187], [-47.00661748, -24.32656554], [-47.00639048, -24.32680109], [-47.00609461, -24.32705869], [-47.00584887, -24.32756931], [-47.0054898, -24.32820827], [-47.00522265, -24.32882487], [-47.00505219, -24.32919216], [-47.00488198, -24.32930906], [-47.00452522, -24.3295001], [-47.00479897, -24.32999811], [-47.00497277, -24.3299315], [-47.00525543, -24.33011997], [-47.00532937, -24.33037527], [-47.00550767, -24.33059716], [-47.0057868, -24.33056143], [-47.00613685, -24.33058883], [-47.0061419, -24.33090912], [-47.00576194, -24.33120246], [-47.0059757, -24.33145591], [-47.00643314, -24.33164206], [-47.00682622, -24.33218145], [-47.00700434, -24.33219946], [-47.00705644, -24.33230443], [-47.00712317, -24.3325687], [-47.00742505, -24.33286568], [-47.00770167, -24.33304834], [-47.00782009, -24.33311843], [-47.00797637, -24.3331092], [-47.00819452, -24.33305615], [-47.00838094, -24.33297485], [-47.00883198, -24.33281123]]], [[[-47.07720732, -24.44543782], [-47.07427913, -24.4434591], [-47.07353715, -24.44322466], [-47.07260993, -24.44284917], [-47.07149293, -24.44226503], [-47.07075718, -24.4416567], [-47.07029105, -24.44131461], [-47.06984068, -24.44103098], [-47.06945624, -24.44079881], [-47.0686347, -24.44025032], [-47.06754387, -24.43951502], [-47.06706375, -24.43915957], [-47.06662148, -24.43894894], [-47.06614371, -24.4387379], [-47.0653592, -24.43828097], [-47.06448201, -24.43782531], [-47.06351754, -24.43733832], [-47.06266208, -24.43688325], [-47.06106355, -24.43591107], [-47.06067234, -24.43568529], [-47.06046195, -24.43560329], [-47.06030367, -24.43557205], [-47.06011614, -24.43556196], [-47.0599722, -24.43556392], [-47.05983646, -24.43558473], [-47.05972143, -24.43560616], [-47.0596431, -24.43564063], [-47.05952829, -24.43567469], [-47.05944261, -24.43568218], [-47.05932716, -24.43567743], [-47.05921928, -24.43565272], [-47.05900177, -24.43555728], [-47.05865499, -24.43545637], [-47.05844665, -24.43543935], [-47.05828124, -24.43545514], [-47.05799473, -24.4355439], [-47.0578588, -24.43555297], [-47.05769242, -24.4355092], [-47.05756198, -24.43543152], [-47.05745982, -24.43533451], [-47.05739942, -24.4351972], [-47.05736804, -24.4350261], [-47.05735073, -24.43480966], [-47.05737675, -24.43465132], [-47.05739566, -24.43447953], [-47.05737118, -24.43430834], [-47.05733333, -24.43422399], [-47.05722999, -24.43405386], [-47.05714972, -24.43396919], [-47.05703246, -24.43385252], [-47.0569672, -24.43378118], [-47.05686461, -24.43365709], [-47.05681273, -24.43355939], [-47.05677422, -24.43343443], [-47.05670023, -24.43331085], [-47.05663476, -24.43322597], [-47.05625458, -24.43288898], [-47.05576664, -24.43247401], [-47.05545367, -24.43226791], [-47.05487441, -24.43199863], [-47.05454256, -24.43190473], [-47.05413849, -24.43185786], [-47.05341937, -24.43184144], [-47.05307452, -24.43185876], [-47.05283035, -24.43188194], [-47.05258703, -24.43195746], [-47.05228632, -24.43202113], [-47.05197225, -24.43196016], [-47.05174983, -24.43192018], [-47.0516036, -24.43191261], [-47.05150479, -24.43193306], [-47.05139609, -24.43198708], [-47.05132398, -24.43204539], [-47.05126207, -24.43208922], [-47.05115337, -24.43214325], [-47.05101812, -24.43216897], [-47.05077798, -24.43216267], [-47.05059968, -24.43210776], [-47.05039935, -24.43198149], [-47.05028304, -24.43188752], [-47.05009361, -24.43178977], [-47.04993587, -24.43171547], [-47.04986213, -24.43167347], [-47.04966872, -24.4316522], [-47.04952795, -24.43165889], [-47.04942423, -24.43169851], [-47.0492922, -24.43176241], [-47.04915204, -24.4318073], [-47.04898096, -24.4318765], [-47.04880981, -24.43194093], [-47.04872135, -24.43195646], [-47.04856991, -24.43194895], [-47.04846496, -24.43191216], [-47.04838554, -24.43184157], [-47.04835815, -24.43176073], [-47.0483289, -24.43156525], [-47.0483381, -24.43148869], [-47.04839363, -24.43137329], [-47.04842339, -24.43127734], [-47.04863335, -24.43103085], [-47.0489306, -24.43069719], [-47.04899104, -24.43056261], [-47.04900468, -24.43043821], [-47.04896208, -24.43022381], [-47.04888151, -24.43008158], [-47.04846997, -24.42980052], [-47.04824847, -24.42965542], [-47.04798524, -24.42951089], [-47.04767981, -24.42933826], [-47.04743262, -24.4292174], [-47.04722785, -24.42913896], [-47.04702884, -24.42909388], [-47.04684073, -24.42907731], [-47.04673678, -24.4291026], [-47.04660721, -24.42915691], [-47.04651984, -24.42923931], [-47.04642817, -24.42937909], [-47.04631817, -24.42951434], [-47.04612653, -24.42960292], [-47.04597831, -24.42964892], [-47.04574931, -24.4296418], [-47.04556224, -24.42958751], [-47.044897, -24.42913056], [-47.04401805, -24.42850603], [-47.04348077, -24.428286], [-47.04253049, -24.42785562], [-47.04205617, -24.42769156], [-47.04151981, -24.42752833], [-47.04048761, -24.42740589], [-47.03949409, -24.42737383], [-47.0392083, -24.42735495], [-47.03904606, -24.42730031], [-47.03870607, -24.42699806], [-47.03817244, -24.42623246], [-47.03789523, -24.42597481], [-47.03765417, -24.4258351], [-47.03750752, -24.42579252], [-47.03720951, -24.42578517], [-47.03712319, -24.42582043], [-47.03696442, -24.42598167], [-47.03666951, -24.42616747], [-47.03655873, -24.42622578], [-47.03636036, -24.42623982], [-47.03604848, -24.42614174], [-47.03589792, -24.42604148], [-47.03564882, -24.42598801], [-47.03540071, -24.42599703], [-47.03396147, -24.42603344], [-47.03352604, -24.42597111], [-47.03316561, -24.42594186], [-47.03284296, -24.42594619], [-47.03206261, -24.4260476], [-47.03113489, -24.42624757], [-47.03072637, -24.42631556], [-47.03011829, -24.42632372], [-47.02978232, -24.42627141], [-47.02948267, -24.42616178], [-47.02862004, -24.4257756], [-47.02779028, -24.42511621], [-47.02753918, -24.42493774], [-47.02728899, -24.42481609], [-47.02705194, -24.42473971], [-47.02619477, -24.42469437], [-47.02605808, -24.42468484], [-47.02605566, -24.42466369], [-47.02595808, -24.42464072], [-47.02558271, -24.42445255], [-47.02525462, -24.42411601], [-47.02502671, -24.42383494], [-47.02474626, -24.42337275], [-47.02454136, -24.42297773], [-47.0243631, -24.422696], [-47.02411019, -24.42240391], [-47.02390911, -24.42224749], [-47.02365965, -24.42217128], [-47.02342351, -24.42215171], [-47.02313809, -24.42215552], [-47.02280395, -24.42221682], [-47.02248203, -24.42226658], [-47.02222107, -24.42224734], [-47.02203402, -24.42219302], [-47.02185758, -24.4220249], [-47.02167968, -24.4217659], [-47.02162751, -24.42160749], [-47.02160033, -24.42146011], [-47.02158104, -24.42102852], [-47.02152887, -24.42087011], [-47.02132634, -24.4206228], [-47.02110026, -24.42045535], [-47.02091231, -24.42034421], [-47.02068587, -24.42015404], [-47.02049683, -24.41997473], [-47.02038117, -24.41972625], [-47.02034177, -24.41959041], [-47.02035002, -24.41932891], [-47.02043245, -24.41904937], [-47.02043027, -24.41891303], [-47.02036497, -24.41870934], [-47.02023618, -24.41841558], [-47.02024533, -24.4182109], [-47.02032893, -24.41800522], [-47.02050049, -24.41786655], [-47.02063554, -24.41777383], [-47.02094576, -24.41776969], [-47.0213549, -24.41774149], [-47.02181421, -24.41774672], [-47.02203739, -24.41773237], [-47.02220984, -24.41765052], [-47.02238067, -24.4174664], [-47.0224342, -24.41693155], [-47.02244281, -24.41669278], [-47.02238973, -24.41647756], [-47.02221166, -24.41620719], [-47.02165635, -24.41562933], [-47.02121553, -24.4152261], [-47.02041967, -24.41435029], [-47.0192743, -24.41334845], [-47.01847166, -24.41282502], [-47.01772046, -24.41241454], [-47.01695759, -24.41204968], [-47.01601992, -24.41161896], [-47.01566978, -24.41145315], [-47.01499431, -24.41112121], [-47.01473265, -24.4110565], [-47.01449726, -24.41108237], [-47.01448763, -24.41108139], [-47.01444798, -24.41110575], [-47.01427679, -24.41126713], [-47.01415595, -24.4114733], [-47.01398602, -24.41171422], [-47.01382904, -24.41198906], [-47.01369652, -24.41224085], [-47.01359959, -24.41238988], [-47.01333039, -24.41263212], [-47.01302162, -24.41272714], [-47.01272562, -24.41284473], [-47.01229384, -24.41300957], [-47.01177503, -24.41316421], [-47.01084781, -24.41339246], [-47.00979614, -24.41359963], [-47.00908992, -24.4136772], [-47.00870472, -24.41364822], [-47.0083686, -24.41358449], [-47.00814273, -24.41342838], [-47.00794114, -24.41323786], [-47.00776382, -24.41301292], [-47.00757194, -24.4126518], [-47.00739085, -24.41218825], [-47.00740038, -24.41200629], [-47.00742412, -24.41193778], [-47.00754713, -24.41186796], [-47.00780789, -24.41187587], [-47.00793305, -24.4119424], [-47.00811989, -24.41198538], [-47.0083686, -24.41201617], [-47.00852937, -24.41197994], [-47.00870165, -24.41188674], [-47.00887195, -24.41166855], [-47.00901618, -24.41137115], [-47.00907282, -24.41102946], [-47.00914332, -24.4107785], [-47.00920248, -24.41059588], [-47.0092879, -24.41050383], [-47.00946107, -24.41046744], [-47.00968515, -24.41050992], [-47.00982128, -24.41048539], [-47.00989447, -24.41040486], [-47.0099818, -24.41025425], [-47.00997939, -24.41010228], [-47.00968869, -24.40971526], [-47.00931467, -24.40930764], [-47.00876146, -24.40881554], [-47.00860666, -24.40877416], [-47.00839371, -24.40880413], [-47.0080166, -24.40895028], [-47.00767419, -24.40904168], [-47.00735394, -24.40903507], [-47.00687925, -24.4090088], [-47.00664301, -24.40906622], [-47.00628978, -24.40922291], [-47.00604169, -24.40928048], [-47.00574498, -24.4092627], [-47.00551837, -24.40917884], [-47.00506618, -24.40907626], [-47.00466279, -24.40905989], [-47.004213, -24.40910927], [-47.00396354, -24.40908], [-47.00380737, -24.40895178], [-47.00373333, -24.40876818], [-47.0036586, -24.40854116], [-47.00360913, -24.40841153], [-47.00361636, -24.40811827], [-47.00363681, -24.40791171], [-47.00367896, -24.40780406], [-47.00381353, -24.40780318], [-47.00468675, -24.40760383], [-47.00634041, -24.40310978], [-47.00658834, -24.40151152], [-47.00638952, -24.40117533], [-47.0053377, -24.40124662], [-47.00449829, -24.40071565], [-47.00414888, -24.40057437], [-47.00211092, -24.40019475], [-47.00131529, -24.39882402], [-47.001537, -24.39772649], [-47.00191047, -24.39722639], [-47.00217526, -24.39675942], [-47.00428137, -24.39754704], [-47.00592713, -24.39745285], [-47.00654764, -24.39701419], [-47.0074013, -24.39642812], [-47.00921278, -24.39690655], [-47.00960591, -24.39697312], [-47.00990932, -24.39632314], [-47.01045663, -24.39617217], [-47.01115611, -24.39580448], [-47.01145955, -24.39515363], [-47.0118216, -24.39321084], [-47.01181098, -24.39256443], [-47.01211051, -24.39169865], [-47.0126461, -24.39083021], [-47.01270763, -24.38975226], [-47.01207262, -24.38925867], [-47.0110513, -24.38920011], [-47.00956276, -24.38929171], [-47.00900872, -24.38894021], [-47.00884584, -24.38858324], [-47.00947019, -24.38835942], [-47.01048758, -24.38827408], [-47.01158593, -24.38825976], [-47.0131506, -24.38802341], [-47.01329891, -24.38744713], [-47.01627793, -24.38740768], [-47.01674319, -24.38704271], [-47.01720075, -24.38624614], [-47.017588, -24.38595395], [-47.01812053, -24.38487063], [-47.01770993, -24.383727], [-47.01770021, -24.38308059], [-47.01816056, -24.38250068], [-47.01861906, -24.38170415], [-47.01868834, -24.38112877], [-47.01914481, -24.38026117], [-47.01968806, -24.37989526], [-47.02046741, -24.37959766], [-47.02101266, -24.37937466], [-47.02059841, -24.37885169], [-47.02014569, -24.3789711], [-47.01969134, -24.37897723], [-47.01873389, -24.37846079], [-47.01781532, -24.37783029], [-47.01747703, -24.3773431], [-47.01717943, -24.37678057], [-47.01700612, -24.37629107], [-47.01669617, -24.37498678], [-47.01623117, -24.37427453], [-47.01580572, -24.37352472], [-47.01509034, -24.37266449], [-47.01404004, -24.37154365], [-47.013037, -24.3707628], [-47.01261325, -24.37012618], [-47.01189958, -24.36937924], [-47.01185142, -24.36896377], [-47.01163257, -24.36817302], [-47.01092372, -24.36776674], [-47.00951127, -24.3672178], [-47.00746672, -24.36683921], [-47.00637999, -24.36602124], [-47.00549861, -24.36514799], [-47.00483141, -24.36470324], [-47.00428606, -24.36414368], [-47.00331542, -24.3628333], [-47.00218307, -24.36175177], [-47.00180353, -24.3612277], [-47.00170571, -24.36028351], [-47.00148693, -24.35949276], [-47.00121433, -24.3579081], [-47.00133117, -24.35749032], [-47.00111898, -24.35711584], [-47.00082066, -24.35651462], [-46.99956499, -24.35543459], [-46.99914486, -24.35494815], [-46.99897486, -24.35468609], [-46.99901142, -24.35434553], [-46.99900557, -24.35400477], [-46.99945233, -24.35354555], [-46.99936448, -24.35320643], [-46.99890291, -24.35272077], [-46.9985985, -24.3517123], [-46.99838546, -24.35129914], [-46.99796849, -24.35107789], [-46.99734864, -24.35100986], [-46.99668626, -24.35094355], [-46.99610454, -24.35068593], [-46.996097, -24.35023283], [-46.99658857, -24.34996164], [-46.99691679, -24.34984376], [-46.99745645, -24.34998801], [-46.99795452, -24.35016989], [-46.99841284, -24.35042901], [-46.99878509, -24.35046135], [-46.99936181, -24.35041595], [-46.99989482, -24.35014485], [-47.00017829, -24.34980032], [-47.00062501, -24.34934109], [-47.00090848, -24.34899656], [-47.00114976, -24.34854046], [-47.00134782, -24.34804559], [-47.00113476, -24.34763334], [-47.00055303, -24.34737574], [-47.00013528, -24.34707899], [-47.00000687, -24.3467784], [-47.00012706, -24.34654946], [-47.00049675, -24.34639392], [-47.00111175, -24.3461212], [-47.00159285, -24.34525301], [-47.0017936, -24.34483366], [-47.00190872, -24.34430354], [-47.00148775, -24.34377932], [-47.00114871, -24.34325438], [-47.00072936, -24.34284435], [-47.00022551, -24.342284], [-46.99988738, -24.34179685], [-46.999715, -24.34134512], [-46.99991394, -24.34085119], [-47.0002371, -24.34043118], [-47.00048257, -24.34023855], [-47.0009732, -24.33992952], [-47.00162539, -24.33942939], [-47.00202908, -24.33881908], [-47.00210536, -24.33840214], [-47.00209607, -24.33787348], [-47.0025396, -24.33714907], [-47.00265639, -24.33673128], [-47.00242769, -24.33529775], [-47.0017514, -24.33432343], [-47.00170012, -24.33364371], [-47.00139508, -24.33266486], [-47.0010197, -24.33240508], [-47.00052001, -24.33210908], [-46.99968712, -24.33166658], [-46.99896861, -24.33061758], [-46.99799741, -24.32923173], [-46.99690609, -24.32807398], [-46.99568789, -24.32676667], [-46.99463397, -24.32534379], [-46.99161368, -24.32228275], [-46.98667287, -24.31781016], [-46.98620721, -24.31709794], [-46.98515929, -24.3160149], [-46.98318792, -24.31400724], [-46.98147278, -24.31259255], [-46.97996282, -24.31105433], [-46.97875365, -24.31023065], [-46.97695754, -24.3088553], [-46.97527905, -24.30713777], [-46.97226823, -24.30461417], [-46.97118216, -24.30379611], [-46.97009952, -24.30313002], [-46.96696414, -24.30056105], [-46.96449487, -24.29836233], [-46.96060592, -24.29508576], [-46.95906043, -24.29385751], [-46.95830904, -24.2933387], [-46.95693244, -24.29237332], [-46.95488748, -24.29088667], [-46.95242589, -24.28914182], [-46.95112812, -24.28794829], [-46.94954207, -24.28679626], [-46.94699614, -24.28493876], [-46.94244543, -24.28148041], [-46.93956996, -24.27966423], [-46.93593864, -24.27698841], [-46.93439444, -24.27579779], [-46.93152234, -24.27420888], [-46.92675804, -24.27022385], [-46.9262205, -24.27015498], [-46.92555803, -24.26997432], [-46.92484927, -24.26949148], [-46.92450821, -24.26881547], [-46.92334163, -24.26803569], [-46.9218858, -24.26729819], [-46.92109026, -24.266514], [-46.91996975, -24.2661127], [-46.91959397, -24.26577732], [-46.91908977, -24.26521591], [-46.91841917, -24.26454438], [-46.91692456, -24.26392004], [-46.91588071, -24.26306326], [-46.91472029, -24.26277598], [-46.91434528, -24.26251607], [-46.91388425, -24.26203029], [-46.91346696, -24.26173251], [-46.91300993, -24.26151192], [-46.91209423, -24.26095654], [-46.9113426, -24.26036032], [-46.91013524, -24.25969535], [-46.90829916, -24.25828173], [-46.90722174, -24.25799282], [-46.90622254, -24.2573626], [-46.90497162, -24.25650789], [-46.90426765, -24.25636561], [-46.90335433, -24.25599898], [-46.90235444, -24.25529326], [-46.90127146, -24.25466367], [-46.89952066, -24.25343805], [-46.8989355, -24.25291598], [-46.89819024, -24.25273676], [-46.89740036, -24.25236773], [-46.89635666, -24.25151176], [-46.89586603, -24.25152224], [-46.89509577, -24.25133196], [-46.89388457, -24.25084452], [-46.89222193, -24.24956102], [-46.89011837, -24.24798121], [-46.88668709, -24.24551417], [-46.88204247, -24.24246074], [-46.87706476, -24.23910964], [-46.87507843, -24.23803005], [-46.87175842, -24.23566233], [-46.87021185, -24.2347774], [-46.86722913, -24.23300824], [-46.86422866, -24.23120496], [-46.86238395, -24.22988934], [-46.85927435, -24.22769646], [-46.85750508, -24.22651368], [-46.84995891, -24.22180356], [-46.84357553, -24.21726696], [-46.84185104, -24.21650199], [-46.84044812, -24.21573406], [-46.83914761, -24.21467003], [-46.83753112, -24.21400165], [-46.83547682, -24.21265265], [-46.8327736, -24.21081972], [-46.82557093, -24.20661966], [-46.82438055, -24.20621185], [-46.82332204, -24.2057725], [-46.82239028, -24.20505975], [-46.82129745, -24.20452985], [-46.81874224, -24.20296235], [-46.8150847, -24.20108804], [-46.81410528, -24.20080232], [-46.81241583, -24.20082189], [-46.81156939, -24.20071305], [-46.81059438, -24.20066549], [-46.80987875, -24.20061396], [-46.80916527, -24.20068196], [-46.80864721, -24.20086693], [-46.80786651, -24.20081684], [-46.80662991, -24.20065278], [-46.80590824, -24.20018422], [-46.80525986, -24.20025172], [-46.80486874, -24.2001965], [-46.8044758, -24.19996341], [-46.80453485, -24.19954585], [-46.80446432, -24.19918872], [-46.8046331, -24.19864728], [-46.80399641, -24.19824078], [-46.80372941, -24.1977675], [-46.80360078, -24.19782884], [-46.80321453, -24.19807112], [-46.80289178, -24.19825447], [-46.8023693, -24.19808175], [-46.80170882, -24.19731519], [-46.80125885, -24.19641659], [-46.80097985, -24.1961309], [-46.80083262, -24.19568287], [-46.80109881, -24.19525324], [-46.8009224, -24.19504374], [-46.80063106, -24.19486212], [-46.80005224, -24.19481518], [-46.79903282, -24.19419162], [-46.79766724, -24.1936254], [-46.79691533, -24.19350206], [-46.79599073, -24.19353944], [-46.79575948, -24.193516], [-46.79547195, -24.19359857], [-46.79506951, -24.193709], [-46.79478191, -24.19379247], [-46.79440475, -24.19371726], [-46.7938264, -24.19364429], [-46.79389662, -24.19351826], [-46.79378737, -24.19318441], [-46.7937288, -24.19275507], [-46.79372236, -24.1922761], [-46.79350849, -24.1919445], [-46.79313889, -24.19161369], [-46.79287201, -24.19113863], [-46.79229507, -24.19095344], [-46.7920305, -24.19071738], [-46.79182237, -24.19072016], [-46.79140546, -24.19077328], [-46.79114187, -24.19053725], [-46.79072171, -24.19035047], [-46.79030008, -24.19006841], [-46.79024308, -24.18973435], [-46.7906432, -24.18949791], [-46.78951334, -24.18752793], [-46.78714844, -24.18642212], [-46.7828955, -24.18430369], [-46.77515395, -24.18028935], [-46.76562238, -24.17505607], [-46.76000482, -24.17186786], [-46.75387713, -24.16845333], [-46.74962118, -24.16602424], [-46.73592298, -24.15851278], [-46.72384129, -24.15175769], [-46.7137974, -24.1458296], [-46.70843922, -24.14247004], [-46.70844275, -24.14246641], [-46.70043632, -24.1379322], [-46.6932125, -24.1343722], [-46.68964137, -24.13247549], [-46.68742972, -24.13118315], [-46.68139238, -24.12791984], [-46.67799019, -24.12602025], [-46.67424946, -24.12404784], [-46.66303228, -24.11836216], [-46.6569986, -24.11532907], [-46.65444513, -24.11365279], [-46.65223451, -24.11243823], [-46.65002987, -24.1116872], [-46.64731284, -24.11047711], [-46.64510391, -24.10933886], [-46.64340443, -24.10850602], [-46.64076499, -24.10675271], [-46.63592794, -24.10471368], [-46.63388967, -24.103728], [-46.63050167, -24.10192797], [-46.62691388, -24.09981834], [-46.62394388, -24.0983561], [-46.62190264, -24.09781822], [-46.6179901, -24.09557167], [-46.61607987, -24.09465842], [-46.61218717, -24.09258332], [-46.60611492, -24.08984586], [-46.60031255, -24.0868563], [-46.5981939, -24.0856339], [-46.59301251, -24.083509], [-46.57643024, -24.07540176], [-46.57077269, -24.07309443], [-46.56217254, -24.06863906], [-46.55412305, -24.06479894], [-46.54519031, -24.06078107], [-46.53905056, -24.05779314], [-46.5329804, -24.05486589], [-46.52671165, -24.05237678], [-46.5198934, -24.04926919], [-46.51668764, -24.04768254], [-46.51430137, -24.04664822], [-46.51138225, -24.04600639], [-46.50970073, -24.04576842], [-46.50377598, -24.0425789], [-46.49776624, -24.04008978], [-46.48838883, -24.03613563], [-46.47002637, -24.02960597], [-46.45528582, -24.02417002], [-46.44512135, -24.02101719], [-46.43554329, -24.01829377], [-46.42641055, -24.01628826], [-46.41999456, -24.01553865], [-46.41556174, -24.01517803], [-46.41088626, -24.01527655], [-46.40504822, -24.01625926], [-46.40073706, -24.01756196], [-46.40097603, -24.01774003], [-46.40150282, -24.01833303], [-46.40195408, -24.01916597], [-46.40225321, -24.02035885], [-46.40198755, -24.02225048], [-46.401834, -24.02488246], [-46.40192994, -24.02653166], [-46.40228139, -24.027748], [-46.4027353, -24.02881995], [-46.40339637, -24.02979445], [-46.40371294, -24.03019798], [-46.40387332, -24.03099486], [-46.40393266, -24.03117867], [-46.40393526, -24.03141564], [-46.40396579, -24.03158658], [-46.4039397, -24.03182386], [-46.40398561, -24.0320868], [-46.40393455, -24.03230927], [-46.40388576, -24.03258777], [-46.40370273, -24.03322049], [-46.40345623, -24.0336525], [-46.40283388, -24.03453222], [-46.40248979, -24.0349086], [-46.4021042, -24.03521104], [-46.40184063, -24.03544957], [-46.4015575, -24.03560963], [-46.40105231, -24.03580107], [-46.40057887, -24.03591664], [-46.40028843, -24.03603295], [-46.39967343, -24.03614789], [-46.39929758, -24.03616714], [-46.39889814, -24.03609436], [-46.39855098, -24.0359124], [-46.39794954, -24.03549733], [-46.39694434, -24.03453733], [-46.39425315, -24.03171801], [-46.39254191, -24.02985017], [-46.39020975, -24.02760382], [-46.3900311, -24.02764201], [-46.38959638, -24.02792026], [-46.38904215, -24.02818126], [-46.38850615, -24.02829586], [-46.38800868, -24.02828205], [-46.38755033, -24.02821305], [-46.38721017, -24.02803327], [-46.38675007, -24.02779974], [-46.38630804, -24.02753852], [-46.38588522, -24.02706686], [-46.38561971, -24.02642927], [-46.38549546, -24.02597317], [-46.38554746, -24.02525954], [-46.38572061, -24.02470935], [-46.38585699, -24.02443388], [-46.3863279, -24.02382616], [-46.38666315, -24.02354881], [-46.38697903, -24.0233265], [-46.38777066, -24.02293534], [-46.38812644, -24.02271268], [-46.38874394, -24.02093329], [-46.38867856, -24.02040357], [-46.38849756, -24.02022236], [-46.38837724, -24.02013207], [-46.38796062, -24.02024554], [-46.38754564, -24.02050533], [-46.38725043, -24.02080052], [-46.38651908, -24.02124602], [-46.38564688, -24.0215465], [-46.38481144, -24.02155406], [-46.38385577, -24.02148953], [-46.38331655, -24.02129331], [-46.38269458, -24.02080512], [-46.38205135, -24.02024053], [-46.38149584, -24.01936397], [-46.38133387, -24.01882703], [-46.38127752, -24.01842071], [-46.38121814, -24.01773924], [-46.38129014, -24.01716433], [-46.3814148, -24.0166487], [-46.38194036, -24.01589029], [-46.38262277, -24.01520366], [-46.38544323, -24.01284602], [-46.38657395, -24.01197642], [-46.38704927, -24.01164729], [-46.38801412, -24.01126129], [-46.38902462, -24.01087478], [-46.38937528, -24.01062012], [-46.38972285, -24.01007206], [-46.38977331, -24.00946374], [-46.38957681, -24.00884296], [-46.38940124, -24.00841486], [-46.38914824, -24.00821805], [-46.3884843, -24.00796208], [-46.38745182, -24.00735308], [-46.38700259, -24.00692746], [-46.3865329, -24.00629427], [-46.38640161, -24.00536601], [-46.38665596, -24.00408229], [-46.38707368, -24.00338032], [-46.38771761, -24.00272615], [-46.38857621, -24.00184556], [-46.38873284, -24.00127061], [-46.38901584, -24.00067536], [-46.3890069, -23.99984148], [-46.38884249, -23.99909513], [-46.38855758, -23.99878135], [-46.38802276, -23.99849867], [-46.38729935, -23.99813132], [-46.38617052, -23.99788264], [-46.38494942, -23.99777873], [-46.38335362, -23.99773561], [-46.38190951, -23.99725971], [-46.3800895, -23.99672965], [-46.37811467, -23.99634472], [-46.37689084, -23.99598188], [-46.37632231, -23.99546931], [-46.37593818, -23.99463878], [-46.37577345, -23.99386371], [-46.3754236, -23.9933204], [-46.37475763, -23.99246358], [-46.37371358, -23.9913513], [-46.37265729, -23.98908873], [-46.37241872, -23.98828751], [-46.36275109, -24.00081716], [-46.48765911, -24.4622822], [-46.50505327, -24.47063391], [-46.5154659, -24.47842313], [-46.52697226, -24.48991936], [-46.54476014, -24.49499337], [-46.55912309, -24.50325389], [-46.57620143, -24.52409118], [-46.58918538, -24.53576633], [-46.60548945, -24.54850225], [-46.62603442, -24.56674779], [-46.64340289, -24.58041463], [-46.65932908, -24.59292491], [-46.66710476, -24.59981339], [-46.68365087, -24.60949641], [-46.69021242, -24.613498], [-46.69948891, -24.62113597], [-46.70541344, -24.6258117], [-46.71115987, -24.63039248], [-46.71838932, -24.63555452], [-46.9586496, -24.59304966], [-46.97342327, -24.57678028], [-47.05495906, -24.47322182], [-47.07720732, -24.44543782]]], [[[-46.80499354, -24.18888469], [-46.80483596, -24.188791], [-46.80470174, -24.18850591], [-46.80464079, -24.18842436], [-46.80456126, -24.18829039], [-46.80449314, -24.18823098], [-46.80438603, -24.18818035], [-46.80418164, -24.18809259], [-46.80407452, -24.18804186], [-46.80399628, -24.18795531], [-46.80396544, -24.18782857], [-46.80397388, -24.18774741], [-46.80398313, -24.18770686], [-46.80435343, -24.18715064], [-46.80447645, -24.18693514], [-46.80450395, -24.18681349], [-46.80450264, -24.18673217], [-46.80446289, -24.18666404], [-46.80439479, -24.18660021], [-46.80427823, -24.18657658], [-46.80407541, -24.1865881], [-46.80398789, -24.18660782], [-46.80410133, -24.1865541], [-46.80443983, -24.18655009], [-46.80469298, -24.18640375], [-46.80492396, -24.18616212], [-46.80554853, -24.18613084], [-46.8060456, -24.18629217], [-46.80633538, -24.18652763], [-46.80709418, -24.18678141], [-46.80779754, -24.18679696], [-46.80844646, -24.18664592], [-46.80843434, -24.18578605], [-46.80845835, -24.18564243], [-46.80889391, -24.18513558], [-46.80937818, -24.18438927], [-46.81012618, -24.18387871], [-46.81022426, -24.18344753], [-46.80978163, -24.18345279], [-46.80902622, -24.18343787], [-46.8082451, -24.18344714], [-46.80735916, -24.18340987], [-46.80629348, -24.18318361], [-46.80589956, -24.18294939], [-46.8055557, -24.18257123], [-46.80523485, -24.1819778], [-46.80486462, -24.18157607], [-46.80462894, -24.1814833], [-46.80350667, -24.18130547], [-46.79957444, -24.18130417], [-46.79741439, -24.18140133], [-46.79689432, -24.18145524], [-46.79685812, -24.18144632], [-46.79684158, -24.1814794], [-46.79556813, -24.18149051], [-46.79596076, -24.18244187], [-46.7959679, -24.18238115], [-46.79606104, -24.18287576], [-46.79628009, -24.18364085], [-46.79647787, -24.18457284], [-46.79692838, -24.18619352], [-46.79734322, -24.18727208], [-46.79745707, -24.18754868], [-46.79750201, -24.18772058], [-46.79748684, -24.18788297], [-46.79744617, -24.18802708], [-46.79737093, -24.18816635], [-46.79728656, -24.18829635], [-46.79742854, -24.18844295], [-46.79791647, -24.18869521], [-46.7980717, -24.18862171], [-46.79842747, -24.1887997], [-46.7986426, -24.18873397], [-46.7987985, -24.18865903], [-46.79879239, -24.18867135], [-46.79897499, -24.18869308], [-46.79920866, -24.18864255], [-46.79946972, -24.18868724], [-46.79996344, -24.18860974], [-46.80027422, -24.18848662], [-46.80113349, -24.18847647], [-46.80168063, -24.18849389], [-46.80194168, -24.18853858], [-46.8023079, -24.1886537], [-46.80257063, -24.18881781], [-46.80288376, -24.18886189], [-46.80312012, -24.18900243], [-46.80343359, -24.18907039], [-46.80369465, -24.18911507], [-46.80393101, -24.18925561], [-46.80453191, -24.18939183], [-46.80484437, -24.18938813], [-46.8049712, -24.18914774], [-46.80499354, -24.18888469]]], [[[-46.80395434, -24.18017737], [-46.80389622, -24.17974805], [-46.80388748, -24.17912703], [-46.80434471, -24.17830937], [-46.80465446, -24.17811459], [-46.8048861, -24.17792073], [-46.80509169, -24.17772718], [-46.80542747, -24.17753209], [-46.8059161, -24.17709629], [-46.80632965, -24.17687639], [-46.80661066, -24.17649083], [-46.80702656, -24.17643812], [-46.80754728, -24.17643194], [-46.80819784, -24.17640034], [-46.80856234, -24.17639601], [-46.80916048, -24.17634114], [-46.8092359, -24.17614913], [-46.80955843, -24.1760309], [-46.80981095, -24.17617629], [-46.8098459, -24.17620603], [-46.81019474, -24.17635832], [-46.81063131, -24.17657927], [-46.81103075, -24.17676825], [-46.81129145, -24.17683403], [-46.8115398, -24.17686358], [-46.81213483, -24.17684666], [-46.8129881, -24.17667439], [-46.81390237, -24.17644848], [-46.81465504, -24.17615327], [-46.81541842, -24.17579492], [-46.8161076, -24.17537723], [-46.81821003, -24.17402941], [-46.8188598, -24.17346685], [-46.81907899, -24.1731574], [-46.81927246, -24.17278001], [-46.81931839, -24.17248256], [-46.81927715, -24.17216602], [-46.81921074, -24.17184941], [-46.81901907, -24.17140964], [-46.81882988, -24.17115047], [-46.81846653, -24.17084445], [-46.81761649, -24.17028993], [-46.8169692, -24.17003541], [-46.81623543, -24.16985223], [-46.81533916, -24.16956817], [-46.81461679, -24.16931742], [-46.81415513, -24.16908261], [-46.81366661, -24.16865809], [-46.81331434, -24.16826192], [-46.81294896, -24.16779333], [-46.81268242, -24.16728511], [-46.81248988, -24.16678648], [-46.81230532, -24.16592242], [-46.81234268, -24.16494757], [-46.81246593, -24.16394652], [-46.81243177, -24.1632057], [-46.812263, -24.16258555], [-46.81209833, -24.16229042], [-46.81159343, -24.16161739], [-46.81128701, -24.16128113], [-46.81129157, -24.16128463], [-46.81165569, -24.16125642], [-46.8120915, -24.16077345], [-46.81219193, -24.16050947], [-46.81267744, -24.15985869], [-46.81315991, -24.15899294], [-46.8127759, -24.15761191], [-46.81253352, -24.15704145], [-46.81219747, -24.15721267], [-46.81159638, -24.15705258], [-46.81153691, -24.15652772], [-46.81116842, -24.15624543], [-46.81082193, -24.15567619], [-46.81019414, -24.15546864], [-46.80948894, -24.15530978], [-46.80880909, -24.15510284], [-46.80828779, -24.15506124], [-46.80784324, -24.15492318], [-46.80737366, -24.15485707], [-46.80692911, -24.154719], [-46.80690635, -24.15473461], [-46.80601631, -24.15462807], [-46.80554825, -24.15466945], [-46.80462846, -24.15498964], [-46.80412205, -24.15523747], [-46.80385713, -24.15538847], [-46.80367377, -24.15560332], [-46.80333146, -24.15628189], [-46.80319621, -24.15618461], [-46.80320038, -24.15617261], [-46.80301648, -24.15605534], [-46.80272678, -24.15581987], [-46.80256724, -24.15558286], [-46.80238167, -24.15534616], [-46.80224883, -24.15515661], [-46.80203823, -24.15499187], [-46.8018026, -24.1548991], [-46.8013851, -24.15483236], [-46.80073431, -24.15484005], [-46.80039757, -24.15496347], [-46.80008787, -24.15515824], [-46.80024554, -24.15526149], [-46.80076985, -24.15551809], [-46.80126445, -24.15551225], [-46.80147505, -24.15567699], [-46.80186787, -24.15583957], [-46.80200373, -24.15624409], [-46.80206216, -24.1566973], [-46.80202015, -24.15741448], [-46.80207818, -24.15783903], [-46.80213561, -24.15822058], [-46.80243537, -24.15917262], [-46.80267771, -24.1597431], [-46.80276352, -24.16029155], [-46.80287402, -24.16074414], [-46.80298318, -24.16110119], [-46.8028871, -24.16167568], [-46.80234276, -24.16184934], [-46.8017744, -24.16216662], [-46.80152245, -24.16276683], [-46.80152848, -24.16319677], [-46.80179384, -24.16355198], [-46.80218802, -24.16381011], [-46.80237663, -24.16426178], [-46.80246197, -24.16477678], [-46.80246767, -24.16518283], [-46.80244701, -24.16556531], [-46.80261193, -24.16618449], [-46.80279853, -24.16649284], [-46.80295808, -24.16672985], [-46.80280993, -24.16730495], [-46.80236635, -24.16723853], [-46.80186936, -24.16707718], [-46.80144611, -24.16660439], [-46.80029459, -24.16618798], [-46.79953693, -24.16600581], [-46.79870151, -24.16584844], [-46.79727467, -24.1662236], [-46.79631342, -24.16637827], [-46.79556312, -24.16672156], [-46.79479078, -24.16735178], [-46.79375676, -24.16788952], [-46.79287561, -24.16818656], [-46.79199211, -24.16831639], [-46.79155319, -24.16858434], [-46.79163763, -24.16903725], [-46.79185191, -24.16946474], [-46.79183788, -24.17032493], [-46.79256719, -24.17034024], [-46.79319169, -24.17030901], [-46.79436091, -24.17012803], [-46.79503948, -24.17023949], [-46.79574142, -24.17015955], [-46.79612792, -24.16986832], [-46.79664627, -24.16969499], [-46.79727445, -24.16992648], [-46.79779614, -24.169992], [-46.79837091, -24.17012856], [-46.79860857, -24.17036465], [-46.79910758, -24.17066932], [-46.79950279, -24.17099911], [-46.7998894, -24.17103184], [-46.79981777, -24.17138471], [-46.79961772, -24.17160207], [-46.79955885, -24.17186078], [-46.7992346, -24.1723921], [-46.79915819, -24.17271479], [-46.79921839, -24.17315964], [-46.79876082, -24.1732393], [-46.79794597, -24.17285286], [-46.79716018, -24.17261459], [-46.79643112, -24.17257368], [-46.79589159, -24.17258004], [-46.79535345, -24.17268539], [-46.79462161, -24.17244647], [-46.79400046, -24.17240428], [-46.79364388, -24.17198767], [-46.79336789, -24.17154535], [-46.79220341, -24.17123725], [-46.7913374, -24.1710494], [-46.79040428, -24.17185247], [-46.79064983, -24.17204762], [-46.79149164, -24.17243378], [-46.79106554, -24.17283484], [-46.79001655, -24.17306994], [-46.78931516, -24.17307818], [-46.78877424, -24.17298551], [-46.78816067, -24.17348778], [-46.78816688, -24.17393327], [-46.79240226, -24.17581429], [-46.79286502, -24.17610589], [-46.79297916, -24.17655011], [-46.79314967, -24.17716694], [-46.79334301, -24.17748646], [-46.79369684, -24.17770507], [-46.79440241, -24.17799381], [-46.79491915, -24.17828477], [-46.79559844, -24.17862331], [-46.79597856, -24.17879211], [-46.79628758, -24.17855928], [-46.79605967, -24.17878134], [-46.79546608, -24.17992897], [-46.79545127, -24.18087678], [-46.79672452, -24.18086001], [-46.80390932, -24.18067958], [-46.80398441, -24.18046369], [-46.80395434, -24.18017737]]], [[[-46.17824231, -23.88249636], [-46.17832187, -23.88239482], [-46.17842211, -23.88215185], [-46.17854533, -23.88202307], [-46.17894144, -23.88213441], [-46.17929842, -23.88196348], [-46.17972294, -23.88198041], [-46.18004984, -23.88212339], [-46.18052695, -23.88208945], [-46.18097621, -23.88201032], [-46.18155639, -23.88184439], [-46.1814481, -23.88140117], [-46.18109989, -23.88112631], [-46.18069805, -23.88098811], [-46.17984987, -23.88064644], [-46.17918496, -23.88054557], [-46.17893905, -23.88065847], [-46.17783114, -23.88072246], [-46.17719829, -23.88052547], [-46.17641369, -23.87993099], [-46.1753834, -23.87947464], [-46.17296937, -23.87772219], [-46.17221091, -23.87727345], [-46.17180373, -23.876834], [-46.17090781, -23.8756537], [-46.1710814, -23.87470746], [-46.17072539, -23.87417193], [-46.1701312, -23.87318369], [-46.1685794, -23.87145117], [-46.16775986, -23.87030914], [-46.16760741, -23.86990827], [-46.16814356, -23.86877987], [-46.1679847, -23.86847009], [-46.1669746, -23.86787223], [-46.16665902, -23.86748889], [-46.16622358, -23.86679247], [-46.16638289, -23.86606463], [-46.1663081, -23.86533857], [-46.16590113, -23.86455223], [-46.16565471, -23.86426704], [-46.16556219, -23.86373847], [-46.16486727, -23.86347461], [-46.16457546, -23.86356653], [-46.16422056, -23.86314759], [-46.16391756, -23.86307811], [-46.16365477, -23.8631429], [-46.16300457, -23.86361885], [-46.16268499, -23.86377643], [-46.16242077, -23.86414175], [-46.1623581, -23.86436047], [-46.16175071, -23.86479566], [-46.16155872, -23.86514398], [-46.1611221, -23.86576925], [-46.16121889, -23.86641441], [-46.16141546, -23.86658038], [-46.16130098, -23.86686831], [-46.16066016, -23.8673019], [-46.16056981, -23.86725212], [-46.16018, -23.86697127], [-46.15988567, -23.86667372], [-46.15970403, -23.866328], [-46.1595473, -23.8660685], [-46.15939696, -23.86592643], [-46.15887595, -23.8656258], [-46.15869573, -23.86543808], [-46.15862881, -23.86523398], [-46.1586632, -23.86506731], [-46.1587691, -23.86489269], [-46.15897072, -23.86471925], [-46.15989237, -23.86424422], [-46.16007528, -23.8641158], [-46.16018822, -23.86398637], [-46.16036244, -23.86356429], [-46.16150662, -23.86221154], [-46.16166321, -23.86194724], [-46.16182568, -23.86159721], [-46.16192429, -23.86121479], [-46.1620246, -23.86100383], [-46.16215609, -23.86080248], [-46.16224814, -23.86043799], [-46.16225418, -23.86034322], [-46.16217109, -23.86028787], [-46.1619236, -23.86028441], [-46.16196205, -23.86011638], [-46.16186433, -23.85990767], [-46.1619226, -23.85976431], [-46.16203035, -23.85898089], [-46.16202782, -23.85869773], [-46.16193788, -23.85854601], [-46.16198463, -23.85841475], [-46.16202831, -23.85798766], [-46.16217103, -23.85794863], [-46.16228614, -23.85787345], [-46.16233935, -23.85778384], [-46.16234555, -23.85768004], [-46.16231045, -23.85754857], [-46.16213258, -23.85737005], [-46.16200218, -23.85732702], [-46.16193951, -23.85713915], [-46.16197701, -23.85678423], [-46.1625432, -23.85672786], [-46.16315735, -23.85608901], [-46.16357447, -23.85625282], [-46.16482298, -23.85663608], [-46.16512878, -23.85615824], [-46.16534525, -23.85503005], [-46.16508256, -23.85423781], [-46.16531997, -23.85366499], [-46.16528628, -23.85282119], [-46.16519354, -23.85228138], [-46.16559354, -23.85189659], [-46.16588292, -23.85141915], [-46.1663088, -23.85113542], [-46.16691017, -23.85037149], [-46.16713777, -23.84983975], [-46.1666235, -23.84962592], [-46.16602142, -23.84940101], [-46.16608891, -23.84915365], [-46.1657463, -23.84881043], [-46.16518282, -23.84864639], [-46.16466648, -23.8484275], [-46.16525109, -23.84801448], [-46.16567379, -23.84768469], [-46.16589352, -23.84744286], [-46.16614891, -23.84677065], [-46.16487963, -23.84616476], [-46.16458322, -23.84660245], [-46.16366803, -23.84604997], [-46.16387534, -23.84552146], [-46.16278434, -23.84591734], [-46.16248429, -23.84581675], [-46.16244418, -23.84555338], [-46.16262974, -23.84502837], [-46.16328659, -23.84488436], [-46.16333743, -23.84374673], [-46.16286213, -23.84337298], [-46.16308693, -23.84317759], [-46.16413254, -23.84189794], [-46.16427451, -23.84120829], [-46.16274058, -23.83966082], [-46.16282372, -23.83937608], [-46.16242476, -23.83909325], [-46.16192691, -23.83931473], [-46.1615317, -23.83945262], [-46.16125255, -23.83967566], [-46.15976205, -23.83975502], [-46.15914606, -23.83944563], [-46.1578789, -23.83841383], [-46.15758899, -23.8379481], [-46.15756332, -23.83718319], [-46.15757808, -23.83622922], [-46.15700556, -23.83611999], [-46.15683986, -23.83593824], [-46.15635179, -23.83575517], [-46.15482158, -23.83556096], [-46.15456086, -23.8357009], [-46.15398649, -23.83580805], [-46.1536117, -23.83562787], [-46.15307556, -23.8358054], [-46.15311789, -23.83599476], [-46.15286955, -23.8363196], [-46.15260816, -23.83648318], [-46.15224855, -23.83636031], [-46.15223436, -23.83582283], [-46.15206089, -23.83454699], [-46.15435789, -23.83496272], [-46.15659585, -23.83532286], [-46.15762277, -23.83533785], [-46.15821903, -23.83527593], [-46.15867501, -23.83540874], [-46.15910219, -23.83540579], [-46.15943774, -23.83525633], [-46.15982454, -23.83551255], [-46.1609209, -23.8336074], [-46.16075329, -23.83353787], [-46.16017633, -23.83356493], [-46.15919237, -23.83365917], [-46.15840763, -23.8333445], [-46.15784005, -23.83279203], [-46.15821399, -23.83271308], [-46.15824867, -23.83236673], [-46.15817847, -23.83198323], [-46.15836745, -23.83184423], [-46.15870398, -23.83180496], [-46.15903691, -23.83149123], [-46.15889773, -23.83102464], [-46.15902753, -23.83068051], [-46.15929709, -23.83045808], [-46.16001534, -23.83007332], [-46.16062758, -23.82965623], [-46.16079874, -23.82960311], [-46.16120133, -23.82915554], [-46.16120972, -23.8286304], [-46.16131877, -23.82831531], [-46.16116065, -23.8282611], [-46.16092987, -23.82832516], [-46.16066888, -23.82830519], [-46.16061743122211, -23.828283128916784], [-46.16066951, -23.82830348], [-46.16092966, -23.82832336], [-46.16116071, -23.82825919], [-46.16132046, -23.82831396], [-46.16152024, -23.82827906], [-46.16166211, -23.82806828], [-46.16115351, -23.82769784], [-46.16127391, -23.82752062], [-46.16184663, -23.82742814], [-46.16161649, -23.82604204], [-46.16124418, -23.82581136], [-46.16072598, -23.825519], [-46.16074702, -23.82527306], [-46.16084216, -23.82503138], [-46.16117371, -23.82443488], [-46.16104347, -23.82350471], [-46.16102351, -23.82289216], [-46.16101098, -23.82262671], [-46.1605685, -23.82150829], [-46.16003926, -23.82142545], [-46.15920536, -23.82182845], [-46.1586767, -23.82156662], [-46.15869924, -23.82132468], [-46.15920147, -23.82114525], [-46.15909651, -23.81995362], [-46.1589942, -23.81954966], [-46.15891878, -23.81923219], [-46.15874862, -23.81854476], [-46.15850537, -23.81821132], [-46.15829822, -23.81793704], [-46.1577949, -23.81725559], [-46.15743864, -23.81670354], [-46.15690745, -23.81638161], [-46.15661868, -23.81620278], [-46.1561866, -23.81544826], [-46.15583981, -23.81479942], [-46.15547567, -23.81466724], [-46.15521515, -23.81489093], [-46.15435401, -23.81478786], [-46.15435337, -23.81456813], [-46.15415151, -23.81423304], [-46.15401, -23.81399166], [-46.15355025, -23.81380075], [-46.15319083, -23.81369258], [-46.15297375, -23.81327812], [-46.1520132, -23.81306424], [-46.15162946, -23.81317797], [-46.15072026, -23.81313935], [-46.15005271, -23.8135858], [-46.14991186, -23.81341855], [-46.14972512, -23.81318459], [-46.14946984, -23.81288221], [-46.14859947, -23.81200925], [-46.14742338, -23.81206343], [-46.14682232, -23.81242842], [-46.14655945, -23.81258399], [-46.14650199, -23.81262088], [-46.14641972, -23.81184836], [-46.14600469, -23.8116726], [-46.14498919, -23.81230835], [-46.14358021, -23.81184863], [-46.14333559, -23.81160173], [-46.142847, -23.81109844], [-46.14224347, -23.81048447], [-46.14101616, -23.81123958], [-46.13991085, -23.81140271], [-46.13926779, -23.81078234], [-46.13913247, -23.80988237], [-46.13806553, -23.81016542], [-46.13667295, -23.811035], [-46.13601557, -23.8106852], [-46.13543218, -23.81037961], [-46.13536912, -23.80830258], [-46.1333172, -23.80722104], [-46.13224891, -23.80691299], [-46.12997153, -23.8047364], [-46.12872978, -23.80474684], [-46.127841, -23.80471167], [-46.12673348, -23.80444661], [-46.12577078, -23.80349872], [-46.12450096, -23.802338], [-46.12415764, -23.80202919], [-46.12422753, -23.80181561], [-46.12420959, -23.80172499], [-46.12408522, -23.80170974], [-46.1240136, -23.80166358], [-46.12398692, -23.80158187], [-46.12403874, -23.80143359], [-46.12423886, -23.80091257], [-46.12432531, -23.80059311], [-46.12436637, -23.80020075], [-46.12430923, -23.79960837], [-46.12427232, -23.799382], [-46.12416426, -23.79915471], [-46.12394086, -23.79888066], [-46.12362021, -23.79862783], [-46.12320282, -23.79848649], [-46.12251977, -23.79836857], [-46.12209413, -23.79834007], [-46.12175794, -23.79838965], [-46.12140444, -23.79854275], [-46.12067572, -23.79843981], [-46.11992596, -23.7990724], [-46.11922512, -23.80006007], [-46.11766386, -23.79982963], [-46.11634404, -23.79924479], [-46.11613339, -23.79897181], [-46.11581202, -23.79856807], [-46.11582659, -23.79755399], [-46.11606, -23.79666736], [-46.11595585, -23.79581015], [-46.11566417, -23.79514198], [-46.115171, -23.79389474], [-46.11426595, -23.79316876], [-46.11391388, -23.79349293], [-46.1141962, -23.79415177], [-46.11431614, -23.79456888], [-46.11441589, -23.79514379], [-46.11445947, -23.79720827], [-46.11435558, -23.79803784], [-46.11432756, -23.80021868], [-46.11438763, -23.80048597], [-46.1145593, -23.80089486], [-46.11467785, -23.80115847], [-46.11490682, -23.80142355], [-46.11517152, -23.80161694], [-46.11555017, -23.80181926], [-46.11480926, -23.80208045], [-46.11470566, -23.80193506], [-46.11465965, -23.80189885], [-46.11408445, -23.8015416], [-46.11357185, -23.80156417], [-46.11306746, -23.80176814], [-46.11277589, -23.80185892], [-46.11257283, -23.80194644], [-46.11221059, -23.80218351], [-46.11222224, -23.80217503], [-46.11194052, -23.8019954], [-46.11144423, -23.80193487], [-46.1106959, -23.80193893], [-46.11043026, -23.80202767], [-46.11014214, -23.80211924], [-46.10915932, -23.80195], [-46.10883764, -23.80193628], [-46.10839611, -23.80191275], [-46.10721765, -23.80207416], [-46.10669392, -23.80254478], [-46.10664666, -23.80315574], [-46.10664877, -23.80312424], [-46.10638634, -23.80282224], [-46.10622952, -23.80264705], [-46.10608217, -23.80247513], [-46.10561817, -23.80211219], [-46.10559777, -23.80210432], [-46.1052178, -23.80180623], [-46.10614842, -23.80121249], [-46.10616124, -23.80084052], [-46.10618351, -23.80038433], [-46.1060873, -23.79947964], [-46.10590632, -23.79850757], [-46.10501576, -23.79851529], [-46.10471878, -23.79867371], [-46.10420642, -23.79859857], [-46.10377337, -23.79816822], [-46.10283267, -23.7982551], [-46.10236442, -23.79841874], [-46.10143667, -23.7984227], [-46.10190753, -23.79920597], [-46.10148206, -23.79936396], [-46.10148424, -23.79936434], [-46.10080196, -23.79936788], [-46.10046427, -23.79964146], [-46.09998966, -23.79913592], [-46.09972596, -23.7992313], [-46.09952473, -23.79929819], [-46.09918022, -23.79967493], [-46.09841408, -23.79970177], [-46.09767406, -23.79995175], [-46.09716467, -23.79976437], [-46.09659416, -23.79955885], [-46.09594259, -23.79903519], [-46.09546514, -23.79908934], [-46.09508439, -23.79912811], [-46.09455811, -23.79981777], [-46.0945053, -23.80027204], [-46.09449198, -23.80041439], [-46.09449394, -23.80082178], [-46.09449572, -23.80086198], [-46.094572, -23.80147562], [-46.09475037, -23.80197273], [-46.09496281, -23.80237703], [-46.09436843, -23.80317082], [-46.0946625, -23.80378759], [-46.09497758, -23.80413946], [-46.09502827, -23.80464509], [-46.09526599, -23.80532758], [-46.09527781, -23.80535288], [-46.09545758, -23.80566817], [-46.09556066, -23.80601541], [-46.09564896, -23.80633109], [-46.09570509, -23.80660051], [-46.09573517, -23.80672519], [-46.09616871, -23.80721434], [-46.0964258, -23.80740152], [-46.0965901, -23.80815679], [-46.0968501, -23.80869032], [-46.09695819, -23.80911445], [-46.09730368, -23.80954144], [-46.09800991, -23.80970338], [-46.09870992, -23.80935109], [-46.09970726, -23.80853276], [-46.09988397, -23.8083111], [-46.10009869, -23.80803467], [-46.10049489, -23.80836177], [-46.10073283, -23.80877429], [-46.10126404, -23.80872107], [-46.10170391, -23.80871793], [-46.10234335, -23.80807018], [-46.10280965, -23.80749968], [-46.10334338, -23.80717928], [-46.10337449, -23.80716961], [-46.10356121, -23.80729355], [-46.10389992, -23.80755994], [-46.10458817, -23.80768712], [-46.1050196, -23.80738794], [-46.10517513, -23.80731412], [-46.10602949, -23.80738006], [-46.10721601, -23.80686154], [-46.10755806, -23.80662265], [-46.10702265, -23.80905719], [-46.10728446, -23.80979865], [-46.10699383, -23.81062384], [-46.10697882, -23.81125095], [-46.10695874, -23.81179448], [-46.10760341, -23.81222865], [-46.1087794, -23.81260221], [-46.1087943, -23.81261279], [-46.10993118, -23.81240023], [-46.11033346, -23.81232761], [-46.11055251, -23.81213635], [-46.11072552, -23.81199351], [-46.11151106, -23.81132144], [-46.11171, -23.81115437], [-46.1126372, -23.81075175], [-46.11279933, -23.81069581], [-46.113107, -23.81059608], [-46.1135013, -23.81045845], [-46.11389293, -23.81033006], [-46.11431564, -23.81018675], [-46.11534372, -23.81037834], [-46.11549332, -23.81046995], [-46.11603489, -23.81081333], [-46.11606119, -23.81083317], [-46.11623953, -23.81089065], [-46.11627235, -23.81065399], [-46.11636365, -23.81063463], [-46.11654368, -23.81114425], [-46.1169699, -23.81141098], [-46.11747541, -23.81149374], [-46.11752705, -23.81175918], [-46.11786147, -23.81181686], [-46.11818851, -23.81177575], [-46.1186081, -23.81194635], [-46.11842684, -23.81260514], [-46.11852299, -23.81291334], [-46.11880078, -23.81343786], [-46.11884507, -23.81384255], [-46.11897057, -23.81412473], [-46.11940457, -23.81449904], [-46.11965274, -23.81473315], [-46.12030253, -23.81515307], [-46.12076503, -23.81526294], [-46.12131944, -23.81532496], [-46.1220448, -23.8149894], [-46.12234925, -23.81460972], [-46.12248829, -23.81408026], [-46.12285126, -23.81374099], [-46.12283328, -23.81375794], [-46.12308747, -23.81377065], [-46.12351988, -23.81391042], [-46.12446947, -23.81418867], [-46.12505587, -23.81442322], [-46.12523166, -23.81477324], [-46.12596533, -23.81625898], [-46.12692846, -23.81648716], [-46.1271912, -23.81648123], [-46.13120754, -23.81642641], [-46.13182348, -23.81683302], [-46.13360579, -23.81821618], [-46.13398433, -23.81850325], [-46.13422919, -23.81869486], [-46.13531953, -23.81915674], [-46.13526033, -23.81986219], [-46.13552011, -23.81998289], [-46.13629875, -23.81999585], [-46.13756422, -23.82002525], [-46.13790862, -23.8207241], [-46.13837656, -23.82168839], [-46.13902656, -23.82271545], [-46.13962175, -23.82311859], [-46.13980027, -23.82324256], [-46.14086692, -23.82314677], [-46.14185949, -23.82306461], [-46.14267741, -23.82324955], [-46.14293447, -23.82325699], [-46.14315066, -23.82340499], [-46.1433698, -23.82330986], [-46.14324657, -23.82299955], [-46.14322344, -23.82267941], [-46.14317739, -23.82256087], [-46.14319184, -23.82238711], [-46.14309071, -23.82194827], [-46.14301813, -23.82161821], [-46.14286047, -23.82102324], [-46.14281009, -23.82074177], [-46.14294411, -23.82062603], [-46.14303271, -23.82079635], [-46.14326275, -23.82169707], [-46.14319061, -23.82191534], [-46.14322792, -23.82236267], [-46.14327593, -23.82253917], [-46.14345671, -23.82262331], [-46.14424075, -23.82252293], [-46.14462817, -23.82273756], [-46.14543938, -23.82307471], [-46.14584107, -23.82305637], [-46.1463258, -23.82319569], [-46.14656776, -23.82326869], [-46.14735222, -23.82283541], [-46.14780729, -23.82273851], [-46.14797836, -23.82262664], [-46.14850683, -23.82229143], [-46.14877039, -23.82217873], [-46.14911099, -23.82227504], [-46.14920367, -23.82241193], [-46.14942184, -23.82220727], [-46.14966658, -23.82196968], [-46.15030514, -23.82135915], [-46.15089697, -23.82078503], [-46.15148876, -23.82022227], [-46.1525494, -23.81920331], [-46.15281291, -23.81862698], [-46.15288488, -23.81863966], [-46.15308276, -23.81886865], [-46.15315068, -23.81882205], [-46.15321492, -23.81887604], [-46.15311083, -23.81895225], [-46.15327595, -23.81922134], [-46.15294071, -23.8192212], [-46.15279167, -23.81927975], [-46.15114476, -23.82081095], [-46.15068272, -23.82123583], [-46.15029663, -23.82159696], [-46.1496949, -23.82215231], [-46.15025406, -23.82233528], [-46.15147173, -23.82229278], [-46.15242347, -23.8231949], [-46.15292163, -23.82367137], [-46.15288017, -23.82489456], [-46.15255975, -23.82600108], [-46.1525243, -23.82626182], [-46.15243929, -23.82682894], [-46.15249517, -23.82707296], [-46.1518717, -23.82747034], [-46.15084848, -23.82811421], [-46.15078261, -23.82838385], [-46.15028712, -23.82892078], [-46.14972588, -23.82929645], [-46.14968908, -23.82981713], [-46.14940242, -23.83007707], [-46.14955807, -23.8301093], [-46.14972648, -23.830271], [-46.15011467, -23.8302681], [-46.15011437, -23.83027009], [-46.15022772081828, -23.830089356267816], [-46.15011411, -23.83027188], [-46.15005184, -23.83068576], [-46.15004329, -23.83109369], [-46.14998286, -23.83174196], [-46.14997521, -23.8320996], [-46.15001198, -23.83259598], [-46.15018745, -23.83290259], [-46.15025241, -23.83311263], [-46.15028765, -23.8334937], [-46.15024725, -23.83356105], [-46.15038607, -23.83432268], [-46.15047425, -23.8345064], [-46.15044792, -23.83461974], [-46.14851478, -23.83429206], [-46.14848449, -23.83464493], [-46.1480747, -23.8348593], [-46.14789303, -23.83467632], [-46.1471671, -23.83439188], [-46.14699364, -23.83439958], [-46.14691936, -23.83420912], [-46.14675976, -23.83405871], [-46.1461459, -23.83396844], [-46.14532296, -23.83374949], [-46.14488324, -23.83361385], [-46.14469012, -23.83344832], [-46.14424191, -23.83330538], [-46.14407574, -23.83323315], [-46.14399332, -23.83328893], [-46.14493106, -23.83427989], [-46.14504432, -23.83477608], [-46.14466981, -23.83512188], [-46.14425985, -23.83523446], [-46.14388314, -23.83503156], [-46.14376305, -23.83474927], [-46.14387577, -23.83452203], [-46.14331298, -23.83417905], [-46.14218743, -23.83404315], [-46.14200583, -23.83383318], [-46.14154151, -23.83420529], [-46.14172649, -23.83440268], [-46.14051174, -23.83534002], [-46.1408392, -23.83575635], [-46.14095988, -23.83577416], [-46.14101238, -23.83579915], [-46.14096227, -23.835881], [-46.14076047, -23.83605187], [-46.1408706, -23.8361913], [-46.14100524, -23.83614489], [-46.14123013, -23.83645552], [-46.14137551, -23.83634224], [-46.14148601, -23.83635745], [-46.14156848, -23.83648907], [-46.14186204, -23.83683125], [-46.14207695, -23.83699662], [-46.14212535, -23.8372168], [-46.14201757, -23.83734583], [-46.14212479, -23.83748395], [-46.14229845, -23.83756548], [-46.14230044, -23.83779227], [-46.14213395, -23.83867857], [-46.14215122, -23.83899301], [-46.14233159, -23.84018676], [-46.14237784, -23.84115669], [-46.14295717, -23.84132386], [-46.14276926, -23.84144597], [-46.14256582, -23.84172918], [-46.14249398, -23.84196771], [-46.14228572, -23.84230438], [-46.14223526, -23.84257188], [-46.14225157, -23.84322744], [-46.14252417, -23.84360425], [-46.14288696, -23.84402896], [-46.14321283, -23.84445881], [-46.14354258, -23.84472834], [-46.14392998, -23.84494888], [-46.14411661, -23.84515634], [-46.14447677, -23.84528788], [-46.14535853, -23.84587284], [-46.14477614, -23.84619775], [-46.14119906, -23.84779328], [-46.14123661, -23.84810209], [-46.14198567, -23.84975779], [-46.14221397, -23.8496252], [-46.1423189, -23.84966716], [-46.14259519, -23.84951016], [-46.14254908, -23.84938495], [-46.14276552, -23.84922572], [-46.14298979, -23.84929752], [-46.14323456, -23.84918884], [-46.14330918, -23.8490857], [-46.14345468, -23.84911802], [-46.14487445, -23.84849462], [-46.14505625, -23.84885525], [-46.1448491, -23.84957662], [-46.14467628, -23.85007147], [-46.14467831, -23.85030267], [-46.14455184, -23.85062018], [-46.14420145, -23.85074033], [-46.14401251, -23.8510714], [-46.14410867, -23.85110701], [-46.14432091, -23.85129511], [-46.14433814, -23.8514379], [-46.14447466, -23.85176962], [-46.14434531, -23.85192419], [-46.14412864, -23.85189241], [-46.14391513, -23.85202116], [-46.14365393, -23.85221144], [-46.1433273, -23.85230991], [-46.14337932, -23.85244443], [-46.14361885, -23.8524333], [-46.14383347, -23.85294343], [-46.14280035, -23.85327903], [-46.14307917, -23.85344286], [-46.14426236, -23.85314421], [-46.14431455, -23.85338158], [-46.14487886, -23.8532772], [-46.14492152, -23.85350396], [-46.14531019, -23.85344096], [-46.14552949, -23.85349142], [-46.14496285, -23.85561185], [-46.14517594, -23.85589584], [-46.14556742, -23.85598776], [-46.14601379, -23.85584686], [-46.14620501, -23.85612193], [-46.14683706, -23.8562361], [-46.14703533, -23.85612375], [-46.14740754, -23.85633536], [-46.14875446, -23.8566181], [-46.15009945, -23.85704377], [-46.15250562, -23.85804301], [-46.15673809, -23.86238355], [-46.15706338, -23.86339872], [-46.15734774, -23.86352749], [-46.15744896, -23.86374585], [-46.15735252, -23.86408807], [-46.15787782, -23.86517782], [-46.1579343, -23.86534793], [-46.15792094, -23.86534622], [-46.15801754, -23.86558134], [-46.15812364, -23.86593258], [-46.15839145, -23.86648569], [-46.15854622, -23.86706624], [-46.1585691, -23.86767917], [-46.15944523, -23.86677978], [-46.15950643, -23.86683808], [-46.15854835, -23.86786469], [-46.158649, -23.86845241], [-46.15890784, -23.86932777], [-46.15939016, -23.87036714], [-46.16004048, -23.87153403], [-46.16068041, -23.87216414], [-46.16091313, -23.87245146], [-46.16108419, -23.87274958], [-46.16157603, -23.87313818], [-46.1616796, -23.87342132], [-46.16328069, -23.87481847], [-46.16409508, -23.8754937], [-46.16436135, -23.87576528], [-46.16478023, -23.87615442], [-46.16497799, -23.87629746], [-46.16804851, -23.87938893], [-46.16874623, -23.88003214], [-46.16964662, -23.88101642], [-46.17052075, -23.8820376], [-46.1712837, -23.88253348], [-46.17171159, -23.8827627], [-46.17192691, -23.88303026], [-46.17314398, -23.88518676], [-46.17352417, -23.88602815], [-46.17420611, -23.88639003], [-46.17624685, -23.88715178], [-46.17736157, -23.88498775], [-46.17881658, -23.88284616], [-46.17856825, -23.88293791], [-46.17824231, -23.88249636]], [[-46.1601623, -23.82808797], [-46.16004168113355, -23.82801776519673], [-46.1601632, -23.82808637], [-46.16020971011707, -23.828108299317442], [-46.1601623, -23.82808797]], [[-46.15948341, -23.82769283], [-46.15772475, -23.82705503], [-46.15702229, -23.82689311], [-46.15624072, -23.82686183], [-46.15594808, -23.82682347], [-46.15572935, -23.82671241], [-46.15566745, -23.82664252], [-46.15486237, -23.82731033], [-46.15476101, -23.82757175], [-46.15339066, -23.82770384], [-46.15275177, -23.8280096], [-46.15050376, -23.82964588], [-46.150495246838226, -23.829659556990297], [-46.15050216, -23.82964475], [-46.15147719, -23.82893606], [-46.15210982, -23.82847344], [-46.15228754, -23.82834014], [-46.1527507, -23.82800808], [-46.15339008, -23.82770208], [-46.15475991, -23.82757026], [-46.15486069, -23.8273093], [-46.15566767, -23.82663991], [-46.15573047, -23.82671093], [-46.15594854, -23.82682171], [-46.1562409, -23.82686003], [-46.15702258, -23.82689131], [-46.15772534, -23.8270533], [-46.1589761, -23.82749792], [-46.15948433, -23.82769123], [-46.15962662268908, -23.827776185273997], [-46.15948341, -23.82769283]], [[-46.16226098, -23.85549765], [-46.16215386, -23.85547138], [-46.16225972, -23.85549569], [-46.16122804, -23.85488183], [-46.16070333, -23.85463854], [-46.15910892, -23.85456641], [-46.15888849, -23.8546028], [-46.15855068, -23.8544878], [-46.1577669, -23.852841], [-46.15750715, -23.8519989], [-46.15795218, -23.85149719], [-46.1579751, -23.85064536], [-46.15726654, -23.85008874], [-46.15624111, -23.84986203], [-46.15603301, -23.84932249], [-46.15600867, -23.84837978], [-46.15630873, -23.8480874], [-46.15639983, -23.84755309], [-46.15604695, -23.84665372], [-46.15579903, -23.84588139], [-46.15558507, -23.8450897], [-46.15539802, -23.84446718], [-46.15501771, -23.84415761], [-46.15473501, -23.84490013], [-46.15474059, -23.84536639], [-46.15426566, -23.8456872], [-46.15296376, -23.84634885], [-46.15290318, -23.84624263], [-46.15195258, -23.84563203], [-46.15146657, -23.84551639], [-46.15161071, -23.84507944], [-46.15219632, -23.84466165], [-46.1529713, -23.84457236], [-46.15307594, -23.84392535], [-46.1539698, -23.84325639], [-46.15495562, -23.84311809], [-46.15535237, -23.8434795], [-46.1555891, -23.84410485], [-46.15575132, -23.84422051], [-46.15652516, -23.84438033], [-46.1572829, -23.84464044], [-46.15780288, -23.84407806], [-46.15797966, -23.84369177], [-46.15840756, -23.84335715], [-46.15896061, -23.84325014], [-46.15900277, -23.84366309], [-46.16020878, -23.84403442], [-46.16039634, -23.84487532], [-46.16020382, -23.84543485], [-46.16017463, -23.846398], [-46.15997778, -23.8466343], [-46.15985753, -23.84715494], [-46.15977271, -23.84774117], [-46.16001545, -23.84858219], [-46.16056124, -23.84923779], [-46.16096371, -23.85023843], [-46.16142143, -23.85070729], [-46.16262441, -23.85081174], [-46.16282457, -23.85110876], [-46.16295182, -23.85169793], [-46.1633713, -23.85229129], [-46.16391951, -23.85273764], [-46.16389824, -23.85311982], [-46.16400857, -23.85344009], [-46.16353839, -23.85364401], [-46.16329905, -23.85391978], [-46.163575, -23.85457233], [-46.16336905, -23.85525324], [-46.16317019, -23.85542839], [-46.16269526, -23.85566961], [-46.16233402, -23.85555079], [-46.1623041, -23.85557397], [-46.16233617, -23.85554846], [-46.16226098, -23.85549765]]], [[[-46.32515691, -24.05819602], [-46.32365352, -24.02274362], [-46.32334574, -24.02291712], [-46.32242767, -24.02305809], [-46.32174669, -24.02270828], [-46.32068046, -24.02249544], [-46.32009996, -24.02258951], [-46.3199134, -24.02325689], [-46.31996996, -24.02405661], [-46.31992602, -24.02441251], [-46.31973509, -24.02472517], [-46.31930061, -24.02486239], [-46.31862367, -24.0248233], [-46.31770094, -24.02456465], [-46.31721122, -24.02394702], [-46.3169609, -24.02319421], [-46.31676115, -24.02248514], [-46.31665721, -24.02181945], [-46.3164088, -24.02119951], [-46.31592029, -24.02075873], [-46.31514372, -24.02054326], [-46.31417709, -24.02064051], [-46.31311733, -24.02109383], [-46.31259248, -24.02185381], [-46.31231539, -24.02314487], [-46.31234587, -24.02614023], [-46.31211722, -24.02861203], [-46.31190319, -24.02901328], [-46.31118003, -24.02928591], [-46.31074378, -24.0291565], [-46.3099267, -24.02729756], [-46.30809224, -24.02538071], [-46.30698923, -24.0239903], [-46.30617584, -24.02253092], [-46.30587436, -24.02140039], [-46.30528695, -24.02073841], [-46.30462482, -24.01981154], [-46.30367665, -24.0194196], [-46.30265755, -24.01909504], [-46.30185526, -24.01863501], [-46.30038896, -24.01718163], [-46.29994723, -24.01658523], [-46.29870769, -24.01606301], [-46.29507941, -24.01609361], [-46.29407209, -24.01696853], [-46.29364047, -24.01730503], [-46.2922778, -24.01898326], [-46.29164021, -24.02052099], [-46.29194065, -24.02151865], [-46.29209091, -24.02205024], [-46.29209631, -24.02258359], [-46.2917384, -24.02305297], [-46.29097353, -24.02403691], [-46.29034652, -24.02426491], [-46.28991305, -24.02440117], [-46.28957777, -24.02480439], [-46.28939133, -24.02551658], [-46.28920093, -24.02578527], [-46.28905543, -24.02583092], [-46.28871761, -24.0258338], [-46.28798985, -24.02570674], [-46.28720972, -24.02509074], [-46.28676925, -24.02460561], [-46.28633362, -24.02456499], [-46.2857552, -24.02483668], [-46.28522898, -24.02541881], [-46.28479901, -24.02595547], [-46.28475761, -24.02671082], [-46.28485927, -24.02719869], [-46.28520315, -24.02768523], [-46.28549753, -24.02812713], [-46.28550209, -24.0285267], [-46.28507028, -24.02893045], [-46.28464031, -24.02946711], [-46.28430931, -24.03022499], [-46.28436293, -24.03075802], [-46.28456137, -24.03128937], [-46.28457303, -24.03248884], [-46.28506329, -24.03306259], [-46.28579224, -24.03336737], [-46.2867614, -24.03349215], [-46.28754097, -24.03401934], [-46.28779013, -24.03477216], [-46.28765213, -24.03552891], [-46.28760838, -24.03592966], [-46.28790011, -24.03610488], [-46.28862849, -24.03632082], [-46.28901859, -24.03662841], [-46.28902246, -24.03707279], [-46.28878737, -24.03774126], [-46.28859759, -24.03809792], [-46.28869893, -24.03854183], [-46.28952472, -24.03889001], [-46.28967701, -24.0396003], [-46.28949026, -24.04026758], [-46.28920392, -24.04062568], [-46.28804906, -24.04134596], [-46.28766912, -24.04201616], [-46.2875785, -24.04263894], [-46.2877266, -24.04299272], [-46.28841208, -24.04374313], [-46.28914352, -24.04426972], [-46.2894374, -24.04462273], [-46.28953906, -24.04511063], [-46.28930025, -24.04551239], [-46.2887704, -24.04569498], [-46.28780123, -24.0455693], [-46.28644272, -24.04526977], [-46.28585559, -24.04465261], [-46.28536621, -24.0440798], [-46.2843482, -24.04386552], [-46.28366829, -24.04369421], [-46.28318106, -24.0432983], [-46.28269321, -24.0429463], [-46.28229955, -24.0422392], [-46.28156635, -24.0415788], [-46.28151247, -24.04100089], [-46.28149669, -24.03944579], [-46.28158616, -24.03864532], [-46.28148453, -24.03815744], [-46.28075405, -24.03776372], [-46.27983198, -24.03746088], [-46.27910225, -24.03702232], [-46.27832346, -24.03662882], [-46.27793099, -24.03609947], [-46.27782646, -24.03530003], [-46.2777213, -24.03441265], [-46.2774656, -24.03308162], [-46.27745491, -24.03201499], [-46.27763822, -24.03094729], [-46.27840116, -24.02978572], [-46.2788756, -24.02880437], [-46.27954691, -24.02826543], [-46.2797812, -24.02746327], [-46.28020438, -24.02617158], [-46.28015044, -24.02559454], [-46.27970878, -24.02506451], [-46.27955778, -24.02439917], [-46.27964803, -24.02373241], [-46.28022012, -24.02292741], [-46.28036081, -24.02243728], [-46.28035512, -24.02185996], [-46.27976808, -24.02124281], [-46.27937479, -24.02057971], [-46.27888397, -24.01991711], [-46.27829931, -24.01952262], [-46.27747693, -24.01952899], [-46.27670067, -24.01935821], [-46.27611582, -24.01891793], [-46.27586669, -24.01816512], [-46.27571472, -24.01749974], [-46.27532168, -24.01688149], [-46.27453983, -24.01613252], [-46.27312725, -24.0151662], [-46.27088607, -24.01354099], [-46.26966975, -24.01292905], [-46.26870052, -24.01275933], [-46.26768601, -24.01290052], [-46.26701291, -24.01330653], [-46.26668238, -24.01415322], [-46.26639629, -24.01455616], [-46.26605838, -24.01469179], [-46.26543003, -24.01469707], [-46.26479837, -24.01447963], [-46.26416871, -24.01444092], [-46.2634897, -24.01422467], [-46.26304941, -24.01373867], [-46.26304378, -24.01316138], [-46.26361716, -24.01240135], [-46.26462023, -24.01105984], [-46.26562592, -24.00998495], [-46.26712131, -24.00957354], [-46.26760106, -24.00912463], [-46.2677405, -24.0085905], [-46.26778228, -24.00787922], [-46.26767596, -24.0069469], [-46.26742692, -24.00619321], [-46.26698395, -24.00544146], [-46.26498152, -24.00354818], [-46.26186161, -24.00104067], [-46.25938258, -23.99990599], [-46.25739075, -23.99903346], [-46.25490891, -23.99758718], [-46.25363971, -23.99635333], [-46.25208666, -23.99587787], [-46.25059193, -23.99637894], [-46.24948183, -23.99665435], [-46.24827023, -23.99644188], [-46.24758869, -23.99595898], [-46.24718615, -23.994407], [-46.24707671, -23.99343059], [-46.24694361, -23.99333597], [-46.24300188, -23.99171841], [-46.2370393, -23.9900907], [-46.22785549, -23.98781256], [-46.22710174, -23.98763106], [-46.21610823, -23.9861684], [-46.21288402, -23.98616916], [-46.20959402, -23.98680092], [-46.20600884, -23.98889372], [-46.20376274, -23.99112136], [-46.20250711, -23.99316381], [-46.20252198, -23.9935845], [-46.2026773, -23.99431823], [-46.20433122, -23.99523804], [-46.20642622, -23.9968216], [-46.20701823, -23.99801617], [-46.20736311, -23.99872448], [-46.20727173, -23.99925823], [-46.20669654, -23.99992996], [-46.20587682, -24.00020262], [-46.20447509, -24.00030234], [-46.20312205, -24.00049063], [-46.20268879, -24.00067244], [-46.20215554, -24.00058716], [-46.20133015, -24.0002386], [-46.20074408, -23.99971013], [-46.19990864, -23.99829419], [-46.19961257, -23.99767447], [-46.20033348, -23.99718062], [-46.20052317, -23.99677924], [-46.20056738, -23.9962449], [-46.200368, -23.99566955], [-46.19954247, -23.99527611], [-46.19852196, -23.99488358], [-46.19750641, -23.99484756], [-46.19668294, -23.9948095], [-46.19576071, -23.99437168], [-46.19420007, -23.99305096], [-46.19327878, -23.99279178], [-46.1927413, -23.99230696], [-46.19244474, -23.9915984], [-46.1919062, -23.99093593], [-46.19108041, -23.99049849], [-46.19025643, -23.99037156], [-46.18899952, -23.99047041], [-46.18764685, -23.99070253], [-46.18687944, -23.99133038], [-46.18649619, -23.99182242], [-46.18563021, -23.99227386], [-46.1845198, -23.9925039], [-46.18359979, -23.99246721], [-46.18286938, -23.9919834], [-46.18218637, -23.99136649], [-46.18183833, -23.99025874], [-46.18178383, -23.98968177], [-46.18221508, -23.98914458], [-46.18370971, -23.98860026], [-46.18418768, -23.98797397], [-46.18510332, -23.98761203], [-46.18582679, -23.98738396], [-46.18620895, -23.98689274], [-46.18629995, -23.98626927], [-46.18629391, -23.98555836], [-46.18604563, -23.98484951], [-46.18507218, -23.98423501], [-46.18429576, -23.98397411], [-46.18409851, -23.98357561], [-46.1840472, -23.98322129], [-46.18428723, -23.98299657], [-46.18559309, -23.98303122], [-46.18607725, -23.98298304], [-46.18641218, -23.98266981], [-46.18640943, -23.98235831], [-46.18621421, -23.98213759], [-46.18577671, -23.98191897], [-46.1854827, -23.981477], [-46.1853812, -23.98094431], [-46.18537642, -23.98045593], [-46.18522689, -23.97996837], [-46.18478869, -23.97961602], [-46.18473594, -23.9791719], [-46.1848771, -23.9787268], [-46.18516357, -23.97836896], [-46.18588698, -23.97814086], [-46.18632195, -23.97809286], [-46.18656411, -23.97809167], [-46.18680483, -23.97800067], [-46.18714302, -23.9779092], [-46.18728418, -23.9774641], [-46.18713492, -23.97702051], [-46.18688967, -23.97666713], [-46.18640451, -23.9765376], [-46.18591857, -23.97627438], [-46.18572084, -23.97578704], [-46.18576375, -23.9752096], [-46.18600194, -23.97485197], [-46.18628706, -23.9742724], [-46.186476, -23.97373734], [-46.18651943, -23.97324874], [-46.1862108, -23.97238255], [-46.1861118, -23.97236049], [-46.18439898, -23.97283912], [-46.18414654, -23.97244234], [-46.18407013, -23.97159327], [-46.18438772, -23.97096511], [-46.18580551, -23.97012611], [-46.1859402, -23.96909032], [-46.1855339, -23.96684996], [-46.18502083, -23.96500711], [-46.18359606, -23.96244251], [-46.1824822, -23.96133911], [-46.18195254, -23.96118133], [-46.18121963, -23.96142239], [-46.18072709, -23.96125214], [-46.17998187, -23.96075502], [-46.1790192, -23.96082568], [-46.17815194, -23.96079884], [-46.17765791, -23.96052443], [-46.1762949, -23.95991168], [-46.17473035, -23.95942515], [-46.17281933, -23.9581315], [-46.17264058, -23.95763974], [-46.17239204, -23.95687168], [-46.17185547, -23.95634208], [-46.17155653, -23.95536692], [-46.17140177, -23.95430214], [-46.17051307, -23.95226441], [-46.17012022, -23.95155635], [-46.16899983, -23.95067685], [-46.16846129, -23.94996947], [-46.16787426, -23.94921841], [-46.16772231, -23.94846418], [-46.16761909, -23.94779862], [-46.16673989, -23.94673931], [-46.16552666, -23.94630375], [-46.16431615, -23.94617959], [-46.16296264, -23.94618997], [-46.16194879, -23.94637548], [-46.16102969, -23.94642666], [-46.160835, -23.94629476], [-46.16073559, -23.94593982], [-46.16078106, -23.94562901], [-46.16126162, -23.94531419], [-46.16232069, -23.94477303], [-46.16270632, -23.94454765], [-46.16376911, -23.94449565], [-46.16483243, -23.94435389], [-46.1653635, -23.94426058], [-46.16555569, -23.94412586], [-46.1658895, -23.94363495], [-46.16587381, -23.94190163], [-46.16615993, -23.94149982], [-46.16668987, -23.94122969], [-46.16678112, -23.94065112], [-46.16691934, -23.93984971], [-46.16695974, -23.93900568], [-46.16724409, -23.93829245], [-46.16806125, -23.93779729], [-46.1692192, -23.93752213], [-46.16980245, -23.93778407], [-46.17048368, -23.93831201], [-46.17072906, -23.93871023], [-46.17126562, -23.93923895], [-46.17233488, -23.93980898], [-46.17291967, -23.94033742], [-46.17350118, -23.94046645], [-46.1735534, -23.94082167], [-46.17360797, -23.94157633], [-46.17371122, -23.94224192], [-46.17385591, -23.94224114], [-46.17573402, -23.94138241], [-46.17803809, -23.93945415], [-46.17937731, -23.93784407], [-46.17983749, -23.93521868], [-46.18005352, -23.93241764], [-46.18008498, -23.93055119], [-46.17977557, -23.92846565], [-46.17941746, -23.92629061], [-46.17887511, -23.92509499], [-46.17726403, -23.9234192], [-46.17556464, -23.92263255], [-46.17463959, -23.92197295], [-46.17375821, -23.92069111], [-46.17351083, -23.92011514], [-46.17219578, -23.9190581], [-46.17155977, -23.91817448], [-46.17116799, -23.91764416], [-46.17029545, -23.91738469], [-46.16990344, -23.91680947], [-46.16970375, -23.91614441], [-46.16902337, -23.91575022], [-46.1685884, -23.91575329], [-46.16805974, -23.91606841], [-46.16772423, -23.91642648], [-46.16719182, -23.91643095], [-46.16675357, -23.91603373], [-46.16665266, -23.91558985], [-46.16737438, -23.9151401], [-46.16833695, -23.91464419], [-46.16872089, -23.91433075], [-46.16890877, -23.91379565], [-46.16895267, -23.91321737], [-46.16846166, -23.91237696], [-46.16670139, -23.91021355], [-46.16460715, -23.9084962], [-46.16217828, -23.90727058], [-46.16052992, -23.9067493], [-46.15971023, -23.90693387], [-46.15845537, -23.90725437], [-46.15758777, -23.90748225], [-46.15701115, -23.90784244], [-46.15696668, -23.90833182], [-46.15692346, -23.90886529], [-46.15673465, -23.90939945], [-46.15611055, -23.90989358], [-46.15504479, -23.90972383], [-46.15387859, -23.90902145], [-46.15261667, -23.90845327], [-46.15107, -23.90850946], [-46.14995584, -23.90829509], [-46.14956558, -23.90785359], [-46.14897951, -23.90723624], [-46.14849113, -23.9066624], [-46.14762125, -23.90666852], [-46.14684605, -23.90654128], [-46.1461193, -23.90628012], [-46.14592223, -23.90588165], [-46.14596748, -23.90552596], [-46.14659208, -23.90512071], [-46.14794459, -23.90502242], [-46.14896488, -23.90550302], [-46.15037061, -23.90593676], [-46.15109584, -23.90593136], [-46.15172012, -23.90548301], [-46.15214684, -23.90454641], [-46.15261131, -23.90245437], [-46.15259958, -23.90107658], [-46.15254308, -23.90014423], [-46.15185888, -23.8993936], [-46.15146841, -23.89890817], [-46.15136472, -23.89815376], [-46.15131081, -23.8974871], [-46.1511104, -23.89668922], [-46.15052314, -23.89584931], [-46.14964638, -23.89514453], [-46.14857621, -23.89435281], [-46.14784605, -23.89382503], [-46.14668376, -23.89361181], [-46.1461582, -23.89358099], [-46.14862201, -23.8915773], [-46.15246209, -23.89034977], [-46.15567798, -23.88853373], [-46.15904508, -23.88978076], [-46.1616635, -23.88763483], [-46.15963568, -23.88478016], [-46.1543791, -23.87655084], [-46.15016597, -23.87582242], [-46.14703565, -23.873204], [-46.14716526, -23.87158417], [-46.14355095, -23.86757341], [-46.14260594, -23.86456124], [-46.14120813, -23.86347844], [-46.14151389, -23.86008595], [-46.14149255, -23.86000217], [-46.14121572, -23.85992556], [-46.13928229, -23.8598509], [-46.13797647, -23.85977125], [-46.13613566, -23.8592078], [-46.13569918, -23.85907711], [-46.13507009, -23.85899317], [-46.13439231, -23.85882063], [-46.1337608, -23.85846921], [-46.13254464, -23.85754535], [-46.13369023, -23.85516408], [-46.13359176, -23.85311176], [-46.13349147, -23.85197804], [-46.13336084, -23.85145826], [-46.13356828, -23.85084344], [-46.13130587, -23.8468808], [-46.12799877, -23.84239595], [-46.11456075, -23.83413826], [-46.10814609, -23.83073602], [-46.10143546, -23.82746833], [-46.08965662, -23.82198125], [-46.07818632, -23.81768533], [-46.07208061, -23.81560565], [-46.0701439, -23.81482321], [-46.06240908, -23.81328526], [-46.05632053, -23.81319468], [-46.05054858, -23.81562102], [-46.04581961, -23.81857143], [-46.04361886, -23.82190242], [-46.04304045, -23.82389555], [-46.04379775, -23.82574725], [-46.04528682, -23.8261348], [-46.04544461, -23.82732787], [-46.04634184, -23.82811747], [-46.04901555, -23.82823199], [-46.04976287, -23.82875737], [-46.04917515, -23.829557], [-46.0469562, -23.83063373], [-46.04562972, -23.83196871], [-46.04369061, -23.8309203], [-46.04189852, -23.82960668], [-46.03995469, -23.82802783], [-46.03830642, -23.82618251], [-46.03844257, -23.82459007], [-46.03783765, -23.82326735], [-46.03678583, -23.82168312], [-46.03440759, -23.82143379], [-46.03380674, -23.82050953], [-46.03721726, -23.81995605], [-46.03810371, -23.81928658], [-46.03926824, -23.816361], [-46.03731455, -23.8134559], [-46.035518, -23.81161105], [-46.03283128, -23.8099053], [-46.02284178, -23.8046664], [-46.01643893, -23.80245391], [-46.00274699, -23.79843199], [-45.99919281, -23.79964835], [-45.99831034, -23.80071514], [-45.999507, -23.80190155], [-45.99921773, -23.80283202], [-45.99580354, -23.80298631], [-45.99371736, -23.8020716], [-45.99132768, -23.80022988], [-45.99131874, -23.7990365], [-45.99085685, -23.79691743], [-45.99159261, -23.79598395], [-45.99248568, -23.79624342], [-45.99232898, -23.79518323], [-45.99053093, -23.79307247], [-45.98813843, -23.79083331], [-45.98024501, -23.78756779], [-45.976072, -23.78547254], [-45.97130542, -23.78337973], [-45.97010903, -23.78219414], [-45.97068825, -23.7802006], [-45.96979752, -23.78020666], [-45.96861874, -23.7814077], [-45.96579959, -23.78168993], [-45.96208324, -23.78105034], [-45.95181086, -23.77713511], [-45.94601084, -23.77571202], [-45.93604974, -23.77364976], [-45.93054475, -23.77195892], [-45.91790582, -23.76911639], [-45.90318331, -23.76535735], [-45.89842996, -23.76498711], [-45.89529945, -23.76301524], [-45.8951402, -23.76142498], [-45.89425022, -23.76156251], [-45.89410722, -23.76235946], [-45.89471983, -23.76514097], [-45.892488, -23.76435837], [-45.88996476, -23.76437307], [-45.88772824, -23.76292657], [-45.88297651, -23.76268868], [-45.8808917, -23.76177196], [-45.8801602, -23.76336772], [-45.87793328, -23.76324791], [-45.87703323, -23.76192663], [-45.87570004, -23.76233232], [-45.87435686, -23.76127845], [-45.86811368, -23.75998749], [-45.86009424, -23.7593692], [-45.84316002, -23.75760577], [-45.83543824, -23.75711666], [-45.82682698, -23.75689794], [-45.81450722, -23.75696354], [-45.8072406, -23.75806256], [-45.80324341, -23.7598078], [-45.80117324, -23.76114509], [-45.80015165, -23.76406817], [-45.80150051, -23.7660509], [-45.80234864, -23.7664872], [-45.8032779, -23.76696942], [-45.80330013, -23.76815453], [-45.80211306, -23.76909866], [-45.85002191, -24.00866647], [-45.91263404, -24.03999583], [-45.92413632, -24.04543006], [-45.92935853, -24.04790627], [-45.94367047, -24.05595757], [-45.94914877, -24.05904218], [-45.96000523, -24.06514228], [-45.96078309, -24.06560361], [-45.96207664, -24.06639686], [-45.97032387, -24.06906701], [-45.99233946, -24.07619955], [-46.02415534, -24.08538141], [-46.03221889, -24.08770344], [-46.033543, -24.08875701], [-46.04294134, -24.09107955], [-46.0481644, -24.09236637], [-46.06795365, -24.10223055], [-46.0685264, -24.10195468], [-46.07299212, -24.10252175], [-46.09352984, -24.10508286], [-46.10024835, -24.10593481], [-46.10865491, -24.10695678], [-46.11091658, -24.10658568], [-46.11310533, -24.10671805], [-46.123561, -24.10871432], [-46.1261097, -24.10952422], [-46.12916278, -24.11103149], [-46.1320368, -24.11209957], [-46.13298656, -24.11275001], [-46.14079684, -24.11400612], [-46.14240722, -24.11470845], [-46.14939926, -24.11973332], [-46.17343777, -24.12502365], [-46.17919457, -24.12532385], [-46.18143338, -24.12597156], [-46.18293111, -24.12737822], [-46.18404737, -24.12819404], [-46.24441228, -24.11835812], [-46.30278522, -24.07791352], [-46.32515691, -24.05819602]]], [[[-46.10712377, -23.79527962], [-46.10741978, -23.7947113], [-46.10749745, -23.79419488], [-46.1070856, -23.79348299], [-46.10690607, -23.79339471], [-46.10671303, -23.79337397], [-46.10650057, -23.7933438], [-46.10623554, -23.79339428], [-46.10591066, -23.7934982], [-46.10535898, -23.79300405], [-46.10478845, -23.79237064], [-46.10350541, -23.79301727], [-46.10297129, -23.79291491], [-46.10280997, -23.79334606], [-46.10226942, -23.79376309], [-46.10242544, -23.79442883], [-46.10304773, -23.79525479], [-46.10398388, -23.79600302], [-46.10484816, -23.79633654], [-46.10581795, -23.79630589], [-46.10607246, -23.79635914], [-46.10625789, -23.7964566], [-46.10635835, -23.79653479], [-46.10641232, -23.79657161], [-46.10644369, -23.79656759], [-46.10651242, -23.79653242], [-46.1069082, -23.79565863], [-46.10712377, -23.79527962]]], [[[-45.97466306, -23.782146], [-45.97471297, -23.78158357], [-45.97457336, -23.78119136], [-45.97435572, -23.78102764], [-45.97432133, -23.78099851], [-45.97398548, -23.78063899], [-45.97399187, -23.7807325], [-45.97403891, -23.78093137], [-45.9741222, -23.78140779], [-45.97400442, -23.78165251], [-45.97399199, -23.78189631], [-45.97389674, -23.78210656], [-45.97354368, -23.78249663], [-45.9740178, -23.78268468], [-45.97413658, -23.78257386], [-45.97438539, -23.78233382], [-45.97466306, -23.782146]]], [[[-45.96678666, -23.7795869], [-45.96478442, -23.778769], [-45.96415421, -23.77859679], [-45.96389417, -23.77856066], [-45.9635375, -23.77839932], [-45.9630175, -23.77833966], [-45.96235912, -23.77805437], [-45.96204282, -23.7778047], [-45.96209556, -23.77754013], [-45.96220503, -23.77755203], [-45.96236789, -23.77738744], [-45.96227033, -23.7771364], [-45.96232437, -23.77704799], [-45.96254321, -23.7770592], [-45.96343327, -23.77724238], [-45.96468111, -23.77773788], [-45.96503815, -23.77794955], [-45.9657103, -23.77824732], [-45.96616277, -23.77842064], [-45.9673952, -23.77867714], [-45.96802494, -23.77878643], [-45.96839418, -23.7787967], [-45.96899453, -23.77862935], [-45.96964733, -23.77815969], [-45.96979455, -23.77773096], [-45.96978302, -23.7774132], [-45.96976769, -23.77736958], [-45.96975007, -23.77732576], [-45.96944585, -23.77680205], [-45.96911568, -23.77652731], [-45.96887408, -23.77641713], [-45.9691878, -23.7759997], [-45.96928165, -23.77575294], [-45.97108634, -23.77581352], [-45.97199273, -23.77605335], [-45.97297632, -23.7756007], [-45.97321144, -23.77548909], [-45.97322358, -23.77549025], [-45.97348543, -23.77536582], [-45.97390511, -23.77517467], [-45.97408906, -23.7750857], [-45.97420805, -23.77503175], [-45.97458535, -23.77466724], [-45.97476606, -23.77448727], [-45.97477413, -23.77448598], [-45.97505105, -23.77421449], [-45.97508079, -23.77314232], [-45.97499816, -23.77236018], [-45.97512571, -23.77184633], [-45.97573809, -23.77120502], [-45.97661921, -23.77093256], [-45.9802191, -23.77136882], [-45.98047016, -23.77124569], [-45.98079971, -23.77107741], [-45.98107643, -23.77094357], [-45.98184901, -23.77061064], [-45.98202096, -23.77054009], [-45.983341, -23.76997014], [-45.98269062, -23.76883673], [-45.98259652, -23.76853676], [-45.98270507, -23.76827572], [-45.98283391, -23.76848163], [-45.98307373, -23.7686712], [-45.98327382, -23.76869116], [-45.98353522, -23.76868241], [-45.98369051, -23.7688796], [-45.98362295, -23.76909944], [-45.98337004, -23.76921429], [-45.98339433, -23.76937692], [-45.98385668, -23.76950137], [-45.98419508, -23.76950629], [-45.98461034, -23.76950364], [-45.98500904, -23.76934538], [-45.98549137, -23.7690592], [-45.98573472, -23.76869668], [-45.98592222, -23.76806557], [-45.9862302, -23.76709396], [-45.98609654, -23.76670555], [-45.98591092, -23.76656518], [-45.98561076, -23.76653171], [-45.98555597, -23.76640467], [-45.98568478, -23.76614905], [-45.98594404, -23.76585721], [-45.98610635, -23.76575611], [-45.98601446, -23.76570235], [-45.98570715, -23.76479009], [-45.9848573, -23.76423996], [-45.98428972, -23.76387864], [-45.98280594, -23.76336981], [-45.98254578, -23.76275993], [-45.9821218, -23.76254089], [-45.98211993, -23.76254196], [-45.98204217, -23.76237866], [-45.98184962, -23.76233742], [-45.9816122, -23.76246633], [-45.98134201, -23.7623265], [-45.98129754, -23.76240277], [-45.98103097, -23.7627381], [-45.98074001, -23.76295515], [-45.9801542, -23.76322069], [-45.97989772, -23.76376078], [-45.97966232, -23.76426601], [-45.97902844, -23.76460599], [-45.97876512, -23.76504648], [-45.97773886, -23.76566879], [-45.97719918, -23.76599214], [-45.97676143, -23.76641903], [-45.97621705, -23.76585837], [-45.97480215, -23.76666453], [-45.97442265, -23.76719697], [-45.97355933, -23.76746531], [-45.97202505, -23.76820782], [-45.97167526, -23.76840371], [-45.97076688, -23.76892038], [-45.97025553, -23.76831113], [-45.96912182, -23.76838772], [-45.96858812, -23.76805178], [-45.96811259, -23.76810419], [-45.96778674, -23.76797444], [-45.9677563, -23.76775699], [-45.96779008, -23.76764531], [-45.96781746, -23.76744873], [-45.96771251, -23.76729545], [-45.96751026, -23.76724363], [-45.96693937, -23.76723129], [-45.96691629, -23.76691508], [-45.96681098, -23.76666719], [-45.96670793, -23.76638328], [-45.9665306, -23.76595233], [-45.96640654, -23.76555868], [-45.9664, -23.76556081], [-45.96618677, -23.76557138], [-45.96604762, -23.76521443], [-45.96585644, -23.76509885], [-45.96567185, -23.7650947], [-45.96557427, -23.76515901], [-45.96553021, -23.76524051], [-45.96523015, -23.76513366], [-45.96507457, -23.76518103], [-45.96472559, -23.76527599], [-45.96458422, -23.76522179], [-45.96442476, -23.7651706], [-45.96421407, -23.7650081], [-45.96380986, -23.76498091], [-45.96363909, -23.76489209], [-45.96332219, -23.76502165], [-45.96316912, -23.76513365], [-45.96320968, -23.76529431], [-45.9634592, -23.76538263], [-45.9637307, -23.76545733], [-45.96368481, -23.76546809], [-45.96321774, -23.76548162], [-45.96307956, -23.76551434], [-45.96303002, -23.76568485], [-45.96282154, -23.76597077], [-45.96303338, -23.7661419], [-45.96339965, -23.76656616], [-45.96379778, -23.76671187], [-45.96374845, -23.76706253], [-45.96380793, -23.76730634], [-45.96379823, -23.76755588], [-45.96382603, -23.76762707], [-45.96324631, -23.76837184], [-45.96309705, -23.76863034], [-45.96309934, -23.76879243], [-45.96288604, -23.76912997], [-45.96283223, -23.76940935], [-45.96300801, -23.76977772], [-45.9631767, -23.76995622], [-45.96330921, -23.77010156], [-45.96352944, -23.77033286], [-45.96381309, -23.77062334], [-45.96399339, -23.77089158], [-45.96407577, -23.77107101], [-45.96445853, -23.77135744], [-45.96470646, -23.7716309], [-45.96483654, -23.77220466], [-45.96469978, -23.77258144], [-45.96436668, -23.77329837], [-45.96419263, -23.77368165], [-45.96417206, -23.77402151], [-45.96416719, -23.77440373], [-45.96410702, -23.77458813], [-45.96429404, -23.77491961], [-45.96461823, -23.77508037], [-45.96494096, -23.77504296], [-45.96530198, -23.77498408], [-45.96553216, -23.77491186], [-45.9666621, -23.774834], [-45.96688397, -23.7746769], [-45.96725995, -23.7745613], [-45.96742872, -23.77450362], [-45.96780554, -23.77450126], [-45.96812052, -23.77445681], [-45.96831984, -23.77437063], [-45.96840457, -23.77442932], [-45.96819186, -23.77478454], [-45.96794913, -23.77523903], [-45.96791471, -23.77578423], [-45.96805654, -23.77624339], [-45.96852152, -23.77672175], [-45.96899362, -23.77712221], [-45.96928837, -23.77746008], [-45.96932097, -23.7777076], [-45.96920776, -23.77799849], [-45.96864071, -23.77827808], [-45.9679264, -23.77840289], [-45.96745681, -23.77834214], [-45.96675478, -23.77804928], [-45.96609964, -23.77785521], [-45.96565291, -23.777766], [-45.96458783, -23.777256], [-45.96407818, -23.77697608], [-45.96361316, -23.77649063], [-45.96294218, -23.77623295], [-45.96243456, -23.77622904], [-45.96199694, -23.77633086], [-45.96172186, -23.77657322], [-45.96156998, -23.77683604], [-45.96164195, -23.77721071], [-45.96163577, -23.777416], [-45.9614221, -23.77764382], [-45.96117757, -23.77785767], [-45.96107973, -23.77814846], [-45.96138345, -23.77866324], [-45.96177775, -23.77894389], [-45.96270876, -23.77900178], [-45.96331782, -23.77920322], [-45.96445898, -23.77959952], [-45.96490597, -23.77972412], [-45.96557526, -23.77974824], [-45.96628472, -23.78000566], [-45.96740921, -23.7802251], [-45.96846576, -23.78027246], [-45.96874937, -23.78008223], [-45.96885374, -23.77992623], [-45.96721198, -23.77978555], [-45.96678666, -23.7795869]]], [[[-45.89581231, -23.76201325], [-45.89591973, -23.76122936], [-45.89622551, -23.76096334], [-45.89659331, -23.76077246], [-45.89718791, -23.76075957], [-45.89776148, -23.7606713], [-45.8980468, -23.76041484], [-45.8981361, -23.75998022], [-45.89802021, -23.75952792], [-45.89755289, -23.75866243], [-45.89726271, -23.75821114], [-45.89691219, -23.75793007], [-45.89655108, -23.75760188], [-45.8963508, -23.75715123], [-45.89716323, -23.75676045], [-45.89751103, -23.75628105], [-45.89801785, -23.75571993], [-45.89853202, -23.75495165], [-45.89866544, -23.75426987], [-45.8987844, -23.75336014], [-45.89784702, -23.75163747], [-45.89738274, -23.75141837], [-45.89738818, -23.74988411], [-45.89754832, -23.74915168], [-45.89781449, -23.74875648], [-45.89806097, -23.74863019], [-45.89888199, -23.74851524], [-45.90043162, -23.74761019], [-45.90118522, -23.74697418], [-45.90158805, -23.74661342], [-45.90221702, -23.74641879], [-45.90307772, -23.74627421], [-45.90323434, -23.74584732], [-45.90382494, -23.74587324], [-45.90438936, -23.74557616], [-45.9049327, -23.74569048], [-45.90537811, -23.74548957], [-45.90515681, -23.74463893], [-45.90403692, -23.74421952], [-45.90346885, -23.74398783], [-45.90309261, -23.74380643], [-45.90274368, -23.7435938], [-45.90257337, -23.74335593], [-45.90235445, -23.7431243], [-45.90217167, -23.74296115], [-45.90191192, -23.74298983], [-45.90164054, -23.74247147], [-45.90155927, -23.74201437], [-45.90156186, -23.74168175], [-45.90169066, -23.74124051], [-45.90167249, -23.74072821], [-45.9014376, -23.74065272], [-45.90138296, -23.7405182], [-45.90154195, -23.74020713], [-45.90172146, -23.74003978], [-45.90129521, -23.74003707], [-45.90120076, -23.73998089], [-45.90128704, -23.73979227], [-45.90141992, -23.73977657], [-45.90151667, -23.73969538], [-45.90155091, -23.73948617], [-45.90144632, -23.73937032], [-45.90127722, -23.73930861], [-45.90069066, -23.73928551], [-45.90063698, -23.73933556], [-45.89981086, -23.73881885], [-45.8993666, -23.73915976], [-45.89924066, -23.73979003], [-45.89914085, -23.74015232], [-45.89871406, -23.74006458], [-45.89861082, -23.74012294], [-45.89843047, -23.74010986], [-45.89831648, -23.74026587], [-45.89826829, -23.74050976], [-45.89825511, -23.74082406], [-45.89829851, -23.74100034], [-45.89843868, -23.74130669], [-45.89869439, -23.74168297], [-45.89868352, -23.74177518], [-45.89830677, -23.74220458], [-45.89854124, -23.74283872], [-45.89835964, -23.74320378], [-45.89869539, -23.74350546], [-45.89913467, -23.743803], [-45.89868041, -23.74411634], [-45.897643, -23.74384699], [-45.89700097, -23.74390721], [-45.89662582, -23.74401178], [-45.89628831, -23.74401374], [-45.8959912, -23.74426587], [-45.89590381, -23.74392197], [-45.89546712, -23.74302799], [-45.8951953, -23.74225573], [-45.89498795, -23.7419172], [-45.89454566, -23.74170271], [-45.89414346, -23.74166712], [-45.89412395, -23.7415104], [-45.89361897, -23.741117], [-45.89248037, -23.74088986], [-45.89183125, -23.74121372], [-45.89131255, -23.74123705], [-45.89060651, -23.74195756], [-45.89023375, -23.74314971], [-45.88994399, -23.74287069], [-45.88957174, -23.74240098], [-45.88905655, -23.74201704], [-45.88912555, -23.74180601], [-45.88946421, -23.74101387], [-45.88883263, -23.74039556], [-45.88723362, -23.73908192], [-45.88670371, -23.73824378], [-45.88611653, -23.73707921], [-45.88573717, -23.73619044], [-45.88514529, -23.73571502], [-45.88409865, -23.73560331], [-45.88377911, -23.73594727], [-45.88389718, -23.7370243], [-45.88346188, -23.7373686], [-45.88327296, -23.73817274], [-45.88294857, -23.73822953], [-45.88251008, -23.73794955], [-45.88253141, -23.73757277], [-45.88287452, -23.73713326], [-45.88302437, -23.73634833], [-45.88278062, -23.73584831], [-45.8818415, -23.73499365], [-45.88067991, -23.73413916], [-45.88000822, -23.73398511], [-45.8793369, -23.73409115], [-45.87922525, -23.73458118], [-45.87925744, -23.73509684], [-45.87882369, -23.73565847], [-45.87862304, -23.73631077], [-45.87869835, -23.73683882], [-45.87872254, -23.73689566], [-45.87866064, -23.73701499], [-45.87855884, -23.73731284], [-45.87828264, -23.73739934], [-45.87775386, -23.73765715], [-45.87723141, -23.73799986], [-45.87685725, -23.73809754], [-45.87705629, -23.73833474], [-45.87786129, -23.73874223], [-45.87804471, -23.73927515], [-45.87872908, -23.73979359], [-45.8792475, -23.74060537], [-45.87839361, -23.7412898], [-45.87811068, -23.74193684], [-45.87832774, -23.74340344], [-45.87883192, -23.74384455], [-45.88004304, -23.74393341], [-45.88037407, -23.74428848], [-45.87995313, -23.74533813], [-45.88005998, -23.74645355], [-45.88077269, -23.74696137], [-45.88174165, -23.74760004], [-45.88353496, -23.74846904], [-45.88372519, -23.74890845], [-45.88521428, -23.750937], [-45.88741708, -23.75151196], [-45.88791063, -23.75177028], [-45.8890649, -23.75183328], [-45.89042026, -23.75226073], [-45.89080122, -23.75284152], [-45.89039184, -23.75414926], [-45.88989791, -23.75460052], [-45.88999946, -23.75563451], [-45.89100775, -23.75589624], [-45.89225477, -23.75707297], [-45.89427315, -23.75776833], [-45.89545558, -23.75919439], [-45.89538367, -23.75930732], [-45.89540031, -23.76024149], [-45.89553754, -23.76081635], [-45.89547087, -23.76156226], [-45.89538241, -23.76211955], [-45.89556902, -23.76242045], [-45.89572611, -23.76290083], [-45.89575703, -23.7629406], [-45.89592835, -23.76280735], [-45.89601122, -23.76279862], [-45.89595025, -23.76269191], [-45.89581231, -23.76201325]], [[-45.89501842, -23.75252816], [-45.8951857, -23.75187511], [-45.89517917, -23.75190355], [-45.89563541, -23.75188516], [-45.89556874, -23.75229555], [-45.89560232, -23.75253772], [-45.89558792, -23.75276548], [-45.89559715, -23.75294903], [-45.89538394, -23.75327342], [-45.8951918, -23.75317906], [-45.89486492, -23.75321768], [-45.89478601, -23.75315313], [-45.89501842, -23.75252816]], [[-45.89395824, -23.75626744], [-45.89399506, -23.75565382], [-45.89415407, -23.75491681], [-45.89437543, -23.75430212], [-45.89460061, -23.75409627], [-45.89480915, -23.7544151], [-45.89543525, -23.75494176], [-45.89554931, -23.75528628], [-45.89583279, -23.75590156], [-45.89605176, -23.75656827], [-45.89583456, -23.75627542], [-45.89559875, -23.75627679], [-45.89578034, -23.75734212], [-45.89527765, -23.75729785], [-45.89501985, -23.7570823], [-45.89428941, -23.75671849], [-45.89395824, -23.75626744]]]]}}]}