{"type": "FeatureCollection", "features": [{"type": "Feature", "properties": {"name": "Área de Proteção Ambiental Ilha Comprida"}, "geometry": {"type": "MultiPolygon", "coordinates": [[[[-47.88895633, -25.053972], [-47.88915525, -25.05401334], [-47.88936522, -25.05401863], [-47.88954112, -25.05389206], [-47.88987745, -25.05355043], [-47.89023747, -25.05322964], [-47.89077923, -25.05280034], [-47.89122222, -25.05253038], [-47.89151611, -25.05237718], [-47.89189466, -25.05233888], [-47.89261971, -25.05234607], [-47.8945655, -25.05248589], [-47.89514163, -25.05256832], [-47.89669351, -25.05308293], [-47.89754769, -25.05323314], [-47.89908103, -25.05346523], [-47.90039643, -25.05370103], [-47.90122541, -25.05372661], [-47.90161653, -25.05376052], [-47.90204142, -25.05377379], [-47.90224846, -25.05376913], [-47.90282141, -25.05367467], [-47.90330035, -25.05356091], [-47.90443693, -25.05346488], [-47.90605491, -25.05337058], [-47.90680937, -25.05321991], [-47.90740425, -25.05309302], [-47.90835818, -25.05308473], [-47.90989171, -25.05327522], [-47.91193548, -25.05321307], [-47.91270268, -25.05309309], [-47.91324851, -25.05285232], [-47.91385775, -25.05238078], [-47.91426088, -25.05192204], [-47.91457441, -25.05157035], [-47.91477303, -25.05122096], [-47.91491487, -25.05094535], [-47.91492013, -25.05064219], [-47.91495719, -25.05031659], [-47.91491769, -25.05005568], [-47.91484421, -25.04986864], [-47.91477144, -25.04974476], [-47.914573, -25.04959156], [-47.9142688, -25.04938836], [-47.91404582, -25.04918364], [-47.91397143, -25.04897584], [-47.91393113, -25.04867342], [-47.91385337, -25.04832936], [-47.91369789, -25.0480915], [-47.91359762, -25.04791428], [-47.91363648, -25.04716821], [-47.91366946, -25.04617848], [-47.91355361, -25.04363803], [-47.91354037, -25.04187845], [-47.91324628, -25.03955933], [-47.91309018, -25.03831717], [-47.91300122, -25.03758597], [-47.91297223, -25.03695785], [-47.91300652, -25.03658441], [-47.9131704, -25.03578553], [-47.91328801, -25.03538441], [-47.913336, -25.03504892], [-47.91334872, -25.03439387], [-47.91326483, -25.03317542], [-47.91322676, -25.03281616], [-47.91324212, -25.03223872], [-47.9132258, -25.03096728], [-47.9133489, -25.03020705], [-47.91355207, -25.02925221], [-47.91385875, -25.02794943], [-47.9142123, -25.0267975], [-47.91448447, -25.02591689], [-47.91471764, -25.02535286], [-47.91498932, -25.02481423], [-47.91528135, -25.02438214], [-47.91601178, -25.0235591], [-47.91674624, -25.02248612], [-47.91738951, -25.02166096], [-47.91766335, -25.02131002], [-47.91780375, -25.02113005], [-47.91819816, -25.02037167], [-47.91853764, -25.01925668], [-47.91863461, -25.01834475], [-47.91866145, -25.01716007], [-47.91856165, -25.01641168], [-47.91827952, -25.01569151], [-47.91784573, -25.01477409], [-47.91773156, -25.01460946], [-47.91704603, -25.01351429], [-47.91639755, -25.0127865], [-47.91564477, -25.01213684], [-47.91557475, -25.01207072], [-47.91518272, -25.01181396], [-47.91463586, -25.01140956], [-47.91390114, -25.01070762], [-47.91313003, -25.01018151], [-47.91221862, -25.0095836], [-47.9120101, -25.0094872], [-47.91167679, -25.00939307], [-47.91109503, -25.00927909], [-47.91084481, -25.00920781], [-47.91000698, -25.00877258], [-47.90932421, -25.00843175], [-47.90740931, -25.00747738], [-47.9070353, -25.00740926], [-47.90639892, -25.00733387], [-47.90609347, -25.00721365], [-47.90574108, -25.00695701], [-47.9050427, -25.00656828], [-47.90391728, -25.00623845], [-47.9024691, -25.00567553], [-47.90182777, -25.00537452], [-47.90081533, -25.00457676], [-47.89971488, -25.00352962], [-47.89883605, -25.0025275], [-47.89807385, -25.00180102], [-47.89767518, -25.00126807], [-47.89741833, -25.00090889], [-47.89724035, -25.00040472], [-47.89700646, -25.00000592], [-47.89673164, -24.99945538], [-47.89637259, -24.99892347], [-47.89607224, -24.9985515], [-47.89564817, -24.99772157], [-47.89549927, -24.99736008], [-47.89525277, -24.99667969], [-47.89516883, -24.99640687], [-47.89510039, -24.99576414], [-47.89498626, -24.99359173], [-47.89480808, -24.99246492], [-47.89474126, -24.99168233], [-47.89479993, -24.9900628], [-47.89489806, -24.98914365], [-47.8948511, -24.98857137], [-47.89449096, -24.98739877], [-47.89439134, -24.98664402], [-47.89441493, -24.98623624], [-47.89454945, -24.98559786], [-47.89489058, -24.98457944], [-47.8950963, -24.98418135], [-47.89520556, -24.98387765], [-47.89524591, -24.98348436], [-47.89510777, -24.98293251], [-47.89507008, -24.98250284], [-47.89517647, -24.98172899], [-47.89514458, -24.98155291], [-47.89504344, -24.98136485], [-47.89492838, -24.98119027], [-47.89438654, -24.98058819], [-47.89389052, -24.97992492], [-47.89317608, -24.97895494], [-47.89294719, -24.97855434], [-47.89278649, -24.97818016], [-47.89273834, -24.97787859], [-47.89277148, -24.97755025], [-47.89307745, -24.97642341], [-47.89340374, -24.9756233], [-47.89400424, -24.97237515], [-47.8942289, -24.97194283], [-47.89437627, -24.97175027], [-47.89459392, -24.97155706], [-47.89471592, -24.97150427], [-47.8948537, -24.97146417], [-47.89528392, -24.97155689], [-47.89559022, -24.97168977], [-47.89620186, -24.97239497], [-47.89649699, -24.97259097], [-47.89667619, -24.97258712], [-47.89694989, -24.97248164], [-47.89706959, -24.97227724], [-47.89714682, -24.97204922], [-47.89708485, -24.97173587], [-47.8966198, -24.97078756], [-47.89532511, -24.96918829], [-47.89406562, -24.9679149], [-47.89289671, -24.96698112], [-47.89029665, -24.96510445], [-47.88997481, -24.96490925], [-47.88965539, -24.96483948], [-47.88895068, -24.9648152], [-47.88853516, -24.96476131], [-47.88813088, -24.96462987], [-47.88720832, -24.96418245], [-47.88622541, -24.96350831], [-47.88555556, -24.96321884], [-47.88508374, -24.96313947], [-47.88483525, -24.96314486], [-47.88450443, -24.96318874], [-47.88412079, -24.96331002], [-47.88354815, -24.96363634], [-47.88218859, -24.96460672], [-47.88123562, -24.96519239], [-47.87939073, -24.9666509], [-47.8789004, -24.96693781], [-47.87858425, -24.96701963], [-47.87817118, -24.96707763], [-47.87734762, -24.96728296], [-47.87607502, -24.9678358], [-47.87556651, -24.96798366], [-47.87377254, -24.96803098], [-47.87270909, -24.96809009], [-47.8716344, -24.96822404], [-47.87079032, -24.96815223], [-47.86758645, -24.96760932], [-47.86688803, -24.96729531], [-47.86522489, -24.96645779], [-47.86444, -24.96600717], [-47.86363568, -24.9652668], [-47.86186299, -24.96331167], [-47.86124126, -24.96269292], [-47.86057371, -24.961926], [-47.85890548, -24.95966532], [-47.858603, -24.95915429], [-47.85843999, -24.95866636], [-47.85822547, -24.95776403], [-47.85673227, -24.95471983], [-47.8561854, -24.95377288], [-47.85567368, -24.95251022], [-47.85490011, -24.95073668], [-47.85439293, -24.94914736], [-47.85415828, -24.94853461], [-47.85381189, -24.94789886], [-47.85351044, -24.94738872], [-47.85332938, -24.94674911], [-47.85310188, -24.94525473], [-47.85306811, -24.94486296], [-47.85298925, -24.94395934], [-47.85279846, -24.94286758], [-47.85214574, -24.94150779], [-47.85186914, -24.94035432], [-47.85185612, -24.93976229], [-47.85193997, -24.93919411], [-47.85210934, -24.93874989], [-47.85275289, -24.93786716], [-47.85277384, -24.93741424], [-47.85283239, -24.93738018], [-47.85285029, -24.9373631], [-47.85292131, -24.93741211], [-47.85335238, -24.93813393], [-47.85356162, -24.93825568], [-47.85372959, -24.9383159], [-47.85389483, -24.93832467], [-47.85412773, -24.93825791], [-47.85426468, -24.93817903], [-47.85431849, -24.93810254], [-47.85437792, -24.93767413], [-47.85420016, -24.93717259], [-47.85336656, -24.93576606], [-47.85298375, -24.93530703], [-47.8527138, -24.93504788], [-47.8503424, -24.93340515], [-47.84864303, -24.93217925], [-47.84735421, -24.93140889], [-47.84577395, -24.93053267], [-47.84417627, -24.92958147], [-47.84326472, -24.92898133], [-47.84198588, -24.92799798], [-47.84112326, -24.92710745], [-47.84082339, -24.92669835], [-47.84052614, -24.92636326], [-47.8402563, -24.92609145], [-47.84003237, -24.92594436], [-47.8394752, -24.92574088], [-47.83918447, -24.92569639], [-47.83864607, -24.92570596], [-47.83805384, -24.92579381], [-47.83699492, -24.92600251], [-47.83642881, -24.92601286], [-47.83623512, -24.92595432], [-47.83612254, -24.92590604], [-47.83596628, -24.92568251], [-47.8359435, -24.92527994], [-47.83600032, -24.92478744], [-47.83591242, -24.92454885], [-47.83568588, -24.92432684], [-47.83549042, -24.92422949], [-47.8352866, -24.92421964], [-47.83498754, -24.92425994], [-47.83477124, -24.92437638], [-47.83426284, -24.92513506], [-47.83389685, -24.92530323], [-47.83352085, -24.92529178], [-47.83305341, -24.92515812], [-47.8325369, -24.92494125], [-47.83130216, -24.9240699], [-47.83055345, -24.9233792], [-47.82950765, -24.92232813], [-47.82900117, -24.92188477], [-47.82839679, -24.92143019], [-47.82823534, -24.92105592], [-47.82776717, -24.92047285], [-47.82763678, -24.92022324], [-47.82730854, -24.91915884], [-47.8269918, -24.91857277], [-47.82674822, -24.91819998], [-47.82663089, -24.91791162], [-47.82652012, -24.91729752], [-47.82649169, -24.91664314], [-47.82615691, -24.91530076], [-47.82598933, -24.91396899], [-47.82612035, -24.91308515], [-47.82635565, -24.91252661], [-47.8267841, -24.91192644], [-47.82726229, -24.9110738], [-47.82740968, -24.91088129], [-47.82758466, -24.91071505], [-47.82779001, -24.91060941], [-47.82809221, -24.91052852], [-47.82901662, -24.91048628], [-47.82931963, -24.9104424], [-47.82974392, -24.9102835], [-47.82998829, -24.91008957], [-47.83025783, -24.90980731], [-47.8305037, -24.90930836], [-47.83080182, -24.90884843], [-47.83087254, -24.90875307], [-47.83098766, -24.90868405], [-47.83120761, -24.90862629], [-47.83139847, -24.90864962], [-47.83159099, -24.90873885], [-47.83204027, -24.90913233], [-47.83254623, -24.909471], [-47.83276771, -24.90950619], [-47.83329529, -24.90947043], [-47.83421052, -24.90907708], [-47.83526731, -24.90846861], [-47.83550124, -24.90838382], [-47.83610199, -24.90835918], [-47.8365283, -24.90839159], [-47.83720314, -24.90839161], [-47.83761045, -24.9082633], [-47.83826242, -24.90787698], [-47.83872261, -24.90745289], [-47.83893488, -24.9071415], [-47.8391449, -24.9066821], [-47.83927671, -24.90602386], [-47.83918541, -24.90526274], [-47.83906029, -24.90494458], [-47.83881769, -24.9045745], [-47.83839967, -24.90426058], [-47.83802857, -24.90406686], [-47.8374525, -24.9039048], [-47.83690851, -24.9038611], [-47.83613158, -24.90390217], [-47.83534145, -24.90401178], [-47.83414648, -24.90435528], [-47.83279509, -24.90491652], [-47.83200839, -24.90513171], [-47.83136379, -24.90522384], [-47.83016886, -24.90555468], [-47.8292115, -24.90606786], [-47.82798265, -24.90685427], [-47.82704419, -24.90754169], [-47.82619717, -24.9083468], [-47.82540846, -24.90876319], [-47.82390222, -24.90980652], [-47.8219687, -24.91080837], [-47.82058744, -24.91138382], [-47.81905905, -24.91189458], [-47.81791978, -24.91215697], [-47.81587533, -24.9125699], [-47.81471813, -24.91265892], [-47.8136021, -24.91262628], [-47.8113801, -24.91233362], [-47.81067235, -24.91218626], [-47.80978351, -24.9118423], [-47.80914683, -24.9115328], [-47.80770907, -24.91094467], [-47.80658029, -24.91031001], [-47.80559691, -24.90968679], [-47.80479168, -24.90905889], [-47.80411694, -24.90845682], [-47.80347132, -24.90777184], [-47.80259859, -24.90622226], [-47.80231741, -24.90547927], [-47.8021276, -24.90486661], [-47.80165608, -24.90284134], [-47.80159443, -24.90193322], [-47.80156963, -24.9015586], [-47.80133333, -24.90017145], [-47.80125694, -24.89943654], [-47.80124334, -24.89880748], [-47.80133329, -24.89824474], [-47.8016688, -24.89687265], [-47.80185105, -24.8958663], [-47.80198984, -24.89484622], [-47.80188086, -24.89197147], [-47.80164909, -24.89143985], [-47.80137693, -24.89107049], [-47.80064234, -24.89038872], [-47.79959265, -24.88980577], [-47.79345998, -24.88609388], [-47.79098361, -24.88496236], [-47.78929005, -24.88397767], [-47.78759866, -24.88315272], [-47.7857781, -24.88243638], [-47.78334364, -24.88182744], [-47.78295255, -24.88169848], [-47.78261286, -24.88157787], [-47.78106736, -24.8810531], [-47.77968192, -24.88075734], [-47.77856065, -24.88045731], [-47.77796659, -24.88017403], [-47.77555753, -24.87870595], [-47.77500476, -24.87828838], [-47.77468902, -24.87794585], [-47.77427986, -24.87731142], [-47.77387028, -24.8767573], [-47.77320222, -24.87569847], [-47.77294253, -24.87523526], [-47.77273565, -24.87451598], [-47.77242418, -24.8737457], [-47.77214972, -24.87326979], [-47.77169615, -24.87262252], [-47.771137, -24.87192333], [-47.77058117, -24.87134509], [-47.76965767, -24.87070655], [-47.76919385, -24.87031372], [-47.7687147, -24.86982696], [-47.76841038, -24.86939152], [-47.76808601, -24.86863471], [-47.76786587, -24.86799659], [-47.76768429, -24.86773135], [-47.76741297, -24.86741518], [-47.76698889, -24.86680773], [-47.7659868, -24.86460574], [-47.76580438, -24.86431343], [-47.76550338, -24.86399893], [-47.76477243, -24.86343702], [-47.76448481, -24.86302691], [-47.76417349, -24.86224308], [-47.76381112, -24.86175502], [-47.76265524, -24.8605721], [-47.76218761, -24.85997888], [-47.76192792, -24.85952738], [-47.76180395, -24.85922269], [-47.76175143, -24.8590564], [-47.7617583, -24.85888315], [-47.76183558, -24.85886094], [-47.76196995, -24.85888862], [-47.76282442, -24.85946553], [-47.76297815, -24.85957271], [-47.76347986, -24.86008306], [-47.76372465, -24.86054712], [-47.76413064, -24.86120053], [-47.76479098, -24.8618289], [-47.76495976, -24.86189734], [-47.76506061, -24.86190502], [-47.76519256, -24.86183251], [-47.76523312, -24.86164858], [-47.76522916, -24.86146446], [-47.76484438, -24.86072903], [-47.76435644, -24.85931267], [-47.76422904, -24.85909189], [-47.76373893, -24.85863214], [-47.76325041, -24.85824459], [-47.76277596, -24.85799879], [-47.76207317, -24.85772579], [-47.76159537, -24.85755217], [-47.76114846, -24.85751948], [-47.76064396, -24.85716073], [-47.76008858, -24.85688387], [-47.75965327, -24.85671946], [-47.7581226, -24.85626312], [-47.75764012, -24.85604253], [-47.75713749, -24.85570725], [-47.75666491, -24.8554858], [-47.75478578, -24.85472461], [-47.75406795, -24.85449573], [-47.75198784, -24.8539547], [-47.75126968, -24.85360668], [-47.75039269, -24.85300253], [-47.74997852, -24.85277592], [-47.74946078, -24.85249649], [-47.74906236, -24.85228168], [-47.74821945, -24.85177875], [-47.74749233, -24.85126642], [-47.74647958, -24.85053437], [-47.74565199, -24.84994847], [-47.74505721, -24.84947464], [-47.74474603, -24.84922683], [-47.74445356, -24.84899445], [-47.74342355, -24.84817205], [-47.74303594, -24.84779573], [-47.74243634, -24.84712332], [-47.74168092, -24.84637077], [-47.74126522, -24.84589053], [-47.74060433, -24.84503914], [-47.74008767, -24.84439508], [-47.73979488, -24.84404717], [-47.73965732, -24.84388409], [-47.73891914, -24.84288432], [-47.73850021, -24.8422759], [-47.73838248, -24.84210569], [-47.73787617, -24.84138405], [-47.73780454, -24.84128264], [-47.73771941, -24.8411189], [-47.73734154, -24.84042223], [-47.73725442, -24.84026118], [-47.73718687, -24.84013632], [-47.73684503, -24.83954179], [-47.73628876, -24.83856091], [-47.73609184, -24.83822607], [-47.73556429, -24.83741769], [-47.73538493, -24.83712715], [-47.73483565, -24.83613817], [-47.73469787, -24.83584061], [-47.73465481, -24.83575918], [-47.7346038, -24.83568494], [-47.73439353, -24.83544119], [-47.73424988, -24.83530785], [-47.7341415, -24.83523514], [-47.73401236, -24.83516234], [-47.7338832, -24.83509044], [-47.73369084, -24.83500381], [-47.73329404, -24.83486838], [-47.73293053, -24.83479178], [-47.73173274, -24.83464087], [-47.73095601, -24.83453615], [-47.73029534, -24.83436699], [-47.73004347, -24.83431166], [-47.72984789, -24.83426923], [-47.72939523, -24.83421837], [-47.72850365, -24.83413656], [-47.72803327, -24.83407027], [-47.72776055, -24.83403018], [-47.72728936, -24.83393411], [-47.72631185, -24.83365785], [-47.72540064, -24.83337468], [-47.7242829, -24.83306435], [-47.72399358, -24.83298627], [-47.72338118, -24.83285522], [-47.72313232, -24.83279177], [-47.72284218, -24.8326848], [-47.72256798, -24.83255535], [-47.72216947, -24.83237477], [-47.72195245, -24.83227988], [-47.72171257, -24.83220293], [-47.72137371, -24.83214085], [-47.72033245, -24.83194999], [-47.71953685, -24.83186228], [-47.71928307, -24.83179519], [-47.71910052, -24.83172393], [-47.71872662, -24.83156511], [-47.71848589, -24.83146559], [-47.71804508, -24.8312478], [-47.71727986, -24.83086329], [-47.71712889, -24.83080391], [-47.71667293, -24.83064199], [-47.71600172, -24.83042128], [-47.71538955, -24.83025139], [-47.7147189, -24.83010559], [-47.71452935, -24.83004963], [-47.71429658, -24.82994112], [-47.7136548, -24.82959239], [-47.71327916, -24.82939384], [-47.71302183, -24.82925813], [-47.71222301, -24.82887435], [-47.71174175, -24.8286428], [-47.71109107, -24.82829402], [-47.7106329, -24.82800301], [-47.70994574, -24.82746633], [-47.70963735, -24.827269], [-47.70911058, -24.82687297], [-47.70869288, -24.8265957], [-47.70839219, -24.8264354], [-47.70814267, -24.82631958], [-47.70770266, -24.82613967], [-47.7074541, -24.82602926], [-47.70702207, -24.82583675], [-47.70647268, -24.82559132], [-47.70609012, -24.82539543], [-47.70568126, -24.82513263], [-47.70555729, -24.82502373], [-47.70552974, -24.82500013], [-47.70521105, -24.82470527], [-47.70510112, -24.82456395], [-47.70479923, -24.82393164], [-47.70468775, -24.8237163], [-47.7045865, -24.82361202], [-47.70448411, -24.82353391], [-47.7043768, -24.82345126], [-47.70412738, -24.82332009], [-47.70393531, -24.8231883], [-47.70375912, -24.82304845], [-47.70352487, -24.82285779], [-47.70329837, -24.82269695], [-47.70318211, -24.82262418], [-47.70307457, -24.82258124], [-47.70291754, -24.82254619], [-47.70265348, -24.82255122], [-47.70245573, -24.82254755], [-47.70224921, -24.82252037], [-47.7020024, -24.82244968], [-47.70169539, -24.82235794], [-47.70158786, -24.822315], [-47.70148738, -24.82224862], [-47.70126088, -24.82208778], [-47.70106895, -24.82193342], [-47.70062264, -24.8214827], [-47.70037168, -24.82127751], [-47.7001285, -24.82109402], [-47.69993734, -24.82097756], [-47.69967893, -24.82086169], [-47.69926539, -24.820727], [-47.69880919, -24.82061467], [-47.69864434, -24.82056513], [-47.69844505, -24.82048654], [-47.69822818, -24.82036996], [-47.69799378, -24.82020907], [-47.69765898, -24.81996736], [-47.69738493, -24.81982252], [-47.69693615, -24.81962719], [-47.6962139, -24.81935471], [-47.69577393, -24.81917476], [-47.69547507, -24.81904513], [-47.69516844, -24.81889291], [-47.69473399, -24.81861552], [-47.69439924, -24.81836658], [-47.69400476, -24.81801989], [-47.6934909, -24.81745871], [-47.69314434, -24.81703644], [-47.69295875, -24.81681622], [-47.69271407, -24.81655509], [-47.69254593, -24.81639362], [-47.69238733, -24.81629175], [-47.6921052, -24.81617665], [-47.69172499, -24.81609355], [-47.69127849, -24.81601824], [-47.6911136, -24.81597592], [-47.69098521, -24.81595001], [-47.6904919, -24.81576256], [-47.69001024, -24.81561308], [-47.68972811, -24.81549797], [-47.68923791, -24.81528887], [-47.68884834, -24.81511637], [-47.68859868, -24.8150303], [-47.68802806, -24.81487585], [-47.68759679, -24.81473293], [-47.6873719, -24.81463885], [-47.68709787, -24.8144931], [-47.68681503, -24.81433285], [-47.68609687, -24.81388074], [-47.68546256, -24.81346424], [-47.68502657, -24.81311912], [-47.68486731, -24.812964], [-47.68442112, -24.81250602], [-47.68413066, -24.81213364], [-47.68391457, -24.81189159], [-47.68370509, -24.81170102], [-47.68353765, -24.81159099], [-47.68307138, -24.8113513], [-47.68284686, -24.81119676], [-47.68261959, -24.8110061], [-47.68241007, -24.81082184], [-47.68213988, -24.8105335], [-47.68159113, -24.80986741], [-47.68102257, -24.80904419], [-47.68057182, -24.80836144], [-47.68045027, -24.80818484], [-47.68034245, -24.80802727], [-47.68016468, -24.80782873], [-47.67961663, -24.80721499], [-47.67915295, -24.80671177], [-47.67893482, -24.80648324], [-47.67830546, -24.8059088], [-47.6775486, -24.80516314], [-47.67682447, -24.80440319], [-47.67621901, -24.80380449], [-47.67612952, -24.80372282], [-47.67567327, -24.80330446], [-47.67556325, -24.80318568], [-47.67547021, -24.8030372], [-47.67535803, -24.80278393], [-47.67514552, -24.80211861], [-47.67504292, -24.80191683], [-47.67498233, -24.80179829], [-47.6747786, -24.80147958], [-47.67446552, -24.80109534], [-47.6739168, -24.80043644], [-47.6735951, -24.80000612], [-47.67339178, -24.79978398], [-47.67314001, -24.7995634], [-47.67295686, -24.79943883], [-47.6724644, -24.79912498], [-47.67215448, -24.79887431], [-47.6719196, -24.79863847], [-47.67182653, -24.79849811], [-47.67129124, -24.79774812], [-47.67085882, -24.79715478], [-47.67045989, -24.79658417], [-47.67027057, -24.79617437], [-47.67011679, -24.79593623], [-47.66998237, -24.79576678], [-47.6697298, -24.7955155], [-47.66929391, -24.79517033], [-47.66903415, -24.79496505], [-47.66890046, -24.79483892], [-47.66868857, -24.79456528], [-47.66855326, -24.79437958], [-47.66834298, -24.79416552], [-47.66808327, -24.79395301], [-47.66758217, -24.79360119], [-47.66704912, -24.79330245], [-47.66680685, -24.79314869], [-47.66667315, -24.79302437], [-47.6664366, -24.79274248], [-47.66620643, -24.79238662], [-47.66607966, -24.79226052], [-47.66583695, -24.79201741], [-47.66562731, -24.79186291], [-47.66517879, -24.79164583], [-47.66427273, -24.79123417], [-47.6635829, -24.79087055], [-47.66341464, -24.79073882], [-47.66319728, -24.7905545], [-47.66299498, -24.79033235], [-47.66275124, -24.79009645], [-47.66252507, -24.78989764], [-47.66215773, -24.78966471], [-47.66177369, -24.78941546], [-47.66123991, -24.7890797], [-47.66098022, -24.78886537], [-47.66065384, -24.78856406], [-47.66050156, -24.78840895], [-47.66040055, -24.78827576], [-47.66018507, -24.78794704], [-47.66009398, -24.78780758], [-47.65997621, -24.78766708], [-47.65977548, -24.78751263], [-47.65962565, -24.78744056], [-47.65948463, -24.78738298], [-47.65926136, -24.78735656], [-47.65905589, -24.78733024], [-47.65892273, -24.78728082], [-47.6587553, -24.78717797], [-47.65862938, -24.78707534], [-47.65849499, -24.78690497], [-47.65844404, -24.7868307], [-47.65840114, -24.78673391], [-47.65840954, -24.78665453], [-47.65847785, -24.78647709], [-47.65849078, -24.78630387], [-47.6584629, -24.78617647], [-47.65839438, -24.7860651], [-47.65829493, -24.78599961], [-47.65819441, -24.78594855], [-47.65807901, -24.78590554], [-47.65792194, -24.78588578], [-47.6576829, -24.78585206], [-47.65751797, -24.78582504], [-47.65739352, -24.78580545], [-47.65731951, -24.78578341], [-47.65727713, -24.78576243], [-47.65721903, -24.78572603], [-47.65718569, -24.78568164], [-47.65714104, -24.78554693], [-47.65710871, -24.78517943], [-47.65704038, -24.78503829], [-47.65699023, -24.7849938], [-47.65693114, -24.7849565], [-47.65683951, -24.78490639], [-47.65673984, -24.78487789], [-47.65650881, -24.78482887], [-47.65619575, -24.78477491], [-47.6556673, -24.78470089], [-47.65522806, -24.78458943], [-47.65463293, -24.78442751], [-47.65398564, -24.78422832], [-47.65359702, -24.78408462], [-47.65325594, -24.78392582], [-47.65284011, -24.78370706], [-47.65248171, -24.78347326], [-47.65211356, -24.78321774], [-47.65157752, -24.78277544], [-47.65107428, -24.78230442], [-47.65088886, -24.78207512], [-47.65071056, -24.78181426], [-47.65059746, -24.78156097], [-47.6504941, -24.78133028], [-47.65043449, -24.78121896], [-47.65036598, -24.7811076], [-47.65019786, -24.78095961], [-47.65001395, -24.78080613], [-47.64986428, -24.78071059], [-47.64935669, -24.78046427], [-47.64913207, -24.78034036], [-47.6489815, -24.78023037], [-47.64883902, -24.78009064], [-47.6484328, -24.77960206], [-47.64829123, -24.77947678], [-47.64810719, -24.77934405], [-47.64785691, -24.77921369], [-47.64774085, -24.77911832], [-47.64718637, -24.77862536], [-47.64700874, -24.77841775], [-47.6466634, -24.77799537], [-47.64652089, -24.77786286], [-47.64594091, -24.77733908], [-47.64539704, -24.77689129], [-47.64523066, -24.77678122], [-47.64501485, -24.77667269], [-47.64479791, -24.77658582], [-47.64456685, -24.7765449], [-47.644304, -24.77652728], [-47.64413894, -24.77652281], [-47.64394921, -24.77651099], [-47.64382488, -24.77647604], [-47.64370954, -24.7764249], [-47.6435747, -24.77632943], [-47.64342443, -24.77617431], [-47.64330644, -24.7760717], [-47.64316563, -24.77598433], [-47.64305622, -24.77593411], [-47.64283411, -24.77588422], [-47.64236388, -24.77583302], [-47.64223158, -24.77580615], [-47.6418914, -24.77566809], [-47.64146666, -24.77545828], [-47.64121682, -24.77525932], [-47.64098676, -24.77505955], [-47.64087687, -24.77492811], [-47.6407756, -24.77484003], [-47.64061709, -24.77473721], [-47.64040905, -24.77465128], [-47.64009429, -24.77455848], [-47.63991474, -24.77450068], [-47.63952324, -24.7743506], [-47.63924035, -24.77422006], [-47.63904846, -24.77408096], [-47.63870442, -24.77377229], [-47.63829114, -24.77331343], [-47.638003, -24.77292021], [-47.63771175, -24.7723916], [-47.63764419, -24.77228835], [-47.63747623, -24.77211779], [-47.63694122, -24.77168446], [-47.63647126, -24.77128035], [-47.63608581, -24.77095612], [-47.63563122, -24.77046815], [-47.63524366, -24.77000942], [-47.63435915, -24.76904083], [-47.63376133, -24.76838333], [-47.63303829, -24.76767462], [-47.63239025, -24.76698706], [-47.63213949, -24.76678176], [-47.63156997, -24.76634101], [-47.6308112, -24.76581351], [-47.62996533, -24.76515197], [-47.62968031, -24.76489413], [-47.62927051, -24.7645192], [-47.62894164, -24.76416365], [-47.62866229, -24.76379303], [-47.62833292, -24.76336256], [-47.62818074, -24.7632002], [-47.62801279, -24.76303143], [-47.62789657, -24.76296583], [-47.62761382, -24.76281992], [-47.6273064, -24.76266665], [-47.62709057, -24.76256622], [-47.62687292, -24.76244141], [-47.62666435, -24.76228868], [-47.62576127, -24.76161327], [-47.6254276, -24.76139307], [-47.62519422, -24.76125464], [-47.62472907, -24.76103735], [-47.62394223, -24.7607362], [-47.62330408, -24.7605216], [-47.62307235, -24.76043552], [-47.62261512, -24.76021826], [-47.62213312, -24.760009], [-47.62122103, -24.75966475], [-47.62045789, -24.75936913], [-47.62020856, -24.75925317], [-47.61970046, -24.75895441], [-47.61940985, -24.75880212], [-47.61917635, -24.75868624], [-47.61897809, -24.758622], [-47.6185151, -24.75853196], [-47.61779019, -24.75843961], [-47.61726981, -24.75835919], [-47.61678128, -24.75824645], [-47.61656626, -24.75817579], [-47.616242, -24.75803144], [-47.61600958, -24.75790022], [-47.6155828, -24.75756217], [-47.6148879, -24.75695822], [-47.6146538, -24.75678186], [-47.61436316, -24.75663678], [-47.61417028, -24.75650577], [-47.61390396, -24.75626876], [-47.61370954, -24.75607005], [-47.6132782, -24.75552168], [-47.61303546, -24.75530736], [-47.61285944, -24.75516831], [-47.61264289, -24.75502905], [-47.61144581, -24.75444222], [-47.60970825, -24.75352573], [-47.60828403, -24.75276164], [-47.60811055, -24.7526894], [-47.60775454, -24.75256832], [-47.60762242, -24.75251796], [-47.60704656, -24.75215922], [-47.60646369, -24.75181668], [-47.60607915, -24.75152305], [-47.6057949, -24.75131031], [-47.60559498, -24.75120091], [-47.60523739, -24.75101935], [-47.60496343, -24.75089691], [-47.60474053, -24.75082529], [-47.60467641, -24.75080599], [-47.604343, -24.75070488], [-47.60405372, -24.75065727], [-47.60340262, -24.75062303], [-47.60311511, -24.75060611], [-47.6029661, -24.750571], [-47.60284185, -24.7505279], [-47.60250324, -24.75043952], [-47.60235443, -24.75040068], [-47.60207916, -24.75017804], [-47.60162135, -24.74990657], [-47.60080963, -24.7496485], [-47.59870293, -24.74897625], [-47.59633959, -24.74840636], [-47.59397802, -24.74787074], [-47.59269865, -24.74749271], [-47.59119596, -24.7469591], [-47.59022562, -24.74648258], [-47.58918459, -24.74564012], [-47.58822079, -24.7446293], [-47.58705849, -24.74330328], [-47.58595095, -24.74236295], [-47.58510898, -24.74190968], [-47.58463585, -24.74157489], [-47.5844209, -24.74135256], [-47.58430957, -24.74100536], [-47.58432302, -24.74062003], [-47.58425895, -24.74015215], [-47.5840672, -24.73971333], [-47.5836992, -24.73917695], [-47.58328699, -24.73874954], [-47.58247939, -24.73818633], [-47.58096206, -24.73735288], [-47.57956712, -24.73669159], [-47.57808126, -24.73603248], [-47.57594149, -24.73518375], [-47.57339661, -24.73418197], [-47.57151211, -24.7332958], [-47.5696054, -24.73262702], [-47.56774178, -24.73143947], [-47.56632825, -24.73033569], [-47.564253, -24.72903498], [-47.56248143, -24.7282712], [-47.56106714, -24.72772066], [-47.55965531, -24.72695801], [-47.55862358, -24.72624717], [-47.55772563, -24.72562916], [-47.55582523, -24.72435822], [-47.55439699, -24.72340498], [-47.55310167, -24.72266731], [-47.55083557, -24.72099255], [-47.54974422, -24.71991756], [-47.54846913, -24.71798404], [-47.54777231, -24.71701874], [-47.54683192, -24.71569821], [-47.54616187, -24.71472312], [-47.54527046, -24.71361045], [-47.54492071, -24.71303978], [-47.54459566, -24.71232665], [-47.5442646, -24.71092119], [-47.54405964, -24.71013383], [-47.54372429, -24.70934211], [-47.54328809, -24.70841982], [-47.54289648, -24.70776135], [-47.54235918, -24.70716881], [-47.54158577, -24.70642958], [-47.54108536, -24.70607284], [-47.54044195, -24.70581905], [-47.5394557, -24.70556325], [-47.53767617, -24.70529286], [-47.53585614, -24.70488051], [-47.53426786, -24.70453178], [-47.53336628, -24.70432248], [-47.5325663, -24.70413634], [-47.53136759, -24.70402997], [-47.52944386, -24.70389493], [-47.52816631, -24.70376009], [-47.52695712, -24.70346048], [-47.5259021, -24.70329445], [-47.52347886, -24.70282602], [-47.52109872, -24.70227297], [-47.51853741, -24.70177295], [-47.5174637, -24.70159863], [-47.5161483, -24.70123602], [-47.51411058, -24.7008862], [-47.51289984, -24.70067221], [-47.51186432, -24.70054773], [-47.51097797, -24.70056224], [-47.5097823, -24.70072471], [-47.50838391, -24.7011829], [-47.50726726, -24.70161841], [-47.5059814, -24.70222438], [-47.50492, -24.70266834], [-47.50399016, -24.70281884], [-47.50232831, -24.70295495], [-47.50037896, -24.70281671], [-47.49980749, -24.70287008], [-47.4992762, -24.70296793], [-47.49825186, -24.70320537], [-47.4976821, -24.70343025], [-47.49690273, -24.70380908], [-47.49647666, -24.70397436], [-47.49600342, -24.70410504], [-47.49542293, -24.7041755], [-47.49450952, -24.7042394], [-47.49390519, -24.70432685], [-47.4935002, -24.70444712], [-47.49298359, -24.70456308], [-47.49257022, -24.7046138], [-47.49174167, -24.70469084], [-47.49065127, -24.70477168], [-47.48956162, -24.70488501], [-47.48865308, -24.70508971], [-47.48757252, -24.70530959], [-47.48682782, -24.70540427], [-47.48555286, -24.70558954], [-47.48509017, -24.70562819], [-47.48291239, -24.70564538], [-47.48130831, -24.70557765], [-47.4806566, -24.70552486], [-47.47936963, -24.70546449], [-47.47885719, -24.70541617], [-47.47789332, -24.70522333], [-47.47667092, -24.70498463], [-47.47509742, -24.70439804], [-47.47439494, -24.70413189], [-47.47336814, -24.70363715], [-47.47285074, -24.70332973], [-47.4723604, -24.70297194], [-47.47194723, -24.70273286], [-47.47171004, -24.70261043], [-47.47144513, -24.70249413], [-47.47113774, -24.70237938], [-47.47061733, -24.70221093], [-47.46994898, -24.70200726], [-47.46950274, -24.70183115], [-47.46923096, -24.7017094], [-47.46895759, -24.70153709], [-47.46849489, -24.70118577], [-47.46800369, -24.70081442], [-47.46770209, -24.70058596], [-47.46735189, -24.70038338], [-47.46689117, -24.70016295], [-47.46573338, -24.6996204], [-47.46494962, -24.69913436], [-47.46378193, -24.69846538], [-47.462845, -24.69785561], [-47.46210337, -24.69741946], [-47.46162578, -24.69707977], [-47.46106513, -24.6966213], [-47.46072812, -24.69637546], [-47.46012058, -24.69610714], [-47.45991103, -24.69599028], [-47.45957478, -24.69577513], [-47.45928774, -24.69558376], [-47.45872821, -24.69523902], [-47.45786917, -24.69478586], [-47.45720066, -24.69448194], [-47.45637045, -24.69413457], [-47.45597237, -24.69386757], [-47.45530754, -24.6934698], [-47.45504724, -24.69327227], [-47.45470354, -24.6930002], [-47.45439278, -24.6926832], [-47.45401927, -24.69230443], [-47.45369548, -24.69201263], [-47.45346295, -24.69180174], [-47.45310004, -24.6915864], [-47.45233902, -24.69123945], [-47.45148713, -24.69076103], [-47.45096825, -24.69040299], [-47.45047718, -24.69002526], [-47.45014489, -24.68968375], [-47.4498336, -24.68930988], [-47.44955166, -24.6889732], [-47.44922769, -24.68870666], [-47.44886391, -24.68847957], [-47.44861283, -24.68836965], [-47.44830712, -24.68829909], [-47.4482096, -24.68826236], [-47.4481045, -24.68818225], [-47.44787064, -24.68789011], [-47.44751587, -24.68739049], [-47.44743616, -24.68722119], [-47.44733103, -24.68676109], [-47.44726382, -24.68650973], [-47.44714878, -24.68630951], [-47.44696473, -24.6860917], [-47.44673844, -24.68584293], [-47.44645693, -24.68558207], [-47.44606331, -24.68525369], [-47.44532, -24.68466582], [-47.44482738, -24.68423842], [-47.44453123, -24.68395309], [-47.44429744, -24.68365372], [-47.44378209, -24.68309981], [-47.44323798, -24.68243287], [-47.44284678, -24.68192127], [-47.44264846, -24.68163387], [-47.44251813, -24.68137036], [-47.44239773, -24.68122697], [-47.44208085, -24.68094241], [-47.44172371, -24.68062599], [-47.44135495, -24.68015244], [-47.44112571, -24.67977727], [-47.44098194, -24.67946314], [-47.44088642, -24.67916917], [-47.44067788, -24.67879955], [-47.4404941, -24.67854924], [-47.44030291, -24.67836297], [-47.44000156, -24.6781155], [-47.43974858, -24.67787287], [-47.43959967, -24.67771214], [-47.43949196, -24.67746142], [-47.43932656, -24.6771354], [-47.43914234, -24.67694285], [-47.43887474, -24.67667485], [-47.43876733, -24.67651258], [-47.43872938, -24.67631105], [-47.43861581, -24.67618034], [-47.43814738, -24.67556984], [-47.43753056, -24.67473272], [-47.43721395, -24.67441565], [-47.43708108, -24.67435431], [-47.4368245, -24.67432106], [-47.43660405, -24.67434309], [-47.43637721, -24.67442286], [-47.43622715, -24.67453922], [-47.43599657, -24.67472006], [-47.43576021, -24.67500826], [-47.4351936, -24.67571856], [-47.43474154, -24.67630593], [-47.43460747, -24.67652349], [-47.43438293, -24.67706992], [-47.43415719, -24.67751616], [-47.43362856, -24.67879985], [-47.43321443, -24.68022149], [-47.43274562, -24.6824461], [-47.43259507, -24.68325567], [-47.43256627, -24.68352807], [-47.43256583, -24.68421676], [-47.4326357, -24.68463242], [-47.4327527, -24.68508359], [-47.43281499, -24.68533041], [-47.43306863, -24.68624821], [-47.43354638, -24.6876928], [-47.43387923, -24.68846399], [-47.43439407, -24.68933385], [-47.4350574, -24.69042129], [-47.43564829, -24.69129615], [-47.43605313, -24.69183223], [-47.43686793, -24.69288093], [-47.43748078, -24.69347612], [-47.43826946, -24.69420241], [-47.43840256, -24.69436484], [-47.43856586, -24.69458343], [-47.43868706, -24.6947521], [-47.43882189, -24.69494613], [-47.43910246, -24.69545792], [-47.43944714, -24.69611003], [-47.4397313, -24.69654151], [-47.44000138, -24.69687722], [-47.44025342, -24.69711894], [-47.44070328, -24.69745943], [-47.44146628, -24.69793371], [-47.44224837, -24.69836931], [-47.44341326, -24.69887416], [-47.44465167, -24.69932802], [-47.44657864, -24.6999217], [-47.44824115, -24.70047484], [-47.44961289, -24.70093946], [-47.45001508, -24.70105937], [-47.45061207, -24.70115707], [-47.4510068, -24.70122007], [-47.4514033, -24.70130836], [-47.45176404, -24.70142259], [-47.45225182, -24.70159088], [-47.45315642, -24.70190355], [-47.45434751, -24.70235162], [-47.45601778, -24.70293091], [-47.45688108, -24.70322073], [-47.457397, -24.70345779], [-47.45800265, -24.70371888], [-47.45848432, -24.70391329], [-47.45877007, -24.7040162], [-47.45956103, -24.70420535], [-47.45999946, -24.7043688], [-47.46066935, -24.70462939], [-47.46184561, -24.70508363], [-47.46274353, -24.70537183], [-47.46403695, -24.70575459], [-47.46483714, -24.70603223], [-47.46538766, -24.70626948], [-47.46681758, -24.70689588], [-47.46817523, -24.70741079], [-47.46967199, -24.70795455], [-47.47153002, -24.7085484], [-47.47210057, -24.70875416], [-47.47256147, -24.70895472], [-47.4739475, -24.70951308], [-47.47498635, -24.70998893], [-47.47553103, -24.71021889], [-47.47612535, -24.71055025], [-47.47695452, -24.71092278], [-47.47782074, -24.71136324], [-47.47912334, -24.71185244], [-47.48078062, -24.71248193], [-47.48175066, -24.71291489], [-47.48271357, -24.71337849], [-47.48457235, -24.71402273], [-47.48458609, -24.71403545], [-47.48558995, -24.71444242], [-47.48697702, -24.715007], [-47.48763299, -24.71529175], [-47.48812105, -24.71556825], [-47.48854187, -24.71585156], [-47.4892091, -24.7163521], [-47.48953166, -24.71656168], [-47.49001305, -24.71680564], [-47.49076644, -24.71714695], [-47.49124806, -24.71736022], [-47.49181947, -24.71759119], [-47.49247931, -24.71775681], [-47.49310546, -24.71793576], [-47.49356563, -24.71811098], [-47.49458993, -24.71856766], [-47.49557315, -24.71896812], [-47.49645322, -24.71942119], [-47.49702621, -24.71970811], [-47.49881942, -24.72055578], [-47.49919029, -24.72078279], [-47.50037776, -24.72136317], [-47.50189151, -24.72219014], [-47.50329932, -24.72291266], [-47.50507196, -24.72388107], [-47.50666026, -24.72465519], [-47.50803538, -24.7255318], [-47.50967782, -24.7266122], [-47.51128128, -24.72748475], [-47.51265037, -24.72810946], [-47.5144077, -24.72889084], [-47.51625489, -24.72995796], [-47.51775407, -24.73105095], [-47.51959757, -24.73195193], [-47.52222093, -24.73338916], [-47.52426746, -24.73479132], [-47.52604462, -24.73600051], [-47.52739232, -24.73673508], [-47.52889772, -24.73753195], [-47.53027765, -24.73804647], [-47.53168041, -24.73854937], [-47.53295625, -24.73925188], [-47.53385789, -24.73990615], [-47.53491677, -24.74054599], [-47.53604523, -24.74113028], [-47.53789337, -24.74225039], [-47.53961665, -24.74314231], [-47.54089249, -24.74385558], [-47.54206198, -24.74465849], [-47.54405597, -24.74585339], [-47.54566185, -24.74686731], [-47.54721529, -24.74760923], [-47.54919097, -24.74846459], [-47.55032313, -24.74924646], [-47.55196765, -24.75040133], [-47.55219417, -24.75051727], [-47.55277801, -24.75084376], [-47.55362995, -24.7514191], [-47.55462388, -24.75204489], [-47.55524197, -24.75242302], [-47.55623478, -24.75306956], [-47.55673729, -24.75343979], [-47.55700613, -24.75358304], [-47.55757659, -24.75384626], [-47.55792606, -24.75405044], [-47.5582655, -24.75427713], [-47.55901384, -24.75483289], [-47.56043953, -24.75577702], [-47.56094243, -24.75609399], [-47.56176906, -24.7564796], [-47.56296944, -24.7571336], [-47.56356344, -24.75742852], [-47.56416901, -24.75776502], [-47.56497361, -24.75819381], [-47.56519419, -24.75831511], [-47.56552038, -24.75845777], [-47.56593936, -24.75861901], [-47.56646008, -24.75878895], [-47.56705339, -24.75904143], [-47.56755497, -24.75926541], [-47.56798532, -24.75949981], [-47.56844101, -24.75978581], [-47.56917661, -24.76033693], [-47.57010812, -24.76100379], [-47.570425, -24.76120957], [-47.57093716, -24.76147782], [-47.57175579, -24.7618859], [-47.57216949, -24.76209853], [-47.57245897, -24.76226444], [-47.57264789, -24.76239186], [-47.57350084, -24.76313317], [-47.57411715, -24.76364298], [-47.57434336, -24.76381033], [-47.57485555, -24.76407767], [-47.57532441, -24.76432129], [-47.57568474, -24.76453543], [-47.57617283, -24.76485948], [-47.57697506, -24.7653586], [-47.57757948, -24.76573024], [-47.5787084, -24.76645051], [-47.57961155, -24.76708556], [-47.58055205, -24.76775331], [-47.58123646, -24.76813892], [-47.58148943, -24.76829738], [-47.58227793, -24.76893449], [-47.58284662, -24.76933118], [-47.58315381, -24.76951341], [-47.58352214, -24.76971764], [-47.58379198, -24.76986806], [-47.58409918, -24.77004939], [-47.58440703, -24.77028035], [-47.5847874, -24.77060649], [-47.58517699, -24.77088484], [-47.58555493, -24.77113064], [-47.58586224, -24.77129572], [-47.58603268, -24.77138241], [-47.58618471, -24.77141214], [-47.58631082, -24.77147511], [-47.58643764, -24.77157871], [-47.58667278, -24.77174609], [-47.58770465, -24.77250817], [-47.58897793, -24.77338891], [-47.58976335, -24.77390321], [-47.59035081, -24.7743081], [-47.5908745, -24.77464043], [-47.59146942, -24.77496414], [-47.59188314, -24.77518484], [-47.59224453, -24.77539714], [-47.59288523, -24.77582578], [-47.59369742, -24.77633208], [-47.59391494, -24.77647499], [-47.59417658, -24.77667318], [-47.59515414, -24.77743762], [-47.59625784, -24.77826412], [-47.59698037, -24.7787302], [-47.59741372, -24.77897537], [-47.59795364, -24.7792509], [-47.59829548, -24.77943149], [-47.59858409, -24.77959012], [-47.59886364, -24.77977216], [-47.59974033, -24.78039883], [-47.60042811, -24.78089087], [-47.60084413, -24.78121807], [-47.60144444, -24.78178364], [-47.60206978, -24.78230151], [-47.60232264, -24.78248431], [-47.60257474, -24.78263461], [-47.60297262, -24.78286422], [-47.60330553, -24.78305287], [-47.60364811, -24.78327406], [-47.60392065, -24.7834732], [-47.60462465, -24.78390846], [-47.60512885, -24.78420815], [-47.60548033, -24.78443028], [-47.60647458, -24.78508011], [-47.60677201, -24.78525322], [-47.60791506, -24.78582623], [-47.60830324, -24.78603141], [-47.60847448, -24.78615057], [-47.60880895, -24.7864051], [-47.60952566, -24.78701821], [-47.60995057, -24.78735264], [-47.61053903, -24.78777371], [-47.61090015, -24.7880356], [-47.61129135, -24.788387], [-47.61157244, -24.78864213], [-47.61192659, -24.7889121], [-47.61232326, -24.7891823], [-47.61288349, -24.78953732], [-47.61326253, -24.78978306], [-47.6141839, -24.79040085], [-47.61512384, -24.79105214], [-47.61550299, -24.79128072], [-47.61607849, -24.79157173], [-47.61641335, -24.79176938], [-47.61666538, -24.791935], [-47.61692812, -24.79212595], [-47.6171818, -24.79234121], [-47.61737253, -24.79250831], [-47.61813245, -24.79302413], [-47.61847507, -24.79324619], [-47.61951597, -24.79404059], [-47.62032097, -24.79462072], [-47.62083748, -24.7950179], [-47.62135366, -24.7954647], [-47.62254817, -24.79636189], [-47.62317538, -24.7969194], [-47.6239916, -24.79760517], [-47.62497693, -24.79828732], [-47.62539317, -24.7985973], [-47.62553873, -24.79871631], [-47.62576647, -24.79897294], [-47.62643149, -24.79965247], [-47.62651221, -24.79970796], [-47.62660287, -24.79975447], [-47.62670951, -24.7997776], [-47.62682515, -24.79978363], [-47.62701287, -24.79980448], [-47.62710181, -24.79981127], [-47.62721043, -24.79983351], [-47.62729927, -24.79985655], [-47.62747154, -24.79997479], [-47.62773415, -24.80019099], [-47.62780607, -24.80023018], [-47.62788601, -24.80025317], [-47.62797506, -24.80024372], [-47.62808216, -24.80019284], [-47.62822294, -24.80013312], [-47.62832078, -24.80013996], [-47.62839271, -24.80017915], [-47.62846547, -24.80024271], [-47.62855665, -24.80036323], [-47.62881653, -24.80085378], [-47.62902096, -24.80120053], [-47.62926714, -24.80151321], [-47.62948542, -24.8017048], [-47.63000124, -24.80206133], [-47.63060492, -24.80244088], [-47.63090257, -24.80259047], [-47.63125498, -24.80283602], [-47.6317782, -24.80311947], [-47.63244423, -24.80349032], [-47.63260781, -24.80357693], [-47.63276214, -24.80372034], [-47.63301728, -24.80402494], [-47.63332675, -24.80433704], [-47.63404586, -24.80507278], [-47.63501725, -24.80594162], [-47.63560666, -24.80639418], [-47.63629386, -24.80686169], [-47.63658252, -24.80702747], [-47.63711388, -24.80727936], [-47.63764499, -24.80757006], [-47.63786964, -24.80769579], [-47.63802506, -24.80782386], [-47.63850722, -24.80835166], [-47.63891713, -24.80873467], [-47.64004223, -24.80969905], [-47.6404132, -24.80998528], [-47.64104625, -24.81042181], [-47.64176009, -24.81090478], [-47.64247414, -24.81135616], [-47.64299795, -24.81171178], [-47.64366735, -24.81218819], [-47.64434733, -24.81271249], [-47.64527056, -24.813396], [-47.6459478, -24.81388778], [-47.64640156, -24.81422137], [-47.64726241, -24.81492168], [-47.6483949, -24.81582827], [-47.64892198, -24.81629941], [-47.64940058, -24.81661596], [-47.64998772, -24.81697189], [-47.65052932, -24.8173357], [-47.65077451, -24.81750213], [-47.65098305, -24.81767829], [-47.65115595, -24.8178615], [-47.65136523, -24.81807738], [-47.65227299, -24.81887447], [-47.65347037, -24.81985266], [-47.65410325, -24.82032974], [-47.65450272, -24.8206558], [-47.65497397, -24.8210463], [-47.65545669, -24.82150185], [-47.65585507, -24.82184414], [-47.65610032, -24.82200244], [-47.65636155, -24.82213555], [-47.65720912, -24.82260018], [-47.65762309, -24.82282072], [-47.65809372, -24.82315435], [-47.65823846, -24.82325708], [-47.65848415, -24.82350472], [-47.65866592, -24.82369608], [-47.6590239, -24.82417805], [-47.65936329, -24.82462743], [-47.65947321, -24.82476427], [-47.65969157, -24.82495492], [-47.65987264, -24.82509844], [-47.66008043, -24.82524029], [-47.66028737, -24.82535868], [-47.66080198, -24.82561853], [-47.66130276, -24.8258765], [-47.66150466, -24.826012], [-47.66166887, -24.82616356], [-47.66194187, -24.82647632], [-47.66212458, -24.8266767], [-47.66232431, -24.82684288], [-47.66249664, -24.82696199], [-47.66273024, -24.82708863], [-47.66311694, -24.82724403], [-47.66353108, -24.82744018], [-47.66382878, -24.82759692], [-47.66405427, -24.82775601], [-47.66430918, -24.82795496], [-47.66451761, -24.82815457], [-47.66463634, -24.82830679], [-47.66480204, -24.82853958], [-47.66493115, -24.82877308], [-47.6650704, -24.82896602], [-47.66529738, -24.82920544], [-47.66569669, -24.82956486], [-47.66605106, -24.8298347], [-47.66654751, -24.83015852], [-47.66697289, -24.83046031], [-47.66739827, -24.8307621], [-47.66766981, -24.83099361], [-47.66786164, -24.83116064], [-47.66806123, -24.83135208], [-47.6682811, -24.83162395], [-47.66849121, -24.8318732], [-47.66864467, -24.83200845], [-47.66883575, -24.83213486], [-47.66896992, -24.83218969], [-47.66914073, -24.83223478], [-47.6693016, -24.83228884], [-47.66947221, -24.83236732], [-47.66963372, -24.83248005], [-47.669736, -24.83257443], [-47.67007297, -24.83294255], [-47.67054842, -24.8334702], [-47.67072062, -24.83361367], [-47.67089203, -24.83372464], [-47.67108134, -24.83381855], [-47.67125195, -24.83389703], [-47.67153122, -24.83399681], [-47.67172859, -24.8340664], [-47.67190796, -24.83417019], [-47.67222412, -24.83438387], [-47.67262461, -24.83471801], [-47.67315165, -24.83522065], [-47.67325204, -24.83530057], [-47.67365793, -24.83556073], [-47.67400975, -24.83576647], [-47.67425326, -24.83589224], [-47.67457843, -24.83608972], [-47.67470544, -24.83618512], [-47.67485094, -24.83632844], [-47.67499808, -24.83652863], [-47.67520006, -24.83681845], [-47.67531, -24.83695437], [-47.6754644, -24.83709865], [-47.67572865, -24.83739509], [-47.67630504, -24.83808298], [-47.67646998, -24.83828416], [-47.67673359, -24.83852284], [-47.67688805, -24.83865808], [-47.67711451, -24.83882528], [-47.67728682, -24.83895249], [-47.67745983, -24.83912844], [-47.6777687, -24.83940705], [-47.67796851, -24.83956599], [-47.67835655, -24.83983598], [-47.67871833, -24.84003272], [-47.67910643, -24.84029368], [-47.67952297, -24.84059539], [-47.67973159, -24.84077062], [-47.6798958, -24.84093028], [-47.68005086, -24.8411305], [-47.68026181, -24.84141223], [-47.68041801, -24.84158809], [-47.68061768, -24.84177049], [-47.68077219, -24.84189851], [-47.68117801, -24.8421758], [-47.68226608, -24.84297812], [-47.68354063, -24.84385718], [-47.68422012, -24.8443488], [-47.68473671, -24.84479539], [-47.68549872, -24.84538309], [-47.68576873, -24.84554868], [-47.68648549, -24.84609734], [-47.68705649, -24.84654239], [-47.68792834, -24.84729125], [-47.68841754, -24.84768896], [-47.68892798, -24.84817522], [-47.6895563, -24.84879833], [-47.68979315, -24.849054], [-47.68997424, -24.84920561], [-47.69029131, -24.84944363], [-47.69087939, -24.84984813], [-47.69115931, -24.85001286], [-47.69150309, -24.85025191], [-47.69167548, -24.85037008], [-47.6919843, -24.85066491], [-47.69234987, -24.85106561], [-47.69266915, -24.85143358], [-47.69286895, -24.85160062], [-47.69302259, -24.85171238], [-47.69346441, -24.85193206], [-47.69370802, -24.85204967], [-47.69397019, -24.85220709], [-47.69456705, -24.85263599], [-47.69518272, -24.85306318], [-47.69603361, -24.85369006], [-47.69679248, -24.85415675], [-47.69732554, -24.85450501], [-47.6977155, -24.85479932], [-47.69810533, -24.85511709], [-47.69881305, -24.85570626], [-47.69922959, -24.85602326], [-47.69989374, -24.85662123], [-47.70038485, -24.85704328], [-47.70088213, -24.85742474], [-47.70112646, -24.85759108], [-47.70164193, -24.85790675], [-47.70250033, -24.85844429], [-47.70347594, -24.85906903], [-47.70417174, -24.85950288], [-47.70461506, -24.85981278], [-47.70522273, -24.86026515], [-47.70600253, -24.86088532], [-47.70690049, -24.86160081], [-47.70735409, -24.86201543], [-47.70807413, -24.8627102], [-47.70883926, -24.86347739], [-47.70924855, -24.8638593], [-47.70976641, -24.86428144], [-47.71024613, -24.8646303], [-47.71070889, -24.86500344], [-47.71116444, -24.86542619], [-47.71165448, -24.86587346], [-47.71210199, -24.86631962], [-47.7125281, -24.86670341], [-47.71282754, -24.86692505], [-47.71300171, -24.86708382], [-47.7131367, -24.86717562], [-47.71332203, -24.86728751], [-47.71382106, -24.86754981], [-47.71401129, -24.86766804], [-47.71411965, -24.86774708], [-47.71462771, -24.86816013], [-47.71524341, -24.86860439], [-47.71565211, -24.8689222], [-47.7164304, -24.86947733], [-47.71662955, -24.8695956], [-47.71698958, -24.86977601], [-47.71764759, -24.87008959], [-47.71791176, -24.8702542], [-47.7182268, -24.87051832], [-47.71845507, -24.87073419], [-47.71896457, -24.87124471], [-47.71917324, -24.871428], [-47.71963623, -24.87176953], [-47.72006982, -24.87206218], [-47.72072852, -24.87243261], [-47.7212521, -24.87273111], [-47.72222798, -24.87334039], [-47.72267945, -24.8736241], [-47.72307846, -24.87391026], [-47.72335923, -24.87411645], [-47.72375016, -24.87443416], [-47.72402282, -24.8746737], [-47.72462376, -24.87528841], [-47.72497022, -24.87559959], [-47.72565964, -24.87613981], [-47.7260406, -24.87647371], [-47.72623147, -24.87665781], [-47.72638687, -24.87681738], [-47.72656084, -24.87701764], [-47.72711653, -24.87759242], [-47.72730745, -24.8777684], [-47.72762645, -24.87803883], [-47.72814174, -24.87841126], [-47.72883928, -24.87891902], [-47.72910235, -24.87910887], [-47.72926675, -24.87925223], [-47.7298855, -24.87987603], [-47.73028697, -24.88025875], [-47.73092122, -24.8807671], [-47.73130251, -24.88104504], [-47.7315735, -24.88123582], [-47.73190871, -24.88144044], [-47.73263049, -24.88186707], [-47.73350698, -24.88240271], [-47.73423856, -24.88284563], [-47.73471855, -24.88316914], [-47.73491759, -24.88331265], [-47.73542652, -24.88376625], [-47.73582712, -24.88413361], [-47.7362995, -24.88457982], [-47.73705624, -24.88530621], [-47.73813076, -24.88635082], [-47.73898534, -24.88710022], [-47.73945639, -24.8874336], [-47.73989912, -24.88770097], [-47.74047946, -24.88813052], [-47.74075119, -24.88836912], [-47.74091463, -24.88851156], [-47.74133482, -24.88891961], [-47.74208329, -24.88971903], [-47.74314012, -24.89075631], [-47.74343062, -24.89100221], [-47.74364754, -24.89113677], [-47.7438103, -24.89122416], [-47.74419719, -24.8913956], [-47.74452983, -24.89153521], [-47.74479222, -24.89167719], [-47.74503578, -24.89182632], [-47.74550771, -24.89218405], [-47.74580789, -24.89247151], [-47.74633385, -24.89290078], [-47.7467265, -24.89328342], [-47.7473009, -24.89390242], [-47.74756647, -24.89418701], [-47.74777431, -24.89435401], [-47.74800904, -24.89448865], [-47.74831602, -24.89462091], [-47.7486834, -24.89474352], [-47.74905181, -24.89485892], [-47.74925017, -24.89495277], [-47.74937642, -24.89502374], [-47.74951235, -24.89513446], [-47.74964022, -24.89527132], [-47.7497511, -24.89543968], [-47.75003034, -24.8959391], [-47.75022439, -24.8962766], [-47.7503905, -24.8964768], [-47.75039344, -24.89648133], [-47.75095418, -24.89688999], [-47.75133281, -24.89712816], [-47.7519243, -24.8977021], [-47.75298451, -24.89887018], [-47.75334049, -24.89909019], [-47.75361769, -24.89924216], [-47.75463572, -24.89962401], [-47.75553908, -24.90016686], [-47.75746788, -24.90137133], [-47.75797087, -24.9018519], [-47.75866475, -24.90234867], [-47.75938324, -24.90305221], [-47.76048109, -24.90404984], [-47.76246027, -24.90565336], [-47.7635948, -24.90646252], [-47.76442475, -24.90723873], [-47.76673323, -24.9090819], [-47.76751031, -24.9095763], [-47.76839257, -24.91020201], [-47.77131657, -24.91242868], [-47.77283613, -24.91379628], [-47.77382709, -24.91464535], [-47.77444033, -24.91525629], [-47.7753276, -24.91606969], [-47.77627386, -24.91676874], [-47.77703162, -24.9173767], [-47.77830367, -24.91878648], [-47.77927076, -24.91948469], [-47.7819675, -24.92171647], [-47.78522817, -24.92418259], [-47.78758354, -24.92587404], [-47.7886982, -24.92675783], [-47.79081078, -24.92871709], [-47.79239705, -24.93027158], [-47.79330292, -24.93097125], [-47.79408899, -24.93149081], [-47.7947081, -24.93195551], [-47.79583492, -24.93318673], [-47.79659365, -24.9338325], [-47.79720708, -24.93444335], [-47.79857757, -24.93564311], [-47.80020398, -24.93712098], [-47.80126252, -24.93817589], [-47.80282025, -24.93935384], [-47.80438101, -24.94072039], [-47.80560552, -24.94184727], [-47.80636871, -24.94260671], [-47.8078599, -24.94365348], [-47.80961362, -24.94524188], [-47.81057927, -24.94590198], [-47.81236453, -24.94753109], [-47.81290673, -24.94815963], [-47.81377267, -24.9489718], [-47.81542241, -24.9506003], [-47.81833786, -24.95327992], [-47.8192864, -24.9540166], [-47.82016829, -24.95462215], [-47.8205694, -24.95497304], [-47.82114325, -24.95562153], [-47.82454624, -24.95883816], [-47.82575368, -24.9600794], [-47.8277961, -24.96162455], [-47.82925119, -24.96284151], [-47.83024447, -24.96376509], [-47.83143131, -24.96498725], [-47.83422345, -24.96770576], [-47.83545033, -24.96885224], [-47.83785431, -24.97080569], [-47.83892737, -24.97163299], [-47.84019815, -24.97292941], [-47.84244889, -24.97548676], [-47.84495109, -24.97806222], [-47.84731564, -24.98045661], [-47.84848661, -24.98195469], [-47.84972288, -24.98346836], [-47.85109456, -24.98524243], [-47.85206924, -24.98618565], [-47.85331543, -24.98729326], [-47.85433391, -24.98840447], [-47.85505253, -24.98906963], [-47.85630382, -24.99036583], [-47.85666833, -24.99096192], [-47.85761725, -24.99234805], [-47.8586439, -24.99363162], [-47.86128424, -24.9966549], [-47.86152094, -24.9970673], [-47.8616173, -24.99721024], [-47.86189067, -24.99761556], [-47.86217305, -24.99799746], [-47.86253262, -24.99838957], [-47.86314512, -24.99890178], [-47.86347833, -24.99921439], [-47.86381372, -24.99969845], [-47.86428533, -25.00027237], [-47.86444017, -25.00040472], [-47.86466488, -25.00062937], [-47.86527833, -25.00136446], [-47.8668504, -25.00292799], [-47.86757366, -25.00369056], [-47.86857817, -25.00508947], [-47.86940416, -25.00612493], [-47.86984341, -25.00664006], [-47.87018091, -25.00710426], [-47.87098251, -25.00828129], [-47.87133896, -25.00871759], [-47.8719036, -25.00953006], [-47.87237835, -25.01029797], [-47.87255495, -25.01065598], [-47.87288269, -25.01109306], [-47.87317982, -25.01151108], [-47.87374122, -25.01260417], [-47.87415484, -25.0133186], [-47.87473929, -25.01413925], [-47.87513476, -25.0149285], [-47.87597433, -25.01648283], [-47.87644743, -25.01718845], [-47.87675473, -25.01798639], [-47.87749268, -25.01903049], [-47.87842733, -25.02037762], [-47.87893987, -25.0211267], [-47.87953756, -25.02209987], [-47.88039883, -25.02369305], [-47.88138237, -25.02540849], [-47.8817505, -25.02590887], [-47.88222087, -25.02701149], [-47.88259359, -25.02759129], [-47.88292877, -25.02837126], [-47.88313626, -25.02913542], [-47.88359356, -25.03006654], [-47.8838885, -25.03076695], [-47.88411057, -25.03137686], [-47.88442035, -25.03230201], [-47.88468869, -25.03319091], [-47.88522485, -25.03487216], [-47.88565758, -25.03642759], [-47.88596771, -25.03750071], [-47.8860655, -25.03799826], [-47.8861808, -25.03856716], [-47.88621778, -25.03915471], [-47.88641606, -25.03999191], [-47.88662011, -25.0410908], [-47.88668049, -25.04241925], [-47.88661225, -25.043278], [-47.8865562, -25.04384896], [-47.88639611, -25.04464782], [-47.88619065, -25.0460619], [-47.88617433, -25.04704807], [-47.88629816, -25.04770542], [-47.88634116, -25.04827405], [-47.88627538, -25.04968503], [-47.88628788, -25.05020932], [-47.88637954, -25.05075015], [-47.8866895, -25.05164821], [-47.88690913, -25.05214981], [-47.88707765, -25.05234083], [-47.88724617, -25.05253275], [-47.887469, -25.05276277], [-47.88757144, -25.05289128], [-47.88767388, -25.05302069], [-47.88782748, -25.05322609], [-47.88811887, -25.05340944], [-47.88829048, -25.05357611], [-47.88830231, -25.05358788], [-47.88848485, -25.05374647], [-47.88876649, -25.05389459], [-47.88895633, -25.053972]]]]}}]}