{"type": "FeatureCollection", "features": [{"type": "Feature", "properties": {"name": "Área de Relevante Interesse Ecológico São Sebastião"}, "geometry": {"type": "MultiPolygon", "coordinates": [[[[-45.5033441, -23.84411522], [-45.50445008, -23.84375291], [-45.50559421, -23.84358129], [-45.50662392, -23.84327619], [-45.50795873, -23.84270413], [-45.50854986, -23.84257064], [-45.51003722, -23.84251343], [-45.51129576, -23.84310456], [-45.51234454, -23.84365755], [-45.51411793, -23.8438673], [-45.51503323, -23.84371475], [-45.51564343, -23.84340965], [-45.51630406, -23.84286264], [-45.51666635, -23.84225882], [-45.51542246, -23.84167915], [-45.5142148, -23.84115986], [-45.5134737, -23.84076732], [-45.51347367, -23.84076736], [-45.51169302, -23.83975199], [-45.51010888, -23.83917593], [-45.50966576, -23.83909149], [-45.50965532, -23.83916324], [-45.50959594, -23.83924343], [-45.50944413, -23.83933549], [-45.50935469, -23.83937699], [-45.50822701, -23.83989853], [-45.50632388, -23.84037267], [-45.50534485, -23.84036832], [-45.50474747, -23.84027888], [-45.5040929, -23.84020807], [-45.50366033, -23.8400917], [-45.50318114, -23.83985714], [-45.50278251, -23.83953357], [-45.50187763, -23.83895232], [-45.5008323, -23.83822401], [-45.50068605, -23.83812195], [-45.50043711, -23.83796832], [-45.50012186, -23.83779089], [-45.49971285, -23.83757564], [-45.49919754, -23.83747901], [-45.49885764, -23.83741547], [-45.4980096, -23.83750492], [-45.49761965, -23.83747595], [-45.49718214, -23.83750189], [-45.49697639, -23.83748002], [-45.49683964, -23.83744583], [-45.49668658, -23.83737521], [-45.49639045, -23.83718914], [-45.49605332, -23.83688939], [-45.4958375, -23.83674083], [-45.49563713, -23.83664227], [-45.49537812, -23.83655621], [-45.49525825, -23.83653589], [-45.49440924, -23.83651571], [-45.49407968, -23.83645996], [-45.49374967, -23.83634096], [-45.49356836, -23.83623827], [-45.49348973, -23.83616002], [-45.49335473, -23.83596333], [-45.49327617, -23.83576315], [-45.49325148, -23.83546008], [-45.49328941, -23.83532533], [-45.49354985, -23.83497783], [-45.49362473, -23.83475333], [-45.49381292, -23.83440008], [-45.49383973, -23.8342967], [-45.49383985, -23.83417926], [-45.49378398, -23.83406526], [-45.49369041, -23.83399582], [-45.49345841, -23.83388314], [-45.49328347, -23.83377157], [-45.49308022, -23.83352389], [-45.49301591, -23.83340526], [-45.4927699, -23.83275482], [-45.49250459, -23.83225769], [-45.49225208, -23.83165232], [-45.49211608, -23.83119363], [-45.4920212, -23.83050544], [-45.49195739, -23.83025125], [-45.49194945, -23.83011112], [-45.4919172, -23.83006987], [-45.49184038, -23.82968006], [-45.49164107, -23.82897181], [-45.491559, -23.82854574], [-45.49148144, -23.82832749], [-45.491402, -23.82786537], [-45.49132718, -23.82775105], [-45.49120637, -23.82769012], [-45.49097606, -23.8276678], [-45.49052261, -23.82769555], [-45.48920023, -23.82771625], [-45.48852916, -23.82783931], [-45.48817466, -23.827747], [-45.48795797, -23.82763906], [-45.48776697, -23.82750456], [-45.48751165, -23.82741856], [-45.48733109, -23.82748288], [-45.48695477, -23.82768369], [-45.48669983, -23.82775125], [-45.48608733, -23.82775351], [-45.48547307, -23.82769244], [-45.48510276, -23.82767651], [-45.48458638, -23.82768695], [-45.48405442, -23.82769697], [-45.48355416, -23.82782951], [-45.48279937, -23.82816156], [-45.48236198, -23.82830383], [-45.48130573, -23.82841002], [-45.48085978, -23.82837015], [-45.48053666, -23.82824671], [-45.47986227, -23.8278774], [-45.47912895, -23.82737152], [-45.47811263, -23.82653515], [-45.47768519, -23.82607558], [-45.47737493, -23.82561358], [-45.4771118, -23.82530158], [-45.47696743, -23.82505508], [-45.47690461, -23.82481452], [-45.47693018, -23.82471114], [-45.47708024, -23.82450158], [-45.47705924, -23.82439733], [-45.47680492, -23.82412614], [-45.47649086, -23.82384033], [-45.47641586, -23.82373501], [-45.47627729, -23.82342533], [-45.47604373, -23.82313189], [-45.47583785, -23.82297901], [-45.47561672, -23.82287564], [-45.47513309, -23.82282145], [-45.47491415, -23.82275864], [-45.47470034, -23.82263276], [-45.47455452, -23.82248095], [-45.47450421, -23.82239426], [-45.47441002, -23.82213051], [-45.47440302, -23.82198714], [-45.47372008, -23.82215789], [-45.47236071, -23.82204933], [-45.4723607, -23.82204931], [-45.47203341, -23.82195067], [-45.4715439, -23.82190558], [-45.47112523, -23.82175744], [-45.47073233, -23.82159642], [-45.47042316, -23.82152557], [-45.47021061, -23.82143539], [-45.47001094, -23.82139675], [-45.46980212, -23.82142361], [-45.46886581, -23.82229859], [-45.46768549, -23.82334955], [-45.46821942, -23.82424578], [-45.4686008, -23.82481784], [-45.46915379, -23.825142], [-45.46991654, -23.8254471], [-45.47085091, -23.82561872], [-45.47121322, -23.82577126], [-45.4716804, -23.82631472], [-45.47276732, -23.82686771], [-45.47379704, -23.82700119], [-45.47465513, -23.82682956], [-45.47492209, -23.82711559], [-45.47576112, -23.82818344], [-45.47652387, -23.82894618], [-45.47726755, -23.8294801], [-45.47865957, -23.83018564], [-45.4804425, -23.83091978], [-45.48175825, -23.8311486], [-45.48341723, -23.83128207], [-45.48503807, -23.83158717], [-45.48660171, -23.8316825], [-45.48795559, -23.83141554], [-45.48871834, -23.83158715], [-45.4889853, -23.83179691], [-45.48932854, -23.83267407], [-45.48940482, -23.83320799], [-45.48967178, -23.83402794], [-45.4897862, -23.83524833], [-45.48958598, -23.83726008], [-45.48989109, -23.83817537], [-45.49044408, -23.83872836], [-45.49155007, -23.83922414], [-45.49307557, -23.83971993], [-45.49463921, -23.83964365], [-45.49574519, -23.83996781], [-45.49673677, -23.84042545], [-45.49757579, -23.84061614], [-45.49837668, -23.840578], [-45.4991585, -23.840578], [-45.49998799, -23.84098797], [-45.50027402, -23.84138841], [-45.50057913, -23.8419414], [-45.50075075, -23.84249439], [-45.50101771, -23.84302831], [-45.5015707, -23.84365758], [-45.50231439, -23.84403895], [-45.5033441, -23.84411522]]], [[[-45.43245687, -23.83465073], [-45.43299525, -23.83449931], [-45.43336538, -23.83428059], [-45.43232227, -23.83281688], [-45.43158199, -23.83165601], [-45.43112773, -23.83133635], [-45.4307576, -23.83105034], [-45.42927705, -23.83009136], [-45.42826759, -23.82935109], [-45.42685404, -23.82817986], [-45.42639167, -23.82749202], [-45.4261393, -23.82698729], [-45.42571869, -23.82648256], [-45.42537243, -23.82629714], [-45.42493248, -23.8260254], [-45.42462282, -23.82502793], [-45.4245505, -23.82482761], [-45.42451644, -23.82461906], [-45.42445691, -23.82442864], [-45.42427627, -23.82413197], [-45.42416985, -23.82401665], [-45.42387657, -23.82380068], [-45.42347048, -23.82361934], [-45.42330113, -23.82347168], [-45.42323087, -23.82330206], [-45.42321441, -23.82307178], [-45.42339233, -23.82252935], [-45.42342979, -23.82227363], [-45.42340624, -23.82167395], [-45.42343713, -23.82150948], [-45.42360096, -23.8211667], [-45.42363686, -23.82103654], [-45.42362175, -23.82091645], [-45.42355274, -23.82082902], [-45.42323331, -23.82072513], [-45.42306606, -23.82061991], [-45.42292814, -23.82047396], [-45.42274858, -23.82020619], [-45.42256738, -23.82003507], [-45.42235686, -23.81990829], [-45.42213889, -23.81990347], [-45.4217377, -23.82001928], [-45.42152281, -23.82005509], [-45.42079916, -23.8200363], [-45.4205722, -23.81998543], [-45.42003648, -23.81978818], [-45.41981167, -23.81979511], [-45.4196292, -23.81983806], [-45.4194682, -23.81984573], [-45.41932271, -23.81978651], [-45.41914168, -23.81966868], [-45.41901288, -23.81961032], [-45.41832649, -23.81957605], [-45.4179551, -23.81949125], [-45.4176565, -23.8194487], [-45.41754473, -23.81949959], [-45.41748229, -23.81962169], [-45.41747463, -23.81968404], [-45.41752814, -23.81983744], [-45.41767043, -23.82012158], [-45.41770348, -23.82032562], [-45.41768731, -23.82048824], [-45.41755442, -23.82068732], [-45.41745165, -23.82078695], [-45.41724556, -23.82081461], [-45.4169204, -23.82075858], [-45.41652329, -23.82061243], [-45.4162214, -23.82046421], [-45.41592767, -23.8204099], [-45.41533859, -23.82040968], [-45.41488975, -23.82036212], [-45.41469937, -23.82039153], [-45.41393809, -23.82057965], [-45.41385758, -23.82057805], [-45.41371897, -23.82052243], [-45.41320977, -23.82065298], [-45.41282281, -23.82124184], [-45.4126041, -23.82364771], [-45.41317613, -23.82443845], [-45.41260411, -23.82554885], [-45.41220874, -23.82636483], [-45.41276394, -23.82651625], [-45.41336962, -23.82656672], [-45.41395847, -23.82643212], [-45.41436225, -23.82626388], [-45.41464827, -23.82602834], [-45.41490063, -23.82567503], [-45.41527077, -23.82520395], [-45.4156409, -23.82508618], [-45.41629705, -23.82522077], [-45.4170205, -23.82537218], [-45.41796266, -23.82570867], [-45.41870293, -23.82604515], [-45.41913196, -23.82625545], [-45.41926655, -23.82713032], [-45.41935068, -23.8280893], [-45.41951892, -23.8286445], [-45.41978812, -23.82906511], [-45.42010778, -23.82940159], [-45.42056204, -23.82963713], [-45.42165562, -23.82992314], [-45.42241272, -23.8301082], [-45.42293427, -23.83031009], [-45.42497002, -23.83094941], [-45.42586171, -23.83179062], [-45.42710672, -23.83246359], [-45.42883963, -23.83298514], [-45.43010146, -23.83380952], [-45.43154835, -23.83454979], [-45.43201943, -23.83465073], [-45.43245687, -23.83465073]]], [[[-45.59747899, -23.800028], [-45.59819468, -23.79961365], [-45.59868436, -23.79918047], [-45.59886328, -23.79902038], [-45.60003098, -23.79915222], [-45.60180137, -23.79977373], [-45.60321392, -23.80058358], [-45.60445696, -23.80126159], [-45.6057, -23.8018266], [-45.60688653, -23.8019396], [-45.6079789, -23.80169476], [-45.60893942, -23.80114857], [-45.61027663, -23.80045172], [-45.61089815, -23.80041405], [-45.61173625, -23.80064947], [-45.6133183, -23.8007813], [-45.61426, -23.80125215], [-45.61458018, -23.80162882], [-45.61486269, -23.80258934], [-45.61540888, -23.80381354], [-45.61635057, -23.80511307], [-45.6172546, -23.80556508], [-45.61827163, -23.80577225], [-45.61977835, -23.80597942], [-45.62228326, -23.80654443], [-45.62324379, -23.80665743], [-45.62409131, -23.80637492], [-45.62475049, -23.8058099], [-45.62605002, -23.803418], [-45.62778274, -23.80170412], [-45.62808408, -23.80095076], [-45.62821591, -23.80029158], [-45.62821591, -23.79951939], [-45.62802757, -23.79870954], [-45.62761322, -23.79784318], [-45.62718004, -23.79693916], [-45.62712353, -23.79641182], [-45.62718003, -23.79554546], [-45.62734953, -23.79409526], [-45.62780154, -23.79296523], [-45.62847956, -23.7920612], [-45.62904457, -23.79102534], [-45.62910107, -23.79046032], [-45.62586164, -23.79046033], [-45.62488228, -23.79040383], [-45.62396758, -23.7912152], [-45.62359994, -23.79166769], [-45.6232115, -23.79222257], [-45.62324575, -23.79223513], [-45.62336126, -23.79234563], [-45.62348326, -23.79261426], [-45.62350913, -23.79290376], [-45.62338251, -23.79356089], [-45.62325339, -23.79404196], [-45.62296276, -23.79453358], [-45.62245732, -23.79520665], [-45.62221126, -23.79570359], [-45.6220722, -23.79622053], [-45.62201701, -23.79669378], [-45.62211995, -23.79719697], [-45.62237877, -23.79767122], [-45.62257977, -23.79791866], [-45.62326534, -23.79852241], [-45.62351503, -23.79882048], [-45.62361741, -23.7990571], [-45.62367866, -23.7994466], [-45.62365591, -23.79953648], [-45.62351353, -23.79977342], [-45.62329378, -23.79995467], [-45.62297403, -23.80010255], [-45.62241671, -23.8002598], [-45.62208721, -23.80040749], [-45.62183952, -23.80066505], [-45.62179415, -23.8008088], [-45.62177496, -23.8011698], [-45.62183565, -23.80131543], [-45.62220172, -23.80180062], [-45.62229953, -23.80205074], [-45.62227066, -23.80237543], [-45.62209328, -23.80249875], [-45.62181665, -23.80255262], [-45.62155452, -23.80252987], [-45.62073895, -23.80232575], [-45.62059514, -23.80230969], [-45.62030945, -23.80226844], [-45.62002607, -23.802295], [-45.61931969, -23.80250838], [-45.61906069, -23.80256701], [-45.6187925, -23.80257132], [-45.61857631, -23.80252232], [-45.61836868, -23.80244638], [-45.61823025, -23.80234907], [-45.61814274, -23.80222107], [-45.61807343, -23.80207076], [-45.61802962, -23.80190744], [-45.61799243, -23.80157257], [-45.61800724, -23.80118894], [-45.61812568, -23.80059937], [-45.61827355, -23.79931031], [-45.61828467, -23.79916143], [-45.61824067, -23.79900262], [-45.61808311, -23.79867455], [-45.61776092, -23.7982398], [-45.61768248, -23.7979133], [-45.61764685, -23.7978268], [-45.61755166, -23.79777093], [-45.61740441, -23.7977728], [-45.61717178, -23.79783643], [-45.61683453, -23.7979118], [-45.61628165, -23.79788843], [-45.61598746, -23.79784256], [-45.61569902, -23.79772906], [-45.61545902, -23.79758931], [-45.61526358, -23.79742774], [-45.61510795, -23.79721274], [-45.61489326, -23.79665337], [-45.61462151, -23.79626918], [-45.61378706, -23.79594724], [-45.61329687, -23.79565405], [-45.61310399, -23.79546093], [-45.61278367, -23.79499455], [-45.61217135, -23.79373717], [-45.6117056, -23.79303786], [-45.61147684, -23.79279892], [-45.61121578, -23.79260911], [-45.61093459, -23.7925003], [-45.6096052, -23.79231855], [-45.60931626, -23.79231792], [-45.60894132, -23.79237899], [-45.60877276, -23.79248893], [-45.608287, -23.79289131], [-45.6080185, -23.79302656], [-45.60772544, -23.79310268], [-45.60740625, -23.79331368], [-45.60740237, -23.79349887], [-45.60766269, -23.79422156], [-45.60770457, -23.79471013], [-45.60780001, -23.79519057], [-45.60812551, -23.79593251], [-45.60816358, -23.79616807], [-45.60816308, -23.79642551], [-45.60809526, -23.7966727], [-45.60792326, -23.79700383], [-45.60730345, -23.79780133], [-45.60686476, -23.79820902], [-45.60659851, -23.79832165], [-45.60621675, -23.79836009], [-45.60606632, -23.79830771], [-45.60582031, -23.79815877], [-45.60415267, -23.79693227], [-45.6036941, -23.79668021], [-45.60300735, -23.7963699], [-45.60272816, -23.79628365], [-45.60219696, -23.79618834], [-45.59974544, -23.79588722], [-45.59921387, -23.79586872], [-45.59816305, -23.79597641], [-45.59738955, -23.7959671], [-45.59700686, -23.79593323], [-45.59643841, -23.79571079], [-45.59584953, -23.79527116], [-45.59511683, -23.79460773], [-45.59466202, -23.79426541], [-45.59368288, -23.79373754], [-45.59320769, -23.79354841], [-45.59236781, -23.79334367], [-45.59183955, -23.79325748], [-45.5915773, -23.79324379], [-45.59130817, -23.79328867], [-45.59089311, -23.79342123], [-45.59074492, -23.79346373], [-45.59058748, -23.79345186], [-45.59051773, -23.7934258], [-45.59035473, -23.79429518], [-45.59028348, -23.79539656], [-45.5902835, -23.79539659], [-45.59028347, -23.7953966], [-45.59028443, -23.79575274], [-45.5902091, -23.79797513], [-45.59051045, -23.79803163], [-45.59111313, -23.79788096], [-45.59186649, -23.79765495], [-45.59256334, -23.79767378], [-45.59390055, -23.79861547], [-45.59476691, -23.79940649], [-45.59595345, -23.80010333], [-45.59681981, -23.80017867], [-45.59747899, -23.800028]]]]}}]}