{"type":"FeatureCollection","features":[{"type":"Feature","geometry":{"type":"MultiPolygon","coordinates":[[[[-47.844009668999945,-22.197656429999938],[-47.844185710999966,-22.197551460999932],[-47.84454809199997,-22.19740562399994],[-47.84516360699996,-22.19728473999993],[-47.84600638499995,-22.197342700999968],[-47.84640789799994,-22.19750602499994],[-47.846701534999966,-22.197693371999947],[-47.84869599399997,-22.197737348999965],[-47.849479171999974,-22.19770646799998],[-47.85006895299995,-22.19775780499998],[-47.85217673599993,-22.19850684299996],[-47.852822550999974,-22.198825884999962],[-47.85337065699997,-22.199214708999932],[-47.854311860999985,-22.199624751999977],[-47.85492744299995,-22.199840904999974],[-47.85540964699993,-22.199955228999954],[-47.855666016999976,-22.20008331899993],[-47.85629287099994,-22.200491966999948],[-47.85682893799998,-22.20091070999996],[-47.85725904199995,-22.201607988999967],[-47.857496046999984,-22.20177296199995],[-47.857911412999954,-22.202142485999957],[-47.85930231499998,-22.204214934999982],[-47.85955713799996,-22.204462269999965],[-47.86006270599995,-22.204741437999928],[-47.860236646999965,-22.205010235999964],[-47.86138165099993,-22.20605790099995],[-47.86184679599995,-22.206511744999943],[-47.862339529999986,-22.207040974999927],[-47.86264228799996,-22.207455203999928],[-47.863055401999986,-22.207847664999974],[-47.86376402999997,-22.208344868999973],[-47.86413350999993,-22.20848783499997],[-47.86485762199993,-22.208434549999936],[-47.86545468099996,-22.20814409199994],[-47.866053775999944,-22.207798578999927],[-47.86632570699993,-22.20770865299994],[-47.86709879199998,-22.207313196999962],[-47.868062115999976,-22.207067122999945],[-47.86854971499997,-22.20691765199996],[-47.86935742999998,-22.206556225999975],[-47.87015479899998,-22.20644942599995],[-47.871100206999984,-22.206154726999955],[-47.87130160899994,-22.20611201899993],[-47.87161886299998,-22.205847349999942],[-47.87181032299998,-22.20583391399998],[-47.87276084999996,-22.20584476099998],[-47.87321658399998,-22.205704777999927],[-47.87376596699994,-22.205607395999948],[-47.87394834799994,-22.205630036999935],[-47.87412383399993,-22.205837591999966],[-47.874318518999985,-22.205925011999966],[-47.87440745099997,-22.205992884999944],[-47.874692170999936,-22.206327774999977],[-47.87507890699993,-22.206485483999927],[-47.87570359499995,-22.20680965599996],[-47.87603972699998,-22.20684805999997],[-47.876754278999954,-22.207487818999937],[-47.876930078999976,-22.207802347999973],[-47.876932446999945,-22.208238562999952],[-47.87631798099994,-22.208830698999975],[-47.87599286899996,-22.209492205999936],[-47.87584511099993,-22.210214948999976],[-47.87547243199998,-22.21113199499996],[-47.875149489999956,-22.211289446999956],[-47.87478821499997,-22.211375992999933],[-47.874693699999966,-22.21192893099993],[-47.87451975399995,-22.21247853799997],[-47.874138296999945,-22.21313375099993],[-47.873802523999984,-22.213426467999966],[-47.87284300799996,-22.21364200399995],[-47.87264342799995,-22.21380936299994],[-47.87237862699993,-22.214085179999927],[-47.87211410899994,-22.214127334999944],[-47.87172259899995,-22.21402401699993],[-47.871477625999944,-22.21426334599994],[-47.87142664299995,-22.214459631999944],[-47.87138662999996,-22.214940448999982],[-47.87128984499998,-22.215152866999972],[-47.87160907599997,-22.215212417999965],[-47.872267679999936,-22.215080719999946],[-47.87234238299993,-22.215171786999974],[-47.87268211899993,-22.215226162999954],[-47.87309278499998,-22.21522561599994],[-47.87329841099995,-22.21541653099996],[-47.873756801999946,-22.215636521999954],[-47.87396106299997,-22.215760374999945],[-47.874272401999974,-22.215835374999983],[-47.87441781499996,-22.215899889999946],[-47.874434133999955,-22.215993520999973],[-47.87448646399997,-22.21608651599996],[-47.874588252999956,-22.216131676999964],[-47.87473854399997,-22.216082059999962],[-47.874862623999945,-22.216160368999965],[-47.874955615999966,-22.216480735999937],[-47.87502390299994,-22.217002795999974],[-47.87507664399993,-22.217115907999982],[-47.875094467999986,-22.217283306999946],[-47.87533665999996,-22.217500406999932],[-47.875519432999965,-22.21757249099994],[-47.87536737399995,-22.217692238999973],[-47.87470340799996,-22.21865923599995],[-47.87451395699998,-22.219409818999964],[-47.87358563199996,-22.22072411399995],[-47.873222544999976,-22.221643058999973],[-47.872979731999976,-22.22278935999998],[-47.87294155699993,-22.223100082999963],[-47.872648296999955,-22.223473145999947],[-47.87232317899998,-22.22384869399997],[-47.87211852199994,-22.224386228999947],[-47.871596082999986,-22.22529468299996],[-47.87149901299995,-22.22572155399996],[-47.871431550999944,-22.226235334999956],[-47.87120967499993,-22.22674776399998],[-47.87077397699994,-22.228084260999935],[-47.87036347999998,-22.22864596499994],[-47.86878333299995,-22.229580933999955],[-47.86868480499993,-22.22985250199997],[-47.86819110499994,-22.23047887799993],[-47.86813049999995,-22.230777184999965],[-47.86811946599994,-22.23132041699995],[-47.86789313299994,-22.23203913499998],[-47.86742171299994,-22.232768506999946],[-47.86688345799996,-22.23320721999994],[-47.866299193999964,-22.23389831299994],[-47.865595250999945,-22.23478264399995],[-47.865226511999936,-22.235401380999974],[-47.86512463399998,-22.235880991999977],[-47.864941518999956,-22.23730304099996],[-47.86479584199998,-22.23792730399998],[-47.86478093599993,-22.23836768999996],[-47.86488982599997,-22.23866266999994],[-47.86490994099995,-22.23881609299997],[-47.86483052899996,-22.23892019599998],[-47.86490603999994,-22.239132366999968],[-47.86481082299997,-22.23927959899993],[-47.86487539899997,-22.239526715999943],[-47.86479275499994,-22.23977012399996],[-47.86481774899994,-22.23991435099998],[-47.864623893999976,-22.240184941999928],[-47.86468119199998,-22.24038736999995],[-47.864863928999966,-22.24054886999994],[-47.864913558999945,-22.24072503499997],[-47.86476189899997,-22.241025288999936],[-47.864910409999936,-22.241277346999937],[-47.864842230999955,-22.24144045999998],[-47.864409301999956,-22.24186240299997],[-47.864206742999954,-22.24220277099994],[-47.864027835999934,-22.242265705999955],[-47.86392541599997,-22.242463396999938],[-47.86369750499995,-22.242547247999937],[-47.86360002099997,-22.242754075999983],[-47.86344068999995,-22.24280085299995],[-47.863098452999964,-22.243197047999956],[-47.86272348999995,-22.24333218499993],[-47.86255275499997,-22.243651737999983],[-47.86229845399998,-22.243925951999927],[-47.862076513999966,-22.24429734599994],[-47.86162152899993,-22.244782459999954],[-47.86142238399998,-22.245226110999965],[-47.860626510999964,-22.245101216999956],[-47.85968717299994,-22.245073658999956],[-47.85892254899994,-22.24516729499993],[-47.855581152999946,-22.24624431199993],[-47.85183900399994,-22.247488655999973],[-47.851250180999955,-22.247616585999936],[-47.85056172299994,-22.24764470499997],[-47.85009181199996,-22.24769036699996],[-47.849274796999964,-22.247891780999964],[-47.84475680699995,-22.248788779999927],[-47.836358651999944,-22.25033074399994],[-47.82969276899996,-22.251520204999963],[-47.82922038099997,-22.25026509199995],[-47.82521485799998,-22.25022811599996],[-47.825195400999974,-22.25003894899993],[-47.824942361999945,-22.249879186999976],[-47.824633852999966,-22.24988455299996],[-47.823886812999945,-22.25000698499997],[-47.82382635899995,-22.25021527399997],[-47.82291518799997,-22.250215236999964],[-47.82214740899997,-22.249011193999934],[-47.81869647099995,-22.24899325499996],[-47.81759383399998,-22.249171097999977],[-47.817603187999964,-22.248531525999965],[-47.81732244099993,-22.24766460099994],[-47.816349833999936,-22.246591722999938],[-47.816372823999984,-22.246278022999945],[-47.816630945999975,-22.24601473399997],[-47.81697714899997,-22.246131326999944],[-47.81721896299996,-22.24541879999998],[-47.817196432999935,-22.24502415799998],[-47.81706015299994,-22.24479495099996],[-47.81691196999998,-22.244702167999947],[-47.816634318999945,-22.24472060399995],[-47.81625754299995,-22.244904219999967],[-47.81602295699997,-22.244881042999964],[-47.815122232999954,-22.24447437799995],[-47.81156446799997,-22.242775500999983],[-47.811536280999974,-22.24259234599998],[-47.81103170399996,-22.240988167999944],[-47.81041570999997,-22.239155661999973],[-47.809697202999985,-22.236601940999947],[-47.80924232299998,-22.23456267499995],[-47.80893167399995,-22.23352256299995],[-47.80769802399993,-22.229958384999975],[-47.80774050599996,-22.227879152999947],[-47.808007637999935,-22.224931254999944],[-47.80812439299996,-22.223231247999934],[-47.80805296799997,-22.221884905999957],[-47.80787867399994,-22.221023980999973],[-47.807919898999955,-22.219878294999944],[-47.80815295199994,-22.218929946999936],[-47.80940652299995,-22.21675732899996],[-47.81102722899993,-22.213853014999927],[-47.81175391499994,-22.21236971999997],[-47.81188479699995,-22.211554157999956],[-47.811781156999984,-22.21076534799994],[-47.81130896299993,-22.209968197999956],[-47.81085083399995,-22.209475189999978],[-47.81013638799993,-22.20897468299995],[-47.80930093499995,-22.20843192199993],[-47.808787446999986,-22.207967802999974],[-47.80836850299994,-22.20755237999998],[-47.808004375999985,-22.206995122999956],[-47.807751748999976,-22.206248092999942],[-47.807663307999974,-22.205424431999973],[-47.80771758099996,-22.204893496999944],[-47.807800929999985,-22.204375476999928],[-47.80838183999998,-22.201346470999965],[-47.80844453999998,-22.200597006999942],[-47.812377624999954,-22.20109208799994],[-47.81562748799996,-22.20161861699995],[-47.816460259999985,-22.20247092099993],[-47.81811698699994,-22.203004763999957],[-47.818617837999966,-22.203320804999976],[-47.81912862699994,-22.203313419999972],[-47.819573408999986,-22.203347966999956],[-47.819926743999986,-22.203303166999945],[-47.82096605399994,-22.203024505999963],[-47.82210885099994,-22.202792958999964],[-47.82226597099998,-22.202784509999958],[-47.82268388699998,-22.202839954999945],[-47.823300604999986,-22.202877359999945],[-47.82413789299994,-22.202850643999966],[-47.82459917799997,-22.202790995999976],[-47.82522444899996,-22.202654033999977],[-47.825555777999966,-22.202623200999938],[-47.825910215999954,-22.202637830999947],[-47.82687880199995,-22.20252281599994],[-47.82723503899996,-22.202539884999965],[-47.82772741499997,-22.202702344999977],[-47.82800438099997,-22.202626189999933],[-47.829210530999944,-22.20266454199998],[-47.82946399499997,-22.202733084999977],[-47.82999125799995,-22.202963979999936],[-47.83049404899998,-22.20320658399993],[-47.83092466599993,-22.203319206999936],[-47.831603316999974,-22.203429335999942],[-47.831849011999964,-22.20344291899994],[-47.83269085599994,-22.203702745999976],[-47.833504896999955,-22.203855073999932],[-47.834101448999945,-22.203821554999934],[-47.834611507999966,-22.20371552699993],[-47.83508262799995,-22.20365804299996],[-47.835546127999976,-22.20356623899994],[-47.83600635999994,-22.20336439999994],[-47.83641690099995,-22.20308509599994],[-47.83737043999997,-22.202319848999934],[-47.83793106899998,-22.201265193999973],[-47.83819254599996,-22.20108828399998],[-47.83935056099995,-22.200597350999942],[-47.84021217399993,-22.200210297999945],[-47.840366492999976,-22.200155999999936],[-47.840893704999985,-22.20004748699995],[-47.84117734499995,-22.199879520999957],[-47.841531621999934,-22.19963287799993],[-47.84248903799994,-22.199050541999952],[-47.84351353499994,-22.19798018399996],[-47.844009668999945,-22.197656429999938]]],[[[-47.90763657399998,-22.248591171999976],[-47.90710531199994,-22.24852816899994],[-47.907211856999936,-22.247965224999973],[-47.90729693399993,-22.24737517099993],[-47.90717041499994,-22.246743632999937],[-47.907144552999966,-22.24627628899998],[-47.907616978999954,-22.245603848999963],[-47.908237733999954,-22.245049475999963],[-47.90832342999994,-22.24448959199998],[-47.908003393999934,-22.243906789999983],[-47.907753163999985,-22.243564186999947],[-47.907577412999956,-22.24290334899996],[-47.90764815299997,-22.242404094999927],[-47.90756682499995,-22.241605750999952],[-47.90709753899995,-22.24085962099997],[-47.90699097199996,-22.24040881199994],[-47.907222194999974,-22.23983123299996],[-47.90766250699994,-22.23917445999996],[-47.90805887799996,-22.238744829999973],[-47.908652804999974,-22.238462568999978],[-47.90906724399997,-22.23812315699996],[-47.90964589099997,-22.23799694799993],[-47.91056782499993,-22.238004676999935],[-47.91099130099997,-22.23808435899997],[-47.91182634399996,-22.238423316999956],[-47.91278593699997,-22.238992752999934],[-47.91324673499997,-22.239246397999977],[-47.91416956099994,-22.239872524999953],[-47.91440121499994,-22.240169650999974],[-47.91453697199995,-22.24047864199997],[-47.91464286499996,-22.240620513999943],[-47.91483584799994,-22.240824720999967],[-47.915087709999966,-22.240971960999957],[-47.91524489899996,-22.241104924999945],[-47.91572965299997,-22.241311881999934],[-47.91592164599996,-22.24146818199995],[-47.91646149999997,-22.241849868999964],[-47.917172585999936,-22.24262784399997],[-47.91760952799996,-22.243011373999934],[-47.91763889799995,-22.243186566999952],[-47.91785268299998,-22.243566116999943],[-47.918070410999974,-22.24372195199993],[-47.91828022499993,-22.243909877999954],[-47.91836930299996,-22.244068022999954],[-47.91877555599996,-22.244212481999966],[-47.91911120899994,-22.244262361999972],[-47.920106515999976,-22.24509112399994],[-47.92024411199998,-22.245519962999936],[-47.920378727999946,-22.245805084999972],[-47.92068372199998,-22.24603123199995],[-47.92080151699997,-22.246332629999927],[-47.92098925299996,-22.24669666899996],[-47.92134902599997,-22.24708157499998],[-47.921801820999974,-22.247400907999975],[-47.92236578699993,-22.24770226499993],[-47.92296605299998,-22.248098813999945],[-47.92392505899994,-22.24862335399996],[-47.92457388099996,-22.249016359999928],[-47.92508149099996,-22.249220211999955],[-47.925690034999946,-22.249326396999948],[-47.926095386999975,-22.24956403599998],[-47.92639936499995,-22.24987804899996],[-47.92671168099997,-22.25004281599996],[-47.92749442699994,-22.25027364999994],[-47.92880190699998,-22.250431119999973],[-47.92967127199995,-22.250426088999973],[-47.93084696999995,-22.250298379999947],[-47.93132480899993,-22.250517160999948],[-47.931440434999956,-22.250525738999954],[-47.93204124799996,-22.250717123999948],[-47.93243179799998,-22.250917571999935],[-47.93253895199996,-22.251067803999945],[-47.93254125699997,-22.251178428999935],[-47.93251442899998,-22.251317246999974],[-47.93244000899995,-22.25149089599995],[-47.93235636099996,-22.251542832999974],[-47.931706636999934,-22.251576988999943],[-47.93072899499998,-22.25157004199997],[-47.92839784499995,-22.251267797999958],[-47.926439925999944,-22.251060818999974],[-47.90763657399998,-22.248591171999976]]]]},"properties":{"OBJECTID":511269,"NIS":3360,"nomUnidade":"Estação Experimental de Itirapina","nomTipoUnidade":"Unidade de Conservação","obsAtributo":"Area aproximada","nomAreaTipo":"Área Protegida","desEndereco":"Rua 8, s/n","nomBairro":"Vila Santa Cruz","nomMunicipio":"ITIRAPINA","DDD":"19 ","numTelefone":"3575-1374      ","eMail":"eeitirapina@if.sp.gov.br","DatAtualiza":1653922839000,"siteUC":"https://guiadeareasprotegidas.sp.gov.br/ap/eex-itirapina/","codIBGE":"3523602","Area_ha":3325.95351149,"CorrecaoGeorref":1,"Estrutura":"Interna","Grupo":"Área Protegida","Categoria":"Estação Experimental","OrgaoGestor":"Fundação Para Conservação e a Produção Florestal do Estado de São Paulo","DataCriacao":-400291200000,"ConselhoGestor":"Sim","PlanoManejo":"Sim","SituacaoFundiaria":null,"Ambiente":"Terrestre","Bioma":"Cerrado","VisitacaoPublica":"Sim","desUnidade":"Localizadas no sudeste paulista, a Estação Experimental e a Estação Ecológica de Itirapina somam 5.512 ha nos municípios de Itirapina e Brotas. As duas estações têm a peculiaridade de serem geridas de forma integrada, tanto que possuem um único plano de manejo para ambas.\r\nA Estação Experimental, criada desde o final dos anos 1950, possui 3.212 ha e grande área reflorestada com Pinus sp e Eucalyptus sp, espécies exóticas de crescimento rápido e que fornecem madeira em quantidade, poupando assim as espécies nativas. A cobertura vegetal nativa se encontra bastante fragmentada e representada por remanescentes de cerrado stricto sensu, cerradão e florestas ripícolas (floresta de galeria e paludosa). \r\nNa estação, também são previstas atividades de recreação e educação ambiental, nos locais conhecidos como Porto e Fazendinha.","AnoCriacao":1957,"Esfera":"Estadual","nomParque":"EEx Itirapina","valArea":1},"id":511269}]}