{"type":"FeatureCollection","features":[{"type":"Feature","geometry":{"type":"Polygon","coordinates":[[[-49.06002215099994,-24.08395460899993],[-49.05979013799998,-24.083871037999927],[-49.059607375999974,-24.08359939199994],[-49.05954617599997,-24.08315079099998],[-49.05949113099996,-24.08274407099998],[-49.05933777399997,-24.08262926599997],[-49.05916649699998,-24.082346117999975],[-49.05888111599995,-24.082110456999942],[-49.05876306199997,-24.081858772999965],[-49.05871775999998,-24.081575778999934],[-49.05867650099998,-24.081435761999956],[-49.058532630999935,-24.08138328399997],[-49.05836980999993,-24.081413719999944],[-49.05817829999995,-24.08143584499993],[-49.057939544999954,-24.081558582999946],[-49.057685678999974,-24.081718235999972],[-49.057615735999946,-24.081928437999977],[-49.057614746999946,-24.08222890099995],[-49.057786490999945,-24.082591779999973],[-49.057914395999944,-24.082829233999973],[-49.05782130899996,-24.082995985999958],[-49.057597132999945,-24.08301904999996],[-49.057302472999936,-24.082870665999963],[-49.05699143999993,-24.082614631999945],[-49.056690680999964,-24.08242075499993],[-49.05632872899997,-24.08238509499995],[-49.05607792799998,-24.08232827599994],[-49.05563640899993,-24.082227949999947],[-49.055316939999955,-24.082120688999964],[-49.05516143299997,-24.08193362199995],[-49.055004072999964,-24.081576069999983],[-49.05489039299994,-24.081380416999934],[-49.05463946899994,-24.081234209999934],[-49.05439783099996,-24.08116341999994],[-49.05411304299997,-24.081175865999967],[-49.05378926099996,-24.08127629699993],[-49.05358938799998,-24.081292170999973],[-49.05326774799994,-24.081244286999947],[-49.05300610599994,-24.081091620999928],[-49.05278217099993,-24.08087117699995],[-49.052454644999955,-24.08037990799994],[-49.05237351399995,-24.079982965999932],[-49.052446601999975,-24.079656155999942],[-49.052511023999955,-24.079362730999947],[-49.052466369999934,-24.079044352999972],[-49.05232591099997,-24.078701459999934],[-49.052175355999964,-24.07816116099997],[-49.05191563699998,-24.077686554999957],[-49.051500929999975,-24.077160495999976],[-49.05133754899998,-24.076877079999974],[-49.05114597299996,-24.076643773999933],[-49.05098790599993,-24.076288647999945],[-49.05078978299997,-24.075896624999928],[-49.050520519999964,-24.075624588999972],[-49.05030552699998,-24.07546393599995],[-49.04992303299997,-24.075129962999938],[-49.049707970999975,-24.074798485999963],[-49.04963186699996,-24.07466795399995],[-49.04953694999995,-24.07450693499993],[-49.049510030999954,-24.07427780499995],[-49.04952322899993,-24.073997000999952],[-49.04964482699995,-24.073791884999935],[-49.049880437999946,-24.07360339099995],[-49.05014706999998,-24.073476958999947],[-49.05039912799998,-24.073293277999937],[-49.050558670999976,-24.07319933699995],[-49.050644955999985,-24.073176871999976],[-49.05074083499994,-24.07320924399994],[-49.05087516699996,-24.07330638899998],[-49.05103467199996,-24.073390582999934],[-49.051269108999975,-24.073455326999976],[-49.05153230899998,-24.073490731999982],[-49.051740818999974,-24.073410053999964],[-49.05193026899997,-24.073269723999942],[-49.052051492999965,-24.07316716699995],[-49.052165626999965,-24.073104246999947],[-49.052311471999985,-24.073077302999934],[-49.05247405399996,-24.073075038999946],[-49.05263426799996,-24.073112381999977],[-49.05280608399994,-24.07313027999993],[-49.053084738999985,-24.073047422999934],[-49.053235737999955,-24.072952647999955],[-49.05337314099995,-24.07282700199994],[-49.05340363399995,-24.072631015999946],[-49.05346736399997,-24.072304806999966],[-49.053532548999954,-24.072149169999932],[-49.05359303199998,-24.07202498199996],[-49.05360308799993,-24.07190602199995],[-49.05357327899998,-24.071802714999933],[-49.05344281299995,-24.071690452999974],[-49.05332523799996,-24.071629637999933],[-49.053154105999965,-24.071586107999963],[-49.05303475899996,-24.07145385299998],[-49.05303527299998,-24.071283035999954],[-49.05310542999996,-24.071143352999968],[-49.05325155999998,-24.071051765999982],[-49.05348067399996,-24.07097378499998],[-49.05373957699993,-24.070902773999933],[-49.05394977699996,-24.070807486999968],[-49.05410031799994,-24.070625577999976],[-49.05407654099997,-24.07049399799996],[-49.053911451999966,-24.070323782999935],[-49.05366984199998,-24.070063570999935],[-49.053510709999955,-24.069928733999973],[-49.053417631999935,-24.069776046999948],[-49.053232881999975,-24.06944279399994],[-49.052919359999976,-24.069093635999934],[-49.05274959899998,-24.068790276999948],[-49.05274554999994,-24.06860260899998],[-49.05273865799995,-24.068251574999977],[-49.05283204199998,-24.067719618999945],[-49.05286411999998,-24.067203675999963],[-49.052865020999946,-24.06702031499998],[-49.05286543099999,-24.066687069999944],[-49.052976644999944,-24.06646547699995],[-49.053132973999936,-24.06629718499994],[-49.05337022899994,-24.066298218999975],[-49.053730335999944,-24.066368349999948],[-49.05395138999995,-24.066387413999962],[-49.05431993499997,-24.066511009999942],[-49.055194582999945,-24.066863057999967],[-49.055728355999975,-24.06684113299997],[-49.05605242599995,-24.06677771699998],[-49.05630770499994,-24.066581154999938],[-49.05646483899994,-24.06624177599997],[-49.05658407899995,-24.065735064999956],[-49.05668785299997,-24.06528241899997],[-49.05691611399993,-24.064823047999937],[-49.057336110999984,-24.064448724999977],[-49.05771536699996,-24.06423965099998],[-49.058251619999965,-24.064241763999974],[-49.05878574199994,-24.064411510999946],[-49.05914931299998,-24.064682652999977],[-49.05955185799996,-24.065173775999938],[-49.059618296999986,-24.065829382999937],[-49.05945203599998,-24.066475355999955],[-49.05903035699998,-24.067150770999945],[-49.05880086099995,-24.067424588999927],[-49.058665142999985,-24.067706819999955],[-49.058568401999935,-24.067993066999975],[-49.05861261599995,-24.068295819999946],[-49.05893134899998,-24.068417328999942],[-49.05944484199995,-24.068371296999942],[-49.06002851899996,-24.068215822999946],[-49.06042505499994,-24.068067905999953],[-49.06088377799995,-24.06783861399998],[-49.06126658699998,-24.06770099299996],[-49.061709416999975,-24.06763265999996],[-49.062080899999955,-24.06767935099998],[-49.062403366999945,-24.06786003899998],[-49.06245838299998,-24.068040045999965],[-49.06257776099994,-24.068353952999928],[-49.06262166899995,-24.06869082999998],[-49.062710885999934,-24.068858990999956],[-49.06293491499997,-24.06893568399994],[-49.063257190999934,-24.068932993999965],[-49.06352712299997,-24.068755565999936],[-49.06385254199995,-24.068556628999943],[-49.06423076999994,-24.068462099999977],[-49.064527520999945,-24.068364823999957],[-49.06482538399996,-24.06829825899996],[-49.06511670499998,-24.068195856999978],[-49.06539667699997,-24.068155157999968],[-49.06550605599995,-24.068120154999974],[-49.06559850399998,-24.068020743999966],[-49.065574812999955,-24.067843300999982],[-49.065487023999935,-24.06754694999995],[-49.06521735499996,-24.067123882999965],[-49.064915490999965,-24.06673643299996],[-49.06464925599994,-24.06643204599993],[-49.06423954099995,-24.066181188999963],[-49.06379536999998,-24.065972510999927],[-49.06347160699994,-24.065812756999946],[-49.06320671499998,-24.065615736999973],[-49.06300093999994,-24.065443570999946],[-49.062792953999974,-24.06528112799998],[-49.06268597899998,-24.06509080199993],[-49.06269685399997,-24.064864317999934],[-49.06288100599994,-24.06456445799995],[-49.063100962999954,-24.064276698999947],[-49.06334804399995,-24.06402918899994],[-49.06369918299998,-24.06381911099993],[-49.06398304999993,-24.063688626999976],[-49.06421408299997,-24.063599457999942],[-49.064455205999934,-24.06359149399998],[-49.06478155899998,-24.06355860499997],[-49.06521976099998,-24.063411019999933],[-49.06589589299995,-24.063225632999945],[-49.06648126399995,-24.06304044899997],[-49.06675036699994,-24.06284503699993],[-49.06697550699994,-24.06265024299995],[-49.06718456799996,-24.062472037999953],[-49.06762109899995,-24.062330564999968],[-49.06798621599995,-24.062079300999983],[-49.06829564199995,-24.06169262399993],[-49.068230152999945,-24.06133172999995],[-49.068071981999935,-24.061033859999952],[-49.067688819999944,-24.06077016599994],[-49.06724238099997,-24.060569234999946],[-49.06696862399997,-24.060268548999943],[-49.066741253999965,-24.060054763999972],[-49.06652496399994,-24.059803649999935],[-49.06664278499994,-24.05942132599995],[-49.06687852699997,-24.059043561999943],[-49.06726282699998,-24.058522039999957],[-49.067642631999945,-24.057945926999935],[-49.06805504399995,-24.057326072999956],[-49.068364034999945,-24.056862464999938],[-49.06858398999998,-24.05657316099996],[-49.06872765199995,-24.056381848999933],[-49.06879875699997,-24.056236208999962],[-49.06877149699994,-24.056126164999966],[-49.06874426599995,-24.056007634999958],[-49.06860883099995,-24.05593179899995],[-49.068119758999956,-24.055821161999972],[-49.067724157999976,-24.05572596999997],[-49.066946247999965,-24.055613215999983],[-49.06678682199998,-24.055471887999943],[-49.066754989999936,-24.05512902399994],[-49.066788462999966,-24.05473895299997],[-49.06667315499993,-24.05452080599997],[-49.066253607999954,-24.05416058399993],[-49.066098153999974,-24.05405614199998],[-49.06603300699993,-24.05381732099994],[-49.066327816999944,-24.053584763999936],[-49.06671342699997,-24.053381612999942],[-49.06688630799994,-24.05332032499996],[-49.06714147599996,-24.053312081999934],[-49.06750472199997,-24.053295632999948],[-49.06761035599993,-24.05310925899994],[-49.06765556099998,-24.05270371499995],[-49.067836554999985,-24.05229744899998],[-49.068092114999956,-24.05204615399998],[-49.06844769999998,-24.051943560999973],[-49.068914089999964,-24.051919832999943],[-49.06925698499998,-24.05182421099994],[-49.06963495599996,-24.05174988799996],[-49.069977800999936,-24.051585192999937],[-49.07011022399996,-24.051480864999974],[-49.070217781999986,-24.05144827299995],[-49.07039789799995,-24.051415693999957],[-49.07061535499997,-24.051305575999947],[-49.07087072099995,-24.05110618899994],[-49.07103526499998,-24.050911706999955],[-49.07121253699995,-24.050766771999974],[-49.07141999099997,-24.050549625999963],[-49.07166912599996,-24.050299868999957],[-49.07184861099995,-24.050131756999974],[-49.072000119999984,-24.049973765999937],[-49.07211215999996,-24.04981211699993],[-49.072047140999985,-24.049465314999964],[-49.07177037599996,-24.04924161599996],[-49.07161277399996,-24.04902438399995],[-49.07158891299997,-24.048838089999947],[-49.071660092999934,-24.04857498499996],[-49.07182080499996,-24.048261543999956],[-49.07185536399993,-24.04796863399997],[-49.07189876799998,-24.04770887999996],[-49.07186411499998,-24.047474958999942],[-49.071877523999945,-24.04728155099997],[-49.07189522999994,-24.047063728999944],[-49.071907660999955,-24.046889719999967],[-49.07193284599998,-24.04661945199996],[-49.07268494999994,-24.046320117999983],[-49.07298804799996,-24.046034374999977],[-49.07312559799993,-24.045904699999937],[-49.07338563099995,-24.045267641999942],[-49.07343526699998,-24.044787097999972],[-49.07351772299995,-24.044257336999976],[-49.07375507799998,-24.043767412999955],[-49.07411968799994,-24.043041494999954],[-49.07451237799995,-24.042332942999963],[-49.074674096999956,-24.04203451899997],[-49.075209438999934,-24.04104663299995],[-49.075494067999955,-24.040574122999942],[-49.07572996699997,-24.04036344399998],[-49.07618239599998,-24.040115732999936],[-49.07670815899996,-24.039929506999954],[-49.07710765599995,-24.039837777999935],[-49.077457084999935,-24.039816320999932],[-49.077833967999936,-24.03986338699997],[-49.07822558699996,-24.039985309999963],[-49.07863647499994,-24.040260211999964],[-49.079078666999976,-24.04060246599994],[-49.082943340999975,-24.04373383099994],[-49.08323845999996,-24.043944388999932],[-49.08354245999993,-24.04405909299993],[-49.083816286999934,-24.044106462999935],[-49.08412739399995,-24.044171295999945],[-49.08462292899998,-24.044101283999964],[-49.08508567999996,-24.043952168999965],[-49.08548275299995,-24.043798846999948],[-49.086004034999974,-24.04357603799997],[-49.086439042999984,-24.043413292999958],[-49.08693563899993,-24.043398275999948],[-49.08845361999994,-24.04363942799995],[-49.08982822399997,-24.04395373699998],[-49.09096002599995,-24.04431632199993],[-49.09131144999998,-24.044435515999965],[-49.091592710999976,-24.044600423999952],[-49.091728632999946,-24.044804931999977],[-49.091893219999974,-24.04501562599995],[-49.09205721799998,-24.045213832999934],[-49.092352404999986,-24.04549215199995],[-49.092607544999964,-24.045674859999963],[-49.09292469099995,-24.045820769999978],[-49.09315132499995,-24.045877564999955],[-49.09350894499994,-24.045882107999944],[-49.093966798999986,-24.04583444499997],[-49.09435759899998,-24.045707148999952],[-49.09483803899997,-24.045432695999978],[-49.09512228199998,-24.045051616999956],[-49.095368002999976,-24.044679250999934],[-49.09576120699995,-24.044275311999968],[-49.09597461299995,-24.044122828999946],[-49.09657377899998,-24.043894551999983],[-49.09745091299993,-24.043850393999946],[-49.10357020499998,-24.04362513799998],[-49.10408975499996,-24.043658569999934],[-49.10466012899997,-24.04380004899997],[-49.104996193999966,-24.043961387999957],[-49.10599069099993,-24.044700734999935],[-49.106862124999964,-24.045524262999947],[-49.10724804499995,-24.045832882999946],[-49.10826148499996,-24.046670882999933],[-49.10904714099996,-24.04714484899995],[-49.109951975999934,-24.04732618299994],[-49.110698087999936,-24.04710392499993],[-49.110934042999986,-24.047368938999966],[-49.111294663999956,-24.047754303999966],[-49.111635511999964,-24.048287476999974],[-49.11224423799996,-24.049158259999956],[-49.11253846499994,-24.04978484199995],[-49.11266222299997,-24.050063845999944],[-49.11280513199995,-24.050419645999966],[-49.11309495499995,-24.050708734999944],[-49.113273498999945,-24.05099589599996],[-49.113690661999954,-24.05200863899995],[-49.114103056999966,-24.053743545999964],[-49.11382769599993,-24.05545505499998],[-49.113395766999986,-24.05647262599996],[-49.11306789899999,-24.057079879999947],[-49.11263657799998,-24.05786680799997],[-49.11238883999994,-24.058468451999943],[-49.112057913999934,-24.058848661999946],[-49.11169346899993,-24.05923594999996],[-49.111389721999956,-24.059902231999956],[-49.11125992899997,-24.060676022999928],[-49.111606705999975,-24.061758619999978],[-49.11183569899998,-24.062385923999955],[-49.11198830799998,-24.06294319099993],[-49.112801770999965,-24.06396413699997],[-49.11414737399997,-24.06445080499998],[-49.11574103999993,-24.065352255999983],[-49.11680483599997,-24.066184865999958],[-49.11760934199998,-24.067060279999964],[-49.11841441099995,-24.068281597999942],[-49.11862298999995,-24.06937735899993],[-49.11859030099998,-24.07000537099998],[-49.122300680999956,-24.07139877399993],[-49.12045411799994,-24.075125249999928],[-49.119756553999935,-24.07470634699996],[-49.119099984999934,-24.074172483999973],[-49.118011009999975,-24.073413066999933],[-49.11160161699996,-24.07441605599996],[-49.10593302399997,-24.075329634999946],[-49.103072458999975,-24.075790575999974],[-49.08515429199997,-24.078679502999933],[-49.08500388599998,-24.078372745999957],[-49.084399547999965,-24.07787845799993],[-49.083693008999944,-24.077401606999956],[-49.08327326299997,-24.076834747999953],[-49.08309730899998,-24.07632710499996],[-49.08286075799998,-24.075781261999964],[-49.08262114599995,-24.075441298999976],[-49.082238003999976,-24.075155695999968],[-49.08199839499997,-24.074815731999934],[-49.081872965999935,-24.07365352399995],[-49.076464864999934,-24.074486569999976],[-49.06792392299997,-24.07580177099993],[-49.068079583999975,-24.076189192999948],[-49.06800311099994,-24.076328455999942],[-49.06798897099998,-24.076324802999977],[-49.06786619999997,-24.076347315999953],[-49.06774991799995,-24.07641852599994],[-49.06769313399997,-24.076473608999947],[-49.06766995199996,-24.07651120299994],[-49.06749676499993,-24.07670231999998],[-49.06730819399996,-24.076902812999947],[-49.06706035499997,-24.077120883999953],[-49.06657050499996,-24.077155319999974],[-49.066323877999935,-24.077187593999952],[-49.06615894099997,-24.07724157699994],[-49.06605984599997,-24.07748202299996],[-49.06598064699995,-24.077877653999963],[-49.06557933299996,-24.078237428999955],[-49.064959029999955,-24.078438955999957],[-49.06442038399996,-24.078814775999945],[-49.06435756099995,-24.07954711399998],[-49.06408383799993,-24.079759344999957],[-49.06370590599994,-24.079759885999977],[-49.06325235299994,-24.07976028099995],[-49.06255348899998,-24.079508824999948],[-49.06185550899994,-24.079440749999947],[-49.061644538999985,-24.079691150999963],[-49.061696877999964,-24.07999048499994],[-49.06213885699998,-24.08026938699993],[-49.062240316999976,-24.08051977499997],[-49.06229797999998,-24.080798680999976],[-49.06222681099996,-24.081097531999944],[-49.061813847999986,-24.081700833999946],[-49.061374409999985,-24.08188035099994],[-49.06091044899995,-24.08194452999993],[-49.06059643999998,-24.081970792999982],[-49.06026998599998,-24.082183611999938],[-49.060323756999935,-24.082387619999963],[-49.060575995999955,-24.082760726999936],[-49.060747763999984,-24.08322057199996],[-49.060689045999936,-24.08338441999996],[-49.06051014099995,-24.08370582999993],[-49.060333569999955,-24.083858973999952],[-49.06002215099994,-24.08395460899993]]]},"properties":{"OBJECTID":511267,"NIS":3358,"nomUnidade":"Estação Experimental de Itapeva","nomTipoUnidade":"Unidade de Conservação","obsAtributo":"Area aproximada","nomAreaTipo":"Área Protegida","desEndereco":"Rodovia SP-258, km 312 + 500 metros","nomBairro":"Engenheiro Maia","nomMunicipio":"ITAPEVA","DDD":"15 ","numTelefone":"9982-1087      ","eMail":"diretoriageral@if.sp.gov.br","DatAtualiza":1646999990000,"siteUC":"https://guiadeareasprotegidas.sp.gov.br/ap/eex-itapeva/","codIBGE":"3522406","Area_ha":1912.56691735,"CorrecaoGeorref":0,"Estrutura":"Interna","Grupo":"Área Protegida","Categoria":"Estação Experimental","OrgaoGestor":"Fundação Para Conservação e a Produção Florestal do Estado de São Paulo","DataCriacao":195868800000,"ConselhoGestor":"Não","PlanoManejo":"Não","SituacaoFundiaria":null,"Ambiente":"Terrestre","Bioma":"Cerrado","VisitacaoPublica":"Nao","desUnidade":"A Estação Experimental de Itapeva foi criada em 1978, com finalidade de incentivo à implantação da pinocultura e desenvolvimento de pesquisas para melhoria da qualidade e aumento de produtividade dos gêneros de espécies exóticas e nativas no estado.\r\nLocaliza-se nos municípios de Itaberá e Itapeva, apresenta uma superfície de 1.980 ha, estando reflorestada com povoamento de espécie do gênero Pinus e pequena porção com espécie do gênero Eucalyptus.\r\nNa unidade existem vários projetos de pesquisa de exóticas (pínus e eucaliptos) e nativas (Araucaria angustifólia), com o objetivo de aumentar a qualidade e produtividade de produtos madeireiros e não madeireiros.\r\nA unidade contribui para o desenvolvimento local e regional por meio da disponibilização de material residual da pesquisa (madeira e resina), além de gerar empregos e riquezas pela exploração desse material, disponibilizado em leilão público.","AnoCriacao":1976,"Esfera":"Estadual","nomParque":"EEx Itapeva","valArea":1},"id":511267}]}