{"type":"FeatureCollection","features":[{"type":"Feature","geometry":{"type":"MultiPolygon","coordinates":[[[[-47.15821771599997,-22.175470437999934],[-47.15835250599997,-22.175045934999957],[-47.158450535999975,-22.174908518999928],[-47.15855994399993,-22.17479911099997],[-47.15888379099994,-22.174760599999956],[-47.15913061499998,-22.17478423199998],[-47.159527983999965,-22.17489188899998],[-47.15971966699993,-22.174971537999966],[-47.15993673199995,-22.175093198999946],[-47.16002250799994,-22.17520260699996],[-47.16012578899995,-22.175460809999947],[-47.16020456299998,-22.175588597999933],[-47.16025970399994,-22.17563236099994],[-47.16036473599996,-22.17565161699997],[-47.160424252999974,-22.175624483999968],[-47.160442633999935,-22.175592974999972],[-47.160506527999985,-22.175552711999956],[-47.16057829999994,-22.175530830999946],[-47.16090827399995,-22.17557721999998],[-47.16136866199997,-22.175599100999932],[-47.16150170199995,-22.175686627999937],[-47.161736271999985,-22.17589143899994],[-47.16181679699997,-22.175929950999944],[-47.161894694999944,-22.175955332999933],[-47.16223779799998,-22.175985091999962],[-47.16262291399994,-22.176166271999932],[-47.16341152499996,-22.176345700999946],[-47.163636467999936,-22.17636233099995],[-47.163866661999975,-22.176353577999976],[-47.164083726999934,-22.176413095999976],[-47.164262280999935,-22.176427099999955],[-47.16454586599997,-22.17650587399993],[-47.16519443599998,-22.176783331999957],[-47.16568720799995,-22.177093174999982],[-47.16581103699997,-22.17710565799996],[-47.16613863599997,-22.177067312999952],[-47.166504578999934,-22.17701146299993],[-47.16688719399997,-22.17687308799998],[-47.16710059099995,-22.17685308199998],[-47.16718895099996,-22.176866418999964],[-47.16727064199995,-22.17689059299994],[-47.16790166499993,-22.177211522999983],[-47.16834263099997,-22.177374904999965],[-47.168585202999964,-22.177414083999963],[-47.168869454999935,-22.177436590999946],[-47.16896323399993,-22.177479519999963],[-47.16903117099997,-22.177526617999945],[-47.16910785999994,-22.177614976999962],[-47.16919621999995,-22.177830875999973],[-47.16932042399998,-22.177995924999948],[-47.16946296699996,-22.17813013199998],[-47.16961384599995,-22.178210989999968],[-47.16971012499994,-22.178235163999943],[-47.170427005999954,-22.178238497999928],[-47.17078086299995,-22.178299765999952],[-47.17121474299995,-22.178455645999975],[-47.17151149899996,-22.178597355999955],[-47.17197747199998,-22.178780743999937],[-47.17225505499994,-22.17891661799996],[-47.17254680899998,-22.178981637999982],[-47.172680182999954,-22.178993307999974],[-47.17293692699997,-22.178969967999933],[-47.17364713999996,-22.178769073999945],[-47.17412728399995,-22.178769906999946],[-47.174243151999974,-22.178780743999937],[-47.17457491799996,-22.178909115999943],[-47.17490918499993,-22.178999142999942],[-47.17524261899996,-22.179130848999932],[-47.17542350599996,-22.17916002499993],[-47.17552853799998,-22.179160857999932],[-47.17603118899996,-22.17900164399998],[-47.17631043899996,-22.178858266999953],[-47.17795926799994,-22.178088869999954],[-47.178231015999984,-22.177939657999957],[-47.17835438599997,-22.177903813999933],[-47.17863780499994,-22.17790214699994],[-47.178747837999936,-22.177847963999966],[-47.17880368799996,-22.177792113999942],[-47.17884953499998,-22.17777044099995],[-47.179275495999946,-22.177788779999958],[-47.17931384099995,-22.177777942999967],[-47.17954807799998,-22.177611225999954],[-47.17965977799997,-22.177573714999937],[-47.17984983499997,-22.177584551999928],[-47.18012387599998,-22.177682913999945],[-47.18024245299995,-22.17776960699996],[-47.180533373999936,-22.17807553199998],[-47.18040041699993,-22.178102206999938],[-47.18026871099994,-22.178159723999954],[-47.17987630199997,-22.178393127999982],[-47.17930112899995,-22.178890776999935],[-47.17920693399998,-22.17899664199996],[-47.17911607299993,-22.17918169799998],[-47.179121074999955,-22.17939342799997],[-47.17922131299997,-22.179735405999963],[-47.179275495999946,-22.180225552999957],[-47.17936052199997,-22.180528976999938],[-47.179460551999966,-22.180742374999966],[-47.179591423999966,-22.181883966999976],[-47.17957808699998,-22.182117370999947],[-47.17951806899998,-22.182319931999928],[-47.17934051599997,-22.182568338999943],[-47.17924715399994,-22.182772566999972],[-47.17927134699994,-22.18342937899996],[-47.17925215599996,-22.18374702699998],[-47.17904959499998,-22.184884867999983],[-47.17890621899994,-22.185987698999952],[-47.178749504999985,-22.186631225999975],[-47.17859695899995,-22.187066355999946],[-47.17859362499996,-22.187196395999933],[-47.17867114799998,-22.187341438999965],[-47.17869282099997,-22.187450638999962],[-47.17859779299994,-22.18763152599996],[-47.17856861699994,-22.18792244699995],[-47.17853277299997,-22.187979130999963],[-47.17835688699995,-22.18811833899997],[-47.17831437399997,-22.188174188999938],[-47.17829520199996,-22.188295058999927],[-47.178221846999975,-22.188377582999976],[-47.17818516899996,-22.188447603999975],[-47.17815515999996,-22.188647664999962],[-47.177925923999965,-22.189277019999963],[-47.17785423599997,-22.189400390999936],[-47.17776087499993,-22.189636294999957],[-47.17771252699998,-22.18971048399993],[-47.17754956099998,-22.18986928099997],[-47.17730615499994,-22.19043445099993],[-47.17724030199997,-22.19051614199998],[-47.17711276399996,-22.190624507999928],[-47.17694271299996,-22.19072953999995],[-47.17681183999997,-22.190796225999975],[-47.17648590899995,-22.190912927999932],[-47.17610662799996,-22.19100462199998],[-47.175678165999955,-22.191016291999972],[-47.17555479599997,-22.19103296399993],[-47.17495461599998,-22.191201347999936],[-47.17484458299998,-22.191244693999977],[-47.174636186999976,-22.19134972599994],[-47.17444279499995,-22.191478097999948],[-47.17389096299996,-22.19178485599997],[-47.173427490999984,-22.191944903999968],[-47.172798968999984,-22.19222165399998],[-47.17232049199998,-22.192527578999943],[-47.171814576999964,-22.192921758999944],[-47.17089339599994,-22.194052203999945],[-47.17073501599998,-22.194333954999934],[-47.17054495799994,-22.19475908299995],[-47.170431590999954,-22.19509084899994],[-47.17033989699996,-22.195300911999936],[-47.17024820299997,-22.195464293999976],[-47.17008648799998,-22.195694362999973],[-47.16994144399996,-22.195972779999977],[-47.16974888599998,-22.196220770999957],[-47.169642186999965,-22.19632580299998],[-47.169416285999944,-22.196510858999943],[-47.169266240999946,-22.196605052999928],[-47.16884611499995,-22.196958492999954],[-47.168280944999935,-22.197491985999932],[-47.16810089099994,-22.19763369599997],[-47.16760341099996,-22.197933896999928],[-47.16625033599996,-22.19863732999994],[-47.165900230999966,-22.198910745999967],[-47.165240032999975,-22.19936088099996],[-47.16504830799994,-22.199514259999944],[-47.16425348599995,-22.20026573599995],[-47.16413511799993,-22.20039744199994],[-47.163913383999954,-22.200740877999976],[-47.16350492799995,-22.201519445999963],[-47.163364885999954,-22.201752848999945],[-47.16313481699996,-22.20220631799998],[-47.16277470899996,-22.20302656499996],[-47.16265800699995,-22.20337333499998],[-47.16260799199995,-22.203583397999978],[-47.16254797399995,-22.203943506999963],[-47.16249087399996,-22.204501173999972],[-47.16244419299994,-22.204704567999954],[-47.16238417499994,-22.204881287999967],[-47.16204740699993,-22.20555148899996],[-47.16170063699997,-22.206351729999938],[-47.16166062499997,-22.206488436999962],[-47.16161060999997,-22.206848544999957],[-47.16166395899995,-22.20744872599994],[-47.16168396499995,-22.20793553799996],[-47.16167396199995,-22.208885823999935],[-47.16163728399994,-22.209105889999933],[-47.16142055299997,-22.20972607599998],[-47.16141054999997,-22.209959478999963],[-47.161433889999955,-22.210329589999958],[-47.161403880999956,-22.211136498999963],[-47.16130888899994,-22.212086210999928],[-47.161275252999985,-22.212637841999936],[-47.16203343999996,-22.212701181999932],[-47.162203354999974,-22.21280917799993],[-47.16222024799998,-22.213911141999972],[-47.16227359299995,-22.21464528499996],[-47.16257200599995,-22.21489848899995],[-47.163000582999985,-22.21480431799995],[-47.163311119999946,-22.21492763699996],[-47.16109378799996,-22.22130955299997],[-47.16100376099996,-22.22133956199997],[-47.16090039599993,-22.221609643999955],[-47.16089039299993,-22.221739682999953],[-47.16097375199996,-22.222309853999946],[-47.16097041699993,-22.222633283999983],[-47.16094374299996,-22.223083418999977],[-47.16090373099996,-22.223243466999975],[-47.16088038999993,-22.223443526999972],[-47.16092290299997,-22.223528552999937],[-47.16093123899998,-22.22358356899997],[-47.160997925999936,-22.22453635499994],[-47.161101289999976,-22.225360769999952],[-47.16118464799996,-22.225740049999956],[-47.16123077699996,-22.225858543999948],[-47.16127384199996,-22.226237699999956],[-47.16135469899996,-22.22639441299998],[-47.16156142799997,-22.226615312999968],[-47.16161060999997,-22.22670700699996],[-47.161658956999986,-22.226906233999955],[-47.16176398899995,-22.227090455999928],[-47.16217911399997,-22.227443060999974],[-47.16225246899995,-22.22756226399997],[-47.16231248699995,-22.22770230599997],[-47.16247670299998,-22.22819078599997],[-47.16256756399997,-22.22837334099995],[-47.16275845399997,-22.228710107999973],[-47.16310022299996,-22.229190668999934],[-47.16337280499994,-22.229477421999945],[-47.163656223999965,-22.229699988999982],[-47.16386962099995,-22.22981002199998],[-47.16402925199998,-22.229933391999964],[-47.16425348599995,-22.230160126999976],[-47.164515231999985,-22.23046855299998],[-47.16471862599997,-22.230898681999975],[-47.16474404999997,-22.231014966999965],[-47.164741549999974,-22.231249203999937],[-47.16475738799994,-22.231410085999983],[-47.16494661099995,-22.232443728999954],[-47.16508165199997,-22.23276549299993],[-47.165418418999934,-22.233354835999933],[-47.16575685399994,-22.233745786999975],[-47.16591190099996,-22.23386915699996],[-47.166051108999966,-22.234013366999932],[-47.16629951699997,-22.234356803999958],[-47.16653208699995,-22.23463271999998],[-47.16672797899997,-22.23482194299993],[-47.166880524999954,-22.234942812999975],[-47.16710892699996,-22.23507868699994],[-47.167612410999936,-22.23527318999993],[-47.16839820299998,-22.235488809999936],[-47.16883611199995,-22.235647746999973],[-47.16926290699996,-22.235850029999938],[-47.169683032999956,-22.236025637999944],[-47.17025764999994,-22.236306833999947],[-47.17045548699997,-22.236377965999964],[-47.17081670699997,-22.236542459999953],[-47.17099898399994,-22.236641377999945],[-47.17136020299995,-22.236903678999965],[-47.17152247399997,-22.237067061999937],[-47.17163250699997,-22.237207103999935],[-47.171719199999984,-22.237347145999934],[-47.171796444999984,-22.237546927999972],[-47.17194355199996,-22.23825607699996],[-47.17190647799998,-22.238463869999975],[-47.17190758999993,-22.23860502399998],[-47.171959827999956,-22.238902890999952],[-47.172015399999964,-22.239039597999977],[-47.172025402999964,-22.239682013999982],[-47.17210876099995,-22.240134371999943],[-47.17211209599998,-22.24055672099996],[-47.17209903599996,-22.240823466999927],[-47.17206680399994,-22.24095128299996],[-47.17190675599994,-22.241256374999978],[-47.17175226499995,-22.241822655999954],[-47.171635563999985,-22.242179429999965],[-47.171532198999955,-22.242616227999974],[-47.17143550399993,-22.24332310699998],[-47.171367704999966,-22.243668765999928],[-47.171363259999964,-22.243974412999933],[-47.17137993099993,-22.244175584999937],[-47.17141883199997,-22.24432785299996],[-47.17150330199996,-22.244495680999933],[-47.17168502299995,-22.244941925999967],[-47.17181228299995,-22.24533426599993],[-47.171878413999934,-22.245473196999967],[-47.17205680099994,-22.245734941999956],[-47.17223685499994,-22.24614700999996],[-47.17236467099997,-22.24638041299994],[-47.17245358699995,-22.24650822999996],[-47.172657167999944,-22.24678501799997],[-47.172959644999935,-22.247112578999975],[-47.17326938799994,-22.24736404199996],[-47.17378565399997,-22.24766190899993],[-47.17404573199997,-22.247778610999944],[-47.17436693899998,-22.247895312999958],[-47.174748997999984,-22.247999232999973],[-47.175352790999966,-22.248204293999947],[-47.176095791999956,-22.248378790999936],[-47.17635649799996,-22.248472058999937],[-47.17538610399998,-22.248518075999982],[-47.17502709599995,-22.24860599599998],[-47.17429686999998,-22.24883312299994],[-47.173549546999936,-22.249313020999978],[-47.17319053999995,-22.24956457099995],[-47.173113608999984,-22.249601204999976],[-47.17280344599993,-22.249840542999948],[-47.17265813399996,-22.249974865999945],[-47.17244932299997,-22.250203213999953],[-47.172109991999946,-22.25062592599994],[-47.17205052999998,-22.250675847999958],[-47.17178244099995,-22.250834144999942],[-47.17117692199997,-22.251066541999933],[-47.170963204999964,-22.25111355699994],[-47.17082463299994,-22.251126375999945],[-47.17053461499995,-22.25111660799996],[-47.17027697599997,-22.251147740999954],[-47.17004250599996,-22.25114713599993],[-47.16985323299997,-22.25110622799997],[-47.169347691999974,-22.250888869999983],[-47.16919383099997,-22.250847351999937],[-47.16847642699997,-22.250877268999943],[-47.16771322999995,-22.250834529999963],[-47.16735605399998,-22.250796675999936],[-47.16647562999998,-22.250789348999945],[-47.16606411499998,-22.250749051999946],[-47.165580552999984,-22.250758820999977],[-47.16521055499993,-22.250743556999964],[-47.164819798999986,-22.250836361999973],[-47.16444125299995,-22.250880321999944],[-47.16405049699995,-22.250893753999947],[-47.16331294299994,-22.251029297999935],[-47.16259553799995,-22.251268636999953],[-47.162400770999966,-22.25130771199997],[-47.161939494999956,-22.25127443699995],[-47.16185523799993,-22.25128237399997],[-47.16176853899998,-22.251303743999927],[-47.16146814399997,-22.251447834999965],[-47.16127764999993,-22.251513774999978],[-47.16098458299996,-22.251547966999965],[-47.16056940399994,-22.25156750399998],[-47.15833232199998,-22.251550408999947],[-47.15805314499994,-22.251465235999945],[-47.15852281599996,-22.250591833999977],[-47.15731146999997,-22.25015345399993],[-47.15640296099997,-22.249909230999947],[-47.149319651999974,-22.247880531999954],[-47.14819506099997,-22.249540642999932],[-47.147873748999984,-22.25006086199994],[-47.14777302199997,-22.250282495999954],[-47.14762947899993,-22.250284246999968],[-47.14735464599994,-22.250242233999927],[-47.14687325199998,-22.250208973999975],[-47.14643211899994,-22.250096939999935],[-47.145922352999946,-22.250023787999964],[-47.14510835899995,-22.24979271899997],[-47.14471624099997,-22.24964042299996],[-47.14449042299998,-22.24948812799994],[-47.14390399699994,-22.249174783999933],[-47.14341910099995,-22.248864939999976],[-47.14287818899993,-22.24839229899993],[-47.14272239199994,-22.24828026499995],[-47.14258935199996,-22.24820674299997],[-47.142510578999975,-22.248141972999974],[-47.14189964499997,-22.247809373999928],[-47.141495273999965,-22.247557297999947],[-47.14107864899995,-22.247245703999965],[-47.140642767999964,-22.246990127999936],[-47.139828773999966,-22.24643258499998],[-47.139576697999985,-22.24629166799997],[-47.138870907999944,-22.246027556999934],[-47.13863808799994,-22.246017053999935],[-47.138489292999964,-22.24594528299997],[-47.13830898899994,-22.24588226399993],[-47.13788186099998,-22.24581574399997],[-47.13641842199996,-22.245715963999942],[-47.135156834999975,-22.24576793799997],[-47.13420988399997,-22.24575459999994],[-47.13325259599998,-22.245540035999966],[-47.132722186999956,-22.24534922899994],[-47.13222678799997,-22.24511553399998],[-47.13122198699995,-22.24441182199996],[-47.130832494999936,-22.24410723099993],[-47.13017167099997,-22.24354531199998],[-47.13002987899995,-22.243442030999972],[-47.129762047999975,-22.24328535899997],[-47.12957474199993,-22.243196957999942],[-47.12878875599995,-22.242950133999955],[-47.128972560999955,-22.242768078999973],[-47.12913185899998,-22.24253350799995],[-47.12946970999997,-22.241905069999973],[-47.12957474199993,-22.241742270999964],[-47.129788305999966,-22.24146568799995],[-47.13034147199994,-22.24082849699994],[-47.13052352699998,-22.240527405999956],[-47.13091564499996,-22.239774679999982],[-47.13102767799995,-22.239452583999935],[-47.13106093799996,-22.239160245999983],[-47.13101892599997,-22.238528305999978],[-47.131043432999945,-22.23826922799998],[-47.131144087999985,-22.23796551199996],[-47.13121804799994,-22.23779439799995],[-47.131744080999965,-22.236134899999968],[-47.132032041999935,-22.235152854999967],[-47.132458294999935,-22.23385746599996],[-47.13256332699996,-22.233588760999965],[-47.13267623599995,-22.233347187999982],[-47.132766387999936,-22.233194891999972],[-47.132948441999986,-22.23299008099997],[-47.13335281399998,-22.232594461999952],[-47.133778190999976,-22.232044796999958],[-47.13321627299996,-22.231836484999974],[-47.133470098999965,-22.231605414999933],[-47.13409328599994,-22.230843936999975],[-47.134514286999945,-22.230259260999958],[-47.13495279399996,-22.229702593999946],[-47.13518605199994,-22.229232139999965],[-47.13558342099998,-22.229030829999942],[-47.13590989399995,-22.22884002199993],[-47.13612433299994,-22.228684225999928],[-47.136622357999954,-22.228393637999943],[-47.13689543999993,-22.22819932999994],[-47.13713176099998,-22.228006771999958],[-47.13761140499997,-22.22772231199997],[-47.13789148899997,-22.227436100999967],[-47.13809980099995,-22.22718227499996],[-47.138264350999975,-22.226916194999944],[-47.13842189799993,-22.226583594999965],[-47.13855493799997,-22.226219485999934],[-47.13864421499994,-22.225879883999937],[-47.138679224999976,-22.22563305999995],[-47.13867572399994,-22.224642261999975],[-47.13865821899998,-22.22440331599995],[-47.138656467999965,-22.223998068999947],[-47.13874311899997,-22.223344247999933],[-47.13880438799998,-22.223100924999983],[-47.13889103899993,-22.222867228999974],[-47.138978564999945,-22.222703554999953],[-47.13924026899997,-22.222352574999945],[-47.13939518999996,-22.222181022999962],[-47.139600876999964,-22.222033103999934],[-47.13972428899996,-22.221911441999964],[-47.139908968999976,-22.22160291199998],[-47.14002275399997,-22.221449740999958],[-47.14091814699998,-22.22055434799995],[-47.140982916999974,-22.220456317999947],[-47.14127262899996,-22.220160478999958],[-47.14135577899998,-22.220047569999963],[-47.14166737199997,-22.219462894999936],[-47.14175752399996,-22.219321977999982],[-47.141991219999966,-22.21906815099993],[-47.14225817499994,-22.21871191899993],[-47.142345700999954,-22.218626143999927],[-47.14267830099993,-22.21837931999994],[-47.14286998299997,-22.21816838099994],[-47.14323846899998,-22.21763096999996],[-47.14358857399998,-22.21690100099994],[-47.14377412999994,-22.216580654999973],[-47.14404371099994,-22.216185035999956],[-47.14441919899997,-22.215744778999976],[-47.14521218699997,-22.21464107199995],[-47.145658570999956,-22.21411941599996],[-47.14629050999997,-22.213323801999934],[-47.14663361299995,-22.212866038999948],[-47.147073869999986,-22.212227972999983],[-47.14715351899997,-22.212082678999934],[-47.14731631799998,-22.211605660999965],[-47.147410846999946,-22.21138509499997],[-47.147666422999976,-22.21086693899997],[-47.14786773399993,-22.21026650899995],[-47.147996396999986,-22.209845507999944],[-47.14810230399996,-22.209374615999934],[-47.14814606699997,-22.209134793999965],[-47.14815919599994,-22.208944861999953],[-47.14814519199996,-22.20883370399997],[-47.14811193199995,-22.20869453699993],[-47.148081297999965,-22.208679657999937],[-47.14798064299998,-22.20819563699996],[-47.147906244999945,-22.207966317999933],[-47.147711061999985,-22.207012281999937],[-47.14720253399997,-22.205500702999927],[-47.14704848799994,-22.205238123999948],[-47.146874310999976,-22.20505869599998],[-47.14673426899998,-22.20484950799994],[-47.14659203799994,-22.204548854999928],[-47.14649575899995,-22.20429502899998],[-47.14624193299994,-22.203818885999965],[-47.14576097599996,-22.202976882999963],[-47.14527432999995,-22.202246913999943],[-47.14511853299996,-22.201977332999945],[-47.14494873299998,-22.20158171399993],[-47.14462138399995,-22.20089725899993],[-47.14453998499994,-22.200681068999927],[-47.14410497899996,-22.19978304899996],[-47.14354918699996,-22.19882244799993],[-47.14340739499994,-22.198521357999937],[-47.14315531899996,-22.197840403999976],[-47.14311855799997,-22.19768285599997],[-47.14310455399993,-22.19743428199996],[-47.14312380999996,-22.197109558999955],[-47.14325684999994,-22.196532760999958],[-47.143331684999964,-22.196320509999964],[-47.14349623399994,-22.19566931399993],[-47.143746558999965,-22.195250938999948],[-47.14391460999997,-22.19501111699998],[-47.14407828399993,-22.19478879999997],[-47.14462007099996,-22.194123599999955],[-47.144798624999964,-22.193924039999956],[-47.145006061999936,-22.193731481999976],[-47.14544894499994,-22.19339625699996],[-47.14557410799995,-22.19326584299995],[-47.145743908999975,-22.19305402899994],[-47.14615615699995,-22.19246235099996],[-47.14657978499997,-22.19193631899998],[-47.147173212999974,-22.191311380999934],[-47.14778764699997,-22.19079497599995],[-47.148092238999936,-22.19049913699996],[-47.14906553099996,-22.18972890599997],[-47.14947865499994,-22.189426064999964],[-47.149930290999976,-22.18904620099994],[-47.150462449999964,-22.188711849999947],[-47.15091933699995,-22.188456273999975],[-47.151577534999944,-22.18804314999994],[-47.15200641399997,-22.187752562999947],[-47.153133751999974,-22.187099615999955],[-47.153492609999944,-22.186858043999962],[-47.15369742099995,-22.186684741999954],[-47.15399501099995,-22.186378399999967],[-47.15477661999995,-22.185347339999964],[-47.15487289899994,-22.18523880799995],[-47.15523525799995,-22.184702708999964],[-47.15580767999995,-22.18372766699997],[-47.15621905399996,-22.18276312699993],[-47.15641161099995,-22.182262476999938],[-47.15656390699996,-22.18195263399997],[-47.15713632899997,-22.18045593399995],[-47.15726936899995,-22.18020385899996],[-47.15743216799996,-22.17978898399997],[-47.15749693699996,-22.179675199999963],[-47.15792844199996,-22.17828090599994],[-47.15804791499994,-22.17741439599996],[-47.15814506899994,-22.176856853999936],[-47.15813981799994,-22.176579395999966],[-47.158064544999945,-22.17605511299996],[-47.15811530999997,-22.17578465699995],[-47.15821771599997,-22.175470437999934]]],[[[-47.146494072999985,-22.257391304999942],[-47.146540475999984,-22.25729361599997],[-47.14662000499993,-22.257193665999978],[-47.146862950999946,-22.256985805999932],[-47.15292560199998,-22.25660059699993],[-47.155627453999955,-22.256457291999936],[-47.164552551999975,-22.25605736199998],[-47.175050158999966,-22.255684531999975],[-47.17680691099997,-22.255660619999958],[-47.18794097299997,-22.25912518599995],[-47.188651979999975,-22.259174497999936],[-47.18836063699996,-22.25942149599996],[-47.18729158199994,-22.260576114999935],[-47.18200113599994,-22.267049103999966],[-47.180870606999974,-22.267897683999934],[-47.177415906999954,-22.270168920999936],[-47.17639428699994,-22.270876390999945],[-47.17536484999994,-22.27155931599998],[-47.174815259999946,-22.271428190999927],[-47.17400091199994,-22.271593365999934],[-47.17335968599997,-22.27146972099996],[-47.172120330999974,-22.270946367999954],[-47.17131237499996,-22.270758829999977],[-47.17028428499998,-22.270882768999968],[-47.16970955599993,-22.271232044999977],[-47.168376645999956,-22.272318714999983],[-47.166451234999954,-22.27414055099996],[-47.16525471899996,-22.274861743999963],[-47.16217053799994,-22.276787140999943],[-47.16124809699994,-22.277625867999973],[-47.160691450999934,-22.278367376999938],[-47.15959087899995,-22.27841927199995],[-47.158968397999956,-22.27797576399996],[-47.15722391299994,-22.27694111099993],[-47.15520194599998,-22.276339872999927],[-47.15404423999996,-22.27612199899994],[-47.14411106799997,-22.286652722999975],[-47.143981629999985,-22.286637000999974],[-47.14334909299998,-22.28574680899993],[-47.143241633999935,-22.28554898799996],[-47.143109753999966,-22.285080079999943],[-47.14307556299997,-22.284879816999933],[-47.14304869799997,-22.284279028999947],[-47.14294368199995,-22.28334121299997],[-47.14294856699996,-22.282974877999948],[-47.143007179999984,-22.282227555999953],[-47.14307556299997,-22.28192960399997],[-47.143161040999985,-22.281670727999938],[-47.14321232799995,-22.28139719799998],[-47.143156155999975,-22.280972249999934],[-47.14268724799996,-22.28020050599997],[-47.14239295999994,-22.279666878999933],[-47.14188253399993,-22.278903681999964],[-47.14176896999993,-22.27863625799995],[-47.14170791399994,-22.27835906499996],[-47.141474681999966,-22.27772896999994],[-47.141451479999944,-22.27747986199995],[-47.14149055599995,-22.277207553999972],[-47.141546726999934,-22.27705857799998],[-47.141746989999945,-22.27671178099996],[-47.14197167499998,-22.27626485299993],[-47.14201563499995,-22.27579350299993],[-47.14197411699996,-22.275178060999963],[-47.14206203799995,-22.27468228899994],[-47.14212309299995,-22.274464929999965],[-47.142142630999956,-22.274225591999937],[-47.14216216899996,-22.273842161999937],[-47.14214995799995,-22.273583285999962],[-47.14211437299997,-22.27334996299993],[-47.14205471099996,-22.273204739999983],[-47.14203028899993,-22.273048436999943],[-47.14206447999993,-22.272770022999964],[-47.142044941999984,-22.272677218999945],[-47.141810487999976,-22.272196098999927],[-47.142145073999984,-22.271460987999944],[-47.14217926499998,-22.271370625999964],[-47.14217437999997,-22.271270493999964],[-47.141941146999955,-22.270936519999964],[-47.141907566999976,-22.27085714699996],[-47.141900850999946,-22.27077227999996],[-47.14193565199997,-22.270595828999944],[-47.14205837399993,-22.27033206799996],[-47.14239784399996,-22.269733721999955],[-47.14246134199993,-22.269509036999978],[-47.14247782699994,-22.26936616599994],[-47.14247111099996,-22.26921902199996],[-47.142425929999945,-22.269116447999977],[-47.14226474299994,-22.268896647999952],[-47.14220551899996,-22.26878186299996],[-47.14220429799997,-22.26868478399996],[-47.14235327399996,-22.268367904999934],[-47.142386243999965,-22.268220149999934],[-47.14240944499994,-22.267885564999972],[-47.14235205199998,-22.267463058999965],[-47.142281227999945,-22.26733606299996],[-47.14210050299994,-22.267157779999934],[-47.142041278999955,-22.267077186999927],[-47.14198022299996,-22.26694469599994],[-47.14193443099998,-22.26675359099994],[-47.141892912999936,-22.26628101999995],[-47.14183185799993,-22.266022143999976],[-47.14168288199994,-22.265724191999936],[-47.14165113299998,-22.265621617999955],[-47.14157298099997,-22.265298022999957],[-47.14154611699996,-22.265096538999956],[-47.14154611699996,-22.264855978999947],[-47.14171585199995,-22.26442736799993],[-47.14176347499995,-22.26423931599993],[-47.14174149499996,-22.263843674999976],[-47.14179888799998,-22.263207473999955],[-47.14181598299996,-22.262758103999943],[-47.141801329999964,-22.26101801599998],[-47.14182941499996,-22.260397689999934],[-47.14181842499994,-22.259872609999945],[-47.14183613199998,-22.259690663999947],[-47.141903292999984,-22.25940248099994],[-47.142004644999986,-22.259130782999932],[-47.142225666999934,-22.258228989999964],[-47.142336788999955,-22.25805192799993],[-47.14241921399997,-22.25796889299994],[-47.14255231499993,-22.25787975099996],[-47.142671983999946,-22.257833348999952],[-47.14280874899998,-22.257811368999967],[-47.14342907599996,-22.257782061999933],[-47.14357316699994,-22.257757639999966],[-47.143731911999964,-22.257711236999967],[-47.14423501099998,-22.257510974999946],[-47.144457253999974,-22.25748899499996],[-47.144699034999974,-22.25748899499996],[-47.14504583099995,-22.25753295499993],[-47.146494072999985,-22.257391304999942]]]]},"properties":{"OBJECTID":511272,"NIS":3363,"nomUnidade":"Estação Experimental de Mogi-Guaçu","nomTipoUnidade":"Unidade de Conservação","obsAtributo":null,"nomAreaTipo":"Área Protegida","desEndereco":"Rua Joaquim Cipriano de Carvalho, s/n","nomBairro":"Martinho Prado Júnior","nomMunicipio":"NÃO DEFINIDO","DDD":"19 ","numTelefone":"3841-1056      ","eMail":"mogiguacu@if.sp.gov.br","DatAtualiza":1651750356000,"siteUC":"https://guiadeareasprotegidas.sp.gov.br/ap/eex-mogi-guacu/","codIBGE":"0000000","Area_ha":3046.09217431,"CorrecaoGeorref":1,"Estrutura":"Interna","Grupo":"Área Protegida","Categoria":"Estação Experimental","OrgaoGestor":"Fundação Para Conservação e a Produção Florestal do Estado de São Paulo","DataCriacao":-883094400000,"ConselhoGestor":"Não","PlanoManejo":"Não","SituacaoFundiaria":null,"Ambiente":"Terrestre","Bioma":"Cerrado","VisitacaoPublica":"Sim","desUnidade":"A Estação Experimental de Mogi Guaçu tem seu objetivo voltado ao desenvolvimento sustentável, movido pela integração entre produção, progresso científico, tecnológico e a conservação da biodiversidade.\r\nCriada em 1942, a Estação Experimental de Mogi Guaçu integra a Fazenda Campininha juntamente com a Estação Ecológica e a Reserva Biológica de Mogi Guaçu.\r\nSão 3.050 hectares de Pinus, Eucaliptus e matas ciliares acompanhando os ribeirões tributários do rio Mogi-Guaçu. A Estação Experimental conecta espacialmente duas outras unidades de conservação  Estação Ecológica e Reserva Biológica de Mogi Guaçu , formando um mosaico. Por causa dessa qualidade, tem sido proposta a conversão da unidade em Floresta Estadual, que garantiria a formação de um corredor ecológico.\r\nNa Estação Experimental ocorrem espécies da fauna  ema, perdiz, gavião-belo, juriti-vermelha, e da flora  vinhático, mangabeira, ameaçadas de extinção.","AnoCriacao":1942,"Esfera":"Estadual","nomParque":"EEx Mogi-Guaçu","valArea":1},"id":511272}]}