{
"type": "FeatureCollection",
"name": "C:\\Users\\Muskan\\Downloads\\Wildfire Regions\\GeoJSON\\Parsa_National_Park_area.geojson",
"crs": { "type": "name", "properties": { "name": "urn:ogc:def:crs:OGC:1.3:CRS84" } },
"features": [
{ "type": "Feature", "properties": { "KML_STYLE": "m_ylw-pushpin", "tessellate": 1 }, "geometry": { "type": "Polygon", "coordinates": [ [ [ 84.998727879461555, 27.358441817729091 ], [ 84.918641324315971, 27.36990643327221 ], [ 84.811517346788548, 27.43055942522718 ], [ 84.732069331285558, 27.445818049347821 ], [ 84.646690961904469, 27.432726318013859 ], [ 84.620102211497354, 27.357680028914409 ], [ 84.704802032668397, 27.3317120798696 ], [ 84.683174790325637, 27.288716438590459 ], [ 84.703903386795702, 27.276452768500079 ], [ 84.695663585977471, 27.243773346494141 ], [ 84.747562478149362, 27.22309673032035 ], [ 84.983812812186486, 27.198891466936889 ], [ 84.998727879461555, 27.358441817729091 ] ] ] } }
]
}
