{
"type": "FeatureCollection",
"name": "C:\\Users\\Muskan\\Downloads\\Wildfire Regions\\GeoJSON\\Shuklaphanta_National_Park_area.geojson",
"crs": { "type": "name", "properties": { "name": "urn:ogc:def:crs:OGC:1.3:CRS84" } },
"features": [
{ "type": "Feature", "properties": { "KML_STYLE": "m_ylw-pushpin", "tessellate": 1 }, "geometry": { "type": "Polygon", "coordinates": [ [ [ 80.350140524337164, 29.01324850144378 ], [ 80.338262153332792, 29.001562116325751 ], [ 80.325125293025224, 28.97904642937014 ], [ 80.313205914090005, 28.955042646501941 ], [ 80.311972392000214, 28.94424621468815 ], [ 80.275402202936178, 28.925212261810099 ], [ 80.251561824637335, 28.9065210138554 ], [ 80.230209401213273, 28.89715762397925 ], [ 80.214991810512018, 28.909022319172632 ], [ 80.204702361479391, 28.922686798358399 ], [ 80.194838151818374, 28.932746838689539 ], [ 80.187431919381865, 28.94317063638821 ], [ 80.169333805094951, 28.952867599288791 ], [ 80.152859135212623, 28.95933947327379 ], [ 80.145865100925647, 28.95645895493756 ], [ 80.147571482382176, 28.92479663545668 ], [ 80.129452930789142, 28.92550678848707 ], [ 80.121631507722824, 28.919746647255341 ], [ 80.119573950951079, 28.911112677375879 ], [ 80.131124887227315, 28.884498650144469 ], [ 80.127861274422656, 28.86722207982622 ], [ 80.112242915444412, 28.841287728925639 ], [ 80.113497281282847, 28.828691495694009 ], [ 80.154650402212653, 28.78231008571149 ], [ 80.208887977604306, 28.762211007658131 ], [ 80.225301798436206, 28.791739837094671 ], [ 80.262682465830622, 28.799330230434869 ], [ 80.314401162209606, 28.77631182103524 ], [ 80.314803993990878, 28.746060974142289 ], [ 80.341475335113699, 28.738868065527029 ], [ 80.345570388040841, 28.71185223714755 ], [ 80.369779170686101, 28.70751276748593 ], [ 80.386604963096559, 28.724443084380571 ], [ 80.366520063778054, 28.760086539893571 ], [ 80.355043859068999, 28.796801531677211 ], [ 80.351356144347733, 28.815514280737091 ], [ 80.32673604911659, 28.856528189740342 ], [ 80.320995925153056, 28.88852996324146 ], [ 80.320179399220578, 28.90794457776396 ], [ 80.339075984763539, 28.91333653723494 ], [ 80.346893300630924, 28.945683124698299 ], [ 80.371117966282569, 28.95426168496801 ], [ 80.390402600569971, 28.962836274110661 ], [ 80.396427922886218, 28.991296040887679 ], [ 80.350140524337164, 29.01324850144378 ] ] ] } }
]
}
